raw_text,station_id,observation_time,latitude,longitude,temp_c,dewpoint_c,wind_dir_degrees,wind_speed_kt,wind_gust_kt,visibility_statute_mi,altim_in_hg,sea_level_pressure_mb,corrected,auto,auto_station,maintenance_indicator_on,no_signal,lightning_sensor_off,freezing_rain_sensor_off,present_weather_sensor_off,wx_string,sky_cover,cloud_base_ft_agl,sky_cover,cloud_base_ft_agl,sky_cover,cloud_base_ft_agl,sky_cover,cloud_base_ft_agl,flight_category,three_hr_pressure_tendency_mb,maxT_c,minT_c,maxT24hr_c,minT24hr_c,precip_in,pcp3hr_in,pcp6hr_in,pcp24hr_in,snow_in,vert_vis_ft,metar_type,elevation_m
CYNM 291543Z AUTO 31019G26KT 9SM -SN SCT022 BKN030 OVC036 M02/M05 A2997 RMK ICG PAST HR SLP165,CYNM,2017-04-29T15:43:00Z,49.77,-77.82,-2.0,-5.0,310,19,26,9.0,29.970472,1016.5,,TRUE,,,,,,,-SN,SCT,2200,BKN,3000,OVC,3600,,,MVFR,,,,,,,,,,,,SPECI,281.0
KFNL 291542Z AUTO 02011KT 1 1/4SM -SN BR SCT005 SCT011 BKN019 00/M01 A3021 RMK AO2 P0004 FZRANO,KFNL,2017-04-29T15:42:00Z,40.45,-105.02,0.0,-1.0,20,11,,1.25,30.209646,,,TRUE,TRUE,,,,TRUE,,-SN BR,SCT,500,SCT,1100,BKN,1900,,,IFR,,,,,,0.04,,,,,,SPECI,1529.0
KNQI 291542Z AUTO 15022G30KT 7SM OVC029 32/25 A2955 RMK AO2 PK WND 14031/1529 T03170250,KNQI,2017-04-29T15:42:00Z,27.5,-97.82,31.7,25.0,150,22,30,7.0,29.551182,,,TRUE,TRUE,,,,,,,OVC,2900,,,,,,,MVFR,,,,,,,,,,,,SPECI,15.0
KTBN 291542Z AUTO 10014G20KT 9SM -RA VCTS BKN009 16/15 A2975 RMK AO2 TSB15E42 BKN V OVC PRESFR SLP073,KTBN,2017-04-29T15:42:00Z,37.72,-92.12,16.0,15.0,100,14,20,9.0,29.749016,1007.3,,TRUE,TRUE,,,,,,-RA VCTS,BKN,900,,,,,,,IFR,,,,,,,,,,,,SPECI,353.0
KLOR 291542Z AUTO 16007KT 10SM SCT024 BKN031 28/22 A3011 RMK AO2 SLP177,KLOR,2017-04-29T15:42:00Z,31.35,-85.75,28.0,22.0,160,7,,10.0,30.109253,1017.7,,TRUE,TRUE,,,,,,,SCT,2400,BKN,3100,,,,,VFR,,,,,,,,,,,,SPECI,74.0
KHEY 291542Z AUTO 16007KT 10SM BKN025 BKN031 29/22 A3011 RMK AO2 CIG 025V031 BKN025 V SCT SLP196,KHEY,2017-04-29T15:42:00Z,31.35,-85.65,29.0,22.0,160,7,,10.0,30.109253,1019.6,,TRUE,TRUE,,,,,,,BKN,2500,BKN,3100,,,,,MVFR,,,,,,,,,,,,SPECI,97.0
K0CO 291541Z AUTO M1/4SM -SN OVC002 M15/M21 A3000 RMK AO2,K0CO,2017-04-29T15:41:00Z,39.8,-105.77,-15.0,-21.0,,,,0.25,30.0,,,TRUE,TRUE,,,,,,-SN,OVC,200,,,,,,,LIFR,,,,,,,,,,,,METAR,3807.0
KTOL 291541Z 06010KT 4SM -RA BR SCT023 OVC035 07/07 A3018 RMK AO2 RAB1457 P0005 T00720067,KTOL,2017-04-29T15:41:00Z,41.58,-83.8,7.2,6.7,60,10,,4.0,30.180119,,,,TRUE,,,,,,-RA BR,SCT,2300,OVC,3500,,,,,MVFR,,,,,,0.05,,,,,,SPECI,210.0
KPHD 291541Z AUTO 33007KT 5SM -TSRA BR FEW011 BKN075 OVC110 18/17 A3011 RMK AO2 LTG DSNT ALQDS TSB41 P0005 T01780172,KPHD,2017-04-29T15:41:00Z,40.47,-81.42,17.8,17.2,330,7,,5.0,30.109253,,,TRUE,TRUE,,,,,,-TSRA BR,FEW,1100,BKN,7500,OVC,11000,,,MVFR,,,,,,0.05,,,,,,SPECI,272.0
KHUF 291541Z VRB03KT 1 1/2SM R05/4000VP6000FT VCTS +RA BR BKN007 OVC012 16/14 A3006 RMK AO2 LTG DSNT SW-NW RAE18B41 P0087 T01560139,KHUF,2017-04-29T15:41:00Z,39.45,-87.3,15.6,13.9,0,3,,1.5,30.059055,,,,TRUE,,,,,,VCTS +RA BR,BKN,700,OVC,1200,,,,,IFR,,,,,,0.87,,,,,,SPECI,179.0
KERI 291541Z 28005KT 2SM -RA BR FEW004 OVC011 11/11 A3015 RMK AO2 RAB36 P0000 T01110106,KERI,2017-04-29T15:41:00Z,42.08,-80.18,11.1,10.6,280,5,,2.0,30.15059,,,,TRUE,,,,,,-RA BR,FEW,400,OVC,1100,,,,,IFR,,,,,,0.005,,,,,,SPECI,222.0
KEQY 291541Z AUTO 21005KT 10SM SCT023 26/20 A3020 RMK AO2 T02610200,KEQY,2017-04-29T15:41:00Z,35.02,-80.62,26.1,20.0,210,5,,10.0,30.200787,,,TRUE,TRUE,,,,,,,SCT,2300,,,,,,,VFR,,,,,,,,,,,,SPECI,212.0
KCOU 291541Z 06012KT 7SM VCTS -RA OVC009 14/13 A2986 RMK AO2 WSHFT 1521 LTG DSNT ALQDS P0022 T01390133,KCOU,2017-04-29T15:41:00Z,38.82,-92.22,13.9,13.3,60,12,,7.0,29.861221,,,,TRUE,,,,,,VCTS -RA,OVC,900,,,,,,,IFR,,,,,,0.22,,,,,,SPECI,271.0
KCEW 291541Z AUTO 16011G21KT 120V190 10SM FEW026 28/21 A3009 RMK AO2 T02780206,KCEW,2017-04-29T15:41:00Z,30.78,-86.52,27.8,20.6,160,11,21,10.0,30.088583,,,TRUE,TRUE,,,,,,,FEW,2600,,,,,,,VFR,,,,,,,,,,,,SPECI,55.0
K0J4 291541Z AUTO 17013G19KT 10SM FEW021 SCT030 28/21 A3009 RMK AO2 T02830211,K0J4,2017-04-29T15:41:00Z,31.05,-86.32,28.3,21.1,170,13,19,10.0,30.088583,,,TRUE,TRUE,,,,,,,FEW,2100,SCT,3000,,,,,VFR,,,,,,,,,,,,SPECI,96.0
PAKH 291541Z AUTO 06004KT BKN026 BKN060 02/00 A2997 RMK AO2 PWINO FZRANO $,PAKH,2017-04-29T15:41:00Z,56.93,-154.18,2.0,0.0,60,4,,,29.970472,,,TRUE,TRUE,TRUE,,,TRUE,TRUE,,BKN,2600,BKN,6000,,,,,,,,,,,,,,,,,SPECI,14.0
PHNY 291541Z AUTO 32008KT 10SM SCT008 SCT011 OVC065 19/18 A2992 RMK AO2,PHNY,2017-04-29T15:41:00Z,20.77,-156.93,19.0,18.0,320,8,,10.0,29.920275,,,TRUE,TRUE,,,,,,,SCT,800,SCT,1100,OVC,6500,,,VFR,,,,,,,,,,,,SPECI,399.0
CYZV 291541Z 17008KT 1/2SM R09/P6000FT/N FG VV002 01/M00 A2964 RMK FG8 SLP040,CYZV,2017-04-29T15:41:00Z,50.22,-66.27,1.0,0.0,170,8,,0.5,29.639763,1004.0,,,,,,,,,FG,OVX,0,,,,,,,LIFR,,,,,,,,,,,200,SPECI,55.0
KBMI 291541Z 06015KT 3SM RA BR BKN026 OVC033 08/07 A3012 RMK AO2 PK WND 05026/1458 RAB21 P0005,KBMI,2017-04-29T15:41:00Z,40.47,-88.92,8.0,7.0,60,15,,3.0,30.121063,,,,TRUE,,,,,,RA BR,BKN,2600,OVC,3300,,,,,MVFR,,,,,,0.05,,,,,,SPECI,267.0
KAIZ 291541Z AUTO 07007KT 9SM VCTS -RA OVC008 15/14 A2979 RMK AO2 LTG DSNT ALQDS TSE40B41 CIG 005V012 P0005,KAIZ,2017-04-29T15:41:00Z,38.1,-92.53,15.0,14.0,70,7,,9.0,29.790354,,,TRUE,TRUE,,,,,,VCTS -RA,OVC,800,,,,,,,IFR,,,,,,0.05,,,,,,SPECI,265.0
CYMT 291541Z AUTO 28013G26KT 9SM -RASN OVC025 M00/M05 A2983 RMK SLP120,CYMT,2017-04-29T15:41:00Z,49.77,-74.52,0.0,-5.0,280,13,26,9.0,29.828741,1012.0,,TRUE,,,,,,,-RA -SN,OVC,2500,,,,,,,MVFR,,,,,,,,,,,,SPECI,387.0
CYBC 291541Z AUTO 27009KT 9SM BKN007 BKN070 04/03 A2966 RMK ICG PAST HR SLP047,CYBC,2017-04-29T15:41:00Z,49.12,-68.2,4.0,3.0,270,9,,9.0,29.660433,1004.7,,TRUE,,,,,,,,BKN,700,BKN,7000,,,,,IFR,,,,,,,,,,,,SPECI,22.0
KGOK 291540Z AUTO 05016G26KT 2 1/2SM VCTS -RA BR BKN008 OVC045 09/08 A2966 RMK AO2 PK WND 05026/1536 LTG DSNT ALQDS RAB31 P0002 T00940083 $,KGOK,2017-04-29T15:40:00Z,35.85,-97.4,9.4,8.3,50,16,26,2.5,29.660433,,,TRUE,TRUE,TRUE,,,,,VCTS -RA BR,BKN,800,OVC,4500,,,,,IFR,,,,,,0.02,,,,,,SPECI,324.0
KFTW 291540Z 19020G23KT 7SM SCT029 BKN038 OVC048 28/21 A2957 RMK AO2 PK WND 19028/1506 T02780211,KFTW,2017-04-29T15:40:00Z,32.83,-97.37,27.8,21.1,190,20,23,7.0,29.568897,,,,TRUE,,,,,,,SCT,2900,BKN,3800,OVC,4800,,,VFR,,,,,,,,,,,,SPECI,214.0
KQFW 291540Z AUTO 11001KT 9999 CLR 12/02 A2975 RMK A02 TSNO,KQFW,2017-04-29T15:40:00Z,,,12.0,2.0,110,1,,6.21,29.749016,,,TRUE,TRUE,,,TRUE,,,,CLR,,,,,,,,VFR,,,,,,,,,,,,METAR,
KQFV 291540Z AUTO 06001KT 9999 CLR 09/02 A2976 RMK A02 TSNO,KQFV,2017-04-29T15:40:00Z,,,9.0,2.0,60,1,,6.21,29.760826,,,TRUE,TRUE,,,TRUE,,,,CLR,,,,,,,,VFR,,,,,,,,,,,,METAR,
KQFU 291540Z AUTO 24002KT 9000 HZ CLR 14/06 A2977 RMK A02 TSNO,KQFU,2017-04-29T15:40:00Z,,,14.0,6.0,240,2,,5.59,29.769686,,,TRUE,TRUE,,,TRUE,,,HZ,CLR,,,,,,,,VFR,,,,,,,,,,,,METAR,
KQFB 291540Z AUTO 06001KT 9999 CLR 14/07 A2982 RMK A02 TSNO,KQFB,2017-04-29T15:40:00Z,,,14.0,7.0,60,1,,6.21,29.819881,,,TRUE,TRUE,,,TRUE,,,,CLR,,,,,,,,VFR,,,,,,,,,,,,METAR,
KQEY 291540Z AUTO 09002KT 9999 CLR 14/02 A2950 RMK A02 TSNO,KQEY,2017-04-29T15:40:00Z,,,14.0,2.0,90,2,,6.21,29.500984,,,TRUE,TRUE,,,TRUE,,,,CLR,,,,,,,,VFR,,,,,,,,,,,,METAR,
KQEX 291540Z AUTO 32001KT 9999 CLR 16/03 A2968 RMK A02 TSNO,KQEX,2017-04-29T15:40:00Z,,,16.0,3.0,320,1,,6.21,29.681103,,,TRUE,TRUE,,,TRUE,,,,CLR,,,,,,,,VFR,,,,,,,,,,,,METAR,
KQEW 291540Z AUTO 27004KT 9999 CLR 16/01 A2975 RMK A02 TSNO,KQEW,2017-04-29T15:40:00Z,,,16.0,1.0,270,4,,6.21,29.749016,,,TRUE,TRUE,,,TRUE,,,,CLR,,,,,,,,VFR,,,,,,,,,,,,METAR,
KQEV 291540Z AUTO 29003KT 9999 CLR 16/04 A2974 RMK A02 TSNO,KQEV,2017-04-29T15:40:00Z,,,16.0,4.0,290,3,,6.21,29.740158,,,TRUE,TRUE,,,TRUE,,,,CLR,,,,,,,,VFR,,,,,,,,,,,,METAR,
KQES 291540Z AUTO 17005KT 8000 HZ CLR 14/09 A2977 RMK A02 TSNO,KQES,2017-04-29T15:40:00Z,,,14.0,9.0,170,5,,4.97,29.769686,,,TRUE,TRUE,,,TRUE,,,HZ,CLR,,,,,,,,MVFR,,,,,,,,,,,,METAR,
KQER 291540Z AUTO 05001KT 9999 CLR 09/03 A2968 RMK A02 TSNO,KQER,2017-04-29T15:40:00Z,,,9.0,3.0,50,1,,6.21,29.681103,,,TRUE,TRUE,,,TRUE,,,,CLR,,,,,,,,VFR,,,,,,,,,,,,METAR,
KQEQ 291540Z AUTO 16002KT 4800 HZ CLR 11/07 A2976 RMK A02 TSNO,KQEQ,2017-04-29T15:40:00Z,,,11.0,7.0,160,2,,2.98,29.760826,,,TRUE,TRUE,,,TRUE,,,HZ,CLR,,,,,,,,IFR,,,,,,,,,,,,METAR,
KQEN 291540Z AUTO 24012G23KT 9999 CLR 12/M02 A2972 RMK A02 TSNO,KQEN,2017-04-29T15:40:00Z,,,12.0,-2.0,240,12,23,6.21,29.719488,,,TRUE,TRUE,,,TRUE,,,,CLR,,,,,,,,VFR,,,,,,,,,,,,METAR,
KQEL 291540Z AUTO 07001KT 9999 CLR 09/03 A2982 RMK A02 TSNO,KQEL,2017-04-29T15:40:00Z,,,9.0,3.0,70,1,,6.21,29.819881,,,TRUE,TRUE,,,TRUE,,,,CLR,,,,,,,,VFR,,,,,,,,,,,,METAR,
KQEJ 291540Z AUTO 06001KT 9999 CLR 10/02 A2971 RMK A02 TSNO,KQEJ,2017-04-29T15:40:00Z,,,10.0,2.0,60,1,,6.21,29.71063,,,TRUE,TRUE,,,TRUE,,,,CLR,,,,,,,,VFR,,,,,,,,,,,,METAR,
KQEI 291540Z AUTO 12002KT 9999 CLR 12/00 A2972 RMK A02 TSNO,KQEI,2017-04-29T15:40:00Z,,,12.0,0.0,120,2,,6.21,29.719488,,,TRUE,TRUE,,,TRUE,,,,CLR,,,,,,,,VFR,,,,,,,,,,,,METAR,
KWLD 291540Z AUTO 04011G20KT 2 1/2SM RA BR FEW012 BKN055 OVC075 09/08 A2979 RMK AO2 LTG DSNT S-NW RAB08 P0009 T00940078,KWLD,2017-04-29T15:40:00Z,37.17,-97.03,9.4,7.8,40,11,20,2.5,29.790354,,,TRUE,TRUE,,,,,,RA BR,FEW,1200,BKN,5500,OVC,7500,,,IFR,,,,,,0.09,,,,,,SPECI,350.0
KSPI 291540Z 07011KT 2SM +RA BR BKN007 BKN013 OVC090 10/09 A3007 RMK AO2 LTG DSNT N AND NW P0019 T01000089,KSPI,2017-04-29T15:40:00Z,39.85,-89.68,10.0,8.9,70,11,,2.0,30.070866,,,,TRUE,,,,,,+RA BR,BKN,700,BKN,1300,OVC,9000,,,IFR,,,,,,0.19,,,,,,SPECI,181.0
KMKC 291540Z 03008KT 3SM RA BR FEW008 BKN013 OVC017 09/08 A2991 RMK AO2 P0023 T00890083,KMKC,2017-04-29T15:40:00Z,39.12,-94.6,8.9,8.3,30,8,,3.0,29.911417,,,,TRUE,,,,,,RA BR,FEW,800,BKN,1300,OVC,1700,,,MVFR,,,,,,0.23,,,,,,SPECI,227.0
CWZQ 291540Z AUTO 21007KT 11/10 RMK AO1 T01110104,CWZQ,2017-04-29T15:40:00Z,46.53,-61.05,11.1,10.4,210,7,,,,,,TRUE,TRUE,,,,,,,,,,,,,,,,,,,,,,,,,,,METAR,17.0
PHHI 291540Z AUTO 34010KT 10SM SCT005 17/17 A2989 RMK AO2 DZE00 $,PHHI,2017-04-29T15:40:00Z,21.48,-158.05,17.0,17.0,340,10,,10.0,29.890747,,,TRUE,TRUE,TRUE,,,,,,SCT,500,,,,,,,VFR,,,,,,,,,,,,METAR,255.0
PACZ 291540Z AUTO 10006KT 10SM FEW022 02/01 A2982 RMK AO2 SLP103,PACZ,2017-04-29T15:40:00Z,61.78,-166.03,2.0,1.0,100,6,,10.0,29.819881,1010.3,,TRUE,TRUE,,,,,,,FEW,2200,,,,,,,VFR,,,,,,,,,,,,SPECI,146.0
KRND 291540Z AUTO 17017G21KT 10SM SCT028 BKN033 BKN190 28/22 A2960 RMK AO2 SLP015,KRND,2017-04-29T15:40:00Z,29.52,-98.27,28.0,22.0,170,17,21,10.0,29.601377,1001.5,,TRUE,TRUE,,,,,,,SCT,2800,BKN,3300,BKN,19000,,,VFR,,,,,,,,,,,,SPECI,232.0
KDAY 291540Z 19006KT 4SM -RA BR BKN005 OVC055 17/17 A3011 RMK AO2 WSHFT 1506 TSE10 TS MOV NE P0007 T01720172,KDAY,2017-04-29T15:40:00Z,39.9,-84.22,17.2,17.2,190,6,,4.0,30.109253,,,,TRUE,,,,,,-RA BR,BKN,500,OVC,5500,,,,,IFR,,,,,,0.07,,,,,,SPECI,305.0
KAKQ 291540Z AUTO 25008KT 1 3/4SM HZ FEW022 28/22 A3016 RMK AO2 T02780222,KAKQ,2017-04-29T15:40:00Z,36.98,-77.0,27.8,22.2,250,8,,1.75,30.159449,,,TRUE,TRUE,,,,,,HZ,FEW,2200,,,,,,,IFR,,,,,,,,,,,,SPECI,34.0
KAAF 291540Z AUTO 15013KT 10SM SCT011 28/24 A3012 RMK AO2 T02780244 TSNO,KAAF,2017-04-29T15:40:00Z,29.73,-85.03,27.8,24.4,150,13,,10.0,30.121063,,,TRUE,TRUE,,,TRUE,,,,SCT,1100,,,,,,,VFR,,,,,,,,,,,,SPECI,5.0
PKWA 291540Z AUTO 06017G23KT 10SM SCT024 SCT033 BKN047 28/23 A2983 RMK AO2 T02810227,PKWA,2017-04-29T15:40:00Z,8.72,167.72,28.1,22.7,60,17,23,10.0,29.828741,,,TRUE,TRUE,,,,,,,SCT,2400,SCT,3300,BKN,4700,,,VFR,,,,,,,,,,,,SPECI,8.0
KJMR 291540Z AUTO 14004KT 10SM CLR 07/M04 A3035 RMK AO2,KJMR,2017-04-29T15:40:00Z,45.88,-93.27,7.0,-4.0,140,4,,10.0,30.351377,,,TRUE,TRUE,,,,,,,CLR,,,,,,,,VFR,,,,,,,,,,,,SPECI,309.0
KEKY 291540Z AUTO 15009G18KT 120V180 10SM BKN023 26/21 A3007 RMK AO2,KEKY,2017-04-29T15:40:00Z,33.32,-86.93,26.0,21.0,150,9,18,10.0,30.070866,,,TRUE,TRUE,,,,,,,BKN,2300,,,,,,,MVFR,,,,,,,,,,,,SPECI,213.0
MMAN 291540Z 16003KT 10SM SKC 32/13 A2959 RMK ISOL AC,MMAN,2017-04-29T15:40:00Z,25.87,-100.23,32.0,13.0,160,3,,10.0,29.589567,,,,,,,,,,,SKC,,,,,,,,VFR,,,,,,,,,,,,METAR,448.0
CYZR 291540Z AUTO 01020G25KT 9SM BKN020 BKN036 06/01 A3022 RMK PRESRR SLP240,CYZR,2017-04-29T15:40:00Z,43.0,-82.3,6.0,1.0,10,20,25,9.0,30.221457,1024.0,,TRUE,,,,,,,,BKN,2000,BKN,3600,,,,,MVFR,,,,,,,,,,,,SPECI,181.0
CWLY 291540Z AUTO 19012G18KT 9SM CLR 09/02 A3020 RMK SLP231,CWLY,2017-04-29T15:40:00Z,50.22,-121.58,9.0,2.0,190,12,18,9.0,30.200787,1023.1,,TRUE,,,,,,,,CLR,,,,,,,,VFR,,,,,,,,,,,,SPECI,229.0
CBBC 291540Z AUTO 11003KT 100V160 5SM -RA BR FEW006 BKN013 OVC023 06/05 A2996 RMK SLP150,CBBC,2017-04-29T15:40:00Z,52.18,-128.15,6.0,5.0,110,3,,5.0,29.958662,1015.0,,TRUE,,,,,,,-RA BR,FEW,600,BKN,1300,OVC,2300,,,MVFR,,,,,,,,,,,,SPECI,43.0
KSUT 291540Z AUTO 21007KT 10SM CLR 27/23 A3025 RMK AO2 T02730234,KSUT,2017-04-29T15:40:00Z,33.93,-78.08,27.3,23.4,210,7,,10.0,30.250984,,,TRUE,TRUE,,,,,,,CLR,,,,,,,,VFR,,,,,,,,,,,,SPECI,8.0
KPGV 291540Z AUTO 22008KT 7SM SCT027 28/22 A3021 RMK AO2,KPGV,2017-04-29T15:40:00Z,35.62,-77.4,28.0,22.0,220,8,,7.0,30.209646,,,TRUE,TRUE,,,,,,,SCT,2700,,,,,,,VFR,,,,,,,,,,,,METAR,8.0
KONX 291540Z AUTO 23012G18KT 10SM SCT022 28/22 A3017 RMK AO2 T02820217,KONX,2017-04-29T15:40:00Z,36.4,-76.02,28.2,21.7,230,12,18,10.0,30.171259,,,TRUE,TRUE,,,,,,,SCT,2200,,,,,,,VFR,,,,,,,,,,,,SPECI,5.0
KIXA 291540Z AUTO 20008KT 10SM SCT023 27/22 A3018 RMK AO2,KIXA,2017-04-29T15:40:00Z,36.33,-77.63,27.0,22.0,200,8,,10.0,30.180119,,,TRUE,TRUE,,,,,,,SCT,2300,,,,,,,VFR,,,,,,,,,,,,SPECI,44.0
KGDP 291540Z AUTO 28021G33KT 250V320 3/4SM RA BR SCT002 BKN009 OVC012 04/04 A2991,KGDP,2017-04-29T15:40:00Z,31.83,-104.82,4.0,4.0,280,21,33,0.75,29.911417,,,TRUE,,,,,,,RA BR,SCT,200,BKN,900,OVC,1200,,,LIFR,,,,,,,,,,,,METAR,1692.0
K5A6 291540Z AUTO 18016G24KT 10SM OVC031 27/21 A2993 RMK AO2 T02670212,K5A6,2017-04-29T15:40:00Z,33.47,-89.73,26.7,21.2,180,16,24,10.0,29.929134,,,TRUE,TRUE,,,,,,,OVC,3100,,,,,,,VFR,,,,,,,,,,,,METAR,111.0
KDLP 291540Z AUTO 16015G22KT 3SM BR SCT014 26/26 A2994 RMK A01,KDLP,2017-04-29T15:40:00Z,29.12,-89.55,26.0,26.0,160,15,22,3.0,29.940945,,,TRUE,TRUE,,,,,,BR,SCT,1400,,,,,,,MVFR,,,,,,,,,,,,METAR,36.0
KGWW 291540Z AUTO 20009KT 10SM SCT027 28/22 A3021 RMK AO2 T02790217,KGWW,2017-04-29T15:40:00Z,35.47,-77.97,27.9,21.7,200,9,,10.0,30.209646,,,TRUE,TRUE,,,,,,,SCT,2700,,,,,,,VFR,,,,,,,,,,,,METAR,41.0
KGOO 291540Z AUTO 06005KT 10SM CLR 14/M08 A3014 RMK AO1,KGOO,2017-04-29T15:40:00Z,39.22,-121.0,14.0,-8.0,60,5,,10.0,30.138779,,,TRUE,TRUE,,,,,,,CLR,,,,,,,,VFR,,,,,,,,,,,,METAR,962.0
PAPB 291539Z AUTO 11021G30KT 6SM UP BR OVC010 03/02 A2941 RMK AO2 PK WND 11033/1510 P0002 T00280017 TSNO,PAPB,2017-04-29T15:39:00Z,56.58,-169.67,2.8,1.7,110,21,30,6.0,29.409449,,,TRUE,TRUE,,,TRUE,,,BR UP,OVC,1000,,,,,,,MVFR,,,,,,0.02,,,,,,SPECI,35.0
CYYQ 291539Z 29007KT 1SM R33/2000V3000FT/N -SN BR OVC003 M13/M14 A3043 RMK ST8 VIS NW 3 SLP309,CYYQ,2017-04-29T15:39:00Z,58.75,-94.07,-13.0,-14.0,290,7,,1.0,30.431103,1030.9,,,,,,,,,-SN BR,OVC,300,,,,,,,LIFR,,,,,,,,,,,,SPECI,29.0
KTPH 291539Z AUTO 30016KT 10SM CLR 06/ A3025 RMK AO2 WSHFT 1519 T0061 $,KTPH,2017-04-29T15:39:00Z,38.05,-117.08,6.1,,300,16,,10.0,30.250984,,,TRUE,TRUE,TRUE,,,,,,CLR,,,,,,,,VFR,,,,,,,,,,,,SPECI,1652.0
KSTL 291539Z 05008KT 6SM -TSRA BR BKN008 OVC014CB 16/14 A2995 RMK AO2 LTG DSNT ALQDS OCNL LTGICCG ALQDS TS ALQDS MOV NE P0019 T01560139 $,KSTL,2017-04-29T15:39:00Z,38.75,-90.37,15.6,13.9,50,8,,6.0,29.949802,,,,TRUE,TRUE,,,,,-TSRA BR,BKN,800,OVC,1400,,,,,IFR,,,,,,0.19,,,,,,SPECI,171.0
KSPS 291539Z AUTO 36013KT 10SM BKN010 OVC014 11/09 A2964 RMK AO2 CIG 007V013 P0001 T01110089,KSPS,2017-04-29T15:39:00Z,33.98,-98.5,11.1,8.9,360,13,,10.0,29.639763,,,TRUE,TRUE,,,,,,,BKN,1000,OVC,1400,,,,,MVFR,,,,,,0.01,,,,,,SPECI,308.0
KOSU 291539Z 20012KT 2 1/2SM VCTS RA BR SCT005 BKN045 OVC100 17/17 A3016 RMK AO2 LTG DSNT ALQDS TSE25 P0016 T01720172,KOSU,2017-04-29T15:39:00Z,40.08,-83.08,17.2,17.2,200,12,,2.5,30.159449,,,,TRUE,,,,,,VCTS RA BR,SCT,500,BKN,4500,OVC,10000,,,IFR,,,,,,0.16,,,,,,SPECI,280.0
KMTO 291539Z AUTO 12011KT 5SM -RA BR FEW012 BKN070 OVC110 13/13 A3001 RMK AO2 LTG DSNT E P0016 T01330128,KMTO,2017-04-29T15:39:00Z,39.47,-88.27,13.3,12.8,120,11,,5.0,30.008858,,,TRUE,TRUE,,,,,,-RA BR,FEW,1200,BKN,7000,OVC,11000,,,MVFR,,,,,,0.16,,,,,,SPECI,214.0
KMGY 291539Z AUTO 15005KT 10SM BKN005 BKN110 17/17 A3010 RMK AO2 RAE24 P0003 T01720167,KMGY,2017-04-29T15:39:00Z,39.6,-84.23,17.2,16.7,150,5,,10.0,30.100393,,,TRUE,TRUE,,,,,,,BKN,500,BKN,11000,,,,,IFR,,,,,,0.03,,,,,,SPECI,289.0
KMAI 291539Z AUTO 18013G17KT 10SM FEW026 BKN034 29/21 A3011 RMK AO2 T02940211,KMAI,2017-04-29T15:39:00Z,30.83,-85.18,29.4,21.1,180,13,17,10.0,30.109253,,,TRUE,TRUE,,,,,,,FEW,2600,BKN,3400,,,,,VFR,,,,,,,,,,,,SPECI,32.0
KLHQ 291539Z AUTO 19006G17KT 1SM -TSRA BR FEW019 BKN075 OVC110 18/16 A3017 RMK AO2 LTG DSNT ALQDS P0020 T01780161,KLHQ,2017-04-29T15:39:00Z,39.75,-82.67,17.8,16.1,190,6,17,1.0,30.171259,,,TRUE,TRUE,,,,,,-TSRA BR,FEW,1900,BKN,7500,OVC,11000,,,IFR,,,,,,0.2,,,,,,SPECI,260.0
KGSO 291539Z 25008KT 6SM HZ BKN015 BKN250 24/22 A3020 RMK AO2 T02440217,KGSO,2017-04-29T15:39:00Z,36.1,-79.95,24.4,21.7,250,8,,6.0,30.200787,,,,TRUE,,,,,,HZ,BKN,1500,BKN,25000,,,,,MVFR,,,,,,,,,,,,SPECI,275.0
KDMO 291539Z AUTO 05015KT 4SM TSRA BR BKN006 BKN009 OVC045 12/12 A2982 RMK AO2 LTG DSNT ALQDS TSE19B23 P0028 T01220122,KDMO,2017-04-29T15:39:00Z,38.72,-93.17,12.2,12.2,50,15,,4.0,29.819881,,,TRUE,TRUE,,,,,,TSRA BR,BKN,600,BKN,900,OVC,4500,,,IFR,,,,,,0.28,,,,,,SPECI,274.0
KBAZ 291539Z 18017G21KT 5SM HZ SCT026 BKN034 29/22 A2959 RMK AO2 PK WND 17029/1508 T02890217,KBAZ,2017-04-29T15:39:00Z,29.72,-98.05,28.9,21.7,180,17,21,5.0,29.589567,,,,TRUE,,,,,,HZ,SCT,2600,BKN,3400,,,,,MVFR,,,,,,,,,,,,SPECI,195.0
KAFW 291539Z 20011G27KT 6SM HZ BKN029 BKN046 27/21 A2956 RMK AO2 PK WND 18031/1454 T02720206,KAFW,2017-04-29T15:39:00Z,32.97,-97.32,27.2,20.6,200,11,27,6.0,29.56004,,,,TRUE,,,,,,HZ,BKN,2900,BKN,4600,,,,,MVFR,,,,,,,,,,,,SPECI,233.0
CYAH 291539Z AUTO 27012G18KT 9SM -SN SCT024 BKN036 OVC050 M01/M05 A2969 RMK SLP072,CYAH,2017-04-29T15:39:00Z,53.75,-73.67,-1.0,-5.0,270,12,18,9.0,29.68996,1007.2,,TRUE,,,,,,,-SN,SCT,2400,BKN,3600,OVC,5000,,,VFR,,,,,,,,,,,,SPECI,306.0
KSGH 291539Z AUTO 17008KT 10SM -RA FEW006 BKN022 OVC095 17/16 A3011 RMK AO2 LTG DSNT E AND SE TSB01E29 CIG 015V034 P0009,KSGH,2017-04-29T15:39:00Z,39.83,-83.83,17.0,16.0,170,8,,10.0,30.109253,,,TRUE,TRUE,,,,,,-RA,FEW,600,BKN,2200,OVC,9500,,,MVFR,,,,,,0.09,,,,,,SPECI,321.0
KMQJ 291539Z AUTO 01008KT 4SM OVC004 14/14 A3006 RMK AO1,KMQJ,2017-04-29T15:39:00Z,39.85,-85.9,14.0,14.0,10,8,,4.0,30.059055,,,TRUE,TRUE,,,,,,,OVC,400,,,,,,,LIFR,,,,,,,,,,,,SPECI,263.0
KLYV 291539Z AUTO 06014G19KT 10SM CLR 06/M02 A3021 RMK AO2,KLYV,2017-04-29T15:39:00Z,43.62,-96.22,6.0,-2.0,60,14,19,10.0,30.209646,,,TRUE,TRUE,,,,,,,CLR,,,,,,,,VFR,,,,,,,,,,,,SPECI,436.0
KKLS 291539Z AUTO 13003KT 10SM SCT007 OVC120 07/05 A3033 RMK AO2,KKLS,2017-04-29T15:39:00Z,46.12,-122.9,7.0,5.0,130,3,,10.0,30.33071,,,TRUE,TRUE,,,,,,,SCT,700,OVC,12000,,,,,VFR,,,,,,,,,,,,SPECI,5.0
YSNF 291539Z AUTO 17016G26KT 9999 -SHRA SCT016 BKN019 BKN028 19/16 Q1009,YSNF,2017-04-29T15:39:00Z,-29.02,167.92,19.0,16.0,170,16,26,6.21,29.793306,,,TRUE,,,,,,,-SHRA,SCT,1600,BKN,1900,BKN,2800,,,MVFR,,,,,,,,,,,,SPECI,109.0
CYTE 291539Z AUTO 28029G35KT 2 1/2SM -SN BLSN CLR M13/M16 A2964 RMK VIS VRB 1 3/4-3 SLP045,CYTE,2017-04-29T15:39:00Z,64.22,-76.52,-13.0,-16.0,280,29,35,2.5,29.639763,1004.5,,TRUE,,,,,,,-SN BLSN,CLR,,,,,,,,IFR,,,,,,,,,,,,SPECI,47.0
KFCS 291538Z 35018G24KT 2 1/2SM -SN OVC015 M01/M04 A3009 RMK AO2A VIS 2 1/2V4 SNE19UPB19E22SNB22 SLP237 $,KFCS,2017-04-29T15:38:00Z,38.67,-104.77,-1.0,-4.0,350,18,24,2.5,30.088583,1023.7,,,TRUE,TRUE,,,,,-SN,OVC,1500,,,,,,,IFR,,,,,,,,,,,,SPECI,1789.0
KSAR 291538Z AUTO 10010KT 10SM SCT060 BKN070 OVC075 18/17 A2993 RMK AO2 LTG DSNT W AND NW,KSAR,2017-04-29T15:38:00Z,38.15,-89.7,18.0,17.0,100,10,,10.0,29.929134,,,TRUE,TRUE,,,,,,,SCT,6000,BKN,7000,OVC,7500,,,VFR,,,,,,,,,,,,SPECI,164.0
KEND 291538Z AUTO 07018G28KT 3SM TS BR OVC016 09/09 A2962 RMK AO2 CIG 016V025 PRESFR SLP028 $,KEND,2017-04-29T15:38:00Z,36.32,-97.92,9.0,9.0,70,18,28,3.0,29.619095,1002.8,,TRUE,TRUE,TRUE,,,,,TS BR,OVC,1600,,,,,,,MVFR,,,,,,,,,,,,SPECI,398.0
KEYE 291538Z AUTO 08006KT 10SM FEW005 OVC011 14/13 A3006 RMK AO2 RAE31 P0005 T01440133,KEYE,2017-04-29T15:38:00Z,39.83,-86.3,14.4,13.3,80,6,,10.0,30.059055,,,TRUE,TRUE,,,,,,,FEW,500,OVC,1100,,,,,MVFR,,,,,,0.05,,,,,,SPECI,248.0
KDEC 291538Z 07008KT 2 1/2SM +RA BR BKN009 OVC015 10/10 A3009 RMK AO2 P0018 T01000100,KDEC,2017-04-29T15:38:00Z,39.83,-88.85,10.0,10.0,70,8,,2.5,30.088583,,,,TRUE,,,,,,+RA BR,BKN,900,OVC,1500,,,,,IFR,,,,,,0.18,,,,,,SPECI,207.0
KBUY 291538Z AUTO 19006KT 10SM BKN020 27/22 A3019 RMK AO2 T02720217 TSNO,KBUY,2017-04-29T15:38:00Z,36.05,-79.47,27.2,21.7,190,6,,10.0,30.188976,,,TRUE,TRUE,,,TRUE,,,,BKN,2000,,,,,,,MVFR,,,,,,,,,,,,SPECI,180.0
KXNA 291538Z 16018G26KT 10SM VCTS BKN022 BKN095 24/21 A2961 RMK AO2 PK WND 15030/1522 LTG DSNT SW-N RAB24E33 P0000 T02390211 $,KXNA,2017-04-29T15:38:00Z,36.28,-94.3,23.9,21.1,160,18,26,10.0,29.610237,,,,TRUE,TRUE,,,,,VCTS,BKN,2200,BKN,9500,,,,,MVFR,,,,,,0.005,,,,,,SPECI,392.0
KPNC 291538Z AUTO 03020G26KT 9SM TSRA FEW050 SCT070 OVC090 10/08 A2972 RMK AO2 PK WND 04026/1537 LTG DSNT ALQDS RAB1455 TSB32 P0007 T01000078,KPNC,2017-04-29T15:38:00Z,36.73,-97.1,10.0,7.8,30,20,26,9.0,29.719488,,,TRUE,TRUE,,,,,,TSRA,FEW,5000,SCT,7000,OVC,9000,,,VFR,,,,,,0.07,,,,,,SPECI,308.0
KMPO 291538Z AUTO 29017G29KT 10SM FEW022 19/15 A3003 RMK AO2 PK WND 27029/1533 T01940150,KMPO,2017-04-29T15:38:00Z,41.13,-75.38,19.4,15.0,290,17,29,10.0,30.029528,,,TRUE,TRUE,,,,,,,FEW,2200,,,,,,,VFR,,,,,,,,,,,,SPECI,577.0
KMFD 291538Z 36009KT 1 3/4SM VCTS RA BR OVC006 13/13 A3017 RMK AO2 LTG DSNT ALQDS P0015 T01280128,KMFD,2017-04-29T15:38:00Z,40.82,-82.52,12.8,12.8,360,9,,1.75,30.171259,,,,TRUE,,,,,,VCTS RA BR,OVC,600,,,,,,,IFR,,,,,,0.15,,,,,,SPECI,395.0
PASN 291538Z AUTO 10018G22KT 5SM -RA BR BKN010 OVC016 02/02 A2944 RMK AO2 UPE03B18E35RAB03 P0001 T00220017 TSNO $,PASN,2017-04-29T15:38:00Z,57.15,-170.22,2.2,1.7,100,18,22,5.0,29.438976,,,TRUE,TRUE,TRUE,,TRUE,,,-RA BR,BKN,1000,OVC,1600,,,,,MVFR,,,,,,0.01,,,,,,SPECI,29.0
KVTP 291538Z AUTO 02028G42KT M1/4SM +SN OVC002 M09/M11 A3002 RMK AO2,KVTP,2017-04-29T15:38:00Z,37.5,-105.17,-9.0,-11.0,20,28,42,0.25,30.02067,,,TRUE,TRUE,,,,,,+SN,OVC,200,,,,,,,LIFR,,,,,,,,,,,,METAR,3114.0
K04V 291537Z AUTO 07007G16KT 012V102 10SM BKN065 OVC085 00/M12 A2996 RMK AO2,K04V,2017-04-29T15:37:00Z,38.1,-106.17,0.0,-12.0,70,7,16,10.0,29.958662,,,TRUE,TRUE,,,,,,,BKN,6500,OVC,8500,,,,,VFR,,,,,,,,,,,,METAR,2385.0
KBDU 291537Z AUTO 36006KT 1 3/4SM -SN SCT005 BKN011 OVC018 00/M01 A3019 RMK AO2,KBDU,2017-04-29T15:37:00Z,40.03,-105.23,0.0,-1.0,360,6,,1.75,30.188976,,,TRUE,TRUE,,,,,,-SN,SCT,500,BKN,1100,OVC,1800,,,IFR,,,,,,,,,,,,METAR,1612.0
KPHN 291537Z AUTO 01008G17KT 10SM SCT021 BKN034 05/00 A3023 RMK AO2,KPHN,2017-04-29T15:37:00Z,42.92,-82.52,5.0,0.0,10,8,17,10.0,30.230314,,,TRUE,TRUE,,,,,,,SCT,2100,BKN,3400,,,,,VFR,,,,,,,,,,,,METAR,198.0
KPCW 291537Z AUTO 08009KT 10SM -RA SCT024 OVC035 08/04 A3018 RMK AO2,KPCW,2017-04-29T15:37:00Z,41.52,-82.87,8.0,4.0,80,9,,10.0,30.180119,,,TRUE,TRUE,,,,,,-RA,SCT,2400,OVC,3500,,,,,VFR,,,,,,,,,,,,METAR,178.0
KAOH 291537Z AUTO 07009KT 5SM RA BR SCT006 BKN017 OVC095 13/13 A3012 RMK AO2 P0006 T01330133,KAOH,2017-04-29T15:37:00Z,40.7,-84.02,13.3,13.3,70,9,,5.0,30.121063,,,TRUE,TRUE,,,,,,RA BR,SCT,600,BKN,1700,OVC,9500,,,MVFR,,,,,,0.06,,,,,,METAR,296.0
KH78 291537Z 14026KT 02 FG OVC040 25/24 A2990 RMK SEAS 5-6,KH78,2017-04-29T15:37:00Z,28.18,-88.48,25.0,24.0,140,26,,,29.899607,,,,,,,,,,FG,OVC,4000,,,,,,,,,,,,,,,,,,,SPECI,43.0
PADU 291537Z 13025G38KT 6SM -RA BR SCT018 BKN026 OVC032 04/01 A2937 RMK AO2 PK WND 13038/1528 OBS PK WND 13044/1536 CS P0002,PADU,2017-04-29T15:37:00Z,53.9,-166.53,4.0,1.0,130,25,38,6.0,29.371063,,,,TRUE,,,,,,-RA BR,SCT,1800,BKN,2600,OVC,3200,,,MVFR,,,,,,0.02,,,,,,METAR,4.0
KRVS 291537Z 36007KT 10SM BKN013 OVC047 14/12 A2965 RMK AO2 LTG DSNT E-S T01390117,KRVS,2017-04-29T15:37:00Z,36.05,-95.98,13.9,11.7,360,7,,10.0,29.648623,,,,TRUE,,,,,,,BKN,1300,OVC,4700,,,,,MVFR,,,,,,,,,,,,METAR,200.0
KLWA 291537Z AUTO 06007KT 10SM CLR 11/03 A3015 RMK AO2 T01070032,KLWA,2017-04-29T15:37:00Z,42.35,-86.25,10.7,3.2,60,7,,10.0,30.15059,,,TRUE,TRUE,,,,,,,CLR,,,,,,,,VFR,,,,,,,,,,,,METAR,203.0
KLFK 291537Z AUTO 15013KT 10SM BKN021 BKN031 OVC042 25/22 A2970 RMK AO2 PK WND 17026/1509 LTG DSNT E AND SE T02500217,KLFK,2017-04-29T15:37:00Z,31.23,-94.75,25.0,21.7,150,13,,10.0,29.698818,,,TRUE,TRUE,,,,,,,BKN,2100,BKN,3100,OVC,4200,,,MVFR,,,,,,,,,,,,METAR,88.0
K4I3 291537Z AUTO 00000KT 2SM +TSRA BKN004 OVC009 16/16 A3011 RMK AO2 LTG DSNT ALQS P0020,K4I3,2017-04-29T15:37:00Z,40.33,-82.53,16.0,16.0,0,0,,2.0,30.109253,,,TRUE,TRUE,,,,,,+TSRA,BKN,400,OVC,900,,,,,LIFR,,,,,,0.2,,,,,,METAR,363.0
KDLZ 291537Z AUTO 00000KT 4SM RA SCT021 BKN036 OVC042 17/16 A3010 RMK AO2 P0012 LTG DSNT ALQS,KDLZ,2017-04-29T15:37:00Z,40.28,-83.12,17.0,16.0,0,0,,4.0,30.100393,,,TRUE,TRUE,,,,,,RA,SCT,2100,BKN,3600,OVC,4200,,,MVFR,,,,,,0.12,,,,,,METAR,289.0
KCOS 291537Z 01014KT 1 1/2SM -SN BR SCT018 BKN024 OVC039 M01/M04 A3009 RMK AO2 P0000 T10061039,KCOS,2017-04-29T15:37:00Z,38.82,-104.68,-0.6,-3.9,10,14,,1.5,30.088583,,,,TRUE,,,,,,-SN BR,SCT,1800,BKN,2400,OVC,3900,,,IFR,,,,,,0.005,,,,,,METAR,1856.0
KCLT 291537Z 21004KT 10SM SCT016 BKN250 26/21 A3021 RMK AO2 T02610206,KCLT,2017-04-29T15:37:00Z,35.22,-80.95,26.1,20.6,210,4,,10.0,30.209646,,,,TRUE,,,,,,,SCT,1600,BKN,25000,,,,,VFR,,,,,,,,,,,,METAR,220.0
KBAX 291537Z AUTO 05007G16KT 10SM SCT023 06/00 A3022 RMK AO2 T00610002,KBAX,2017-04-29T15:37:00Z,43.78,-82.98,6.1,0.2,50,7,16,10.0,30.221457,,,TRUE,TRUE,,,,,,,SCT,2300,,,,,,,VFR,,,,,,,,,,,,METAR,234.0
KHWO 291537Z 10016KT 10SM FEW026 BKN030 BKN039 29/21 A3016 RMK AO2 T02890206,KHWO,2017-04-29T15:37:00Z,26.0,-80.23,28.9,20.6,100,16,,10.0,30.159449,,,,TRUE,,,,,,,FEW,2600,BKN,3000,BKN,3900,,,MVFR,,,,,,,,,,,,METAR,2.0
CYLD 291537Z 34013G19KT 270V010 15SM BKN035 03/M06 A3018 RMK SC5 WSHFT 1529 PRESFR SLP245,CYLD,2017-04-29T15:37:00Z,47.82,-83.33,3.0,-6.0,340,13,19,15.0,30.180119,1024.5,,,,,,,,,,BKN,3500,,,,,,,VFR,,,,,,,,,,,,SPECI,447.0
EKYT 291537Z 06007KT 9999 -SHRA FEW038CB SCT060 10/02 Q1020,EKYT,2017-04-29T15:37:00Z,57.1,9.87,10.0,2.0,60,7,,6.21,30.11811,,,,,,,,,,-SHRA,FEW,3800,SCT,6000,,,,,VFR,,,,,,,,,,,,SPECI,3.0
CYZP 291536Z AUTO 14034G46KT 2 1/4SM -UP BR BKN016 OVC026 06/04 A2976 RMK PRESFR SLP080,CYZP,2017-04-29T15:36:00Z,53.25,-131.82,6.0,4.0,140,34,46,2.25,29.760826,1008.0,,TRUE,,,,,,,BR UP,BKN,1600,OVC,2600,,,,,IFR,,,,,,,,,,,,SPECI,6.0
KMZZ 291536Z AUTO 08007KT 3SM -RA BKN006 OVC018 13/13 A3011 RMK AO2 P0010,KMZZ,2017-04-29T15:36:00Z,40.48,-85.68,13.0,13.0,80,7,,3.0,30.109253,,,TRUE,TRUE,,,,,,-RA,BKN,600,OVC,1800,,,,,IFR,,,,,,0.1,,,,,,SPECI,262.0
CWSA 291536Z AUTO 24014KT 3/4SM -RA BR VV003 08/07 A2988 RMK SLP120,CWSA,2017-04-29T15:36:00Z,43.93,-60.0,8.0,7.0,240,14,,0.75,29.878937,1012.0,,TRUE,,,,,,,-RA BR,OVX,0,,,,,,,LIFR,,,,,,,,,,,300,SPECI,4.0
PAGL 291536Z AUTO 32003KT 10SM FEW042 BKN050 OVC060 02/M03 A2995 RMK AO1,PAGL,2017-04-29T15:36:00Z,64.55,-163.03,2.0,-3.0,320,3,,10.0,29.949802,,,TRUE,TRUE,,,,,,,FEW,4200,BKN,5000,OVC,6000,,,VFR,,,,,,,,,,,,METAR,8.0
PADK 291536Z AUTO 24013KT 10SM BKN048 OVC070 03/M02 A2935 RMK AO1,PADK,2017-04-29T15:36:00Z,51.88,-176.65,3.0,-2.0,240,13,,10.0,29.350393,,,TRUE,TRUE,,,,,,,BKN,4800,OVC,7000,,,,,VFR,,,,,,,,,,,,METAR,4.0
PAAK 291536Z 26008KT 10SM FEW035 SCT044 OVC070 03/M01 A2931 RMK AO1,PAAK,2017-04-29T15:36:00Z,52.22,-174.2,3.0,-1.0,260,8,,10.0,29.309055,,,,TRUE,,,,,,,FEW,3500,SCT,4400,OVC,7000,,,VFR,,,,,,,,,,,,METAR,17.0
K36U 291536Z AUTO 02014G20KT 10SM CLR 04/M06 A3014 RMK AO2,K36U,2017-04-29T15:36:00Z,40.48,-111.43,4.0,-6.0,20,14,20,10.0,30.138779,,,TRUE,TRUE,,,,,,,CLR,,,,,,,,VFR,,,,,,,,,,,,METAR,1718.0
KCYS 291536Z 03010KT 3SM BKN010 OVC055 M02/M04 A3017 RMK AO2 SFC VIS 10 SNE07 P0000 T10221044,KCYS,2017-04-29T15:36:00Z,41.15,-104.8,-2.2,-4.4,30,10,,3.0,30.171259,,,,TRUE,,,,,,,BKN,1000,OVC,5500,,,,,MVFR,,,,,,0.005,,,,,,METAR,1868.0
KCQM 291536Z AUTO 08003KT 10SM CLR 07/M09 A3036 RMK AO2,KCQM,2017-04-29T15:36:00Z,47.82,-92.68,7.0,-9.0,80,3,,10.0,30.360237,,,TRUE,TRUE,,,,,,,CLR,,,,,,,,VFR,,,,,,,,,,,,SPECI,404.0
KCPS 291536Z 00000KT 10SM -TSRA BKN006 BKN080 OVC110 17/16 A2994 RMK AO2 LTG DSNT ALQDS P0014 T01670156,KCPS,2017-04-29T15:36:00Z,38.57,-90.15,16.7,15.6,0,0,,10.0,29.940945,,,,TRUE,,,,,,-TSRA,BKN,600,BKN,8000,OVC,11000,,,IFR,,,,,,0.14,,,,,,METAR,126.0
KCBG 291536Z AUTO 03009KT 10SM CLR 09/M02 A3031 RMK AO2,KCBG,2017-04-29T15:36:00Z,45.57,-93.27,9.0,-2.0,30,9,,10.0,30.31004,,,TRUE,TRUE,,,,,,,CLR,,,,,,,,VFR,,,,,,,,,,,,SPECI,287.0
KCAO 291536Z AUTO 36025G30KT 3/4SM BR FEW006 BKN021 OVC032 M01/M02 A2995 RMK AO2 PK WND 36030/1536 T10111017 PWINO FZRANO,KCAO,2017-04-29T15:36:00Z,36.45,-103.15,-1.1,-1.7,360,25,30,0.75,29.949802,,,TRUE,TRUE,,,,TRUE,TRUE,BR,FEW,600,BKN,2100,OVC,3200,,,LIFR,,,,,,,,,,,,METAR,1514.0
KTDR 291536Z AUTO 16018G27KT 10SM SCT020 28/23 A3011 RMK AO2 SLP200 $,KTDR,2017-04-29T15:36:00Z,30.05,-85.52,28.0,23.0,160,18,27,10.0,30.109253,1020.0,,TRUE,TRUE,TRUE,,,,,,SCT,2000,,,,,,,VFR,,,,,,,,,,,,METAR,5.0
PAZK 291536Z AUTO 26004KT 3/4SM OVC006 M03/M04 A2994 RMK AO1 P0001,PAZK,2017-04-29T15:36:00Z,61.93,-147.17,-3.0,-4.0,260,4,,0.75,29.940945,,,TRUE,TRUE,,,,,,,OVC,600,,,,,,,LIFR,,,,,,0.01,,,,,,METAR,1003.0
PAVD 291536Z 00000KT 10SM FEW006 FEW055 BKN075 03/02 A3007 RMK AO1 1447Z WEA: NONE TWR WND 00000KT,PAVD,2017-04-29T15:36:00Z,61.13,-146.25,3.0,2.0,0,0,,10.0,30.070866,,,,TRUE,,,,,,,FEW,600,FEW,5500,BKN,7500,,,VFR,,,,,,,,,,,,METAR,37.0
PASX 291536Z AUTO 00000KT 10SM SCT065 OVC120 00/M01 A3001 RMK AO1,PASX,2017-04-29T15:36:00Z,60.48,-151.03,0.0,-1.0,0,0,,10.0,30.008858,,,TRUE,TRUE,,,,,,,SCT,6500,OVC,12000,,,,,VFR,,,,,,,,,,,,METAR,32.0
PASL 291536Z AUTO 00000KT 10SM CLR M01/M02 A3003 RMK AO1,PASL,2017-04-29T15:36:00Z,61.72,-157.15,-1.0,-2.0,0,0,,10.0,30.029528,,,TRUE,TRUE,,,,,,,CLR,,,,,,,,VFR,,,,,,,,,,,,METAR,55.0
PASH 291536Z AUTO 09004KT 10SM SCT055 OVC065 M02/M07 A3001 RMK AO1 PNO,PASH,2017-04-29T15:36:00Z,66.27,-166.08,-2.0,-7.0,90,4,,10.0,30.008858,,,TRUE,TRUE,,,,,,,SCT,5500,OVC,6500,,,,,VFR,,,,,,,,,,,,METAR,2.0
PASD 291536Z 14005KT 10SM OVC020 04/01 A2981 RMK AO1 WEA: NONE (AE),PASD,2017-04-29T15:36:00Z,55.33,-160.5,4.0,1.0,140,5,,10.0,29.811024,,,,TRUE,,,,,,,OVC,2000,,,,,,,MVFR,,,,,,,,,,,,METAR,7.0
PANV 291536Z AUTO 10008KT 10SM BKN023 01/M02 A2992 RMK AO1,PANV,2017-04-29T15:36:00Z,62.65,-160.18,1.0,-2.0,100,8,,10.0,29.920275,,,TRUE,TRUE,,,,,,,BKN,2300,,,,,,,MVFR,,,,,,,,,,,,METAR,99.0
PAMD 291536Z AUTO 08014KT 10SM BKN032 BKN055 OVC065 06/02 A2998 RMK AO1,PAMD,2017-04-29T15:36:00Z,59.43,-146.3,6.0,2.0,80,14,,10.0,29.97933,,,TRUE,TRUE,,,,,,,BKN,3200,BKN,5500,OVC,6500,,,VFR,,,,,,,,,,,,METAR,14.0
PAKP 291536Z AUTO 19006KT 10SM OVC060 M06/M11 A2995 RMK AO1,PAKP,2017-04-29T15:36:00Z,68.13,-151.73,-6.0,-11.0,190,6,,10.0,29.949802,,,TRUE,TRUE,,,,,,,OVC,6000,,,,,,,VFR,,,,,,,,,,,,METAR,642.0
PAKK 291536Z AUTO 36005KT 10SM SCT080 SCT110 03/M08 A2992 RMK AO1,PAKK,2017-04-29T15:36:00Z,64.93,-161.15,3.0,-8.0,360,5,,10.0,29.920275,,,TRUE,TRUE,,,,,,,SCT,8000,SCT,11000,,,,,VFR,,,,,,,,,,,,METAR,47.0
PAIN 291536Z AUTO 00000KT 10SM CLR M01/M03 A2999 RMK AO1,PAIN,2017-04-29T15:36:00Z,63.73,-148.92,-1.0,-3.0,0,0,,10.0,29.991142,,,TRUE,TRUE,,,,,,,CLR,,,,,,,,VFR,,,,,,,,,,,,METAR,524.0
KWST 291536Z AUTO 23007KT 10SM OVC008 18/15 A3000 RMK AO2 CIG 006V012 T01830150,KWST,2017-04-29T15:36:00Z,41.35,-71.8,18.3,15.0,230,7,,10.0,30.0,,,TRUE,TRUE,,,,,,,OVC,800,,,,,,,IFR,,,,,,,,,,,,METAR,21.0
KMNN 291536Z AUTO 04011KT 1 3/4SM VCTS RA BR OVC005 14/13 A3010 RMK AO2 LTG DSNT E AND SE TSB1457E18 PRESFR P0015 T01390128,KMNN,2017-04-29T15:36:00Z,40.62,-83.07,13.9,12.8,40,11,,1.75,30.100393,,,TRUE,TRUE,,,,,,VCTS RA BR,OVC,500,,,,,,,IFR,,,,,,0.15,,,,,,METAR,301.0
KLPR 291536Z AUTO 04008KT 9SM -RA OVC020 08/04 A3020 RMK AO2 LTG DSNT S P0002 T00780044,KLPR,2017-04-29T15:36:00Z,41.35,-82.18,7.8,4.4,40,8,,9.0,30.200787,,,TRUE,TRUE,,,,,,-RA,OVC,2000,,,,,,,MVFR,,,,,,0.02,,,,,,METAR,241.0
KAVC 291536Z AUTO 25007KT 10SM BKN018 26/23 A3024 RMK AO2 T02620228,KAVC,2017-04-29T15:36:00Z,36.68,-78.03,26.2,22.8,250,7,,10.0,30.239174,,,TRUE,TRUE,,,,,,,BKN,1800,,,,,,,MVFR,,,,,,,,,,,,SPECI,135.0
KAUM 291536Z AUTO 06012G18KT 10SM CLR 05/M01 A3022 RMK AO2,KAUM,2017-04-29T15:36:00Z,43.67,-92.92,5.0,-1.0,60,12,18,10.0,30.221457,,,TRUE,TRUE,,,,,,,CLR,,,,,,,,VFR,,,,,,,,,,,,SPECI,375.0
KETH 291536Z AUTO 13005KT 10SM CLR 09/M05 A3035 RMK AO2,KETH,2017-04-29T15:36:00Z,45.78,-96.55,9.0,-5.0,130,5,,10.0,30.351377,,,TRUE,TRUE,,,,,,,CLR,,,,,,,,VFR,,,,,,,,,,,,SPECI,313.0
KJEF 291536Z 05008KT 8SM TSRA BKN012 BKN019 OVC038 16/14 A2983 RMK AO2 LTG DSNT ALQDS RAE29B32 TSE05B30 P0005 T01610139,KJEF,2017-04-29T15:36:00Z,38.6,-92.15,16.1,13.9,50,8,,8.0,29.828741,,,,TRUE,,,,,,TSRA,BKN,1200,BKN,1900,OVC,3800,,,MVFR,,,,,,0.05,,,,,,METAR,168.0
KHYX 291536Z AUTO 05007G16KT 10SM BKN027 09/00 A3020 RMK AO2,KHYX,2017-04-29T15:36:00Z,43.43,-83.87,9.0,0.0,50,7,16,10.0,30.200787,,,TRUE,TRUE,,,,,,,BKN,2700,,,,,,,MVFR,,,,,,,,,,,,SPECI,183.0
KGYL 291536Z AUTO 08010G15KT 10SM CLR 09/M01 A3029 RMK AO2 T00861012,KGYL,2017-04-29T15:36:00Z,44.77,-94.08,8.6,-1.2,80,10,15,10.0,30.28937,,,TRUE,TRUE,,,,,,,CLR,,,,,,,,VFR,,,,,,,,,,,,SPECI,302.0
KORS 291535Z AUTO 14003KT 10SM SCT015 09/06 A3027 RMK AO2,KORS,2017-04-29T15:35:00Z,48.7,-122.92,9.0,6.0,140,3,,10.0,30.268702,,,TRUE,TRUE,,,,,,,SCT,1500,,,,,,,VFR,,,,,,,,,,,,METAR,9.0
KOLU 291535Z AUTO 04017G21KT 10SM FEW055 06/01 A3011 RMK AO2 RVRNO,KOLU,2017-04-29T15:35:00Z,41.45,-97.32,6.0,1.0,40,17,21,10.0,30.109253,,,TRUE,TRUE,,,,,,,FEW,5500,,,,,,,VFR,,,,,,,,,,,,METAR,440.0
KOGS 291535Z AUTO 22013G17KT 10SM CLR 19/08 A2995 RMK AO2 T01850083 TSNO,KOGS,2017-04-29T15:35:00Z,44.67,-75.47,18.5,8.3,220,13,17,10.0,29.949802,,,TRUE,TRUE,,,TRUE,,,,CLR,,,,,,,,VFR,,,,,,,,,,,,METAR,91.0
KOCH 291535Z 17016G23KT FEW020 BKN026 OVC040 26/22 A2968 RMK AO1 LTG DSNT E,KOCH,2017-04-29T15:35:00Z,31.57,-94.72,26.0,22.0,170,16,23,,29.681103,,,,TRUE,,,,,,,FEW,2000,BKN,2600,OVC,4000,,,,,,,,,,,,,,,METAR,108.0
KMWM 291535Z AUTO 05012G15KT 10SM CLR 07/M01 A3024 RMK AO2,KMWM,2017-04-29T15:35:00Z,43.9,-95.1,7.0,-1.0,50,12,15,10.0,30.239174,,,TRUE,TRUE,,,,,,,CLR,,,,,,,,VFR,,,,,,,,,,,,METAR,430.0
KMSV 291535Z AUTO 29011G20KT 10SM SCT031 BKN038 19/14 A3003 RMK AO1,KMSV,2017-04-29T15:35:00Z,41.7,-74.78,19.0,14.0,290,11,20,10.0,30.029528,,,TRUE,TRUE,,,,,,,SCT,3100,BKN,3800,,,,,VFR,,,,,,,,,,,,METAR,428.0
KMMI 291535Z AUTO 22007KT 10SM CLR 29/18 A3014 RMK,KMMI,2017-04-29T15:35:00Z,35.4,-84.57,29.0,18.0,220,7,,10.0,30.138779,,,TRUE,,,,,,,,CLR,,,,,,,,VFR,,,,,,,,,,,,METAR,266.0
KMKY 291535Z AUTO 14014G22KT 10SM FEW040 31/19 A3011 RMK AO1,KMKY,2017-04-29T15:35:00Z,26.0,-81.67,31.0,19.0,140,14,22,10.0,30.109253,,,TRUE,TRUE,,,,,,,FEW,4000,,,,,,,VFR,,,,,,,,,,,,METAR,2.0
KMJQ 291535Z AUTO 07013KT 10SM CLR 05/00 A3023 RMK AO2,KMJQ,2017-04-29T15:35:00Z,43.63,-94.97,5.0,0.0,70,13,,10.0,30.230314,,,TRUE,TRUE,,,,,,,CLR,,,,,,,,VFR,,,,,,,,,,,,METAR,441.0
KMCX 291535Z AUTO 06003G09KT 7SM -RA OVC015 11/10 A3010 RMK AO2 P0002 T01070097,KMCX,2017-04-29T15:35:00Z,40.72,-86.77,10.7,9.7,60,3,9,7.0,30.100393,,,TRUE,TRUE,,,,,,-RA,OVC,1500,,,,,,,MVFR,,,,,,0.02,,,,,,METAR,206.0
KLUL 291535Z AUTO 16008G14KT 10SM BKN020 OVC027 27/23 A2998 RMK AO2 T02660233,KLUL,2017-04-29T15:35:00Z,31.67,-89.17,26.6,23.3,160,8,14,10.0,29.97933,,,TRUE,TRUE,,,,,,,BKN,2000,OVC,2700,,,,,MVFR,,,,,,,,,,,,METAR,73.0
KLKV 291535Z AUTO 11003KT 10SM CLR 04/M03 A3028 RMK AO1,KLKV,2017-04-29T15:35:00Z,42.17,-120.4,4.0,-3.0,110,3,,10.0,30.280512,,,TRUE,TRUE,,,,,,,CLR,,,,,,,,VFR,,,,,,,,,,,,METAR,1441.0
KYKN 291535Z AUTO 04012G19KT 10SM CLR 08/M02 A3019 RMK AO1,KYKN,2017-04-29T15:35:00Z,42.92,-97.37,8.0,-2.0,40,12,19,10.0,30.188976,,,TRUE,TRUE,,,,,,,CLR,,,,,,,,VFR,,,,,,,,,,,,METAR,398.0
KY63 291535Z AUTO 11005KT 10SM CLR 08/M04 A3034 RMK AO2 T00781037,KY63,2017-04-29T15:35:00Z,45.98,-96.0,7.8,-3.7,110,5,,10.0,30.339567,,,TRUE,TRUE,,,,,,,CLR,,,,,,,,VFR,,,,,,,,,,,,METAR,367.0
KXVG 291535Z AUTO 00000KT 10SM CLR 08/M06 A3035 RMK AO2,KXVG,2017-04-29T15:35:00Z,46.98,-94.2,8.0,-6.0,0,0,,10.0,30.351377,,,TRUE,TRUE,,,,,,,CLR,,,,,,,,VFR,,,,,,,,,,,,METAR,407.0
KVBT 291535Z AUTO 17016G22KT 10SM SCT023 BKN032 23/20 A2963 RMK AO1 LTG DSNT SW,KVBT,2017-04-29T15:35:00Z,36.35,-94.22,23.0,20.0,170,16,22,10.0,29.630905,,,TRUE,TRUE,,,,,,,SCT,2300,BKN,3200,,,,,VFR,,,,,,,,,,,,METAR,395.0
KUYF 291535Z AUTO 17006G09KT 5SM RA SCT060 SCT070 OVC100 17/16 A3011 RMK AO2 LTG DSNT NE THRU S P0011,KUYF,2017-04-29T15:35:00Z,39.93,-83.47,17.0,16.0,170,6,9,5.0,30.109253,,,TRUE,TRUE,,,,,,RA,SCT,6000,SCT,7000,OVC,10000,,,MVFR,,,,,,0.11,,,,,,METAR,330.0
KUTA 291535Z AUTO 16020G25KT 10SM SCT029 BKN036 26/21 A2987 RMK AO2 TSNO,KUTA,2017-04-29T15:35:00Z,34.68,-90.35,26.0,21.0,160,20,25,10.0,29.870079,,,TRUE,TRUE,,,TRUE,,,,SCT,2900,BKN,3600,,,,,VFR,,,,,,,,,,,,METAR,59.0
KU42 291535Z AUTO 36012KT 10SM CLR 08/00 A3018 RMK AO1 T00760001,KU42,2017-04-29T15:35:00Z,40.62,-111.98,7.6,0.1,360,12,,10.0,30.180119,,,TRUE,TRUE,,,,,,,CLR,,,,,,,,VFR,,,,,,,,,,,,METAR,1402.0
KTME 291535Z AUTO 16019G25KT 3SM HZ OVC020 28/24 A2966 RMK AO2,KTME,2017-04-29T15:35:00Z,29.8,-95.9,28.0,24.0,160,19,25,3.0,29.660433,,,TRUE,TRUE,,,,,,HZ,OVC,2000,,,,,,,MVFR,,,,,,,,,,,,METAR,51.0
KSXU 291535Z AUTO 02015G22KT 5SM BR OVC008 00/00 A2990 RMK AO2 T00000000,KSXU,2017-04-29T15:35:00Z,34.93,-104.65,0.0,0.0,20,15,22,5.0,29.899607,,,TRUE,TRUE,,,,,,BR,OVC,800,,,,,,,IFR,,,,,,,,,,,,METAR,1460.0
KSVC 291535Z AUTO 30015G21KT 10SM CLR 10/M09 A2988 RMK AO2 T01001086,KSVC,2017-04-29T15:35:00Z,32.63,-108.15,10.0,-8.6,300,15,21,10.0,29.878937,,,TRUE,TRUE,,,,,,,CLR,,,,,,,,VFR,,,,,,,,,,,,METAR,1659.0
KSTF 291535Z AUTO 17014G22KT 10SM BKN026 OVC032 27/21 A2998 RMK AO2,KSTF,2017-04-29T15:35:00Z,33.43,-88.85,27.0,21.0,170,14,22,10.0,29.97933,,,TRUE,TRUE,,,,,,,BKN,2600,OVC,3200,,,,,MVFR,,,,,,,,,,,,METAR,102.0
KSPF 291535Z AUTO VRB06KT 10SM CLR 07/M09 A3029 RMK AO2,KSPF,2017-04-29T15:35:00Z,44.47,-103.77,7.0,-9.0,0,6,,10.0,30.28937,,,TRUE,TRUE,,,,,,,CLR,,,,,,,,VFR,,,,,,,,,,,,METAR,1188.0
KSMN 291535Z AUTO 02003KT 10SM CLR 04/M03 A3027 RMK AO1,KSMN,2017-04-29T15:35:00Z,45.12,-113.87,4.0,-3.0,20,3,,10.0,30.268702,,,TRUE,TRUE,,,,,,,CLR,,,,,,,,VFR,,,,,,,,,,,,METAR,1233.0
KSLG 291535Z AUTO 17014G26KT 10SM TS SCT020 BKN026 OVC035 23/19 A2960 RMK AO1 LTG DSNT SW TSE1456B16,KSLG,2017-04-29T15:35:00Z,36.2,-94.47,23.0,19.0,170,14,26,10.0,29.601377,,,TRUE,TRUE,,,,,,TS,SCT,2000,BKN,2600,OVC,3500,,,MVFR,,,,,,,,,,,,METAR,300.0
KSKX 291535Z 25014KT 7SM M01/M08 A2988 RMK AO1,KSKX,2017-04-29T15:35:00Z,36.45,-105.67,-1.0,-8.0,250,14,,7.0,29.878937,,,,TRUE,,,,,,,,,,,,,,,,,,,,,,,,,,,METAR,2161.0
KSGT 291535Z AUTO 17021G27KT 10SM FEW026 BKN032 OVC038 A2980 RMK AO1,KSGT,2017-04-29T15:35:00Z,34.6,-91.57,,,170,21,27,10.0,29.799213,,,TRUE,TRUE,,,,,,,FEW,2600,BKN,3200,OVC,3800,,,VFR,,,,,,,,,,,,METAR,68.0
KRZT 291535Z AUTO 16005KT 2 1/2SM +VCTSRA SCT014 BKN055 OVC075 15/15 A3015 RMK AO2 P0015 LTG DSNT ALQS,KRZT,2017-04-29T15:35:00Z,39.43,-83.02,15.0,15.0,160,5,,2.5,30.15059,,,TRUE,TRUE,,,,,,VCTS +RA,SCT,1400,BKN,5500,OVC,7500,,,IFR,,,,,,0.15,,,,,,METAR,221.0
KRZL 291535Z AUTO 04009KT 10SM BKN026 OVC040 11/07 A3012 RMK AO2,KRZL,2017-04-29T15:35:00Z,40.95,-87.18,11.0,7.0,40,9,,10.0,30.121063,,,TRUE,TRUE,,,,,,,BKN,2600,OVC,4000,,,,,MVFR,,,,,,,,,,,,METAR,213.0
KLGD 291535Z AUTO 00000KT 10SM CLR 06/01 A3027 RMK AO1,KLGD,2017-04-29T15:35:00Z,45.27,-118.0,6.0,1.0,0,0,,10.0,30.268702,,,TRUE,TRUE,,,,,,,CLR,,,,,,,,VFR,,,,,,,,,,,,METAR,827.0
KJRB 291535Z 31004KT 10SM FEW045 26/17 A2999 RMK AO2 SLP300 PWINO FZRANO RVRNO,KJRB,2017-04-29T15:35:00Z,40.7,-74.02,26.0,17.0,310,4,,10.0,29.991142,1030.0,,,TRUE,,,,TRUE,TRUE,,FEW,4500,,,,,,,VFR,,,,,,,,,,,,METAR,7.0
KJHW 291535Z AUTO 36005KT 5SM BKN005 OVC015 11/09 A3011 RMK AO1,KJHW,2017-04-29T15:35:00Z,42.13,-79.27,11.0,9.0,360,5,,5.0,30.109253,,,TRUE,TRUE,,,,,,,BKN,500,OVC,1500,,,,,IFR,,,,,,,,,,,,METAR,525.0
KIFA 291535Z AUTO 05015G20KT 10SM BKN100 06/02 A3014 RMK AO2 T00620018,KIFA,2017-04-29T15:35:00Z,42.47,-93.27,6.2,1.8,50,15,20,10.0,30.138779,,,TRUE,TRUE,,,,,,,BKN,10000,,,,,,,VFR,,,,,,,,,,,,METAR,347.0
KIDI 291535Z AUTO 26010G16KT 10SM CLR 21/17 A3012 RMK A01,KIDI,2017-04-29T15:35:00Z,40.62,-79.08,21.0,17.0,260,10,16,10.0,30.121063,,,TRUE,TRUE,,,,,,,CLR,,,,,,,,VFR,,,,,,,,,,,,METAR,429.0
KI69 291535Z AUTO 15004KT 10SM SCT002 OVC080 A3012 RMK AO2,KI69,2017-04-29T15:35:00Z,39.08,-84.22,,,150,4,,10.0,30.121063,,,TRUE,TRUE,,,,,,,SCT,200,OVC,8000,,,,,VFR,,,,,,,,,,,,METAR,255.0
KI67 291535Z AUTO 00000KT 10SM OVC090 17/15 A3011 RMK AO1,KI67,2017-04-29T15:35:00Z,39.25,-84.78,17.0,15.0,0,0,,10.0,30.109253,,,TRUE,TRUE,,,,,,,OVC,9000,,,,,,,VFR,,,,,,,,,,,,METAR,178.0
KHDN 291535Z AUTO 11010KT 10SM CLR 01/M10 A3008 RMK AO1,KHDN,2017-04-29T15:35:00Z,40.47,-107.22,1.0,-10.0,110,10,,10.0,30.079725,,,TRUE,TRUE,,,,,,,CLR,,,,,,,,VFR,,,,,,,,,,,,METAR,2012.0
KGPC 291535Z AUTO 11008KT 5SM BR BKN003 OVC011 13/13 A3005 RMK AO2 P0001,KGPC,2017-04-29T15:35:00Z,39.63,-86.82,13.0,13.0,110,8,,5.0,30.050198,,,TRUE,TRUE,,,,,,BR,BKN,300,OVC,1100,,,,,LIFR,,,,,,0.01,,,,,,METAR,257.0
KFOD 291535Z AUTO 05014G18KT 10SM CLR 07/00 A3015 RMK AO1,KFOD,2017-04-29T15:35:00Z,42.53,-94.17,7.0,0.0,50,14,18,10.0,30.15059,,,TRUE,TRUE,,,,,,,CLR,,,,,,,,VFR,,,,,,,,,,,,METAR,355.0
KFMM 291535Z AUTO 03017G23KT 10SM SCT023 BKN030 OVC050 01/M03 A3018 RMK AO2 T00111027,KFMM,2017-04-29T15:35:00Z,40.33,-103.8,1.1,-2.7,30,17,23,10.0,30.180119,,,TRUE,TRUE,,,,,,,SCT,2300,BKN,3000,OVC,5000,,,MVFR,,,,,,,,,,,,METAR,1393.0
KFLP 291535Z 15007G15KT 9SM FEW027 BKN034 OVC060 A2968 RMK AO1,KFLP,2017-04-29T15:35:00Z,36.28,-92.58,,,150,7,15,9.0,29.681103,,,,TRUE,,,,,,,FEW,2700,BKN,3400,OVC,6000,,,VFR,,,,,,,,,,,,METAR,219.0
KFKL 291535Z 27007KT 2SM OVC004 14/12 A3012 RMK AO1,KFKL,2017-04-29T15:35:00Z,41.37,-79.87,14.0,12.0,270,7,,2.0,30.121063,,,,TRUE,,,,,,,OVC,400,,,,,,,LIFR,,,,,,,,,,,,METAR,469.0
KFFL 291535Z AUTO 07015G23KT 4SM HZ FEW016 OVC024 08/05 A3008 RMK AO2 PWINO,KFFL,2017-04-29T15:35:00Z,41.03,-91.97,8.0,5.0,70,15,23,4.0,30.079725,,,TRUE,TRUE,,,,,TRUE,HZ,FEW,1600,OVC,2400,,,,,MVFR,,,,,,,,,,,,METAR,244.0
KEAR 291535Z AUTO 03019KT 10SM OVC041 05/M02 A3008 RMK AO1,KEAR,2017-04-29T15:35:00Z,40.72,-99.0,5.0,-2.0,30,19,,10.0,30.079725,,,TRUE,TRUE,,,,,,,OVC,4100,,,,,,,VFR,,,,,,,,,,,,METAR,649.0
KDEH 291535Z AUTO 06010G18KT 10SM CLR 05/M01 A3020 RMK AO2,KDEH,2017-04-29T15:35:00Z,43.27,-91.72,5.0,-1.0,60,10,18,10.0,30.200787,,,TRUE,TRUE,,,,,,,CLR,,,,,,,,VFR,,,,,,,,,,,,METAR,353.0
KCVO 291535Z 00000KT 10SM FEW005 08/05 A3031 RMK AO1,KCVO,2017-04-29T15:35:00Z,44.5,-123.27,8.0,5.0,0,0,,10.0,30.31004,,,,TRUE,,,,,,,FEW,500,,,,,,,VFR,,,,,,,,,,,,METAR,75.0
KCVN 291535Z AUTO 01026G33KT 10SM BKN010 03/M01 A2987 RMK AO1,KCVN,2017-04-29T15:35:00Z,34.42,-103.07,3.0,-1.0,10,26,33,10.0,29.870079,,,TRUE,TRUE,,,,,,,BKN,1000,,,,,,,MVFR,,,,,,,,,,,,METAR,1284.0
KCSQ 291535Z AUTO 06016G27KT 7SM -RA BKN015 06/05 A3003 RMK AO2,KCSQ,2017-04-29T15:35:00Z,41.02,-94.37,6.0,5.0,60,16,27,7.0,30.029528,,,TRUE,TRUE,,,,,,-RA,BKN,1500,,,,,,,MVFR,,,,,,,,,,,,METAR,394.0
KCLS 291535Z AUTO 00000KT 10SM CLR 07/05 A3030 RMK AO2,KCLS,2017-04-29T15:35:00Z,46.68,-122.98,7.0,5.0,0,0,,10.0,30.301182,,,TRUE,TRUE,,,,,,,CLR,,,,,,,,VFR,,,,,,,,,,,,METAR,54.0
KCKI 291535Z AUTO 19006KT 10SM BKN028 BKN035 28/20 A3022 RMK AO2,KCKI,2017-04-29T15:35:00Z,33.72,-79.85,28.0,20.0,190,6,,10.0,30.221457,,,TRUE,TRUE,,,,,,,BKN,2800,BKN,3500,,,,,MVFR,,,,,,,,,,,,METAR,21.0
KCIN 291535Z AUTO 05017G23KT 10SM OVC110 07/03 A3010 RMK AO2,KCIN,2017-04-29T15:35:00Z,42.03,-94.77,7.0,3.0,50,17,23,10.0,30.100393,,,TRUE,TRUE,,,,,,,OVC,11000,,,,,,,VFR,,,,,,,,,,,,METAR,375.0
KC62 291535Z AUTO 07010KT 4SM -RA OVC029 09/07 A3014 RMK AO2 T00950069,KC62,2017-04-29T15:35:00Z,41.47,-85.25,9.5,6.9,70,10,,4.0,30.138779,,,TRUE,TRUE,,,,,,-RA,OVC,2900,,,,,,,MVFR,,,,,,,,,,,,METAR,306.0
KBVX 291535Z AUTO 14010G18KT 060V180 10SM FEW026 BKN033 OVC050 26/20 A2981 RMK AO1,KBVX,2017-04-29T15:35:00Z,35.73,-91.65,26.0,20.0,140,10,18,10.0,29.811024,,,TRUE,TRUE,,,,,,,FEW,2600,BKN,3300,OVC,5000,,,VFR,,,,,,,,,,,,METAR,141.0
KBTP 291535Z AUTO 28006KT 230V300 10SM BKN012 BKN018 19/16 A3011 RMK AO1,KBTP,2017-04-29T15:35:00Z,40.77,-79.95,19.0,16.0,280,6,,10.0,30.109253,,,TRUE,TRUE,,,,,,,BKN,1200,BKN,1800,,,,,MVFR,,,,,,,,,,,,METAR,380.0
KBID 291535Z AUTO 22015G21KT 1 3/4SM BR OVC003 17/14 A3000 RMK AO2 VIS 3/4V4,KBID,2017-04-29T15:35:00Z,41.17,-71.58,17.0,14.0,220,15,21,1.75,30.0,,,TRUE,TRUE,,,,,,BR,OVC,300,,,,,,,LIFR,,,,,,,,,,,,METAR,33.0
KAWO 291535Z AUTO 00000KT 10SM CLR 06/01 A3033 RMK AO1,KAWO,2017-04-29T15:35:00Z,48.17,-122.17,6.0,1.0,0,0,,10.0,30.33071,,,TRUE,TRUE,,,,,,,CLR,,,,,,,,VFR,,,,,,,,,,,,METAR,42.0
KARW 291535Z AUTO 20011G17KT 5SM HZ SCT027 26/22 A3022 RMK AO2,KARW,2017-04-29T15:35:00Z,32.42,-80.63,26.0,22.0,200,11,17,5.0,30.221457,,,TRUE,TRUE,,,,,,HZ,SCT,2700,,,,,,,MVFR,,,,,,,,,,,,METAR,4.0
KARG 291535Z AUTO 16024G27KT 10SM FEW050 26/21 A2983 RMK AO1,KARG,2017-04-29T15:35:00Z,36.12,-90.92,26.0,21.0,160,24,27,10.0,29.828741,,,TRUE,TRUE,,,,,,,FEW,5000,,,,,,,VFR,,,,,,,,,,,,METAR,83.0
KANK 291535Z AUTO 36005KT 4SM BKN015 OVC021 M02/M04 A3014 RMK AO1 T10231042,KANK,2017-04-29T15:35:00Z,38.53,-106.05,-2.3,-4.2,360,5,,4.0,30.138779,,,TRUE,TRUE,,,,,,,BKN,1500,OVC,2100,,,,,MVFR,,,,,,,,,,,,METAR,2293.0
KALM 291535Z AUTO 17011KT 10SM CLR 07/03 A2984 RMK AO2,KALM,2017-04-29T15:35:00Z,32.82,-105.97,7.0,3.0,170,11,,10.0,29.840551,,,TRUE,TRUE,,,,,,,CLR,,,,,,,,VFR,,,,,,,,,,,,METAR,1279.0
KAJZ 291535Z AUTO 18004KT 10SM BKN100 05/03 A2998 RMK AO2 T00490027,KAJZ,2017-04-29T15:35:00Z,38.78,-108.07,4.9,2.7,180,4,,10.0,29.97933,,,TRUE,TRUE,,,,,,,BKN,10000,,,,,,,VFR,,,,,,,,,,,,METAR,1583.0
KAFJ 291535Z AUTO 25008KT 10SM FEW037 SCT110 20/16 A3014 RMK AO1,KAFJ,2017-04-29T15:35:00Z,40.12,-80.27,20.0,16.0,250,8,,10.0,30.138779,,,TRUE,TRUE,,,,,,,FEW,3700,SCT,11000,,,,,VFR,,,,,,,,,,,,METAR,361.0
KAEL 291535Z AUTO 06011KT 10SM CLR 04/M02 A3024 RMK AO2,KAEL,2017-04-29T15:35:00Z,43.68,-93.37,4.0,-2.0,60,11,,10.0,30.239174,,,TRUE,TRUE,,,,,,,CLR,,,,,,,,VFR,,,,,,,,,,,,METAR,383.0
K8B0 291535Z AUTO 31015G22KT 10SM BKN060 BKN080 18/04 A2989 RMK AO2,K8B0,2017-04-29T15:35:00Z,,,18.0,4.0,310,15,22,10.0,29.890747,,,TRUE,TRUE,,,,,,,BKN,6000,BKN,8000,,,,,VFR,,,,,,,,,,,,METAR,
K74V 291535Z AUTO 00000KT 10SM CLR 05/M06 A3015 RMK AO2,K74V,2017-04-29T15:35:00Z,40.28,-110.05,5.0,-6.0,0,0,,10.0,30.15059,,,TRUE,TRUE,,,,,,,CLR,,,,,,,,VFR,,,,,,,,,,,,METAR,1576.0
K4S2 291535Z AUTO 00000KT 10SM CLR 07/02 A3029 RMK AO2,K4S2,2017-04-29T15:35:00Z,,,7.0,2.0,0,0,,10.0,30.28937,,,TRUE,TRUE,,,,,,,CLR,,,,,,,,VFR,,,,,,,,,,,,METAR,
K42J 291535Z AUTO 12010KT 10SM FEW033 29/21 A3018 RMK AO1 TSNO,K42J,2017-04-29T15:35:00Z,29.85,-82.05,29.0,21.0,120,10,,10.0,30.180119,,,TRUE,TRUE,,,TRUE,,,,FEW,3300,,,,,,,VFR,,,,,,,,,,,,METAR,60.0
K1P1 291535Z AUTO 29009G22KT 250V310 10SM BKN065 BKN120 24/08 A2987 RMK AO2 T02400077,K1P1,2017-04-29T15:35:00Z,43.78,-71.75,24.0,7.7,290,9,22,10.0,29.870079,,,TRUE,TRUE,,,,,,,BKN,6500,BKN,12000,,,,,VFR,,,,,,,,,,,,METAR,154.0
K06D 291535Z AUTO 20011KT 10SM CLR 11/M06 A3028 RMK AO2,K06D,2017-04-29T15:35:00Z,48.88,-99.62,11.0,-6.0,200,11,,10.0,30.280512,,,TRUE,TRUE,,,,,,,CLR,,,,,,,,VFR,,,,,,,,,,,,METAR,556.0
K04W 291535Z AUTO 06006KT 10SM CLR 08/M02 A3033 RMK AO2,K04W,2017-04-29T15:35:00Z,46.02,-92.9,8.0,-2.0,60,6,,10.0,30.33071,,,TRUE,TRUE,,,,,,,CLR,,,,,,,,VFR,,,,,,,,,,,,METAR,311.0
MMMM 291535Z 18011KT 8SM FEW290 25/03 A3017 RMK 8/002,MMMM,2017-04-29T15:35:00Z,19.85,-101.02,25.0,3.0,180,11,,8.0,30.171259,,,,,,,,,,,FEW,29000,,,,,,,VFR,,,,,,,,,,,,SPECI,1833.0
KRID 291535Z AUTO 19012KT 10SM -RA SCT004 SCT042 BKN100 16/16 A3013 RMK AO2 P0004,KRID,2017-04-29T15:35:00Z,39.75,-84.85,16.0,16.0,190,12,,10.0,30.129921,,,TRUE,TRUE,,,,,,-RA,SCT,400,SCT,4200,BKN,10000,,,VFR,,,,,,0.04,,,,,,SPECI,348.0
KLRY 291535Z AUTO 04013KT 2 1/2SM +RA BKN009 BKN015 OVC023 10/09 A2987 RMK AO2 P0010 LTG DSNT ALQS,KLRY,2017-04-29T15:35:00Z,38.62,-94.35,10.0,9.0,40,13,,2.5,29.870079,,,TRUE,TRUE,,,,,,+RA,BKN,900,BKN,1500,OVC,2300,,,IFR,,,,,,0.1,,,,,,SPECI,279.0
KLKR 291535Z AUTO 19008KT 9SM SCT019 27/23 A3021 RMK AO2,KLKR,2017-04-29T15:35:00Z,34.72,-80.85,27.0,23.0,190,8,,9.0,30.209646,,,TRUE,TRUE,,,,,,,SCT,1900,,,,,,,VFR,,,,,,,,,,,,SPECI,149.0
KIIB 291535Z AUTO 05017G23KT 10SM BKN120 06/01 A3014 RMK AO2,KIIB,2017-04-29T15:35:00Z,42.45,-91.95,6.0,1.0,50,17,23,10.0,30.138779,,,TRUE,TRUE,,,,,,,BKN,12000,,,,,,,VFR,,,,,,,,,,,,SPECI,298.0
KGLY 291535Z AUTO 02013KT 1 1/2SM TSRA OVC006 11/11 A2981 RMK AO2,KGLY,2017-04-29T15:35:00Z,38.35,-93.68,11.0,11.0,20,13,,1.5,29.811024,,,TRUE,TRUE,,,,,,TSRA,OVC,600,,,,,,,IFR,,,,,,,,,,,,SPECI,251.0
KGGE 291535Z AUTO 18007KT 10SM SCT025 SCT032 27/22 A3024 RMK AO2,KGGE,2017-04-29T15:35:00Z,33.32,-79.32,27.0,22.0,180,7,,10.0,30.239174,,,TRUE,TRUE,,,,,,,SCT,2500,SCT,3200,,,,,VFR,,,,,,,,,,,,SPECI,12.0
KD55 291535Z AUTO 19010KT 10SM CLR 12/M07 A3031 RMK AO2,KD55,2017-04-29T15:35:00Z,48.75,-98.4,12.0,-7.0,190,10,,10.0,30.31004,,,TRUE,TRUE,,,,,,,CLR,,,,,,,,VFR,,,,,,,,,,,,SPECI,491.0
KCQW 291535Z AUTO 21010G16KT 170V230 10SM CLR 28/19 A3020 RMK AO2,KCQW,2017-04-29T15:35:00Z,34.72,-79.95,28.0,19.0,210,10,16,10.0,30.200787,,,TRUE,TRUE,,,,,,,CLR,,,,,,,,VFR,,,,,,,,,,,,SPECI,73.0
KAIK 291535Z AUTO 15009KT 10SM OVC016 24/21 A3025 RMK AO2,KAIK,2017-04-29T15:35:00Z,33.65,-81.68,24.0,21.0,150,9,,10.0,30.250984,,,TRUE,TRUE,,,,,,,OVC,1600,,,,,,,MVFR,,,,,,,,,,,,SPECI,161.0
K20U 291535Z AUTO 27007KT 10SM CLR 11/M05 A3030 RMK AO2,K20U,2017-04-29T15:35:00Z,46.93,-103.98,11.0,-5.0,270,7,,10.0,30.301182,,,TRUE,TRUE,,,,,,,CLR,,,,,,,,VFR,,,,,,,,,,,,SPECI,840.0
KPVG 291535Z 26008KT 10SM SCT025 29/22 A3014 RMK AO1,KPVG,2017-04-29T15:35:00Z,36.78,-76.45,29.0,22.0,260,8,,10.0,30.138779,,,,TRUE,,,,,,,SCT,2500,,,,,,,VFR,,,,,,,,,,,,METAR,7.0
KPSO 291535Z AUTO 00000KT 10SM OVC085 00/M04 A2990 RMK AO2 T10021040,KPSO,2017-04-29T15:35:00Z,37.28,-107.05,-0.2,-4.0,0,0,,10.0,29.899607,,,TRUE,TRUE,,,,,,,OVC,8500,,,,,,,VFR,,,,,,,,,,,,METAR,2334.0
KPRX 291535Z 17020G25KT 10SM SCT026 SCT035 26/22 A2961 RMK AO1,KPRX,2017-04-29T15:35:00Z,33.62,-95.45,26.0,22.0,170,20,25,10.0,29.610237,,,,TRUE,,,,,,,SCT,2600,SCT,3500,,,,,VFR,,,,,,,,,,,,METAR,167.0
KPLR 291535Z AUTO 19009G16KT 10SM CLR 28/22 A3009 RMK A01,KPLR,2017-04-29T15:35:00Z,33.57,-86.25,28.0,22.0,190,9,16,10.0,30.088583,,,TRUE,TRUE,,,,,,,CLR,,,,,,,,VFR,,,,,,,,,,,,METAR,148.0
KPIB 291535Z AUTO 15014G23KT 10SM FEW024 BKN031 BKN036 27/21 A2998 RMK AO1,KPIB,2017-04-29T15:35:00Z,31.47,-89.32,27.0,21.0,150,14,23,10.0,29.97933,,,TRUE,TRUE,,,,,,,FEW,2400,BKN,3100,BKN,3600,,,VFR,,,,,,,,,,,,METAR,91.0
KPEA 291535Z AUTO 06006G15KT 360V090 10SM -RA SCT010 BKN024 08/04 A3010 RMK AO2 T00750042,KPEA,2017-04-29T15:35:00Z,41.4,-92.95,7.5,4.2,60,6,15,10.0,30.100393,,,TRUE,TRUE,,,,,,-RA,SCT,1000,BKN,2400,,,,,MVFR,,,,,,,,,,,,METAR,270.0
KOWX 291535Z AUTO 08017KT 3SM OVC008 07/07 A3017 RMK AO1,KOWX,2017-04-29T15:35:00Z,41.03,-83.98,7.0,7.0,80,17,,3.0,30.171259,,,TRUE,TRUE,,,,,,,OVC,800,,,,,,,IFR,,,,,,,,,,,,METAR,233.0
KOTH 291535Z 11004KT 10SM CLR 09/07 A3031 RMK AO1,KOTH,2017-04-29T15:35:00Z,43.42,-124.25,9.0,7.0,110,4,,10.0,30.31004,,,,TRUE,,,,,,,CLR,,,,,,,,VFR,,,,,,,,,,,,METAR,4.0
K08D 291535Z AUTO 24005G10KT 10SM CLR 10/M03 A3027 RMK AO2,K08D,2017-04-29T15:35:00Z,48.3,-102.4,10.0,-3.0,240,5,10,10.0,30.268702,,,TRUE,TRUE,,,,,,,CLR,,,,,,,,VFR,,,,,,,,,,,,METAR,684.0
K0S9 291535Z AUTO 00000KT 10SM OVC026 08/07 A3030 RMK AO2,K0S9,2017-04-29T15:35:00Z,48.05,-122.82,8.0,7.0,0,0,,10.0,30.301182,,,TRUE,TRUE,,,,,,,OVC,2600,,,,,,,MVFR,,,,,,,,,,,,METAR,33.0
K20V 291535Z AUTO 10006KT 10SM SCT046 OVC055 01/M06 A3009 RMK AO2,K20V,2017-04-29T15:35:00Z,40.05,-106.37,1.0,-6.0,100,6,,10.0,30.088583,,,TRUE,TRUE,,,,,,,SCT,4600,OVC,5500,,,,,VFR,,,,,,,,,,,,METAR,2259.0
K24J 291535Z AUTO 14006KT 10SM SCT029 30/22 A3017 RMK A01,K24J,2017-04-29T15:35:00Z,30.3,-83.03,30.0,22.0,140,6,,10.0,30.171259,,,TRUE,TRUE,,,,,,,SCT,2900,,,,,,,VFR,,,,,,,,,,,,METAR,32.0
K4BM 291535Z AUTO 05009G18KT 360V090 OVC001 A3001 RMK AO2 PWINO,K4BM,2017-04-29T15:35:00Z,39.05,-105.52,,,50,9,18,,30.008858,,,TRUE,TRUE,,,,,TRUE,,OVC,100,,,,,,,,,,,,,,,,,,,METAR,3438.0
K33V 291535Z AUTO 08012KT 10SM M04/M11 A3010 RMK AO1,K33V,2017-04-29T15:35:00Z,40.75,-106.28,-4.0,-11.0,80,12,,10.0,30.100393,,,TRUE,TRUE,,,,,,,,,,,,,,,,,,,,,,,,,,,METAR,2484.0
K5H4 291535Z AUTO 22007G12KT 10SM 14/M07 A3031 RMK AO2 PWINO,K5H4,2017-04-29T15:35:00Z,47.78,-99.93,14.0,-7.0,220,7,12,10.0,30.31004,,,TRUE,TRUE,,,,,TRUE,,,,,,,,,,,,,,,,,,,,,,METAR,490.0
K5SM 291535Z AUTO 04006KT 7SM SCT060 BKN070 OVC110 M08/M11 A3000 RMK AO2,K5SM,2017-04-29T15:35:00Z,39.43,-107.38,-8.0,-11.0,40,6,,7.0,30.0,,,TRUE,TRUE,,,,,,,SCT,6000,BKN,7000,OVC,11000,,,VFR,,,,,,,,,,,,METAR,3232.0
K6B9 291535Z AUTO VRB03KT 10SM OVC037 14/10 A3008 RMK AO2,K6B9,2017-04-29T15:35:00Z,42.92,-76.43,14.0,10.0,0,3,,10.0,30.079725,,,TRUE,TRUE,,,,,,,OVC,3700,,,,,,,VFR,,,,,,,,,,,,METAR,316.0
K6L4 291535Z AUTO 00000KT 10SM CLR 26/17 A3014 RMK AO2,K6L4,2017-04-29T15:35:00Z,37.85,-81.92,26.0,17.0,0,0,,10.0,30.138779,,,TRUE,TRUE,,,,,,,CLR,,,,,,,,VFR,,,,,,,,,,,,METAR,508.0
K7BM 291535Z AUTO 00000KT 1 1/2SM -SN OVC009 M06/M07 A3003 RMK AO2,K7BM,2017-04-29T15:35:00Z,38.78,-106.22,-6.0,-7.0,0,0,,1.5,30.029528,,,TRUE,TRUE,,,,,,-SN,OVC,900,,,,,,,IFR,,,,,,,,,,,,METAR,2995.0
K7L2 291535Z AUTO 00000KT 10SM 11/M04 A3032 RMK AO2,K7L2,2017-04-29T15:35:00Z,46.22,-100.25,11.0,-4.0,0,0,,10.0,30.318897,,,TRUE,TRUE,,,,,,,,,,,,,,,,,,,,,,,,,,,METAR,543.0
KAEJ 291535Z AUTO 23003KT 3SM -SN OVC013 M04/M07 A3007 RMK AO2 T10431075,KAEJ,2017-04-29T15:35:00Z,38.82,-106.12,-4.3,-7.5,230,3,,3.0,30.070866,,,TRUE,TRUE,,,,,,-SN,OVC,1300,,,,,,,MVFR,,,,,,,,,,,,METAR,2422.0
KADU 291535Z AUTO 05015G24KT 10SM CLR 06/03 A3008 RMK AO2,KADU,2017-04-29T15:35:00Z,41.7,-94.92,6.0,3.0,50,15,24,10.0,30.079725,,,TRUE,TRUE,,,,,,,CLR,,,,,,,,VFR,,,,,,,,,,,,METAR,392.0
KAIO 291535Z AUTO 05013G21KT 9SM -UP CLR 06/03 A3004 RMK AO2,KAIO,2017-04-29T15:35:00Z,41.38,-95.03,6.0,3.0,50,13,21,9.0,30.041338,,,TRUE,TRUE,,,,,,UP,CLR,,,,,,,,VFR,,,,,,,,,,,,METAR,360.0
KAPS 291535Z AUTO 15012G21KT 10SM OVC020 29/24 A2991 RMK AO2 T02910236,KAPS,2017-04-29T15:35:00Z,,,29.1,23.6,150,12,21,10.0,29.911417,,,TRUE,TRUE,,,,,,,OVC,2000,,,,,,,MVFR,,,,,,,,,,,,METAR,
KAQX 291535Z AUTO 15010KT 8SM SCT030 SCT035 29/20 A3019 RMK AO2,KAQX,2017-04-29T15:35:00Z,32.98,-81.27,29.0,20.0,150,10,,8.0,30.188976,,,TRUE,TRUE,,,,,,,SCT,3000,SCT,3500,,,,,VFR,,,,,,,,,,,,METAR,49.0
KAWG 291535Z AUTO 05019KT 6SM -RA SCT027 OVC046 07/06 A3008 RMK AO2,KAWG,2017-04-29T15:35:00Z,41.27,-91.67,7.0,6.0,50,19,,6.0,30.079725,,,TRUE,TRUE,,,,,,-RA,SCT,2700,OVC,4600,,,,,VFR,,,,,,,,,,,,METAR,230.0
KBAC 291535Z AUTO 18006KT 10SM CLR 09/M05 A3035 RMK AO2,KBAC,2017-04-29T15:35:00Z,46.93,-98.02,9.0,-5.0,180,6,,10.0,30.351377,,,TRUE,TRUE,,,,,,,CLR,,,,,,,,VFR,,,,,,,,,,,,METAR,427.0
KAXA 291535Z AUTO 04015KT 10SM CLR 07/01 A3019 RMK AO2,KAXA,2017-04-29T15:35:00Z,43.07,-94.27,7.0,1.0,40,15,,10.0,30.188976,,,TRUE,TRUE,,,,,,,CLR,,,,,,,,VFR,,,,,,,,,,,,METAR,372.0
KBDN 291535Z AUTO 12004KT 10SM CLR 06/M02 A3024 RMK AO2,KBDN,2017-04-29T15:35:00Z,44.1,-121.2,6.0,-2.0,120,4,,10.0,30.239174,,,TRUE,TRUE,,,,,,,CLR,,,,,,,,VFR,,,,,,,,,,,,METAR,1055.0
KBGF 291535Z AUTO 18009KT 140V210 10SM CLR 29/19 A3007 RMK,KBGF,2017-04-29T15:35:00Z,35.18,-86.07,29.0,19.0,180,9,,10.0,30.070866,,,TRUE,,,,,,,,CLR,,,,,,,,VFR,,,,,,,,,,,,METAR,299.0
KBNL 291535Z AUTO 20005KT 10SM FEW023 SCT028 OVC034 28/22 A3021 RMK AO2,KBNL,2017-04-29T15:35:00Z,33.25,-81.38,28.0,22.0,200,5,,10.0,30.209646,,,TRUE,TRUE,,,,,,,FEW,2300,SCT,2800,OVC,3400,,,VFR,,,,,,,,,,,,METAR,75.0
KBNW 291535Z AUTO 05018G24KT 10SM FEW095 06/02 A3009 RMK AO2,KBNW,2017-04-29T15:35:00Z,42.03,-93.83,6.0,2.0,50,18,24,10.0,30.088583,,,TRUE,TRUE,,,,,,,FEW,9500,,,,,,,VFR,,,,,,,,,,,,METAR,354.0
KBVU 291535Z AUTO 31014G21KT 10SM 16/M07 A3010 RMK AO2,KBVU,2017-04-29T15:35:00Z,35.95,-114.87,16.0,-7.0,310,14,21,10.0,30.100393,,,TRUE,TRUE,,,,,,,,,,,,,,,,,,,,,,,,,,,METAR,671.0
KC07 291535Z AUTO 09006G14KT 040V170 10SM BKN007 OVC013 A3003 RMK AO2,KC07,2017-04-29T15:35:00Z,40.35,-106.7,,,90,6,14,10.0,30.029528,,,TRUE,TRUE,,,,,,,BKN,700,OVC,1300,,,,,IFR,,,,,,,,,,,,METAR,3224.0
KCBF 291535Z AUTO 03015G21KT 10SM CLR 06/04 A3004 RMK AO2,KCBF,2017-04-29T15:35:00Z,41.27,-95.77,6.0,4.0,30,15,21,10.0,30.041338,,,TRUE,TRUE,,,,,,,CLR,,,,,,,,VFR,,,,,,,,,,,,METAR,382.0
KCAV 291535Z AUTO 05019KT 10SM CLR 06/02 A3015 RMK AO2 PWINO,KCAV,2017-04-29T15:35:00Z,42.75,-93.77,6.0,2.0,50,19,,10.0,30.15059,,,TRUE,TRUE,,,,,TRUE,,CLR,,,,,,,,VFR,,,,,,,,,,,,METAR,354.0
KCCA 291535Z AUTO 12008G14KT 080V160 3SM HZ SCT027 BKN035 BKN043 25/22 A2976 RMK AO2,KCCA,2017-04-29T15:35:00Z,35.6,-92.45,25.0,22.0,120,8,14,3.0,29.760826,,,TRUE,TRUE,,,,,,HZ,SCT,2700,BKN,3500,BKN,4300,,,MVFR,,,,,,,,,,,,METAR,157.0
KCCU 291535Z AUTO 1 1/4SM -SN SCT006 BKN010 OVC016 M09/M13 A2998 RMK AO2,KCCU,2017-04-29T15:35:00Z,39.48,-106.15,-9.0,-13.0,,,,1.25,29.97933,,,TRUE,TRUE,,,,,,-SN,SCT,600,BKN,1000,OVC,1600,,,IFR,,,,,,,,,,,,METAR,3680.0
KVNC 291535Z AUTO 14017G24KT 10SM FEW038 31/20 A3011 RMK AO2,KVNC,2017-04-29T15:35:00Z,27.07,-82.43,31.0,20.0,140,17,24,10.0,30.109253,,,TRUE,TRUE,,,,,,,FEW,3800,,,,,,,VFR,,,,,,,,,,,,SPECI,6.0
KSVE 291535Z AUTO 00000KT 10SM CLR 06/M04 A3029 RMK AO2,KSVE,2017-04-29T15:35:00Z,40.37,-120.57,6.0,-4.0,0,0,,10.0,30.28937,,,TRUE,TRUE,,,,,,,CLR,,,,,,,,VFR,,,,,,,,,,,,SPECI,1263.0
KPTS 291535Z AUTO 03016G20KT 2SM +TSRA SCT005 BKN008 OVC016 11/11 A2974 RMK AO2 LTG DSNT ALQS P0028 T01060107,KPTS,2017-04-29T15:35:00Z,37.45,-94.73,10.6,10.7,30,16,20,2.0,29.740158,,,TRUE,TRUE,,,,,,+TSRA,SCT,500,BKN,800,OVC,1600,,,IFR,,,,,,0.28,,,,,,SPECI,290.0
KMNI 291535Z AUTO 17015G18KT 140V210 10SM SCT025 27/20 A3021 RMK AO2,KMNI,2017-04-29T15:35:00Z,33.58,-80.22,27.0,20.0,170,15,18,10.0,30.209646,,,TRUE,TRUE,,,,,,,SCT,2500,,,,,,,VFR,,,,,,,,,,,,SPECI,32.0
KGKT 291535Z AUTO 33004KT 10SM CLR 26/19 A3012 RMK,KGKT,2017-04-29T15:35:00Z,35.85,-83.53,26.0,19.0,330,4,,10.0,30.121063,,,TRUE,,,,,,,,CLR,,,,,,,,VFR,,,,,,,,,,,,METAR,309.0
KDYA 291535Z AUTO 16009G18KT 10SM 27/21 A3002 RMK AO2 T02740205,KDYA,2017-04-29T15:35:00Z,32.47,-87.95,27.4,20.5,160,9,18,10.0,30.02067,,,TRUE,TRUE,,,,,,,,,,,,,,,,,,,,,,,,,,,SPECI,34.0
KCXP 291535Z AUTO 00000KT 10SM CLR 04/M08 A3030 RMK AO2,KCXP,2017-04-29T15:35:00Z,39.18,-119.73,4.0,-8.0,0,0,,10.0,30.301182,,,TRUE,TRUE,,,,,,,CLR,,,,,,,,VFR,,,,,,,,,,,,SPECI,1435.0
KATS 291535Z AUTO 02015G21KT 8SM -RA FEW003 SCT019 BKN027 05/05 A2991 RMK AO2,KATS,2017-04-29T15:35:00Z,32.85,-104.47,5.0,5.0,20,15,21,8.0,29.911417,,,TRUE,TRUE,,,,,,-RA,FEW,300,SCT,1900,BKN,2700,,,MVFR,,,,,,,,,,,,SPECI,1081.0
KANQ 291535Z AUTO 09006KT 10SM FEW035 OVC043 09/02 A3015 RMK,KANQ,2017-04-29T15:35:00Z,41.63,-85.08,9.0,2.0,90,6,,10.0,30.15059,,,TRUE,,,,,,,,FEW,3500,OVC,4300,,,,,VFR,,,,,,,,,,,,METAR,303.0
K2C8 291535Z AUTO 16010KT 10SM CLR 09/M07 A3033 RMK AO2,K2C8,2017-04-29T15:35:00Z,48.78,-97.63,9.0,-7.0,160,10,,10.0,30.33071,,,TRUE,TRUE,,,,,,,CLR,,,,,,,,VFR,,,,,,,,,,,,SPECI,272.0
KFRR 291535Z AUTO 24007KT 10SM CLR 25/18 A3008 RMK AO1,KFRR,2017-04-29T15:35:00Z,38.92,-78.25,25.0,18.0,240,7,,10.0,30.079725,,,TRUE,TRUE,,,,,,,CLR,,,,,,,,VFR,,,,,,,,,,,,SPECI,216.0
KEGV 291535Z AUTO 04011KT 10SM CLR 05/M07 A3028 RMK AO2 T00481068,KEGV,2017-04-29T15:35:00Z,45.93,-89.27,4.8,-6.8,40,11,,10.0,30.280512,,,TRUE,TRUE,,,,,,,CLR,,,,,,,,VFR,,,,,,,,,,,,SPECI,500.0
KGNT 291535Z AUTO 35007KT 10SM SCT026 SCT031 02/M01 A2993 RMK AO2 T00151015,KGNT,2017-04-29T15:35:00Z,35.17,-107.9,1.5,-1.5,350,7,,10.0,29.929134,,,TRUE,TRUE,,,,,,,SCT,2600,SCT,3100,,,,,VFR,,,,,,,,,,,,METAR,1987.0
KGLE 291535Z AUTO 23016G23KT 5SM HZ BKN027 OVC033 27/21 A2960 RMK AO2 T02670208,KGLE,2017-04-29T15:35:00Z,33.65,-97.2,26.7,20.8,230,16,23,5.0,29.601377,,,TRUE,TRUE,,,,,,HZ,BKN,2700,OVC,3300,,,,,MVFR,,,,,,,,,,,,METAR,256.0
KFXY 291535Z AUTO 05010G16KT 10SM CLR 07/M01 A3020 RMK AO2,KFXY,2017-04-29T15:35:00Z,43.23,-93.62,7.0,-1.0,50,10,16,10.0,30.200787,,,TRUE,TRUE,,,,,,,CLR,,,,,,,,VFR,,,,,,,,,,,,METAR,375.0
KFSW 291535Z AUTO 06013G19KT 10SM OVC014 08/08 A3007 RMK AO2 P0001,KFSW,2017-04-29T15:35:00Z,40.67,-91.32,8.0,8.0,60,13,19,10.0,30.070866,,,TRUE,TRUE,,,,,,,OVC,1400,,,,,,,MVFR,,,,,,0.01,,,,,,METAR,221.0
KFMH 291535Z 10SM OVC090 20/16 A2999 RMK AO2 PWINO FZRANO TSNO WEA/ E27006KT,KFMH,2017-04-29T15:35:00Z,41.63,-70.52,20.0,16.0,,,,10.0,29.991142,,,,TRUE,,,TRUE,TRUE,TRUE,,OVC,9000,,,,,,,VFR,,,,,,,,,,,,SPECI,40.0
KESF 291535Z AUTO 18011G20KT 10SM SCT030 OVC039 28/22 A2982 RMK AO2 PK WND 17028/1456 T02830222,KESF,2017-04-29T15:35:00Z,31.4,-92.28,28.3,22.2,180,11,20,10.0,29.819881,,,TRUE,TRUE,,,,,,,SCT,3000,OVC,3900,,,,,VFR,,,,,,,,,,,,METAR,28.0
KEQA 291535Z AUTO 05010G21KT 10SM OVC006 08/08 A2981 RMK AO2,KEQA,2017-04-29T15:35:00Z,37.78,-96.82,8.0,8.0,50,10,21,10.0,29.811024,,,TRUE,TRUE,,,,,,,OVC,600,,,,,,,IFR,,,,,,,,,,,,METAR,420.0
KEOK 291535Z AUTO 06013G19KT 7SM -RA OVC015 08/07 A3005 RMK AO2,KEOK,2017-04-29T15:35:00Z,40.47,-91.42,8.0,7.0,60,13,19,7.0,30.050198,,,TRUE,TRUE,,,,,,-RA,OVC,1500,,,,,,,MVFR,,,,,,,,,,,,METAR,205.0
KEIK 291535Z AUTO 35008KT 2 1/2SM -SN SCT007 OVC013 00/M01 A3020 RMK AO2 T00001006,KEIK,2017-04-29T15:35:00Z,40.02,-105.05,0.0,-0.6,350,8,,2.5,30.200787,,,TRUE,TRUE,,,,,,-SN,SCT,700,OVC,1300,,,,,IFR,,,,,,,,,,,,METAR,1564.0
KEBS 291535Z AUTO 05018KT 10SM CLR 06/01 A3010 RMK AO2,KEBS,2017-04-29T15:35:00Z,42.42,-93.87,6.0,1.0,50,18,,10.0,30.100393,,,TRUE,TRUE,,,,,,,CLR,,,,,,,,VFR,,,,,,,,,,,,METAR,342.0
KDNS 291535Z AUTO 05014G21KT 10SM CLR 06/01 A3011 RMK AO2,KDNS,2017-04-29T15:35:00Z,41.97,-95.37,6.0,1.0,50,14,21,10.0,30.109253,,,TRUE,TRUE,,,,,,,CLR,,,,,,,,VFR,,,,,,,,,,,,METAR,388.0
KD60 291535Z AUTO 00000KT 10SM CLR 09/M02 A3025 RMK AO2,KD60,2017-04-29T15:35:00Z,48.38,-102.9,9.0,-2.0,0,0,,10.0,30.250984,,,TRUE,TRUE,,,,,,,CLR,,,,,,,,VFR,,,,,,,,,,,,METAR,693.0
KD57 291535Z AUTO 23009KT 10SM CLR 12/M08 A3028 RMK AO2,KD57,2017-04-29T15:35:00Z,46.82,-101.87,12.0,-8.0,230,9,,10.0,30.280512,,,TRUE,TRUE,,,,,,,CLR,,,,,,,,VFR,,,,,,,,,,,,METAR,637.0
KCPT 291535Z AUTO 20018G29KT 6SM HZ OVC028 27/23 A2959 RMK AO2,KCPT,2017-04-29T15:35:00Z,32.35,-97.43,27.0,23.0,200,18,29,6.0,29.589567,,,TRUE,TRUE,,,,,,HZ,OVC,2800,,,,,,,MVFR,,,,,,,,,,,,METAR,260.0
KCNC 291535Z AUTO 06018G25KT 5SM -RA OVC018 07/05 A3004 RMK AO2,KCNC,2017-04-29T15:35:00Z,41.02,-93.37,7.0,5.0,60,18,25,5.0,30.041338,,,TRUE,TRUE,,,,,,-RA,OVC,1800,,,,,,,MVFR,,,,,,,,,,,,METAR,320.0
KCMR 291535Z AUTO 35014G20KT 10SM CLR 04/M07 A3003 RMK AO2,KCMR,2017-04-29T15:35:00Z,35.3,-112.2,4.0,-7.0,350,14,20,10.0,30.029528,,,TRUE,TRUE,,,,,,,CLR,,,,,,,,VFR,,,,,,,,,,,,METAR,2036.0
KCMH 291535Z 06006KT 5SM RA BR FEW028 BKN070 OVC085 17/17 A3015 RMK AO2 LTG DSNT ALQDS TSE17B19E32 PRESRR TS MOV E T01720172 PNO $,KCMH,2017-04-29T15:35:00Z,40.0,-82.88,17.2,17.2,60,6,,5.0,30.15059,,,,TRUE,TRUE,,,,,RA BR,FEW,2800,BKN,7000,OVC,8500,,,MVFR,,,,,,,,,,,,METAR,247.0
KCLW 291535Z AUTO 14012G19KT 10SM SCT032 SCT038 29/21 A3012 RMK AO2,KCLW,2017-04-29T15:35:00Z,27.98,-82.75,29.0,21.0,140,12,19,10.0,30.121063,,,TRUE,TRUE,,,,,,,SCT,3200,SCT,3800,,,,,VFR,,,,,,,,,,,,METAR,22.0
KCGC 291535Z AUTO 12009G14KT 080V150 10SM SCT035 SCT045 31/20 A3014 RMK AO2,KCGC,2017-04-29T15:35:00Z,28.87,-82.57,31.0,20.0,120,9,14,10.0,30.138779,,,TRUE,TRUE,,,,,,,SCT,3500,SCT,4500,,,,,VFR,,,,,,,,,,,,METAR,3.0
KCFJ 291535Z AUTO 09011G16KT 7SM RA BKN006 BKN034 OVC060 12/12 A3000 RMK AO2 P0008 T01150115,KCFJ,2017-04-29T15:35:00Z,39.98,-86.92,11.5,11.5,90,11,16,7.0,30.0,,,TRUE,TRUE,,,,,,RA,BKN,600,BKN,3400,OVC,6000,,,IFR,,,,,,0.08,,,,,,METAR,244.0
KCEY 291535Z AUTO 18007KT 10SM SCT028 BKN036 BKN048 25/21 A2999 RMK AO1,KCEY,2017-04-29T15:35:00Z,36.67,-88.37,25.0,21.0,180,7,,10.0,29.991142,,,TRUE,TRUE,,,,,,,SCT,2800,BKN,3600,BKN,4800,,,VFR,,,,,,,,,,,,METAR,176.0
KCDN 291535Z AUTO VRB05G11KT 9SM SCT024 27/21 A3021 RMK AO2,KCDN,2017-04-29T15:35:00Z,34.28,-80.57,27.0,21.0,0,5,11,9.0,30.209646,,,TRUE,TRUE,,,,,,,SCT,2400,,,,,,,VFR,,,,,,,,,,,,METAR,92.0
KHZE 291535Z AUTO 27007KT 10SM CLR 13/M05 A3030 RMK AO2,KHZE,2017-04-29T15:35:00Z,47.28,-101.58,13.0,-5.0,270,7,,10.0,30.301182,,,TRUE,TRUE,,,,,,,CLR,,,,,,,,VFR,,,,,,,,,,,,METAR,553.0
KHNR 291535Z AUTO 05014G23KT 10SM FEW075 FEW085 06/03 A3011 RMK AO2,KHNR,2017-04-29T15:35:00Z,41.58,-95.33,6.0,3.0,50,14,23,10.0,30.109253,,,TRUE,TRUE,,,,,,,FEW,7500,FEW,8500,,,,,VFR,,,,,,,,,,,,METAR,375.0
KHEQ 291535Z AUTO 02016G22KT 10SM OVC060 03/M02 A3015 RMK AO2,KHEQ,2017-04-29T15:35:00Z,40.57,-102.28,3.0,-2.0,20,16,22,10.0,30.15059,,,TRUE,TRUE,,,,,,,OVC,6000,,,,,,,VFR,,,,,,,,,,,,METAR,1137.0
KGWR 291535Z AUTO 10SM CLR 10/M05 A3033 RMK A01,KGWR,2017-04-29T15:35:00Z,46.22,-97.65,10.0,-5.0,,,,10.0,30.33071,,,TRUE,TRUE,,,,,,,CLR,,,,,,,,VFR,,,,,,,,,,,,METAR,386.0
KHSG 291535Z AUTO 22003KT 10SM CLR 01/M01 A3027 RMK AO2 T00081006,KHSG,2017-04-29T15:35:00Z,43.72,-108.38,0.8,-0.6,220,3,,10.0,30.268702,,,TRUE,TRUE,,,,,,,CLR,,,,,,,,VFR,,,,,,,,,,,,SPECI,1494.0
KW99 291535Z AUTO 18007KT 10SM CLR 27/18 A3011 RMK AO2 T02650181,KW99,2017-04-29T15:35:00Z,39.0,-79.15,26.5,18.1,180,7,,10.0,30.109253,,,TRUE,TRUE,,,,,,,CLR,,,,,,,,VFR,,,,,,,,,,,,SPECI,293.0
KW81 291535Z AUTO 20006KT 10SM SCT020 27/24 A3017 RMK AO1 T02690243,KW81,2017-04-29T15:35:00Z,37.18,-78.1,26.9,24.3,200,6,,10.0,30.171259,,,TRUE,TRUE,,,,,,,SCT,2000,,,,,,,VFR,,,,,,,,,,,,SPECI,129.0
KUNI 291535Z AUTO 30006KT 7SM VCTSRA SCT013 BKN060 OVC110 18/18 A3015 RMK AO2 LTG DSNT NW THRU NE P0001 T01800180,KUNI,2017-04-29T15:35:00Z,39.22,-82.23,18.0,18.0,300,6,,7.0,30.15059,,,TRUE,TRUE,,,,,,VCTSRA,SCT,1300,BKN,6000,OVC,11000,,,VFR,,,,,,0.01,,,,,,SPECI,193.0
KSRR 291535Z AUTO 14010KT 1 1/2SM -RA BKN004 OVC009 00/00 A2986 RMK AO2,KSRR,2017-04-29T15:35:00Z,33.47,-105.52,0.0,0.0,140,10,,1.5,29.861221,,,TRUE,TRUE,,,,,,-RA,BKN,400,OVC,900,,,,,LIFR,,,,,,,,,,,,SPECI,2076.0
KMCJ 291535Z AUTO 15023G33KT 3SM OVC016 28/23 A2963 RMK AO1,KMCJ,2017-04-29T15:35:00Z,29.72,-95.4,28.0,23.0,150,23,33,3.0,29.630905,,,TRUE,TRUE,,,,,,,OVC,1600,,,,,,,MVFR,,,,,,,,,,,,SPECI,69.0
KLOT 291535Z AUTO 06021G28KT 10SM CLR 07/03 A3010 RMK AO2 T00740030,KLOT,2017-04-29T15:35:00Z,41.6,-88.1,7.4,3.0,60,21,28,10.0,30.100393,,,TRUE,TRUE,,,,,,,CLR,,,,,,,,VFR,,,,,,,,,,,,SPECI,205.0
KF70 291535Z AUTO 33008KT 10SM CLR 19/M09 A3001 RMK AO1,KF70,2017-04-29T15:35:00Z,33.57,-117.13,19.0,-9.0,330,8,,10.0,30.008858,,,TRUE,TRUE,,,,,,,CLR,,,,,,,,VFR,,,,,,,,,,,,METAR,412.0
KF44 291535Z AUTO 16014G23KT 7SM BKN023 OVC028 27/22 A2961 RMK AO2,KF44,2017-04-29T15:35:00Z,32.17,-95.83,27.0,22.0,160,14,23,7.0,29.610237,,,TRUE,TRUE,,,,,,,BKN,2300,OVC,2800,,,,,MVFR,,,,,,,,,,,,METAR,135.0
KF17 291535Z AUTO 15014G27KT 10SM OVC022 28/25 A2973 RMK AO2 T02810245,KF17,2017-04-29T15:35:00Z,31.83,-94.15,28.1,24.5,150,14,27,10.0,29.731298,,,TRUE,TRUE,,,,,,,OVC,2200,,,,,,,MVFR,,,,,,,,,,,,METAR,97.0
KF05 291535Z AUTO 36015G19KT 10SM OVC014 11/09 A2969 RMK AO1 LTG DSNT NE T01050088,KF05,2017-04-29T15:35:00Z,34.23,-99.28,10.5,8.8,360,15,19,10.0,29.68996,,,TRUE,TRUE,,,,,,,OVC,1400,,,,,,,MVFR,,,,,,,,,,,,METAR,386.0
KF00 291535Z AUTO 19017G27KT 7SM HZ BKN023 OVC031 26/22 A2961 RMK AO2 LTG DSNT N AND NW,KF00,2017-04-29T15:35:00Z,33.62,-96.18,26.0,22.0,190,17,27,7.0,29.610237,,,TRUE,TRUE,,,,,,HZ,BKN,2300,OVC,3100,,,,,MVFR,,,,,,,,,,,,METAR,188.0
KEZF 291535Z AUTO 22006KT 10SM CLR 29/22 A3010 RMK AO2 T02860216,KEZF,2017-04-29T15:35:00Z,38.27,-77.45,28.6,21.6,220,6,,10.0,30.100393,,,TRUE,TRUE,,,,,,,CLR,,,,,,,,VFR,,,,,,,,,,,,METAR,26.0
KETN 291535Z AUTO 31017G24KT 10SM BKN022 BKN027 OVC040 16/11 A2963 RMK AO2 T01570108,KETN,2017-04-29T15:35:00Z,,,15.7,10.8,310,17,24,10.0,29.630905,,,TRUE,TRUE,,,,,,,BKN,2200,BKN,2700,OVC,4000,,,MVFR,,,,,,,,,,,,METAR,
KERV 291535Z AUTO 15018G22KT 5SM HZ OVC023 25/21 A2961 RMK AO2 T02520209,KERV,2017-04-29T15:35:00Z,29.98,-99.08,25.2,20.9,150,18,22,5.0,29.610237,,,TRUE,TRUE,,,,,,HZ,OVC,2300,,,,,,,MVFR,,,,,,,,,,,,METAR,510.0
KEOE 291535Z AUTO 19006KT 10SM OVC012 24/21 A3024 RMK AO2,KEOE,2017-04-29T15:35:00Z,34.32,-81.63,24.0,21.0,190,6,,10.0,30.239174,,,TRUE,TRUE,,,,,,,OVC,1200,,,,,,,MVFR,,,,,,,,,,,,METAR,174.0
KENL 291535Z AUTO 11007KT 10SM SCT085 19/18 A2995 RMK AO2 LTG DSNT W AND NW T01850180,KENL,2017-04-29T15:35:00Z,38.52,-89.1,18.5,18.0,110,7,,10.0,29.949802,,,TRUE,TRUE,,,,,,,SCT,8500,,,,,,,VFR,,,,,,,,,,,,METAR,163.0
KEMV 291535Z AUTO 22008KT BKN024 27/22 A3019 RMK AO2 PWINO,KEMV,2017-04-29T15:35:00Z,36.68,-77.48,27.0,22.0,220,8,,,30.188976,,,TRUE,TRUE,,,,,TRUE,,BKN,2400,,,,,,,,,,,,,,,,,,,METAR,39.0
KEMK 291535Z AUTO 17032G38KT 2 1/2SM HZ CLR 27/24 A2974 RMK A01,KEMK,2017-04-29T15:35:00Z,27.82,-94.32,27.0,24.0,170,32,38,2.5,29.740158,,,TRUE,TRUE,,,,,,HZ,CLR,,,,,,,,IFR,,,,,,,,,,,,METAR,26.0
KELA 291535Z AUTO 17017G28KT 7SM OVC020 29/25 A2965 RMK AO2 T02890251,KELA,2017-04-29T15:35:00Z,29.6,-96.32,28.9,25.1,170,17,28,7.0,29.648623,,,TRUE,TRUE,,,,,,,OVC,2000,,,,,,,MVFR,,,,,,,,,,,,METAR,56.0
KEKS 291535Z AUTO VRB04KT 10SM BKN018 04/M01 A3028 RMK A01,KEKS,2017-04-29T15:35:00Z,45.27,-111.65,4.0,-1.0,0,4,,10.0,30.280512,,,TRUE,TRUE,,,,,,,BKN,1800,,,,,,,MVFR,,,,,,,,,,,,METAR,1641.0
KEIR 291535Z AUTO 18012G22KT 160V250 2 1/2SM BR CLR 26/24 A2988 RMK A01,KEIR,2017-04-29T15:35:00Z,28.63,-91.48,26.0,24.0,180,12,22,2.5,29.878937,,,TRUE,TRUE,,,,,,BR,CLR,,,,,,,,IFR,,,,,,,,,,,,METAR,28.0
KEHY 291535Z AUTO 07015G19KT 10SM SCT008 BKN013 OVC017 M03/M06 A3014 RMK AO2,KEHY,2017-04-29T15:35:00Z,41.73,-106.47,-3.0,-6.0,70,15,19,10.0,30.138779,,,TRUE,TRUE,,,,,,,SCT,800,BKN,1300,OVC,1700,,,MVFR,,,,,,,,,,,,METAR,2225.0
KEHC 291535Z AUTO 15027G36KT 2 1/2SM HZ BKN015 OVC020 28/23 A2978 RMK A01,KEHC,2017-04-29T15:35:00Z,28.43,-92.88,28.0,23.0,150,27,36,2.5,29.778543,,,TRUE,TRUE,,,,,,HZ,BKN,1500,OVC,2000,,,,,IFR,,,,,,,,,,,,METAR,31.0
KEFT 291535Z AUTO 03018G27KT 10SM CLR 07/01 A3014 RMK AO2,KEFT,2017-04-29T15:35:00Z,42.62,-89.6,7.0,1.0,30,18,27,10.0,30.138779,,,TRUE,TRUE,,,,,,,CLR,,,,,,,,VFR,,,,,,,,,,,,METAR,331.0
KEDU 291535Z AUTO 35010G18KT 10SM CLR 17/00 A3012 RMK AO1,KEDU,2017-04-29T15:35:00Z,38.53,-121.78,17.0,0.0,350,10,18,10.0,30.121063,,,TRUE,TRUE,,,,,,,CLR,,,,,,,,VFR,,,,,,,,,,,,METAR,21.0
KEDC 291535Z AUTO 17021G28KT 10SM SCT025 28/22 A2960 RMK AO2,KEDC,2017-04-29T15:35:00Z,30.4,-97.57,28.0,22.0,170,21,28,10.0,29.601377,,,TRUE,TRUE,,,,,,,SCT,2500,,,,,,,VFR,,,,,,,,,,,,METAR,189.0
KECU 291535Z AUTO 19007KT 3SM HZ BKN014 BKN023 BKN030 23/19 A2968 RMK AO2,KECU,2017-04-29T15:35:00Z,29.95,-100.17,23.0,19.0,190,7,,3.0,29.681103,,,TRUE,TRUE,,,,,,HZ,BKN,1400,BKN,2300,BKN,3000,,,MVFR,,,,,,,,,,,,METAR,725.0
KEBG 291535Z AUTO 16016G26KT 7SM CLR 33/22 A2954 RMK AO2 T03260224,KEBG,2017-04-29T15:35:00Z,26.45,-98.13,32.6,22.4,160,16,26,7.0,29.53937,,,TRUE,TRUE,,,,,,,CLR,,,,,,,,VFR,,,,,,,,,,,,METAR,24.0
KEBA 291535Z AUTO 14004KT 10SM SCT017 28/23 A3020 RMK AO2 T02790229,KEBA,2017-04-29T15:35:00Z,34.1,-82.82,27.9,22.9,140,4,,10.0,30.200787,,,TRUE,TRUE,,,,,,,SCT,1700,,,,,,,VFR,,,,,,,,,,,,METAR,184.0
KRTS 291535Z AUTO 12008KT 10SM CLR 06/M07 A3027 RMK AO2,KRTS,2017-04-29T15:35:00Z,39.67,-119.88,6.0,-7.0,120,8,,10.0,30.268702,,,TRUE,TRUE,,,,,,,CLR,,,,,,,,VFR,,,,,,,,,,,,METAR,1540.0
KRQO 291535Z AUTO 05019G27KT 3SM +TSRA BR SCT006 BKN050 OVC060 08/08 A2966 RMK AO2 LTG DSNT ALQDS P0020 T00820077,KRQO,2017-04-29T15:35:00Z,35.47,-98.0,8.2,7.7,50,19,27,3.0,29.660433,,,TRUE,TRUE,,,,,,+TSRA BR,SCT,600,BKN,5000,OVC,6000,,,MVFR,,,,,,0.2,,,,,,METAR,432.0
KRNV 291535Z AUTO 18019G22KT 10SM BKN030 OVC038 27/23 A2987 RMK AO2 T02700233,KRNV,2017-04-29T15:35:00Z,33.77,-90.75,27.0,23.3,180,19,22,10.0,29.870079,,,TRUE,TRUE,,,,,,,BKN,3000,OVC,3800,,,,,MVFR,,,,,,,,,,,,METAR,41.0
KRNH 291535Z AUTO 07013KT 10SM CLR 08/M06 A3031 RMK AO2 T00761058,KRNH,2017-04-29T15:35:00Z,45.15,-92.53,7.6,-5.8,70,13,,10.0,30.31004,,,TRUE,TRUE,,,,,,,CLR,,,,,,,,VFR,,,,,,,,,,,,METAR,304.0
KRMN 291535Z AUTO 20003KT 10SM CLR 27/21 A3015 RMK AO2 T02740211,KRMN,2017-04-29T15:35:00Z,38.4,-77.45,27.4,21.1,200,3,,10.0,30.15059,,,TRUE,TRUE,,,,,,,CLR,,,,,,,,VFR,,,,,,,,,,,,METAR,65.0
KRLD 291535Z AUTO 12003KT 10SM CLR 12/04 A3027 RMK AO2 T01160039,KRLD,2017-04-29T15:35:00Z,46.3,-119.3,11.6,3.9,120,3,,10.0,30.268702,,,TRUE,TRUE,,,,,,,CLR,,,,,,,,VFR,,,,,,,,,,,,METAR,120.0
KRKR 291535Z AUTO 17013G22KT 10SM BKN035 OVC044 25/20 A2960 RMK AO2 LTG DSNT N AND NW T02530203,KRKR,2017-04-29T15:35:00Z,35.02,-94.62,25.3,20.3,170,13,22,10.0,29.601377,,,TRUE,TRUE,,,,,,,BKN,3500,OVC,4400,,,,,VFR,,,,,,,,,,,,METAR,138.0
KRFI 291535Z AUTO 16014G23KT 7SM OVC021 26/22 A2969 RMK AO2 LTG DSNT SE T02640218 PWINO,KRFI,2017-04-29T15:35:00Z,32.15,-94.85,26.4,21.8,160,14,23,7.0,29.68996,,,TRUE,TRUE,,,,,TRUE,,OVC,2100,,,,,,,MVFR,,,,,,,,,,,,METAR,135.0
KREG 291535Z AUTO 15016G22KT 10SM BKN026 OVC032 29/23 A2988 RMK AO2 T02850225,KREG,2017-04-29T15:35:00Z,30.17,-90.93,28.5,22.5,150,16,22,10.0,29.878937,,,TRUE,TRUE,,,,,,,BKN,2600,OVC,3200,,,,,MVFR,,,,,,,,,,,,METAR,4.0
KRAS 291535Z AUTO 16014G17KT 4SM HZ OVC011 28/24 A2961 RMK AO2 T02780241,KRAS,2017-04-29T15:35:00Z,27.82,-97.08,27.8,24.1,160,14,17,4.0,29.610237,,,TRUE,TRUE,,,,,,HZ,OVC,1100,,,,,,,MVFR,,,,,,,,,,,,METAR,2.0
KPXE 291535Z AUTO 14005KT 10SM SCT049 SCT060 29/21 A3018 RMK AO2 T02880214,KPXE,2017-04-29T15:35:00Z,32.52,-83.77,28.8,21.4,140,5,,10.0,30.180119,,,TRUE,TRUE,,,,,,,SCT,4900,SCT,6000,,,,,VFR,,,,,,,,,,,,METAR,127.0
KPVW 291535Z AUTO 34028G34KT 5SM BR OVC011 02/01 A2983 RMK AO2 T00180012,KPVW,2017-04-29T15:35:00Z,34.17,-101.72,1.8,1.2,340,28,34,5.0,29.828741,,,TRUE,TRUE,,,,,,BR,OVC,1100,,,,,,,MVFR,,,,,,,,,,,,METAR,1028.0
KPVE 291535Z AUTO 18009G17KT 10SM BKN026 OVC031 26/20 A2998 RMK A01,KPVE,2017-04-29T15:35:00Z,35.65,-88.2,26.0,20.0,180,9,17,10.0,29.97933,,,TRUE,TRUE,,,,,,,BKN,2600,OVC,3100,,,,,MVFR,,,,,,,,,,,,METAR,149.0
KPUJ 291535Z AUTO 17006KT 7SM SCT027 BKN046 BKN055 28/23 A3016 RMK AO2,KPUJ,2017-04-29T15:35:00Z,33.92,-84.93,28.0,23.0,170,6,,7.0,30.159449,,,TRUE,TRUE,,,,,,,SCT,2700,BKN,4600,BKN,5500,,,VFR,,,,,,,,,,,,METAR,393.0
KPTB 291535Z AUTO 23009KT 7SM SCT019 27/21 A3016 RMK AO2 T02730210,KPTB,2017-04-29T15:35:00Z,37.17,-77.52,27.3,21.0,230,9,,7.0,30.159449,,,TRUE,TRUE,,,,,,,SCT,1900,,,,,,,VFR,,,,,,,,,,,,METAR,59.0
KPSK 291535Z AUTO 22003KT 10SM CLR 27/16 A3023 RMK AO2 T02660158,KPSK,2017-04-29T15:35:00Z,37.12,-80.67,26.6,15.8,220,3,,10.0,30.230314,,,TRUE,TRUE,,,,,,,CLR,,,,,,,,VFR,,,,,,,,,,,,METAR,642.0
KPRG 291535Z AUTO 15009KT 10SM TSRA OVC006 13/13 A3007 RMK AO2 LTG DSNT ALQS P0004 T01280128,KPRG,2017-04-29T15:35:00Z,39.7,-87.67,12.8,12.8,150,9,,10.0,30.070866,,,TRUE,TRUE,,,,,,TSRA,OVC,600,,,,,,,IFR,,,,,,0.04,,,,,,METAR,199.0
KPPO 291535Z AUTO 04006KT 10SM OVC050 11/07 A3013 RMK AO2 T01070067,KPPO,2017-04-29T15:35:00Z,41.57,-86.73,10.7,6.7,40,6,,10.0,30.129921,,,TRUE,TRUE,,,,,,,OVC,5000,,,,,,,VFR,,,,,,,,,,,,METAR,248.0
KPPA 291535Z AUTO 32021G27KT 1 1/4SM -SN OVC004 03/02 A2986 RMK AO2 LTG DSNT E T00270020,KPPA,2017-04-29T15:35:00Z,35.62,-101.0,2.7,2.0,320,21,27,1.25,29.861221,,,TRUE,TRUE,,,,,,-SN,OVC,400,,,,,,,LIFR,,,,,,,,,,,,METAR,989.0
KPOY 291535Z AUTO 00000KT 10SM BKN013 BKN019 03/M01 A3024 RMK AO2,KPOY,2017-04-29T15:35:00Z,44.87,-108.8,3.0,-1.0,0,0,,10.0,30.239174,,,TRUE,TRUE,,,,,,,BKN,1300,BKN,1900,,,,,MVFR,,,,,,,,,,,,METAR,1552.0
KPNT 291535Z AUTO 06017G29KT 10SM OVC048 09/06 A3010 RMK AO2 T00930058,KPNT,2017-04-29T15:35:00Z,40.92,-88.62,9.3,5.8,60,17,29,10.0,30.100393,,,TRUE,TRUE,,,,,,,OVC,4800,,,,,,,VFR,,,,,,,,,,,,METAR,201.0
KPNA 291535Z AUTO 34005KT 10SM CLR 00/M07 A3021 RMK AO2,KPNA,2017-04-29T15:35:00Z,42.8,-109.8,0.0,-7.0,340,5,,10.0,30.209646,,,TRUE,TRUE,,,,,,,CLR,,,,,,,,VFR,,,,,,,,,,,,METAR,2160.0
KPMV 291535Z AUTO 03010G17KT 10SM -DZ OVC021 07/02 A3002 RMK AO2 T00650016,KPMV,2017-04-29T15:35:00Z,40.95,-95.92,6.5,1.6,30,10,17,10.0,30.02067,,,TRUE,TRUE,,,,,,-DZ,OVC,2100,,,,,,,MVFR,,,,,,,,,,,,METAR,367.0
KPLU 291535Z AUTO 00000KT 10SM 09/06 A3030 RMK AO2,KPLU,2017-04-29T15:35:00Z,47.1,-122.28,9.0,6.0,0,0,,10.0,30.301182,,,TRUE,TRUE,,,,,,,,,,,,,,,,,,,,,,,,,,,METAR,164.0
KPIM 291535Z AUTO 17009G14KT 10SM SCT055 29/22 A3016 RMK AO2 T02870219,KPIM,2017-04-29T15:35:00Z,32.83,-84.88,28.7,21.9,170,9,14,10.0,30.159449,,,TRUE,TRUE,,,,,,,SCT,5500,,,,,,,VFR,,,,,,,,,,,,METAR,275.0
KPEQ 291535Z AUTO 32013KT 10SM OVC050 13/06 A2984 RMK AO2 T01340055,KPEQ,2017-04-29T15:35:00Z,31.38,-103.52,13.4,5.5,320,13,,10.0,29.840551,,,TRUE,TRUE,,,,,,,OVC,5000,,,,,,,VFR,,,,,,,,,,,,METAR,797.0
KPDC 291535Z AUTO 03011G18KT 10SM CLR 07/M02 A3019 RMK AO2 T00691017,KPDC,2017-04-29T15:35:00Z,43.02,-91.12,6.9,-1.7,30,11,18,10.0,30.188976,,,TRUE,TRUE,,,,,,,CLR,,,,,,,,VFR,,,,,,,,,,,,METAR,201.0
KPBX 291535Z AUTO 00000KT 10SM CLR 26/18 A3014 RMK AO2 T02570179,KPBX,2017-04-29T15:35:00Z,37.57,-82.57,25.7,17.9,0,0,,10.0,30.138779,,,TRUE,TRUE,,,,,,,CLR,,,,,,,,VFR,,,,,,,,,,,,METAR,449.0
KOZA 291535Z 32015G23KT 10SM 17/09 A2975 RMK AO2,KOZA,2017-04-29T15:35:00Z,30.73,-101.2,17.0,9.0,320,15,23,10.0,29.749016,,,,TRUE,,,,,,,,,,,,,,,,,,,,,,,,,,,METAR,726.0
KOXI 291535Z AUTO 06010KT 10SM BKN031 OVC050 11/M02 A3010 RMK AO1,KOXI,2017-04-29T15:35:00Z,41.33,-86.67,11.0,-2.0,60,10,,10.0,30.100393,,,TRUE,TRUE,,,,,,,BKN,3100,OVC,5000,,,,,VFR,,,,,,,,,,,,METAR,209.0
KOWI 291535Z AUTO 02012G19KT 4SM VCTS RA BKN007 BKN027 08/08 A2990 RMK AO2 LTG DSNT ALQDS,KOWI,2017-04-29T15:35:00Z,38.53,-95.25,8.0,8.0,20,12,19,4.0,29.899607,,,TRUE,TRUE,,,,,,VCTS RA,BKN,700,BKN,2700,,,,,IFR,,,,,,,,,,,,METAR,292.0
KONM 291535Z AUTO 01014G24KT 10SM BKN014 OVC032 04/01 A2990 RMK AO2 T00430012,KONM,2017-04-29T15:35:00Z,34.02,-106.9,4.3,1.2,10,14,24,10.0,29.899607,,,TRUE,TRUE,,,,,,,BKN,1400,OVC,3200,,,,,MVFR,,,,,,,,,,,,METAR,1410.0
KONL 291535Z AUTO 03010KT 10SM OVC100 07/M04 A3021 RMK AO2 T00721040,KONL,2017-04-29T15:35:00Z,42.47,-98.67,7.2,-4.0,30,10,,10.0,30.209646,,,TRUE,TRUE,,,,,,,OVC,10000,,,,,,,VFR,,,,,,,,,,,,METAR,619.0
KOLY 291535Z AUTO 13008KT 10SM SCT008 SCT095 19/19 A3001 RMK AO2 T01940194,KOLY,2017-04-29T15:35:00Z,38.72,-88.18,19.4,19.4,130,8,,10.0,30.008858,,,TRUE,TRUE,,,,,,,SCT,800,SCT,9500,,,,,VFR,,,,,,,,,,,,METAR,147.0
KOLG 291535Z AUTO 36005KT 10SM CLR 07/M06 A3034 RMK AO1,KOLG,2017-04-29T15:35:00Z,46.3,-91.82,7.0,-6.0,360,5,,10.0,30.339567,,,TRUE,TRUE,,,,,,,CLR,,,,,,,,VFR,,,,,,,,,,,,METAR,336.0
KOKV 291535Z AUTO 23004KT 10SM CLR 23/17 A3008 RMK AO2,KOKV,2017-04-29T15:35:00Z,39.13,-78.15,23.0,17.0,230,4,,10.0,30.079725,,,TRUE,TRUE,,,,,,,CLR,,,,,,,,VFR,,,,,,,,,,,,METAR,222.0
KOKM 291535Z AUTO 34012G16KT 10SM VCTS BKN007 BKN020 OVC035 13/13 A2963 RMK AO2 LTG DSNT ALQS P0001 T01270127,KOKM,2017-04-29T15:35:00Z,35.67,-95.95,12.7,12.7,340,12,16,10.0,29.630905,,,TRUE,TRUE,,,,,,VCTS,BKN,700,BKN,2000,OVC,3500,,,IFR,,,,,,0.01,,,,,,METAR,220.0
KOGA 291535Z AUTO 02014KT 10SM OVC070 05/M03 A3017 RMK AO2 T00521031,KOGA,2017-04-29T15:35:00Z,41.12,-101.77,5.2,-3.1,20,14,,10.0,30.171259,,,TRUE,TRUE,,,,,,,OVC,7000,,,,,,,VFR,,,,,,,,,,,,METAR,999.0
KOCW 291535Z AUTO 22010KT 10SM SCT027 SCT110 28/21 A3021 RMK AO2 T02760212,KOCW,2017-04-29T15:35:00Z,35.57,-77.05,27.6,21.2,220,10,,10.0,30.209646,,,TRUE,TRUE,,,,,,,SCT,2700,SCT,11000,,,,,VFR,,,,,,,,,,,,METAR,12.0
KO86 291535Z AUTO 07003KT 10SM CLR 06/ A3027 RMK AO1,KO86,2017-04-29T15:35:00Z,40.98,-122.7,6.0,,70,3,,10.0,30.268702,,,TRUE,TRUE,,,,,,,CLR,,,,,,,,VFR,,,,,,,,,,,,METAR,729.0
KO69 291535Z AUTO 25005KT 10SM CLR 14/08 A3014 RMK A01,KO69,2017-04-29T15:35:00Z,38.25,-122.6,14.0,8.0,250,5,,10.0,30.138779,,,TRUE,TRUE,,,,,,,CLR,,,,,,,,VFR,,,,,,,,,,,,METAR,28.0
KN38 291535Z AUTO 26008KT 10SM BKN014 OVC020 17/14 A3005 RMK AO2,KN38,2017-04-29T15:35:00Z,41.73,-77.4,17.0,14.0,260,8,,10.0,30.050198,,,TRUE,TRUE,,,,,,,BKN,1400,OVC,2000,,,,,MVFR,,,,,,,,,,,,METAR,577.0
KMZG 291535Z AUTO 14021G33KT 1 1/2SM HZ CLR 27/24 A2961 RMK A01,KMZG,2017-04-29T15:35:00Z,27.73,-96.18,27.0,24.0,140,21,33,1.5,29.610237,,,TRUE,TRUE,,,,,,HZ,CLR,,,,,,,,IFR,,,,,,,,,,,,METAR,29.0
KMWO 291535Z AUTO 00000KT 10SM SCT019 SCT028 BKN110 18/15 A3012 RMK AO2 T01800150,KMWO,2017-04-29T15:35:00Z,39.53,-84.4,18.0,15.0,0,0,,10.0,30.121063,,,TRUE,TRUE,,,,,,,SCT,1900,SCT,2800,BKN,11000,,,VFR,,,,,,,,,,,,METAR,198.0
KMVH 291535Z AUTO 00000KT 10SM FEW021 06/01 A3023 RMK AO2,KMVH,2017-04-29T15:35:00Z,46.83,-108.93,6.0,1.0,0,0,,10.0,30.230314,,,TRUE,TRUE,,,,,,,FEW,2100,,,,,,,VFR,,,,,,,,,,,,METAR,1355.0
KMTV 291535Z AUTO 20003KT 7SM OVC017 25/21 A3022 RMK AO2 T02520205,KMTV,2017-04-29T15:35:00Z,36.63,-80.02,25.2,20.5,200,3,,7.0,30.221457,,,TRUE,TRUE,,,,,,,OVC,1700,,,,,,,MVFR,,,,,,,,,,,,METAR,287.0
KMQS 291535Z AUTO 28007G12KT 10SM CLR 25/17 A3006 RMK AO2,KMQS,2017-04-29T15:35:00Z,39.98,-75.87,25.0,17.0,280,7,12,10.0,30.059055,,,TRUE,TRUE,,,,,,,CLR,,,,,,,,VFR,,,,,,,,,,,,METAR,201.0
KMOR 291535Z AUTO 34003KT 10SM CLR 27/20 A3014 RMK A01,KMOR,2017-04-29T15:35:00Z,36.18,-83.37,27.0,20.0,340,3,,10.0,30.138779,,,TRUE,TRUE,,,,,,,CLR,,,,,,,,VFR,,,,,,,,,,,,METAR,400.0
KMNV 291535Z AUTO 21008G16KT 9SM CLR 28/20 A3013 RMK A01,KMNV,2017-04-29T15:35:00Z,35.55,-84.38,28.0,20.0,210,8,16,9.0,30.129921,,,TRUE,TRUE,,,,,,,CLR,,,,,,,,VFR,,,,,,,,,,,,METAR,314.0
KMLJ 291535Z AUTO 00000KT 10SM SCT017 BKN055 OVC070 27/23 A3018 RMK AO2,KMLJ,2017-04-29T15:35:00Z,33.15,-83.23,27.0,23.0,0,0,,10.0,30.180119,,,TRUE,TRUE,,,,,,,SCT,1700,BKN,5500,OVC,7000,,,VFR,,,,,,,,,,,,METAR,117.0
KMLE 291535Z AUTO 01005KT 10SM SCT070 OVC090 08/03 A3005 RMK AO2 T00800025,KMLE,2017-04-29T15:35:00Z,41.2,-96.12,8.0,2.5,10,5,,10.0,30.050198,,,TRUE,TRUE,,,,,,,SCT,7000,OVC,9000,,,,,VFR,,,,,,,,,,,,METAR,320.0
KMKJ 291535Z AUTO 00000KT 10SM CLR 26/19 A3025 RMK AO2 T02640194,KMKJ,2017-04-29T15:35:00Z,36.88,-81.33,26.4,19.4,0,0,,10.0,30.250984,,,TRUE,TRUE,,,,,,,CLR,,,,,,,,VFR,,,,,,,,,,,,METAR,780.0
KMIS 291535Z AUTO 17010G18KT 2 1/2SM HZ FEW014 29/24 A2998 RMK A01,KMIS,2017-04-29T15:35:00Z,29.3,-88.85,29.0,24.0,170,10,18,2.5,29.97933,,,TRUE,TRUE,,,,,,HZ,FEW,1400,,,,,,,IFR,,,,,,,,,,,,METAR,32.0
KMGR 291535Z AUTO 18009G16KT 10SM SCT037 28/19 A3016 RMK AO2,KMGR,2017-04-29T15:35:00Z,31.08,-83.8,28.0,19.0,180,9,16,10.0,30.159449,,,TRUE,TRUE,,,,,,,SCT,3700,,,,,,,VFR,,,,,,,,,,,,METAR,90.0
KMEV 291535Z AUTO 00000KT 10SM CLR 04/M08 A3029 RMK AO2,KMEV,2017-04-29T15:35:00Z,38.98,-119.75,4.0,-8.0,0,0,,10.0,30.28937,,,TRUE,TRUE,,,,,,,CLR,,,,,,,,VFR,,,,,,,,,,,,METAR,1439.0
KMDZ 291535Z AUTO 03012G15KT 10SM CLR 06/M03 A3027 RMK AO2 T00561029,KMDZ,2017-04-29T15:35:00Z,45.1,-90.3,5.6,-2.9,30,12,15,10.0,30.268702,,,TRUE,TRUE,,,,,,,CLR,,,,,,,,VFR,,,,,,,,,,,,METAR,448.0
KMDJ 291535Z AUTO 15023KT 2SM BR BKN014 26/25 A2994 RMK A01,KMDJ,2017-04-29T15:35:00Z,28.65,-89.8,26.0,25.0,150,23,,2.0,29.940945,,,TRUE,TRUE,,,,,,BR,BKN,1400,,,,,,,IFR,,,,,,,,,,,,METAR,31.0
KMDD 291535Z AUTO 35015G25KT 10SM OVC018 12/06 A2980 RMK AO2 T01150062,KMDD,2017-04-29T15:35:00Z,32.03,-102.1,11.5,6.2,350,15,25,10.0,29.799213,,,TRUE,TRUE,,,,,,,OVC,1800,,,,,,,MVFR,,,,,,,,,,,,METAR,854.0
KMCD 291535Z AUTO 35008KT 10SM CLR 06/M02 A3026 RMK AO2 T00591018,KMCD,2017-04-29T15:35:00Z,45.85,-84.63,5.9,-1.8,350,8,,10.0,30.259842,,,TRUE,TRUE,,,,,,,CLR,,,,,,,,VFR,,,,,,,,,,,,METAR,226.0
KMCC 291535Z AUTO 32010KT 10SM CLR 14/03 A3012 RMK AO2,KMCC,2017-04-29T15:35:00Z,38.67,-121.4,14.0,3.0,320,10,,10.0,30.121063,,,TRUE,TRUE,,,,,,,CLR,,,,,,,,VFR,,,,,,,,,,,,SPECI,23.0
KM91 291535Z AUTO 18008G14KT 150V210 10SM SCT030 BKN035 BKN041 27/21 A3001 RMK A01,KM91,2017-04-29T15:35:00Z,36.53,-86.92,27.0,21.0,180,8,14,10.0,30.008858,,,TRUE,TRUE,,,,,,,SCT,3000,BKN,3500,BKN,4100,,,VFR,,,,,,,,,,,,METAR,215.0
KM75 291535Z AUTO 00000KT 10SM CLR 08/05 A3023 RMK A01,KM75,2017-04-29T15:35:00Z,48.37,-107.92,8.0,5.0,0,0,,10.0,30.230314,,,TRUE,TRUE,,,,,,,CLR,,,,,,,,VFR,,,,,,,,,,,,METAR,687.0
KM33 291535Z AUTO 19008KT 160V250 10SM CLR 28/20 A3004 RMK A01,KM33,2017-04-29T15:35:00Z,36.38,-86.42,28.0,20.0,190,8,,10.0,30.041338,,,TRUE,TRUE,,,,,,,CLR,,,,,,,,VFR,,,,,,,,,,,,METAR,178.0
KM08 291535Z AUTO 15014KT 10SM BKN028 BKN032 27/21 A2994 RMK A01,KM08,2017-04-29T15:35:00Z,35.22,-89.05,27.0,21.0,150,14,,10.0,29.940945,,,TRUE,TRUE,,,,,,,BKN,2800,BKN,3200,,,,,MVFR,,,,,,,,,,,,METAR,152.0
KM04 291535Z AUTO 8.41666708G15KT 10SM BKN029 OVC035 26/21 A2992 RMK A01,KM04,2017-04-29T15:35:00Z,35.58,-89.58,26.0,21.0,,,,10.0,29.920275,,,TRUE,TRUE,,,,,,,BKN,2900,OVC,3500,,,,,MVFR,,,,,,,,,,,,METAR,85.0
KLXY 291535Z AUTO 17016G31KT 10SM BKN026 OVC032 27/22 A2961 RMK AO2 T02700218,KLXY,2017-04-29T15:35:00Z,31.63,-96.52,27.0,21.8,170,16,31,10.0,29.610237,,,TRUE,TRUE,,,,,,,BKN,2600,OVC,3200,,,,,MVFR,,,,,,,,,,,,METAR,166.0
KLXN 291535Z AUTO 04013G21KT 10SM OVC060 05/M01 A3012 RMK AO2 T00521010,KLXN,2017-04-29T15:35:00Z,40.78,-99.77,5.2,-1.0,40,13,21,10.0,30.121063,,,TRUE,TRUE,,,,,,,OVC,6000,,,,,,,VFR,,,,,,,,,,,,METAR,734.0
KASJ 291535Z AUTO 00000KT 10SM 28/22 A3018 RMK AO2 T02760221,KASJ,2017-04-29T15:35:00Z,36.28,-77.17,27.6,22.1,0,0,,10.0,30.180119,,,TRUE,TRUE,,,,,,,,,,,,,,,,,,,,,,,,,,,METAR,21.0
KACP 291535Z AUTO 15009G22KT 110V170 10SM BKN024 OVC031 27/22 A2982 RMK AO2 LTG DSNT W T02710224,KACP,2017-04-29T15:35:00Z,30.75,-92.68,27.1,22.4,150,9,22,10.0,29.819881,,,TRUE,TRUE,,,,,,,BKN,2400,OVC,3100,,,,,MVFR,,,,,,,,,,,,METAR,33.0
K9V9 291535Z AUTO 03008KT 10SM CLR 10/M06 A3028 RMK AO2 T00951056,K9V9,2017-04-29T15:35:00Z,43.77,-99.32,9.5,-5.6,30,8,,10.0,30.280512,,,TRUE,TRUE,,,,,,,CLR,,,,,,,,VFR,,,,,,,,,,,,METAR,519.0
KICL 291535Z AUTO 06012G20KT 7SM OVC018 07/05 A3004 RMK AO2 PWINO,KICL,2017-04-29T15:35:00Z,40.72,-95.02,7.0,5.0,60,12,20,7.0,30.041338,,,TRUE,TRUE,,,,,TRUE,,OVC,1800,,,,,,,MVFR,,,,,,,,,,,,METAR,303.0
KI68 291535Z AUTO 13006KT 10SM OVC003 17/16 A3010 RMK AO2,KI68,2017-04-29T15:35:00Z,39.47,-84.25,17.0,16.0,130,6,,10.0,30.100393,,,TRUE,TRUE,,,,,,,OVC,300,,,,,,,LIFR,,,,,,,,,,,,METAR,274.0
KDNN 291535Z AUTO 17008G15KT 136V196 10SM CLR 27/20 A3013 RMK AO2,KDNN,2017-04-29T15:35:00Z,34.72,-84.87,27.0,20.0,170,8,15,10.0,30.129921,,,TRUE,TRUE,,,,,,,CLR,,,,,,,,VFR,,,,,,,,,,,,SPECI,216.0
KCVC 291535Z AUTO 17004KT 10SM SCT050 28/20 A3017 RMK AO2,KCVC,2017-04-29T15:35:00Z,33.63,-83.85,28.0,20.0,170,4,,10.0,30.171259,,,TRUE,TRUE,,,,,,,SCT,5000,,,,,,,VFR,,,,,,,,,,,,SPECI,247.0
KBWP 291535Z AUTO 16005KT 10SM CLR 08/M02 A3034 RMK AO1,KBWP,2017-04-29T15:35:00Z,46.25,-96.62,8.0,-2.0,160,5,,10.0,30.339567,,,TRUE,TRUE,,,,,,,CLR,,,,,,,,VFR,,,,,,,,,,,,SPECI,295.0
KBWD 291535Z AUTO 21008G14KT 4SM HZ FEW024 SCT030 BKN044 25/19 A2961 RMK AO2,KBWD,2017-04-29T15:35:00Z,31.8,-98.95,25.0,19.0,210,8,14,4.0,29.610237,,,TRUE,TRUE,,,,,,HZ,FEW,2400,SCT,3000,BKN,4400,,,MVFR,,,,,,,,,,,,SPECI,423.0
K4M9 291535Z AUTO 15016G27KT 10SM FEW026 SCT031 BKN050 25/22 A2985 RMK AO2,K4M9,2017-04-29T15:35:00Z,36.4,-90.65,25.0,22.0,150,16,27,10.0,29.84941,,,TRUE,TRUE,,,,,,,FEW,2600,SCT,3100,BKN,5000,,,VFR,,,,,,,,,,,,SPECI,90.0
K4A6 291535Z AUTO 18012G18KT 10SM CLR 28/20 A3008 RMK AO2,K4A6,2017-04-29T15:35:00Z,34.68,-86.0,28.0,20.0,180,12,18,10.0,30.079725,,,TRUE,TRUE,,,,,,,CLR,,,,,,,,VFR,,,,,,,,,,,,SPECI,198.0
KW43 291535Z AUTO 00000KT 10SM CLR 05/M03 A3028 RMK AO2,KW43,2017-04-29T15:35:00Z,44.67,-104.57,5.0,-3.0,0,0,,10.0,30.280512,,,TRUE,TRUE,,,,,,,CLR,,,,,,,,VFR,,,,,,,,,,,,SPECI,1300.0
KVES 291535Z AUTO 02008KT 5SM -RA OVC003 13/13 A3010 RMK AO2 P0004,KVES,2017-04-29T15:35:00Z,40.2,-84.53,13.0,13.0,20,8,,5.0,30.100393,,,TRUE,TRUE,,,,,,-RA,OVC,300,,,,,,,LIFR,,,,,,0.04,,,,,,SPECI,307.0
KUOX 291535Z AUTO 17011G22KT 010V020 10SM SCT026 BKN032 26/19 A2995 RMK AO2,KUOX,2017-04-29T15:35:00Z,34.38,-89.53,26.0,19.0,170,11,22,10.0,29.949802,,,TRUE,TRUE,,,,,,,SCT,2600,BKN,3200,,,,,VFR,,,,,,,,,,,,SPECI,137.0
KUBE 291535Z AUTO 06008KT 10SM CLR 06/M05 A3030 RMK AO2,KUBE,2017-04-29T15:35:00Z,45.5,-91.98,6.0,-5.0,60,8,,10.0,30.301182,,,TRUE,TRUE,,,,,,,CLR,,,,,,,,VFR,,,,,,,,,,,,SPECI,379.0
KTVK 291535Z AUTO 04011G16KT 10SM +RA SCT001 OVC010 07/07 A3007 RMK AO2 P0006,KTVK,2017-04-29T15:35:00Z,40.68,-92.9,7.0,7.0,40,11,16,10.0,30.070866,,,TRUE,TRUE,,,,,,+RA,SCT,100,OVC,1000,,,,,MVFR,,,,,,0.06,,,,,,SPECI,314.0
KSTE 291535Z AUTO 07009G15KT 10SM CLR 05/M05 A3028 RMK AO2 T00531046,KSTE,2017-04-29T15:35:00Z,44.55,-89.53,5.3,-4.6,70,9,15,10.0,30.280512,,,TRUE,TRUE,,,,,,,CLR,,,,,,,,VFR,,,,,,,,,,,,SPECI,338.0
KSBO 291535Z AUTO 16005KT 10SM OVC024 27/21 A3020 RMK AO2,KSBO,2017-04-29T15:35:00Z,32.62,-82.37,27.0,21.0,160,5,,10.0,30.200787,,,TRUE,TRUE,,,,,,,OVC,2400,,,,,,,MVFR,,,,,,,,,,,,SPECI,100.0
KRCR 291535Z AUTO 08006KT 10SM -RA SCT009 BKN015 OVC032 11/09 A3011 RMK AO2,KRCR,2017-04-29T15:35:00Z,41.07,-86.18,11.0,9.0,80,6,,10.0,30.109253,,,TRUE,TRUE,,,,,,-RA,SCT,900,BKN,1500,OVC,3200,,,MVFR,,,,,,,,,,,,SPECI,241.0
KPVF 291535Z AUTO 13005KT 10SM CLR 15/M07 A3012 RMK AO1,KPVF,2017-04-29T15:35:00Z,38.72,-120.75,15.0,-7.0,130,5,,10.0,30.121063,,,TRUE,TRUE,,,,,,,CLR,,,,,,,,VFR,,,,,,,,,,,,SPECI,789.0
KOEO 291535Z AUTO 08008KT 10SM CLR 08/M04 A3034 RMK AO2 T00801036,KOEO,2017-04-29T15:35:00Z,45.32,-92.7,8.0,-3.6,80,8,,10.0,30.339567,,,TRUE,TRUE,,,,,,,CLR,,,,,,,,VFR,,,,,,,,,,,,SPECI,275.0
KO54 291535Z AUTO 19003KT 10SM 07/00 A3027 RMK AO1,KO54,2017-04-29T15:35:00Z,40.75,-122.92,7.0,0.0,190,3,,10.0,30.268702,,,TRUE,TRUE,,,,,,,,,,,,,,,,,,,,,,,,,,,SPECI,717.0
KNOW 291535Z AUTO 21003KT 10SM OVC090 09/05 A3029 RMK AO2 T00850047,KNOW,2017-04-29T15:35:00Z,48.13,-123.4,8.5,4.7,210,3,,10.0,30.28937,,,TRUE,TRUE,,,,,,,OVC,9000,,,,,,,VFR,,,,,,,,,,,,SPECI,4.0
KMPZ 291535Z AUTO 08017G24KT 10SM -RA OVC022 08/05 A3012 RMK AO2 T00750046,KMPZ,2017-04-29T15:35:00Z,40.95,-91.52,7.5,4.6,80,17,24,10.0,30.121063,,,TRUE,TRUE,,,,,,-RA,OVC,2200,,,,,,,MVFR,,,,,,,,,,,,SPECI,224.0
KKY8 291535Z AUTO 12008KT 8SM BKN040 BKN047 OVC055 19/19 A3005 RMK AO1 P0001,KKY8,2017-04-29T15:35:00Z,37.95,-86.87,19.0,19.0,120,8,,8.0,30.050198,,,TRUE,TRUE,,,,,,,BKN,4000,BKN,4700,OVC,5500,,,VFR,,,,,,0.01,,,,,,SPECI,126.0
KJHN 291535Z AUTO 33017KT 1/2SM SN OVC006 00/00 A3002 RMK AO2 LTG DSNT E T00021001,KJHN,2017-04-29T15:35:00Z,37.58,-101.73,0.2,-0.1,330,17,,0.5,30.02067,,,TRUE,TRUE,,,,,,SN,OVC,600,,,,,,,LIFR,,,,,,,,,,,,SPECI,1013.0
KHQG 291535Z AUTO 33011KT 1SM -SN OVC006 01/00 A2999 RMK AO2 LTG DSNT E T00061004,KHQG,2017-04-29T15:35:00Z,37.17,-101.37,0.6,-0.4,330,11,,1.0,29.991142,,,TRUE,TRUE,,,,,,-SN,OVC,600,,,,,,,IFR,,,,,,,,,,,,SPECI,956.0
KHQG 291535Z AUTO 33011KT 1SM -SN OVC006 01/00 A2999 RMK AO2 LTG DSNT E T00061004,KHQG,2017-04-29T15:35:00Z,37.17,-101.37,0.6,-0.4,330,11,,1.0,29.991142,,,TRUE,TRUE,,,,,,-SN,OVC,600,,,,,,,IFR,,,,,,,,,,,,SPECI,956.0
KHMZ 291535Z AUTO 11005KT 10SM CLR 22/16 A3007 RMK AO2 T02160158,KHMZ,2017-04-29T15:35:00Z,40.08,-78.52,21.6,15.8,110,5,,10.0,30.070866,,,TRUE,TRUE,,,,,,,CLR,,,,,,,,VFR,,,,,,,,,,,,SPECI,354.0
KHII 291535Z AUTO 32022G28KT 10SM CLR 19/M05 A3001 RMK AO2,KHII,2017-04-29T15:35:00Z,34.57,-114.37,19.0,-5.0,320,22,28,10.0,30.008858,,,TRUE,TRUE,,,,,,,CLR,,,,,,,,VFR,,,,,,,,,,,,SPECI,238.0
KFYJ 291535Z AUTO 22008KT 10SM SCT022 27/22 A3016 RMK AO2 T02710215,KFYJ,2017-04-29T15:35:00Z,37.52,-76.77,27.1,21.5,220,8,,10.0,30.159449,,,TRUE,TRUE,,,,,,,SCT,2200,,,,,,,VFR,,,,,,,,,,,,SPECI,7.0
KFHB 291535Z AUTO 13011G17KT 10SM SCT011 28/23 A3019 RMK AO1,KFHB,2017-04-29T15:35:00Z,30.62,-81.47,28.0,23.0,130,11,17,10.0,30.188976,,,TRUE,TRUE,,,,,,,SCT,1100,,,,,,,VFR,,,,,,,,,,,,SPECI,5.0
KCTJ 291535Z AUTO 15012G16KT 10SM SCT045 SCT055 26/20 A3019 RMK AO2 T02640197,KCTJ,2017-04-29T15:35:00Z,33.63,-85.15,26.4,19.7,150,12,16,10.0,30.188976,,,TRUE,TRUE,,,,,,,SCT,4500,SCT,5500,,,,,VFR,,,,,,,,,,,,SPECI,354.0
KCQF 291535Z AUTO 14015G21KT 10SM BKN017 26/23 A3003 RMK AO2,KCQF,2017-04-29T15:35:00Z,30.47,-87.88,26.0,23.0,140,15,21,10.0,30.029528,,,TRUE,TRUE,,,,,,,BKN,1700,,,,,,,MVFR,,,,,,,,,,,,SPECI,28.0
KCPU 291535Z AUTO 17004KT 10SM CLR 15/M02 A3010 RMK AO2 T01451022,KCPU,2017-04-29T15:35:00Z,38.15,-120.65,14.5,-2.2,170,4,,10.0,30.100393,,,TRUE,TRUE,,,,,,,CLR,,,,,,,,VFR,,,,,,,,,,,,METAR,404.0
KCCO 291535Z AUTO 19008KT 160V220 10SM CLR 28/22 A3016 RMK AO2 T02810215,KCCO,2017-04-29T15:35:00Z,33.32,-84.77,28.1,21.5,190,8,,10.0,30.159449,,,TRUE,TRUE,,,,,,,CLR,,,,,,,,VFR,,,,,,,,,,,,SPECI,296.0
KBQP 291535Z AUTO 15005G19KT 10SM BKN029 OVC038 28/23 A2983 RMK AO2 T02760229,KBQP,2017-04-29T15:35:00Z,32.75,-91.88,27.6,22.9,150,5,19,10.0,29.828741,,,TRUE,TRUE,,,,,,,BKN,2900,OVC,3800,,,,,MVFR,,,,,,,,,,,,SPECI,51.0
KARV 291535Z AUTO 03004KT 10SM CLR 05/M05 A3029 RMK AO2 T00531053,KARV,2017-04-29T15:35:00Z,45.92,-89.72,5.3,-5.3,30,4,,10.0,30.28937,,,TRUE,TRUE,,,,,,,CLR,,,,,,,,VFR,,,,,,,,,,,,SPECI,496.0
KAIG 291535Z AUTO 03011KT 10SM CLR 05/M04 A3027 RMK AO2 T00541036,KAIG,2017-04-29T15:35:00Z,45.15,-89.12,5.4,-3.6,30,11,,10.0,30.268702,,,TRUE,TRUE,,,,,,,CLR,,,,,,,,VFR,,,,,,,,,,,,SPECI,464.0
KACJ 291535Z AUTO 16006KT 10SM SCT027 SCT042 SCT048 27/19 A3018 RMK AO2,KACJ,2017-04-29T15:35:00Z,32.12,-84.18,27.0,19.0,160,6,,10.0,30.180119,,,TRUE,TRUE,,,,,,,SCT,2700,SCT,4200,SCT,4800,,,VFR,,,,,,,,,,,,SPECI,143.0
KA39 291535Z AUTO 34012KT 10SM CLR 18/M07 A2999 RMK AO2,KA39,2017-04-29T15:35:00Z,32.98,-111.92,18.0,-7.0,340,12,,10.0,29.991142,,,TRUE,TRUE,,,,,,,CLR,,,,,,,,VFR,,,,,,,,,,,,SPECI,396.0
K8A0 291535Z AUTO 16009G17KT 10SM CLR 27/23 A3008 RMK AO2,K8A0,2017-04-29T15:35:00Z,34.23,-86.25,27.0,23.0,160,9,17,10.0,30.079725,,,TRUE,TRUE,,,,,,,CLR,,,,,,,,VFR,,,,,,,,,,,,SPECI,315.0
K3K3 291535Z AUTO 36017G25KT 1 3/4SM -SN OVC008 01/00 A3000 RMK AO2,K3K3,2017-04-29T15:35:00Z,38.0,-101.75,1.0,0.0,360,17,25,1.75,30.0,,,TRUE,TRUE,,,,,,-SN,OVC,800,,,,,,,IFR,,,,,,,,,,,,SPECI,1013.0
K1F0 291535Z AUTO 05004KT SCT015 BKN030 OVC070 17/14 A2960 RMK AO2 LTG DSNT NE AND NW PWINO,K1F0,2017-04-29T15:35:00Z,34.15,-97.12,17.0,14.0,50,4,,,29.601377,,,TRUE,TRUE,,,,,TRUE,,SCT,1500,BKN,3000,OVC,7000,,,,,,,,,,,,,,,SPECI,257.0
KRPX 291535Z AUTO 17006KT 10SM 07/02 A3014 ,KRPX,2017-04-29T15:35:00Z,46.47,-108.55,7.0,2.0,170,6,,10.0,30.138779,,,TRUE,,,,,,,,,,,,,,,,,,,,,,,,,,,,METAR,1065.0
KEZM 291535Z AUTO 17005KT 10SM BKN024 BKN038 BKN065 30/16 A3020 RMK AO2 T02950162,KEZM,2017-04-29T15:35:00Z,32.22,-83.13,29.5,16.2,170,5,,10.0,30.200787,,,TRUE,TRUE,,,,,,,BKN,2400,BKN,3800,BKN,6500,,,MVFR,,,,,,,,,,,,SPECI,93.0
KEXX 291535Z AUTO 24003KT 10SM BKN017 26/22 A3021 RMK AO2 T02560217,KEXX,2017-04-29T15:35:00Z,35.78,-80.3,25.6,21.7,240,3,,10.0,30.209646,,,TRUE,TRUE,,,,,,,BKN,1700,,,,,,,MVFR,,,,,,,,,,,,SPECI,223.0
KETB 291535Z AUTO 04016G21KT 10SM CLR 06/00 A3025 RMK AO2,KETB,2017-04-29T15:35:00Z,43.42,-88.13,6.0,0.0,40,16,21,10.0,30.250984,,,TRUE,TRUE,,,,,,,CLR,,,,,,,,VFR,,,,,,,,,,,,SPECI,270.0
KEHO 291535Z AUTO 20003KT 10SM BKN015 25/22 A3021 RMK AO2 T02510222,KEHO,2017-04-29T15:35:00Z,35.25,-81.6,25.1,22.2,200,3,,10.0,30.209646,,,TRUE,TRUE,,,,,,,BKN,1500,,,,,,,MVFR,,,,,,,,,,,,SPECI,258.0
KEFK 291535Z AUTO 25007G14KT 10SM OVC060 19/07 A2989 RMK AO2 T01910073,KEFK,2017-04-29T15:35:00Z,44.88,-72.23,19.1,7.3,250,7,14,10.0,29.890747,,,TRUE,TRUE,,,,,,,OVC,6000,,,,,,,VFR,,,,,,,,,,,,SPECI,284.0
KEDE 291535Z AUTO 23008KT 10SM CLR 29/22 A3019 RMK AO2 T02890220,KEDE,2017-04-29T15:35:00Z,36.02,-76.57,28.9,22.0,230,8,,10.0,30.188976,,,TRUE,TRUE,,,,,,,CLR,,,,,,,,VFR,,,,,,,,,,,,SPECI,6.0
KDVK 291535Z AUTO 26008KT 10SM SCT042 SCT047 BKN065 26/18 A3011 RMK AO2,KDVK,2017-04-29T15:35:00Z,37.58,-84.77,26.0,18.0,260,8,,10.0,30.109253,,,TRUE,TRUE,,,,,,,SCT,4200,SCT,4700,BKN,6500,,,VFR,,,,,,,,,,,,SPECI,312.0
KDQH 291535Z AUTO 19007KT 10SM BKN033 BKN039 BKN065 29/19 A3019 RMK AO2,KDQH,2017-04-29T15:35:00Z,31.48,-82.87,29.0,19.0,190,7,,10.0,30.188976,,,TRUE,TRUE,,,,,,,BKN,3300,BKN,3900,BKN,6500,,,VFR,,,,,,,,,,,,SPECI,78.0
KDPL 291535Z AUTO 20004KT 10SM BKN027 28/21 A3022 RMK AO2,KDPL,2017-04-29T15:35:00Z,35.0,-77.97,28.0,21.0,200,4,,10.0,30.221457,,,TRUE,TRUE,,,,,,,BKN,2700,,,,,,,MVFR,,,,,,,,,,,,SPECI,42.0
KDLL 291535Z AUTO 07012G18KT 10SM CLR 06/M02 A3024 RMK AO2 T00561020,KDLL,2017-04-29T15:35:00Z,43.52,-89.77,5.6,-2.0,70,12,18,10.0,30.239174,,,TRUE,TRUE,,,,,,,CLR,,,,,,,,VFR,,,,,,,,,,,,SPECI,299.0
KCXU 291535Z AUTO 17009KT 10SM SCT033 SCT041 30/21 A3014 RMK AO2 T03020206,KCXU,2017-04-29T15:35:00Z,31.22,-84.23,30.2,20.6,170,9,,10.0,30.138779,,,TRUE,TRUE,,,,,,,SCT,3300,SCT,4100,,,,,VFR,,,,,,,,,,,,SPECI,53.0
KCVB 291535Z AUTO 14012KT 7SM BKN025 28/20 A2960 RMK AO2 T02780198,KCVB,2017-04-29T15:35:00Z,29.35,-98.85,27.8,19.8,140,12,,7.0,29.601377,,,TRUE,TRUE,,,,,,,BKN,2500,,,,,,,MVFR,,,,,,,,,,,,SPECI,235.0
KCTZ 291535Z AUTO 19007KT 10SM SCT028 28/22 A3022 RMK AO2 T02820217,KCTZ,2017-04-29T15:35:00Z,34.98,-78.37,28.2,21.7,190,7,,10.0,30.221457,,,TRUE,TRUE,,,,,,,SCT,2800,,,,,,,VFR,,,,,,,,,,,,SPECI,45.0
KCPC 291535Z AUTO 22007KT 10SM BKN029 BKN037 27/21 A3022 RMK AO2 T02740207,KCPC,2017-04-29T15:35:00Z,34.28,-78.72,27.4,20.7,220,7,,10.0,30.221457,,,TRUE,TRUE,,,,,,,BKN,2900,BKN,3700,,,,,MVFR,,,,,,,,,,,,SPECI,29.0
KCJR 291535Z AUTO 19007KT 10SM CLR 29/21 A3010 RMK AO2 T02890205,KCJR,2017-04-29T15:35:00Z,38.53,-77.87,28.9,20.5,190,7,,10.0,30.100393,,,TRUE,TRUE,,,,,,,CLR,,,,,,,,VFR,,,,,,,,,,,,SPECI,97.0
KC75 291535Z AUTO 09008G15KT 10SM BKN060 BKN120 09/04 A3014 RMK AO2 LTG DSNT S T00880036,KC75,2017-04-29T15:35:00Z,41.02,-89.38,8.8,3.6,90,8,15,10.0,30.138779,,,TRUE,TRUE,,,,,,,BKN,6000,BKN,12000,,,,,VFR,,,,,,,,,,,,SPECI,173.0
KBHC 291535Z AUTO 14006KT 10SM BKN030 SCT065 29/23 A3019 RMK AO2 PNO,KBHC,2017-04-29T15:35:00Z,31.72,-82.4,29.0,23.0,140,6,,10.0,30.188976,,,TRUE,TRUE,,,,,,,BKN,3000,SCT,6500,,,,,MVFR,,,,,,,,,,,,SPECI,61.0
KAZE 291535Z AUTO 20007KT 10SM SCT065 SCT075 29/22 A3017 RMK AO2 T02940221,KAZE,2017-04-29T15:35:00Z,31.88,-82.65,29.4,22.1,200,7,,10.0,30.171259,,,TRUE,TRUE,,,,,,,SCT,6500,SCT,7500,,,,,VFR,,,,,,,,,,,,SPECI,78.0
KAYS 291535Z AUTO 17007KT 10SM BKN030 BKN036 31/23 A3019 RMK AO2 T03080230,KAYS,2017-04-29T15:35:00Z,31.25,-82.4,30.8,23.0,170,7,,10.0,30.188976,,,TRUE,TRUE,,,,,,,BKN,3000,BKN,3600,,,,,MVFR,,,,,,,,,,,,SPECI,46.0
KARM 291535Z AUTO 16025G33KT 5SM HZ SCT019 29/23 A2965 RMK AO2 T02910230,KARM,2017-04-29T15:35:00Z,29.25,-96.15,29.1,23.0,160,25,33,5.0,29.648623,,,TRUE,TRUE,,,,,,HZ,SCT,1900,,,,,,,MVFR,,,,,,,,,,,,SPECI,31.0
KAPY 291535Z AUTO 15009G14KT 7SM CLR 30/20 A2953 RMK AO2 T03010202,KAPY,2017-04-29T15:35:00Z,26.97,-99.25,30.1,20.2,150,9,14,7.0,29.530512,,,TRUE,TRUE,,,,,,,CLR,,,,,,,,VFR,,,,,,,,,,,,SPECI,129.0
KAAA 291535Z AUTO 07014G20KT 3SM VCTSRA BKN023 OVC029 09/09 A3008 RMK AO2 LTG DSNT W P0020 T00940089,KAAA,2017-04-29T15:35:00Z,40.17,-89.33,9.4,8.9,70,14,20,3.0,30.079725,,,TRUE,TRUE,,,,,,VCTSRA,BKN,2300,OVC,2900,,,,,MVFR,,,,,,0.2,,,,,,SPECI,182.0
KA08 291535Z AUTO 16015KT 10SM 27/21 A3004 RMK AO2 T02710214,KA08,2017-04-29T15:35:00Z,32.52,-87.38,27.1,21.4,160,15,,10.0,30.041338,,,TRUE,TRUE,,,,,,,,,,,,,,,,,,,,,,,,,,,SPECI,69.0
K7W6 291535Z AUTO 25010G18KT 10SM SCT025 28/23 A3021 RMK AO2 T02770234,K7W6,2017-04-29T15:35:00Z,35.37,-75.95,27.7,23.4,250,10,18,10.0,30.209646,,,TRUE,TRUE,,,,,,,SCT,2500,,,,,,,VFR,,,,,,,,,,,,METAR,2.0
K6R3 291535Z AUTO 16011G18KT 4SM HZ OVC014 26/24 A2970 RMK AO2 LTG DSNT NE AND E T02630235,K6R3,2017-04-29T15:35:00Z,30.35,-95.0,26.3,23.5,160,11,18,4.0,29.698818,,,TRUE,TRUE,,,,,,HZ,OVC,1400,,,,,,,MVFR,,,,,,,,,,,,SPECI,46.0
K6P9 291535Z AUTO 23012G21KT 7SM BKN027 OVC031 25/19 A2961 RMK AO2 T02460191,K6P9,2017-04-29T15:35:00Z,32.43,-98.6,24.6,19.1,230,12,21,7.0,29.610237,,,TRUE,TRUE,,,,,,,BKN,2700,OVC,3100,,,,,MVFR,,,,,,,,,,,,SPECI,449.0
K6B0 291535Z AUTO 18003KT 10SM OVC050 19/09 A2994 RMK AO2 T01900091,K6B0,2017-04-29T15:35:00Z,43.98,-73.1,19.0,9.1,180,3,,10.0,29.940945,,,TRUE,TRUE,,,,,,,OVC,5000,,,,,,,VFR,,,,,,,,,,,,SPECI,149.0
K4A9 291535Z AUTO 17006KT 10SM CLR 26/18 A3010 RMK AO2,K4A9,2017-04-29T15:35:00Z,34.47,-85.72,26.0,18.0,170,6,,10.0,30.100393,,,TRUE,TRUE,,,,,,,CLR,,,,,,,,VFR,,,,,,,,,,,,SPECI,267.0
K3AU 291535Z AUTO 04012KT 7SM RA OVC007 06/06 A2982 RMK AO2,K3AU,2017-04-29T15:35:00Z,37.67,-97.08,6.0,6.0,40,12,,7.0,29.819881,,,TRUE,TRUE,,,,,,RA,OVC,700,,,,,,,IFR,,,,,,,,,,,,SPECI,405.0
PAAD 291535Z AUTO 08013KT 3SM -SN OVC002 M16/M18 A3013 RMK AO2 T11611182,PAAD,2017-04-29T15:35:00Z,70.13,-146.28,-16.1,-18.2,80,13,,3.0,30.129921,,,TRUE,TRUE,,,,,,-SN,OVC,200,,,,,,,LIFR,,,,,,,,,,,,SPECI,8.0
KY49 291535Z AUTO 10005KT 10SM CLR 07/M05 A3035 RMK AO2 T00741050,KY49,2017-04-29T15:35:00Z,47.13,-94.65,7.4,-5.0,100,5,,10.0,30.351377,,,TRUE,TRUE,,,,,,,CLR,,,,,,,,VFR,,,,,,,,,,,,SPECI,416.0
KVDI 291535Z AUTO 14009KT 10SM BKN025 BKN030 29/21 A3019 RMK AO2,KVDI,2017-04-29T15:35:00Z,32.2,-82.37,29.0,21.0,140,9,,10.0,30.188976,,,TRUE,TRUE,,,,,,,BKN,2500,BKN,3000,,,,,MVFR,,,,,,,,,,,,SPECI,84.0
KTTA 291535Z AUTO 22010KT 10SM CLR 28/20 A3019 RMK AO2 T02800196,KTTA,2017-04-29T15:35:00Z,35.58,-79.1,28.0,19.6,220,10,,10.0,30.188976,,,TRUE,TRUE,,,,,,,CLR,,,,,,,,VFR,,,,,,,,,,,,SPECI,75.0
KTBR 291535Z AUTO 16010KT 10SM CLR 30/20 A3019 RMK AO2 T02980203,KTBR,2017-04-29T15:35:00Z,32.48,-81.73,29.8,20.3,160,10,,10.0,30.188976,,,TRUE,TRUE,,,,,,,CLR,,,,,,,,VFR,,,,,,,,,,,,SPECI,57.0
KSME 291535Z AUTO 21008KT 180V270 10SM CLR 26/17 A3010 RMK AO2,KSME,2017-04-29T15:35:00Z,37.05,-84.62,26.0,17.0,210,8,,10.0,30.100393,,,TRUE,TRUE,,,,,,,CLR,,,,,,,,VFR,,,,,,,,,,,,METAR,283.0
KSIF 291535Z AUTO 21008KT 7SM SCT014 SCT020 BKN026 25/21 A3019 RMK AO2 T02530213,KSIF,2017-04-29T15:35:00Z,36.43,-79.85,25.3,21.3,210,8,,7.0,30.188976,,,TRUE,TRUE,,,,,,,SCT,1400,SCT,2000,BKN,2600,,,MVFR,,,,,,,,,,,,SPECI,211.0
KSEF 291535Z AUTO 14015G20KT 10SM CLR 31/18 A3015 RMK AO2 T03140184,KSEF,2017-04-29T15:35:00Z,,,31.4,18.4,140,15,20,10.0,30.15059,,,TRUE,TRUE,,,,,,,CLR,,,,,,,,VFR,,,,,,,,,,,,METAR,
KRPH 291535Z AUTO 31013KT 10SM SCT032 SCT040 BKN049 15/11 A2963 RMK AO2 T01460105,KRPH,2017-04-29T15:35:00Z,33.12,-98.55,14.6,10.5,310,13,,10.0,29.630905,,,TRUE,TRUE,,,,,,,SCT,3200,SCT,4000,BKN,4900,,,VFR,,,,,,,,,,,,SPECI,342.0
KRCZ 291535Z AUTO 19009KT 10SM SCT029 28/21 A3021 RMK AO2 T02770210,KRCZ,2017-04-29T15:35:00Z,34.88,-79.77,27.7,21.0,190,9,,10.0,30.209646,,,TRUE,TRUE,,,,,,,SCT,2900,,,,,,,VFR,,,,,,,,,,,,SPECI,109.0
KRBO 291535Z AUTO 15019G26KT 7SM BKN019 BKN026 OVC033 30/24 A2958 RMK AO2 T02950240,KRBO,2017-04-29T15:35:00Z,27.78,-97.68,29.5,24.0,150,19,26,7.0,29.58071,,,TRUE,TRUE,,,,,,,BKN,1900,BKN,2600,OVC,3300,,,MVFR,,,,,,,,,,,,SPECI,24.0
KPVB 291535Z AUTO 05016G22KT 10SM CLR 07/01 A3016 RMK AO1 T00720013,KPVB,2017-04-29T15:35:00Z,42.68,-90.43,7.2,1.3,50,16,22,10.0,30.159449,,,TRUE,TRUE,,,,,,,CLR,,,,,,,,VFR,,,,,,,,,,,,SPECI,313.0
KPTT 291535Z AUTO 03019G30KT 10SM -VCTSRA OVC007 04/03 A2980 RMK AO2 LTG DSNT SE AND S P0007 T00350030,KPTT,2017-04-29T15:35:00Z,37.7,-98.75,3.5,3.0,30,19,30,10.0,29.799213,,,TRUE,TRUE,,,,,,VCTS -RA,OVC,700,,,,,,,IFR,,,,,,0.07,,,,,,SPECI,595.0
KOSA 291535Z AUTO 16014G21KT 7SM SCT024 26/22 A2967 RMK AO1 T02620215,KOSA,2017-04-29T15:35:00Z,33.1,-94.97,26.2,21.5,160,14,21,7.0,29.66929,,,TRUE,TRUE,,,,,,,SCT,2400,,,,,,,VFR,,,,,,,,,,,,SPECI,111.0
KOPN 291535Z AUTO 17006KT 10SM SCT060 28/18 A3018 RMK AO2,KOPN,2017-04-29T15:35:00Z,32.95,-84.27,28.0,18.0,170,6,,10.0,30.180119,,,TRUE,TRUE,,,,,,,SCT,6000,,,,,,,VFR,,,,,,,,,,,,SPECI,243.0
KOPL 291535Z AUTO 16017G27KT 10SM BKN027 OVC033 29/22 A2984 RMK AO2 LTG DSNT SW T02850220 PWINO,KOPL,2017-04-29T15:35:00Z,30.55,-92.1,28.5,22.0,160,17,27,10.0,29.840551,,,TRUE,TRUE,,,,,TRUE,,BKN,2700,OVC,3300,,,,,MVFR,,,,,,,,,,,,SPECI,23.0
KMYZ 291535Z AUTO 04017G23KT 10SM BKN011 OVC060 05/04 A2991 RMK AO2,KMYZ,2017-04-29T15:35:00Z,39.85,-96.63,5.0,4.0,40,17,23,10.0,29.911417,,,TRUE,TRUE,,,,,,,BKN,1100,OVC,6000,,,,,MVFR,,,,,,,,,,,,SPECI,319.0
KMWK 291535Z AUTO 20003KT 5SM BR OVC009 23/21 A3023 RMK AO2 T02290211,KMWK,2017-04-29T15:35:00Z,36.47,-80.55,22.9,21.1,200,3,,5.0,30.230314,,,TRUE,TRUE,,,,,,BR,OVC,900,,,,,,,IFR,,,,,,,,,,,,SPECI,380.0
KMRJ 291535Z AUTO 03016G22KT 10SM CLR 07/00 A3016 RMK AO2,KMRJ,2017-04-29T15:35:00Z,42.88,-90.23,7.0,0.0,30,16,22,10.0,30.159449,,,TRUE,TRUE,,,,,,,CLR,,,,,,,,VFR,,,,,,,,,,,,SPECI,359.0
KMQI 291535Z AUTO 25010KT 10SM CLR 27/21 A3019 RMK AO2 T02720208,KMQI,2017-04-29T15:35:00Z,35.92,-75.7,27.2,20.8,250,10,,10.0,30.188976,,,TRUE,TRUE,,,,,,,CLR,,,,,,,,VFR,,,,,,,,,,,,SPECI,4.0
KM30 291535Z AUTO 12006KT 7SM SCT070 SCT080 26/22 A2996 RMK AO2 T02620217,KM30,2017-04-29T15:35:00Z,37.18,-88.75,26.2,21.7,120,6,,7.0,29.958662,,,TRUE,TRUE,,,,,,,SCT,7000,SCT,8000,,,,,VFR,,,,,,,,,,,,SPECI,117.0
KLWB 291535Z AUTO 23004KT 10SM CLR 24/15 A3022 RMK AO2 T02410150,KLWB,2017-04-29T15:35:00Z,37.87,-80.4,24.1,15.0,230,4,,10.0,30.221457,,,TRUE,TRUE,,,,,,,CLR,,,,,,,,VFR,,,,,,,,,,,,METAR,702.0
KLOM 291535Z AUTO 27009KT 10SM SCT026 SCT036 24/17 A3007 RMK AO1,KLOM,2017-04-29T15:35:00Z,40.13,-75.27,24.0,17.0,270,9,,10.0,30.070866,,,TRUE,TRUE,,,,,,,SCT,2600,SCT,3600,,,,,VFR,,,,,,,,,,,,SPECI,92.0
KJOT 291535Z AUTO 04015G25KT 10SM CLR 09/02 A3010 RMK AO2 T00870023,KJOT,2017-04-29T15:35:00Z,41.52,-88.18,8.7,2.3,40,15,25,10.0,30.100393,,,TRUE,TRUE,,,,,,,CLR,,,,,,,,VFR,,,,,,,,,,,,SPECI,177.0
KJNX 291535Z AUTO 21009G14KT 10SM SCT026 28/22 A3020 RMK AO2,KJNX,2017-04-29T15:35:00Z,35.53,-78.38,28.0,22.0,210,9,14,10.0,30.200787,,,TRUE,TRUE,,,,,,,SCT,2600,,,,,,,VFR,,,,,,,,,,,,SPECI,50.0
KJES 291535Z AUTO 17006G14KT 10SM BKN031 30/19 A3019 RMK AO2,KJES,2017-04-29T15:35:00Z,31.55,-81.88,30.0,19.0,170,6,14,10.0,30.188976,,,TRUE,TRUE,,,,,,,BKN,3100,,,,,,,VFR,,,,,,,,,,,,SPECI,33.0
KJAQ 291535Z AUTO 00000KT 10SM CLR 16/M03 A3010 RMK AO1 T01621034,KJAQ,2017-04-29T15:35:00Z,38.37,-120.8,16.2,-3.4,0,0,,10.0,30.100393,,,TRUE,TRUE,,,,,,,CLR,,,,,,,,VFR,,,,,,,,,,,,METAR,512.0
KIKK 291535Z AUTO 03016G26KT 10SM OVC046 09/04 A3009 RMK AO2 T00850043,KIKK,2017-04-29T15:35:00Z,41.07,-87.85,8.5,4.3,30,16,26,10.0,30.088583,,,TRUE,TRUE,,,,,,,OVC,4600,,,,,,,VFR,,,,,,,,,,,,SPECI,192.0
KIDP 291535Z AUTO 36011G19KT 10SM -VCTSDZ SCT010 SCT060 BKN095 10/08 A2973 RMK AO2 LTG DSNT ALQS,KIDP,2017-04-29T15:35:00Z,37.17,-95.78,10.0,8.0,360,11,19,10.0,29.731298,,,TRUE,TRUE,,,,,,VCTS -DZ,SCT,1000,SCT,6000,BKN,9500,,,VFR,,,,,,,,,,,,SPECI,251.0
KHTO 291535Z AUTO 26012G20KT 10SM CLR 23/18 A2998 RMK AO2 T02340177,KHTO,2017-04-29T15:35:00Z,40.95,-72.25,23.4,17.7,260,12,20,10.0,29.97933,,,TRUE,TRUE,,,,,,,CLR,,,,,,,,VFR,,,,,,,,,,,,SPECI,17.0
KHRJ 291535Z AUTO 21010KT 10SM SCT048 29/20 A3021 RMK AO2 T02870204,KHRJ,2017-04-29T15:35:00Z,35.38,-78.73,28.7,20.4,210,10,,10.0,30.209646,,,TRUE,TRUE,,,,,,,SCT,4800,,,,,,,VFR,,,,,,,,,,,,SPECI,60.0
KHNZ 291535Z AUTO 22009KT 10SM SCT019 26/20 A3020 RMK AO2 T02550204,KHNZ,2017-04-29T15:35:00Z,36.37,-78.53,25.5,20.4,220,9,,10.0,30.200787,,,TRUE,TRUE,,,,,,,SCT,1900,,,,,,,VFR,,,,,,,,,,,,SPECI,161.0
KHBV 291535Z AUTO 17012G18KT 7SM SCT024 28/21 A2956 RMK AO2 T02820211,KHBV,2017-04-29T15:35:00Z,27.35,-98.73,28.2,21.1,170,12,18,7.0,29.56004,,,TRUE,TRUE,,,,,,,SCT,2400,,,,,,,VFR,,,,,,,,,,,,SPECI,202.0
KGYI 291535Z AUTO 17013G17KT 7SM SCT031 SCT042 BKN060 26/22 A2960 RMK AO2 LTG DSNT N AND NW T02590217,KGYI,2017-04-29T15:35:00Z,33.72,-96.67,25.9,21.7,170,13,17,7.0,29.601377,,,TRUE,TRUE,,,,,,,SCT,3100,SCT,4200,BKN,6000,,,VFR,,,,,,,,,,,,SPECI,228.0
KGCD 291535Z AUTO 00000KT 10SM CLR 05/00 A3027 RMK AO2 T00491001,KGCD,2017-04-29T15:35:00Z,44.38,-118.97,4.9,-0.1,0,0,,10.0,30.268702,,,TRUE,TRUE,,,,,,,CLR,,,,,,,,VFR,,,,,,,,,,,,SPECI,1127.0
KFZG 291535Z AUTO 19006KT 10SM BKN002 BKN027 OVC065 29/22 A3020 RMK AO2 T02910218,KFZG,2017-04-29T15:35:00Z,31.68,-83.27,29.1,21.8,190,6,,10.0,30.200787,,,TRUE,TRUE,,,,,,,BKN,200,BKN,2700,OVC,6500,,,LIFR,,,,,,,,,,,,SPECI,111.0
KFFA 291535Z AUTO 23007G16KT 210V270 10SM CLR 28/20 A3017 RMK AO2 T02770202,KFFA,2017-04-29T15:35:00Z,36.02,-75.67,27.7,20.2,230,7,16,10.0,30.171259,,,TRUE,TRUE,,,,,,,CLR,,,,,,,,VFR,,,,,,,,,,,,SPECI,4.0
KCQC 291535Z AUTO 07019G26KT 1 3/4SM -SN BR SCT008 BKN013 OVC027 M03/M04 A2988 RMK AO2 PK WND 06031/1504 P0001 T10281044,KCQC,2017-04-29T15:35:00Z,35.0,-105.67,-2.8,-4.4,70,19,26,1.75,29.878937,,,TRUE,TRUE,,,,,,-SN BR,SCT,800,BKN,1300,OVC,2700,,,IFR,,,,,,0.01,,,,,,METAR,2160.0
KY23 291535Z AUTO 04007KT 10SM CLR 07/M04 A3030 RMK AO2 T00651037,KY23,2017-04-29T15:35:00Z,45.3,-91.63,6.5,-3.7,40,7,,10.0,30.301182,,,TRUE,TRUE,,,,,,,CLR,,,,,,,,VFR,,,,,,,,,,,,METAR,322.0
KXPY 291535Z AUTO 14016G23KT 3SM HZ SCT013 27/24 A2991 RMK A01,KXPY,2017-04-29T15:35:00Z,29.12,-90.2,27.0,24.0,140,16,23,3.0,29.911417,,,TRUE,TRUE,,,,,,HZ,SCT,1300,,,,,,,MVFR,,,,,,,,,,,,METAR,2.0
KXIH 291535Z AUTO 19023G33KT 2SM HZ FEW014 FEW020 28/24 A2969 RMK A01,KXIH,2017-04-29T15:35:00Z,29.18,-94.52,28.0,24.0,190,23,33,2.0,29.68996,,,TRUE,TRUE,,,,,,HZ,FEW,1400,FEW,2000,,,,,IFR,,,,,,,,,,,,METAR,75.0
KW78 291535Z AUTO 21005KT 10SM OVC017 26/23 A3018 RMK AO1 T02600225,KW78,2017-04-29T15:35:00Z,36.68,-78.85,26.0,22.5,210,5,,10.0,30.180119,,,TRUE,TRUE,,,,,,,OVC,1700,,,,,,,MVFR,,,,,,,,,,,,METAR,129.0
KW22 291535Z AUTO 23004KT 10SM CLR 24/17 A3014 RMK AO2,KW22,2017-04-29T15:35:00Z,39.0,-80.27,24.0,17.0,230,4,,10.0,30.138779,,,TRUE,TRUE,,,,,,,CLR,,,,,,,,VFR,,,,,,,,,,,,METAR,499.0
KVYS 291535Z AUTO 06016G29KT 10SM SCT110 07/01 A3011 RMK AO2 T00730006,KVYS,2017-04-29T15:35:00Z,41.35,-89.15,7.3,0.6,60,16,29,10.0,30.109253,,,TRUE,TRUE,,,,,,,SCT,11000,,,,,,,VFR,,,,,,,,,,,,METAR,199.0
KVWU 291535Z AUTO 30003KT 10SM CLR 09/M03 A3034 RMK AO2,KVWU,2017-04-29T15:35:00Z,48.15,-94.52,9.0,-3.0,300,3,,10.0,30.339567,,,TRUE,TRUE,,,,,,,CLR,,,,,,,,VFR,,,,,,,,,,,,METAR,360.0
KVQT 291535Z AUTO 16030G37KT 10SM FEW015 28/24 A2983 RMK A01,KVQT,2017-04-29T15:35:00Z,28.27,-92.27,28.0,24.0,160,30,37,10.0,29.828741,,,TRUE,TRUE,,,,,,,FEW,1500,,,,,,,VFR,,,,,,,,,,,,METAR,25.0
KVOA 291535Z AUTO 13025G30KT 2 1/2SM HZ SCT003 26/23 A2999 RMK A01,KVOA,2017-04-29T15:35:00Z,29.23,-87.78,26.0,23.0,130,25,30,2.5,29.991142,,,TRUE,TRUE,,,,,,HZ,SCT,300,,,,,,,IFR,,,,,,,,,,,,METAR,53.0
KVKY 291535Z AUTO VRB06G14KT RMK A01,KVKY,2017-04-29T15:35:00Z,29.25,-88.43,,,0,6,14,,,,,TRUE,TRUE,,,,,,,,,,,,,,,,,,,,,,,,,,,METAR,32.0
KVKS 291535Z AUTO 18014G23KT 10SM SCT031 BKN037 BKN046 29/22 A2984 RMK A01,KVKS,2017-04-29T15:35:00Z,32.23,-90.93,29.0,22.0,180,14,23,10.0,29.840551,,,TRUE,TRUE,,,,,,,SCT,3100,BKN,3700,BKN,4600,,,VFR,,,,,,,,,,,,METAR,32.0
KVBS 291535Z AUTO 20015G28KT 10SM FEW014 SCT021 26/24 A2975 RMK A01,KVBS,2017-04-29T15:35:00Z,29.48,-93.63,26.0,24.0,200,15,28,10.0,29.749016,,,TRUE,TRUE,,,,,,,FEW,1400,SCT,2100,,,,,VFR,,,,,,,,,,,,METAR,31.0
KUXL 291535Z AUTO 15022G32KT 7SM OVC015 27/24 A2978 RMK AO2 LTG DSNT N AND NW T02650238,KUXL,2017-04-29T15:35:00Z,30.13,-93.38,26.5,23.8,150,22,32,7.0,29.778543,,,TRUE,TRUE,,,,,,,OVC,1500,,,,,,,MVFR,,,,,,,,,,,,METAR,4.0
KUVA 291535Z AUTO 15010KT 5SM HZ SCT019 BKN025 OVC032 25/21 A2960 RMK AO2 T02480210,KUVA,2017-04-29T15:35:00Z,29.22,-99.75,24.8,21.0,150,10,,5.0,29.601377,,,TRUE,TRUE,,,,,,HZ,SCT,1900,BKN,2500,OVC,3200,,,MVFR,,,,,,,,,,,,METAR,287.0
KUSE 291535Z AUTO 07012KT 1SM -RA SCT008 BKN016 OVC025 08/07 A3017 RMK AO2,KUSE,2017-04-29T15:35:00Z,41.62,-84.13,8.0,7.0,70,12,,1.0,30.171259,,,TRUE,TRUE,,,,,,-RA,SCT,800,BKN,1600,OVC,2500,,,IFR,,,,,,,,,,,,METAR,238.0
KUNU 291535Z AUTO 02012G19KT 10SM CLR 06/M01 A3025 RMK AO2 T00601009,KUNU,2017-04-29T15:35:00Z,43.42,-88.7,6.0,-0.9,20,12,19,10.0,30.250984,,,TRUE,TRUE,,,,,,,CLR,,,,,,,,VFR,,,,,,,,,,,,METAR,285.0
KUCY 291535Z AUTO 16010KT 10SM FEW029 SCT036 BKN045 26/21 A2994 RMK A01,KUCY,2017-04-29T15:35:00Z,36.38,-88.98,26.0,21.0,160,10,,10.0,29.940945,,,TRUE,TRUE,,,,,,,FEW,2900,SCT,3600,BKN,4500,,,VFR,,,,,,,,,,,,METAR,104.0
KTYQ 291535Z AUTO 06007KT 5SM RA SCT003 BKN025 OVC033 12/12 A3006 RMK AO2 P0009 T01240121,KTYQ,2017-04-29T15:35:00Z,40.03,-86.25,12.4,12.1,60,7,,5.0,30.059055,,,TRUE,TRUE,,,,,,RA,SCT,300,BKN,2500,OVC,3300,,,MVFR,,,,,,0.09,,,,,,METAR,281.0
KTPF 291535Z AUTO 13014G20KT 10SM SCT036 32/21 A3013 RMK AO2,KTPF,2017-04-29T15:35:00Z,27.92,-82.45,32.0,21.0,130,14,20,10.0,30.129921,,,TRUE,TRUE,,,,,,,SCT,3600,,,,,,,VFR,,,,,,,,,,,,METAR,3.0
KTMK 291535Z AUTO 00000KT 10SM BKN100 07/05 A3033 RMK AO2,KTMK,2017-04-29T15:35:00Z,45.42,-123.82,7.0,5.0,0,0,,10.0,30.33071,,,TRUE,TRUE,,,,,,,BKN,10000,,,,,,,VFR,,,,,,,,,,,,METAR,11.0
KTKV 291535Z AUTO 01006G16KT 10SM CLR 05/M05 A3029 RMK AO2 T00531049,KTKV,2017-04-29T15:35:00Z,45.47,-89.82,5.3,-4.9,10,6,16,10.0,30.28937,,,TRUE,TRUE,,,,,,,CLR,,,,,,,,VFR,,,,,,,,,,,,METAR,453.0
KTIP 291535Z AUTO 05013G19KT 5SM RA OVC013 10/09 A3008 RMK AO2 T01010091,KTIP,2017-04-29T15:35:00Z,40.28,-88.15,10.1,9.1,50,13,19,5.0,30.079725,,,TRUE,TRUE,,,,,,RA,OVC,1300,,,,,,,MVFR,,,,,,,,,,,,METAR,225.0
KTIF 291535Z AUTO 04012G16KT 10SM BKN100 BKN120 06/M04 A3021 RMK AO2 T00591041,KTIF,2017-04-29T15:35:00Z,41.97,-100.57,5.9,-4.1,40,12,16,10.0,30.209646,,,TRUE,TRUE,,,,,,,BKN,10000,BKN,12000,,,,,VFR,,,,,,,,,,,,METAR,892.0
KTGI 291535Z AUTO 20007KT 7SM BKN025 23/21 A3014 RMK AO1,KTGI,2017-04-29T15:35:00Z,37.82,-75.98,23.0,21.0,200,7,,7.0,30.138779,,,TRUE,TRUE,,,,,,,BKN,2500,,,,,,,MVFR,,,,,,,,,,,,METAR,2.0
KTAZ 291535Z AUTO 04011KT 1 3/4SM RA OVC005 10/10 A3005 RMK AO2 LTG DSNT S THRU NW P0022 T00980096,KTAZ,2017-04-29T15:35:00Z,39.53,-89.33,9.8,9.6,40,11,,1.75,30.050198,,,TRUE,TRUE,,,,,,RA,OVC,500,,,,,,,IFR,,,,,,0.22,,,,,,METAR,190.0
KT65 291535Z AUTO 19023G27KT 7SM SCT028 32/23 A2954 RMK AO2 T03180230,KT65,2017-04-29T15:35:00Z,26.18,-97.97,31.8,23.0,190,23,27,7.0,29.53937,,,TRUE,TRUE,,,,,,,SCT,2800,,,,,,,VFR,,,,,,,,,,,,METAR,21.0
KT35 291535Z AUTO 18017G27KT 7SM BKN026 BKN032 OVC038 28/23 A2960 RMK AO2 T02790225,KT35,2017-04-29T15:35:00Z,30.88,-96.97,27.9,22.5,180,17,27,7.0,29.601377,,,TRUE,TRUE,,,,,,,BKN,2600,BKN,3200,OVC,3800,,,MVFR,,,,,,,,,,,,METAR,123.0
KT20 291535Z AUTO 7SM BKN025 BKN034 OVC040 28/24 A2961 RMK AO2 T02830238,KT20,2017-04-29T15:35:00Z,29.52,-97.47,28.3,23.8,,,,7.0,29.610237,,,TRUE,TRUE,,,,,,,BKN,2500,BKN,3400,OVC,4000,,,MVFR,,,,,,,,,,,,METAR,108.0
KSZY 291535Z AUTO 17009G15KT 10SM BKN027 OVC032 26/20 A2998 RMK A01,KSZY,2017-04-29T15:35:00Z,,,26.0,20.0,170,9,15,10.0,29.97933,,,TRUE,TRUE,,,,,,,BKN,2700,OVC,3200,,,,,MVFR,,,,,,,,,,,,METAR,
KSWW 291535Z AUTO 34015G22KT 10SM OVC010 11/08 A2975 RMK AO2 T01080078,KSWW,2017-04-29T15:35:00Z,32.47,-100.47,10.8,7.8,340,15,22,10.0,29.749016,,,TRUE,TRUE,,,,,,,OVC,1000,,,,,,,MVFR,,,,,,,,,,,,METAR,727.0
KSUW 291535Z AUTO 05007KT 10SM CLR 07/M04 A3037 RMK AO2 T00731045,KSUW,2017-04-29T15:35:00Z,46.68,-92.1,7.3,-4.5,50,7,,10.0,30.369095,,,TRUE,TRUE,,,,,,,CLR,,,,,,,,VFR,,,,,,,,,,,,METAR,206.0
KSRB 291535Z AUTO 18009G15KT 10SM CLR 29/20 A3004 RMK A01,KSRB,2017-04-29T15:35:00Z,36.05,-85.53,29.0,20.0,180,9,15,10.0,30.041338,,,TRUE,TRUE,,,,,,,CLR,,,,,,,,VFR,,,,,,,,,,,,METAR,313.0
KSPR 291535Z AUTO 16028G34KT 2 1/2SM BR FEW014 SCT019 BKN033 26/24 A2987 RMK A01,KSPR,2017-04-29T15:35:00Z,28.6,-91.2,26.0,24.0,160,28,34,2.5,29.870079,,,TRUE,TRUE,,,,,,BR,FEW,1400,SCT,1900,BKN,3300,,,IFR,,,,,,,,,,,,METAR,31.0
KSOA 291535Z AUTO 32010G19KT 10SM FEW023 SCT028 BKN050 19/09 A2973 RMK AO2,KSOA,2017-04-29T15:35:00Z,30.58,-100.65,19.0,9.0,320,10,19,10.0,29.731298,,,TRUE,TRUE,,,,,,,FEW,2300,SCT,2800,BKN,5000,,,VFR,,,,,,,,,,,,METAR,652.0
KSNL 291535Z AUTO 02014G20KT 10SM OVC005 12/12 A2962 RMK AO2 LTG DSNT ALQS T01210115,KSNL,2017-04-29T15:35:00Z,35.35,-96.95,12.1,11.5,20,14,20,10.0,29.619095,,,TRUE,TRUE,,,,,,,OVC,500,,,,,,,IFR,,,,,,,,,,,,METAR,327.0
KSNH 291535Z AUTO 20010G18KT 10SM SCT029 BKN034 26/20 A2998 RMK A01,KSNH,2017-04-29T15:35:00Z,35.17,-88.22,26.0,20.0,200,10,18,10.0,29.97933,,,TRUE,TRUE,,,,,,,SCT,2900,BKN,3400,,,,,VFR,,,,,,,,,,,,METAR,144.0
KSLR 291535Z AUTO 17015G29KT 7SM OVC026 28/22 A2963 RMK AO2 T02750220,KSLR,2017-04-29T15:35:00Z,33.17,-95.62,27.5,22.0,170,15,29,7.0,29.630905,,,TRUE,TRUE,,,,,,,OVC,2600,,,,,,,MVFR,,,,,,,,,,,,METAR,149.0
KSFY 291535Z AUTO 03015G20KT 10SM CLR 09/02 A3009 RMK AO2 P0001 T00860020,KSFY,2017-04-29T15:35:00Z,42.05,-90.12,8.6,2.0,30,15,20,10.0,30.088583,,,TRUE,TRUE,,,,,,,CLR,,,,,,,,VFR,,,,,,0.01,,,,,,METAR,188.0
KSFQ 291535Z AUTO 24008KT 10SM BKN025 28/23 A3018 RMK AO2 T02830225,KSFQ,2017-04-29T15:35:00Z,36.68,-76.6,28.3,22.5,240,8,,10.0,30.180119,,,TRUE,TRUE,,,,,,,BKN,2500,,,,,,,MVFR,,,,,,,,,,,,METAR,22.0
KSEZ 291535Z AUTO 28007KT 10SM CLR 09/M07 A3000 RMK AO2,KSEZ,2017-04-29T15:35:00Z,34.85,-111.78,9.0,-7.0,280,7,,10.0,30.0,,,TRUE,TRUE,,,,,,,CLR,,,,,,,,VFR,,,,,,,,,,,,METAR,1473.0
KSCF 291535Z AUTO 14030G35KT 2 1/2SM BR CLR 26/24 A2985 RMK A01,KSCF,2017-04-29T15:35:00Z,29.12,-91.87,26.0,24.0,140,30,35,2.5,29.84941,,,TRUE,TRUE,,,,,,BR,CLR,,,,,,,,IFR,,,,,,,,,,,,METAR,8.0
KSAA 291535Z AUTO 03015G19KT 10SM SCT032 SCT046 BKN060 00/M07 A3015 RMK AO2,KSAA,2017-04-29T15:35:00Z,41.45,-106.83,0.0,-7.0,30,15,19,10.0,30.15059,,,TRUE,TRUE,,,,,,,SCT,3200,SCT,4600,BKN,6000,,,VFR,,,,,,,,,,,,METAR,2138.0
KS39 291535Z AUTO 00000KT 10SM CLR 06/M00 A3024 RMK AO2,KS39,2017-04-29T15:35:00Z,44.28,-120.9,6.0,0.0,0,0,,10.0,30.239174,,,TRUE,TRUE,,,,,,,CLR,,,,,,,,VFR,,,,,,,,,,,,METAR,991.0
KRZR 291535Z AUTO 21009G16KT 10SM CLR 29/20 A3011 RMK A01,KRZR,2017-04-29T15:35:00Z,35.22,-84.8,29.0,20.0,210,9,16,10.0,30.109253,,,TRUE,TRUE,,,,,,,CLR,,,,,,,,VFR,,,,,,,,,,,,METAR,263.0
KRYV 291535Z AUTO 02010G16KT 10SM CLR 07/01 A3022 RMK AO2 T00700005,KRYV,2017-04-29T15:35:00Z,43.17,-88.72,7.0,0.5,20,10,16,10.0,30.221457,,,TRUE,TRUE,,,,,,,CLR,,,,,,,,VFR,,,,,,,,,,,,METAR,254.0
KLVL 291535Z AUTO 10SM OVC019 27/22 A3018 RMK AO1 T02650220,KLVL,2017-04-29T15:35:00Z,36.78,-77.8,26.5,22.0,,,,10.0,30.180119,,,TRUE,TRUE,,,,,,,OVC,1900,,,,,,,MVFR,,,,,,,,,,,,METAR,100.0
KLUD 291535Z AUTO 21011G17KT 7SM SCT028 SCT034 SCT043 26/20 A2959 RMK AO2 T02600202,KLUD,2017-04-29T15:35:00Z,33.25,-97.58,26.0,20.2,210,11,17,7.0,29.589567,,,TRUE,TRUE,,,,,,,SCT,2800,SCT,3400,SCT,4300,,,VFR,,,,,,,,,,,,METAR,319.0
KLRU 291535Z AUTO 23012G15KT 10SM SCT120 11/01 A2986 RMK AO2 T01120011,KLRU,2017-04-29T15:35:00Z,32.27,-106.92,11.2,1.1,230,12,15,10.0,29.861221,,,TRUE,TRUE,,,,,,,SCT,12000,,,,,,,VFR,,,,,,,,,,,,METAR,1358.0
KLRO 291535Z AUTO 18007G16KT 9SM SCT020 BKN030 28/22 A3023 RMK AO2,KLRO,2017-04-29T15:35:00Z,32.9,-79.78,28.0,22.0,180,7,16,9.0,30.230314,,,TRUE,TRUE,,,,,,,SCT,2000,BKN,3000,,,,,MVFR,,,,,,,,,,,,METAR,4.0
KLNN 291535Z AUTO 02006KT 3SM SCT007 BKN023 OVC028 08/08 A3016 RMK AO1 T00770075,KLNN,2017-04-29T15:35:00Z,41.67,-81.37,7.7,7.5,20,6,,3.0,30.159449,,,TRUE,TRUE,,,,,,,SCT,700,BKN,2300,OVC,2800,,,MVFR,,,,,,,,,,,,METAR,191.0
KLKU 291535Z AUTO 22004KT 10SM CLR 31/23 A3012 RMK AO2,KLKU,2017-04-29T15:35:00Z,38.02,-77.97,31.0,23.0,220,4,,10.0,30.121063,,,TRUE,TRUE,,,,,,,CLR,,,,,,,,VFR,,,,,,,,,,,,METAR,150.0
KLHB 291535Z AUTO 14016G25KT 7SM OVC020 27/24 A2962 RMK AO2 T02730242,KLHB,2017-04-29T15:35:00Z,30.87,-96.62,27.3,24.2,140,16,25,7.0,29.619095,,,TRUE,TRUE,,,,,,,OVC,2000,,,,,,,MVFR,,,,,,,,,,,,METAR,87.0
KLGC 291535Z AUTO 18011G18KT 10SM SCT065 29/24 A3014 RMK AO2 T02880236,KLGC,2017-04-29T15:35:00Z,33.0,-85.07,28.8,23.6,180,11,18,10.0,30.138779,,,TRUE,TRUE,,,,,,,SCT,6500,,,,,,,VFR,,,,,,,,,,,,METAR,211.0
KLCQ 291535Z AUTO 17003KT 10SM BKN029 BKN039 27/21 A3018 RMK AO2,KLCQ,2017-04-29T15:35:00Z,30.18,-82.58,27.0,21.0,170,3,,10.0,30.180119,,,TRUE,TRUE,,,,,,,BKN,2900,BKN,3900,,,,,MVFR,,,,,,,,,,,,METAR,61.0
KLCK 291535Z AUTO 22006KT 5SM TSRA SCT005 BKN016 OVC095 16/16 A3014 RMK AO2 LTG DSNT ALQS T01630163,KLCK,2017-04-29T15:35:00Z,39.82,-82.92,16.3,16.3,220,6,,5.0,30.138779,,,TRUE,TRUE,,,,,,TSRA,SCT,500,BKN,1600,OVC,9500,,,MVFR,,,,,,,,,,,,METAR,227.0
KLCG 291535Z AUTO 06016G23KT 10SM CLR 08/00 A3015 RMK AO2 T00771002,KLCG,2017-04-29T15:35:00Z,42.25,-96.98,7.7,-0.2,60,16,23,10.0,30.15059,,,TRUE,TRUE,,,,,,,CLR,,,,,,,,VFR,,,,,,,,,,,,METAR,436.0
KL35 291535Z AUTO 06012G15KT 10SM CLR 03/M12 A3016 RMK AO2,KL35,2017-04-29T15:35:00Z,34.27,-116.85,3.0,-12.0,60,12,15,10.0,30.159449,,,TRUE,TRUE,,,,,,,CLR,,,,,,,,VFR,,,,,,,,,,,,METAR,2059.0
KJZP 291535Z AUTO 16009KT 10SM SCT026 SCT055 25/15 A3022 RMK AO2 T02520147,KJZP,2017-04-29T15:35:00Z,34.45,-84.47,25.2,14.7,160,9,,10.0,30.221457,,,TRUE,TRUE,,,,,,,SCT,2600,SCT,5500,,,,,VFR,,,,,,,,,,,,METAR,468.0
KJYO 291535Z AUTO 29003KT 10SM CLR 26/21 A3009 RMK AO2,KJYO,2017-04-29T15:35:00Z,39.07,-77.57,26.0,21.0,290,3,,10.0,30.088583,,,TRUE,TRUE,,,,,,,CLR,,,,,,,,VFR,,,,,,,,,,,,METAR,119.0
KJYL 291535Z AUTO 20009KT 170V230 10SM SCT029 A3020 RMK AO2,KJYL,2017-04-29T15:35:00Z,32.65,-81.6,,,200,9,,10.0,30.200787,,,TRUE,TRUE,,,,,,,SCT,2900,,,,,,,VFR,,,,,,,,,,,,METAR,57.0
KJXI 291535Z AUTO 14011G19KT 7SM OVC021 25/22 A2966 RMK AO2 T02540219,KJXI,2017-04-29T15:35:00Z,32.7,-94.95,25.4,21.9,140,11,19,7.0,29.660433,,,TRUE,TRUE,,,,,,,OVC,2100,,,,,,,MVFR,,,,,,,,,,,,METAR,127.0
KJTC 291535Z AUTO 33007KT 10SM CLR M00/M04 A2997 RMK AO2,KJTC,2017-04-29T15:35:00Z,34.13,-109.32,0.0,-4.0,330,7,,10.0,29.970472,,,TRUE,TRUE,,,,,,,CLR,,,,,,,,VFR,,,,,,,,,,,,METAR,2150.0
KJSV 291535Z AUTO 17014G21KT 10SM VCTS BKN033 26/20 A2960 RMK AO2 LTG DSNT W THRU N,KJSV,2017-04-29T15:35:00Z,35.43,-94.8,26.0,20.0,170,14,21,10.0,29.601377,,,TRUE,TRUE,,,,,,VCTS,BKN,3300,,,,,,,VFR,,,,,,,,,,,,METAR,161.0
KJSO 291535Z AUTO 16011G27KT 7SM BKN019 OVC024 25/22 A2969 RMK AO2 LTG DSNT E AND SE T02550226,KJSO,2017-04-29T15:35:00Z,31.87,-95.22,25.5,22.6,160,11,27,7.0,29.68996,,,TRUE,TRUE,,,,,,,BKN,1900,OVC,2400,,,,,MVFR,,,,,,,,,,,,METAR,206.0
KJKA 291535Z AUTO 13014G24KT 10SM OVC009 26/25 A3004 RMK AO2 T02590247,KJKA,2017-04-29T15:35:00Z,30.28,-87.67,25.9,24.7,130,14,24,10.0,30.041338,,,TRUE,TRUE,,,,,,,OVC,900,,,,,,,IFR,,,,,,,,,,,,METAR,5.0
KJGG 291535Z AUTO 26011G14KT 10SM CLR 29/23 A3016 RMK AO1,KJGG,2017-04-29T15:35:00Z,37.23,-76.72,29.0,23.0,260,11,14,10.0,30.159449,,,TRUE,TRUE,,,,,,,CLR,,,,,,,,VFR,,,,,,,,,,,,METAR,15.0
KJFZ 291535Z AUTO 23009G14KT 10SM CLR 27/13 A3022 RMK AO2 T02660131,KJFZ,2017-04-29T15:35:00Z,37.07,-81.8,26.6,13.1,230,9,14,10.0,30.221457,,,TRUE,TRUE,,,,,,,CLR,,,,,,,,VFR,,,,,,,,,,,,METAR,809.0
KJDD 291535Z AUTO 16014G20KT 120V180 10SM BKN027 OVC035 27/22 A2963 RMK AO2,KJDD,2017-04-29T15:35:00Z,32.75,-95.5,27.0,22.0,160,14,20,10.0,29.630905,,,TRUE,TRUE,,,,,,,BKN,2700,OVC,3500,,,,,MVFR,,,,,,,,,,,,METAR,132.0
KJCA 291535Z AUTO 16004KT 10SM SCT048 27/21 A3018 RMK AO2,KJCA,2017-04-29T15:35:00Z,34.18,-83.57,27.0,21.0,160,4,,10.0,30.180119,,,TRUE,TRUE,,,,,,,SCT,4800,,,,,,,VFR,,,,,,,,,,,,METAR,290.0
KJAU 291535Z AUTO 19007G13KT 150V210 10SM CLR 28/18 A3014 RMK A01,KJAU,2017-04-29T15:35:00Z,36.33,-84.17,28.0,18.0,190,7,13,10.0,30.138779,,,TRUE,TRUE,,,,,,,CLR,,,,,,,,VFR,,,,,,,,,,,,METAR,360.0
KJAS 291535Z AUTO 13010G18KT 7SM -RA 25/23 A2973 RMK AO2 P0007 T02510232,KJAS,2017-04-29T15:35:00Z,30.88,-94.03,25.1,23.2,130,10,18,7.0,29.731298,,,TRUE,TRUE,,,,,,-RA,,,,,,,,,,,,,,,0.07,,,,,,METAR,65.0
KIMM 291535Z AUTO 13012G19KT 10SM SCT040 SCT046 SCT065 29/20 A3011 RMK AO2,KIMM,2017-04-29T15:35:00Z,26.43,-81.4,29.0,20.0,130,12,19,10.0,30.109253,,,TRUE,TRUE,,,,,,,SCT,4000,SCT,4600,SCT,6500,,,VFR,,,,,,,,,,,,METAR,12.0
KIKT 291535Z AUTO 15013G25KT 10SM BKN014 27/23 A3000 RMK A01,KIKT,2017-04-29T15:35:00Z,28.52,-88.28,27.0,23.0,150,13,25,10.0,30.0,,,TRUE,TRUE,,,,,,,BKN,1400,,,,,,,MVFR,,,,,,,,,,,,METAR,25.0
KIKG 291535Z AUTO 13014G20KT 7SM BKN029 BKN037 31/24 A2955 RMK AO2 T03130244,KIKG,2017-04-29T15:35:00Z,27.55,-98.03,31.3,24.4,130,14,20,7.0,29.551182,,,TRUE,TRUE,,,,,,,BKN,2900,BKN,3700,,,,,MVFR,,,,,,,,,,,,METAR,40.0
KIJX 291535Z AUTO 06017G20KT 3SM TSRA OVC008 09/08 A3003 RMK AO2 LTG DSNT S THRU W P0013 T00900082,KIJX,2017-04-29T15:35:00Z,39.77,-90.25,9.0,8.2,60,17,20,3.0,30.029528,,,TRUE,TRUE,,,,,,TSRA,OVC,800,,,,,,,IFR,,,,,,0.13,,,,,,METAR,190.0
KIIY 291535Z AUTO 18005KT 10SM CLR 27/23 A3018 RMK AO2,KIIY,2017-04-29T15:35:00Z,33.78,-82.82,27.0,23.0,180,5,,10.0,30.180119,,,TRUE,TRUE,,,,,,,CLR,,,,,,,,VFR,,,,,,,,,,,,METAR,197.0
KIFP 291535Z 34018G25KT 10SM CLR 19/M06 A3004 RMK AO2,KIFP,2017-04-29T15:35:00Z,35.15,-114.57,19.0,-6.0,340,18,25,10.0,30.041338,,,,TRUE,,,,,,,CLR,,,,,,,,VFR,,,,,,,,,,,,METAR,212.0
KGBK 291535Z AUTO 11016G27KT 26/24 A2982 RMK A01,KGBK,2017-04-29T15:35:00Z,27.2,-92.2,26.0,24.0,110,16,27,,29.819881,,,TRUE,TRUE,,,,,,,,,,,,,,,,,,,,,,,,,,,METAR,59.0
KGBG 291535Z AUTO 06012G20KT 10SM -RA OVC026 07/04 A3008 RMK AO2 LTG DSNT S P0002 T00730043,KGBG,2017-04-29T15:35:00Z,40.93,-90.43,7.3,4.3,60,12,20,10.0,30.079725,,,TRUE,TRUE,,,,,,-RA,OVC,2600,,,,,,,MVFR,,,,,,0.02,,,,,,METAR,233.0
KFYM 291535Z AUTO 17014G19KT CLR 28/20 A3004 RMK A01,KFYM,2017-04-29T15:35:00Z,35.07,-86.57,28.0,20.0,170,14,19,,30.041338,,,TRUE,TRUE,,,,,,,CLR,,,,,,,,,,,,,,,,,,,,METAR,300.0
KFYE 291535Z AUTO 17015G22KT 130V210 10SM SCT027 BKN032 27/21 A2992 RMK A01,KFYE,2017-04-29T15:35:00Z,35.2,-89.38,27.0,21.0,170,15,22,10.0,29.920275,,,TRUE,TRUE,,,,,,,SCT,2700,BKN,3200,,,,,VFR,,,,,,,,,,,,METAR,133.0
KFWC 291535Z AUTO 12004KT 10SM BKN080 BKN090 20/19 A2998 RMK AO1 LTG DSNT W T01950185,KFWC,2017-04-29T15:35:00Z,38.38,-88.42,19.5,18.5,120,4,,10.0,29.97933,,,TRUE,TRUE,,,,,,,BKN,8000,BKN,9000,,,,,VFR,,,,,,,,,,,,METAR,133.0
KFVX 291535Z AUTO 21009KT 10SM SCT023 28/23 A3015 RMK AO2 T02840226,KFVX,2017-04-29T15:35:00Z,37.35,-78.42,28.4,22.6,210,9,,10.0,30.15059,,,TRUE,TRUE,,,,,,,SCT,2300,,,,,,,VFR,,,,,,,,,,,,METAR,125.0
KFTN 291535Z AUTO 16011KT 10SM OVC021 28/21 A2957 RMK A01,KFTN,2017-04-29T15:35:00Z,28.22,-100.02,28.0,21.0,160,11,,10.0,29.568897,,,TRUE,TRUE,,,,,,,OVC,2100,,,,,,,MVFR,,,,,,,,,,,,METAR,236.0
KFSO 291535Z AUTO 26005KT 10SM SCT090 OVC110 20/06 A2988 RMK AO2 T01950062,KFSO,2017-04-29T15:35:00Z,44.93,-73.1,19.5,6.2,260,5,,10.0,29.878937,,,TRUE,TRUE,,,,,,,SCT,9000,OVC,11000,,,,,VFR,,,,,,,,,,,,METAR,70.0
KFOT 291535Z AUTO 00000KT 10SM CLR 09/07 A3025 RMK AO1,KFOT,2017-04-29T15:35:00Z,40.55,-124.13,9.0,7.0,0,0,,10.0,30.250984,,,TRUE,TRUE,,,,,,,CLR,,,,,,,,VFR,,,,,,,,,,,,METAR,120.0
KFKS 291535Z AUTO 35008KT 320V020 10SM CLR 06/M01 A3026 RMK AO2 T00591014,KFKS,2017-04-29T15:35:00Z,44.63,-86.2,5.9,-1.4,350,8,,10.0,30.259842,,,TRUE,TRUE,,,,,,,CLR,,,,,,,,VFR,,,,,,,,,,,,METAR,193.0
KFKN 291535Z AUTO 26006G14KT 10SM BKN024 28/22 A3018 RMK AO2 T02750217,KFKN,2017-04-29T15:35:00Z,36.7,-76.9,27.5,21.7,260,6,14,10.0,30.180119,,,TRUE,TRUE,,,,,,,BKN,2400,,,,,,,MVFR,,,,,,,,,,,,METAR,12.0
KFET 291535Z AUTO 03012G18KT 10SM SCT070 BKN090 07/02 A3009 RMK AO2 T00650016,KFET,2017-04-29T15:35:00Z,41.45,-96.52,6.5,1.6,30,12,18,10.0,30.088583,,,TRUE,TRUE,,,,,,,SCT,7000,BKN,9000,,,,,VFR,,,,,,,,,,,,METAR,367.0
KFCH 291535Z AUTO 11008KT 10SM CLR 17/02 A3009 RMK A01,KFCH,2017-04-29T15:35:00Z,36.72,-119.82,17.0,2.0,110,8,,10.0,30.088583,,,TRUE,TRUE,,,,,,,CLR,,,,,,,,VFR,,,,,,,,,,,,METAR,85.0
KOCQ 291535Z AUTO 01008G14KT 10SM CLR 06/M03 A3029 RMK AO1 T00631030,KOCQ,2017-04-29T15:35:00Z,44.87,-87.92,6.3,-3.0,10,8,14,10.0,30.28937,,,TRUE,TRUE,,,,,,,CLR,,,,,,,,VFR,,,,,,,,,,,,METAR,183.0
KSMS 291535Z AUTO 16008G13KT 10SM CLR 28/21 A3021 RMK AO2,KSMS,2017-04-29T15:35:00Z,34.0,-80.37,28.0,21.0,160,8,13,10.0,30.209646,,,TRUE,TRUE,,,,,,,CLR,,,,,,,,VFR,,,,,,,,,,,,METAR,56.0
KSHL 291535Z AUTO 05017KT 10SM CLR 07/00 A3017 RMK AO2,KSHL,2017-04-29T15:35:00Z,43.22,-95.82,7.0,0.0,50,17,,10.0,30.171259,,,TRUE,TRUE,,,,,,,CLR,,,,,,,,VFR,,,,,,,,,,,,METAR,432.0
KSEM 291535Z AUTO 15011G20KT 10SM BKN023 OVC029 28/21 A3006 RMK AO2,KSEM,2017-04-29T15:35:00Z,32.35,-86.98,28.0,21.0,150,11,20,10.0,30.059055,,,TRUE,TRUE,,,,,,,BKN,2300,OVC,2900,,,,,MVFR,,,,,,,,,,,,METAR,51.0
KSDA 291535Z AUTO 05012G20KT 6SM +UP FEW055 BKN065 06/05 A3002 RMK AO2,KSDA,2017-04-29T15:35:00Z,40.75,-95.42,6.0,5.0,50,12,20,6.0,30.02067,,,TRUE,TRUE,,,,,,UP,FEW,5500,BKN,6500,,,,,VFR,,,,,,,,,,,,METAR,296.0
KSBS 291535Z AUTO 07003KT 10SM OVC070 00/M09 A3008 RMK AO1 T00021090,KSBS,2017-04-29T15:35:00Z,40.52,-106.87,0.2,-9.0,70,3,,10.0,30.079725,,,TRUE,TRUE,,,,,,,OVC,7000,,,,,,,VFR,,,,,,,,,,,,METAR,2096.0
KS25 291535Z AUTO 23007KT 10SM CLR 10/M01 A3026 RMK AO2,KS25,2017-04-29T15:35:00Z,47.8,-103.25,10.0,-1.0,230,7,,10.0,30.259842,,,TRUE,TRUE,,,,,,,CLR,,,,,,,,VFR,,,,,,,,,,,,METAR,644.0
KRDK 291535Z AUTO 04016KT 9SM -RA CLR 06/05 A3002 RMK AO2,KRDK,2017-04-29T15:35:00Z,41.02,-95.27,6.0,5.0,40,16,,9.0,30.02067,,,TRUE,TRUE,,,,,,-RA,CLR,,,,,,,,VFR,,,,,,,,,,,,METAR,318.0
KRCV 291535Z AUTO 05016KT 10SM SCT018 BKN031 OVC040 M01/M10 A2996 RMK AO2 T10141103,KRCV,2017-04-29T15:35:00Z,37.72,-106.35,-1.4,-10.3,50,16,,10.0,29.958662,,,TRUE,TRUE,,,,,,,SCT,1800,BKN,3100,OVC,4000,,,VFR,,,,,,,,,,,,METAR,2424.0
KPWA 291535Z 04018G25KT 6SM -RA BR OVC005 09/09 A2965 RMK AO2 PK WND 02029/1507 LTG DSNT W-N RAE09B15 TSB07E22 P0002 T00940089,KPWA,2017-04-29T15:35:00Z,35.53,-97.65,9.4,8.9,40,18,25,6.0,29.648623,,,,TRUE,,,,,,-RA BR,OVC,500,,,,,,,IFR,,,,,,0.02,,,,,,METAR,397.0
KPAN 291535Z AUTO 01012G17KT 10SM CLR 09/M09 A3000 RMK AO2,KPAN,2017-04-29T15:35:00Z,34.25,-111.33,9.0,-9.0,10,12,17,10.0,30.0,,,TRUE,TRUE,,,,,,,CLR,,,,,,,,VFR,,,,,,,,,,,,METAR,1572.0
KOXV 291535Z AUTO 06013KT 5SM -RA OVC021 07/04 A3008 RMK AO2,KOXV,2017-04-29T15:35:00Z,41.28,-93.12,7.0,4.0,60,13,,5.0,30.079725,,,TRUE,TRUE,,,,,,-RA,OVC,2100,,,,,,,MVFR,,,,,,,,,,,,METAR,283.0
KORC 291535Z AUTO 06008G17KT 10SM CLR 07/01 A3018 RMK AO2,KORC,2017-04-29T15:35:00Z,42.97,-96.07,7.0,1.0,60,8,17,10.0,30.180119,,,TRUE,TRUE,,,,,,,CLR,,,,,,,,VFR,,,,,,,,,,,,METAR,431.0
KOLZ 291535Z AUTO 04018G25KT 10SM CLR 06/02 A3014 RMK AO2,KOLZ,2017-04-29T15:35:00Z,42.67,-91.97,6.0,2.0,40,18,25,10.0,30.138779,,,TRUE,TRUE,,,,,,,CLR,,,,,,,,VFR,,,,,,,,,,,,METAR,328.0
KOKC 291535Z 01018G26KT 8SM -RA OVC005 09/08 A2965 RMK AO2 LTG DSNT W AND NW RAB03 TSB07E32 CB DSNT W AND NW T00890083 PNO,KOKC,2017-04-29T15:35:00Z,35.38,-97.6,8.9,8.3,10,18,26,8.0,29.648623,,,,TRUE,,,,,,-RA,OVC,500,,,,,,,IFR,,,,,,,,,,,,METAR,390.0
KN03 291535Z AUTO 35005KT 10SM SCT018 OVC023 15/10 A3007 RMK AO2,KN03,2017-04-29T15:35:00Z,42.6,-76.22,15.0,10.0,350,5,,10.0,30.070866,,,TRUE,TRUE,,,,,,,SCT,1800,OVC,2300,,,,,MVFR,,,,,,,,,,,,METAR,366.0
KMXO 291535Z AUTO 04014G21KT 10SM CLR 08/02 A3011 RMK AO2,KMXO,2017-04-29T15:35:00Z,42.22,-91.17,8.0,2.0,40,14,21,10.0,30.109253,,,TRUE,TRUE,,,,,,,CLR,,,,,,,,VFR,,,,,,,,,,,,METAR,259.0
KMUT 291535Z AUTO 06017G24KT 5SM -RA OVC029 08/03 A3010 RMK AO2,KMUT,2017-04-29T15:35:00Z,41.37,-91.15,8.0,3.0,60,17,24,5.0,30.100393,,,TRUE,TRUE,,,,,,-RA,OVC,2900,,,,,,,MVFR,,,,,,,,,,,,METAR,167.0
KMRC 291535Z AUTO 16009KT 140V200 10SM CLR 27/25 A3000 RMK,KMRC,2017-04-29T15:35:00Z,35.55,-87.18,27.0,25.0,160,9,,10.0,30.0,,,TRUE,,,,,,,,CLR,,,,,,,,VFR,,,,,,,,,,,,METAR,208.0
KMNH 291535Z AUTO 02011KT OVC008 M05/M06 A3013 RMK AO2 PWINO,KMNH,2017-04-29T15:35:00Z,39.22,-104.65,-5.0,-6.0,20,11,,,30.129921,,,TRUE,TRUE,,,,,TRUE,,OVC,800,,,,,,,,,,,,,,,,,,,METAR,2152.0
KMEZ 291535Z AUTO 15013G23KT 114V214 7SM SCT020 SCT042 OVC049 26/25 A2967 RMK AO2 LTG DSNT NW,KMEZ,2017-04-29T15:35:00Z,34.55,-94.2,26.0,25.0,150,13,23,7.0,29.66929,,,TRUE,TRUE,,,,,,,SCT,2000,SCT,4200,OVC,4900,,,VFR,,,,,,,,,,,,METAR,329.0
KMAN 291535Z AUTO 30005KT 10SM CLR 08/01 A3026 RMK A01,KMAN,2017-04-29T15:35:00Z,43.58,-116.52,8.0,1.0,300,5,,10.0,30.259842,,,TRUE,TRUE,,,,,,,CLR,,,,,,,,VFR,,,,,,,,,,,,METAR,774.0
KLZZ 291535Z AUTO 17017G23KT 10SM BKN028 BKN035 27/22 A2958 RMK AO2 T02700216,KLZZ,2017-04-29T15:35:00Z,31.1,-98.2,27.0,21.6,170,17,23,10.0,29.58071,,,TRUE,TRUE,,,,,,,BKN,2800,BKN,3500,,,,,MVFR,,,,,,,,,,,,METAR,371.0
KLRJ 291535Z AUTO 05014G20KT 10SM CLR 08/M00 A3017 RMK AO2,KLRJ,2017-04-29T15:35:00Z,42.77,-96.2,8.0,0.0,50,14,20,10.0,30.171259,,,TRUE,TRUE,,,,,,,CLR,,,,,,,,VFR,,,,,,,,,,,,METAR,365.0
KLMO 291535Z AUTO 02005KT 1 1/2SM -SN OVC011 01/M01 A3021 RMK AO2 VIS 1V3 T00101007,KLMO,2017-04-29T15:35:00Z,40.17,-105.17,1.0,-0.7,20,5,,1.5,30.209646,,,TRUE,TRUE,,,,,,-SN,OVC,1100,,,,,,,IFR,,,,,,,,,,,,METAR,1541.0
KJZI 291535Z AUTO 16009G14KT 9SM SCT017 BKN022 OVC095 28/23 A3023 RMK AO2,KJZI,2017-04-29T15:35:00Z,32.7,-80.0,28.0,23.0,160,9,14,9.0,30.230314,,,TRUE,TRUE,,,,,,,SCT,1700,BKN,2200,OVC,9500,,,MVFR,,,,,,,,,,,,METAR,6.0
KJWN 291535Z AUTO 17011KT 10SM CLR 27/19 A3000 RMK,KJWN,2017-04-29T15:35:00Z,36.18,-86.88,27.0,19.0,170,11,,10.0,30.0,,,TRUE,,,,,,,,CLR,,,,,,,,VFR,,,,,,,,,,,,METAR,151.0
KJVW 291535Z AUTO 16010G25KT 4SM HZ FEW027 BKN034 SCT049 28/23 A2990 RMK AO2 PWINO,KJVW,2017-04-29T15:35:00Z,32.3,-90.42,28.0,23.0,160,10,25,4.0,29.899607,,,TRUE,TRUE,,,,,TRUE,HZ,FEW,2700,BKN,3400,SCT,4900,,,MVFR,,,,,,,,,,,,METAR,76.0
KJFX 291535Z AUTO 16008G16KT 130V210 10SM FEW026 FEW100 28/21 A3004 RMK AO2 PWINO,KJFX,2017-04-29T15:35:00Z,33.9,-87.32,28.0,21.0,160,8,16,10.0,30.041338,,,TRUE,TRUE,,,,,TRUE,,FEW,2600,FEW,10000,,,,,VFR,,,,,,,,,,,,METAR,148.0
KIKV 291535Z AUTO 05012G22KT 10SM CLR 07/02 A3009 RMK AO2,KIKV,2017-04-29T15:35:00Z,41.68,-93.57,7.0,2.0,50,12,22,10.0,30.088583,,,TRUE,TRUE,,,,,,,CLR,,,,,,,,VFR,,,,,,,,,,,,METAR,275.0
KX60 291535Z AUTO 13008KT 100V170 8SM CLR 31/21 A3015 RMK A01,KX60,2017-04-29T15:35:00Z,29.35,-82.47,31.0,21.0,130,8,,8.0,30.15059,,,TRUE,TRUE,,,,,,,CLR,,,,,,,,VFR,,,,,,,,,,,,SPECI,23.0
KS33 291535Z AUTO 00000KT 10SM CLR 03/00 A3028 RMK AO2,KS33,2017-04-29T15:35:00Z,,,3.0,0.0,0,0,,10.0,30.280512,,,TRUE,TRUE,,,,,,,CLR,,,,,,,,VFR,,,,,,,,,,,,SPECI,
KDYB 291535Z AUTO 16008KT 10SM CLR 28/20 A3022 RMK AO1,KDYB,2017-04-29T15:35:00Z,33.07,-80.28,28.0,20.0,160,8,,10.0,30.221457,,,TRUE,TRUE,,,,,,,CLR,,,,,,,,VFR,,,,,,,,,,,,SPECI,18.0
KVDF 291535Z AUTO 13010G19KT 10SM SCT034 32/20 A3014 RMK AO2,KVDF,2017-04-29T15:35:00Z,28.02,-82.33,32.0,20.0,130,10,19,10.0,30.138779,,,TRUE,TRUE,,,,,,,SCT,3400,,,,,,,VFR,,,,,,,,,,,,SPECI,7.0
KSLB 291535Z AUTO 04020KT 10SM CLR 06/00 A3014 RMK AO2,KSLB,2017-04-29T15:35:00Z,42.6,-95.22,6.0,0.0,40,20,,10.0,30.138779,,,TRUE,TRUE,,,,,,,CLR,,,,,,,,VFR,,,,,,,,,,,,SPECI,454.0
KSIK 291535Z AUTO 14009KT 10SM SCT028 BKN033 OVC040 24/21 A2992 RMK AO2,KSIK,2017-04-29T15:35:00Z,36.9,-89.57,24.0,21.0,140,9,,10.0,29.920275,,,TRUE,TRUE,,,,,,,SCT,2800,BKN,3300,OVC,4000,,,VFR,,,,,,,,,,,,SPECI,96.0
KLUX 291535Z AUTO 20007KT 5SM HZ OVC012 24/21 A3020 RMK AO2,KLUX,2017-04-29T15:35:00Z,34.5,-81.95,24.0,21.0,200,7,,5.0,30.200787,,,TRUE,TRUE,,,,,,HZ,OVC,1200,,,,,,,MVFR,,,,,,,,,,,,SPECI,213.0
KGGI 291535Z AUTO 05018G22KT 10SM SCT026 07/02 A3010 RMK AO2 T00720022,KGGI,2017-04-29T15:35:00Z,41.72,-92.73,7.2,2.2,50,18,22,10.0,30.100393,,,TRUE,TRUE,,,,,,,SCT,2600,,,,,,,VFR,,,,,,,,,,,,SPECI,307.0
KCKM 291535Z AUTO 16020G26KT 10SM BKN027 BKN033 BKN040 27/23 A2987 RMK A01,KCKM,2017-04-29T15:35:00Z,34.3,-90.52,27.0,23.0,160,20,26,10.0,29.870079,,,TRUE,TRUE,,,,,,,BKN,2700,BKN,3300,BKN,4000,,,MVFR,,,,,,,,,,,,SPECI,53.0
KCCY 291535Z AUTO 05014G21KT 10SM SCT150 06/01 A3018 RMK AO2,KCCY,2017-04-29T15:35:00Z,43.07,-92.62,6.0,1.0,50,14,21,10.0,30.180119,,,TRUE,TRUE,,,,,,,SCT,15000,,,,,,,VFR,,,,,,,,,,,,SPECI,343.0
KBWW 291535Z AUTO 23009KT 10SM CLR 11/M04 A3019 RMK AO2,KBWW,2017-04-29T15:35:00Z,46.17,-103.3,11.0,-4.0,230,9,,10.0,30.188976,,,TRUE,TRUE,,,,,,,CLR,,,,,,,,VFR,,,,,,,,,,,,METAR,910.0
KVTI 291535Z AUTO 04016G22KT 10SM CLR 08/02 A3013 RMK AO2,KVTI,2017-04-29T15:35:00Z,42.22,-92.02,8.0,2.0,40,16,22,10.0,30.129921,,,TRUE,TRUE,,,,,,,CLR,,,,,,,,VFR,,,,,,,,,,,,SPECI,255.0
KSPA 291535Z AUTO 00000KT 7SM SCT019 25/20 A3020 RMK AO2,KSPA,2017-04-29T15:35:00Z,34.92,-81.93,25.0,20.0,0,0,,7.0,30.200787,,,TRUE,TRUE,,,,,,,SCT,1900,,,,,,,VFR,,,,,,,,,,,,SPECI,303.0
KPRO 291535Z AUTO 06011G19KT 10SM CLR 07/02 A3009 RMK AO2 T00670019,KPRO,2017-04-29T15:35:00Z,41.83,-94.17,6.7,1.9,60,11,19,10.0,30.088583,,,TRUE,TRUE,,,,,,,CLR,,,,,,,,VFR,,,,,,,,,,,,SPECI,308.0
KGPH 291535Z AUTO 03004KT 10SM RA OVC009 08/08 A2996 RMK AO2 LTG DSNT SE AND S,KGPH,2017-04-29T15:35:00Z,39.33,-94.32,8.0,8.0,30,4,,10.0,29.958662,,,TRUE,TRUE,,,,,,RA,OVC,900,,,,,,,IFR,,,,,,,,,,,,SPECI,235.0
KGAF 291535Z AUTO 17006KT 10SM CLR 09/M05 A3036 RMK AO2,KGAF,2017-04-29T15:35:00Z,48.4,-97.37,9.0,-5.0,170,6,,10.0,30.360237,,,TRUE,TRUE,,,,,,,CLR,,,,,,,,VFR,,,,,,,,,,,,SPECI,252.0
KS32 291535Z AUTO 19007KT 10SM CLR 09/M05 A3034 RMK AO2,KS32,2017-04-29T15:35:00Z,47.42,-98.1,9.0,-5.0,190,7,,10.0,30.339567,,,TRUE,TRUE,,,,,,,CLR,,,,,,,,VFR,,,,,,,,,,,,SPECI,684.0
KLQK 291535Z AUTO 21003KT 10SM SCT014 26/21 A3019 RMK AO2 T02640209,KLQK,2017-04-29T15:35:00Z,34.82,-82.7,26.4,20.9,210,3,,10.0,30.188976,,,TRUE,TRUE,,,,,,,SCT,1400,,,,,,,VFR,,,,,,,,,,,,SPECI,309.0
KEKX 291535Z AUTO 02006KT 10SM SCT028 SCT035 BKN043 22/18 A3007 RMK AO2 LTG DSNT NW T02210180,KEKX,2017-04-29T15:35:00Z,,,22.1,18.0,20,6,,10.0,30.070866,,,TRUE,TRUE,,,,,,,SCT,2800,SCT,3500,BKN,4300,,,VFR,,,,,,,,,,,,SPECI,
KMAO 291535Z AUTO 22008KT 7SM BKN028 27/20 A3022 RMK AO2,KMAO,2017-04-29T15:35:00Z,34.18,-79.33,27.0,20.0,220,8,,7.0,30.221457,,,TRUE,TRUE,,,,,,,BKN,2800,,,,,,,MVFR,,,,,,,,,,,,METAR,28.0
K1S5 291535Z AUTO 00000KT 10SM CLR 07/01 A3026 RMK AO2 T00680013,K1S5,2017-04-29T15:35:00Z,46.33,-119.97,6.8,1.3,0,0,,10.0,30.259842,,,TRUE,TRUE,,,,,,,CLR,,,,,,,,VFR,,,,,,,,,,,,METAR,234.0
KY19 291535Z AUTO VRB05KT 10SM CLR 11/M06 A3031 RMK AO2,KY19,2017-04-29T15:35:00Z,46.77,-100.9,11.0,-6.0,0,5,,10.0,30.31004,,,TRUE,TRUE,,,,,,,CLR,,,,,,,,VFR,,,,,,,,,,,,METAR,593.0
KXNT 291535Z AUTO 36004KT 4SM BR SCT005 SCT009 BKN013 12/11 A3009 RMK AO2,KXNT,2017-04-29T15:35:00Z,,,12.0,11.0,360,4,,4.0,30.088583,,,TRUE,TRUE,,,,,,BR,SCT,500,SCT,900,BKN,1300,,,MVFR,,,,,,,,,,,,METAR,
KUUU 291535Z AUTO 20008G14KT 10SM SCT004 19/17 A2997 RMK AO2 T01940167,KUUU,2017-04-29T15:35:00Z,41.53,-71.28,19.4,16.7,200,8,14,10.0,29.970472,,,TRUE,TRUE,,,,,,,SCT,400,,,,,,,VFR,,,,,,,,,,,,METAR,51.0
KTVY 291535Z AUTO 36013KT 10SM CLR 07/M01 A3018 RMK AO2,KTVY,2017-04-29T15:35:00Z,40.62,-112.35,7.0,-1.0,360,13,,10.0,30.180119,,,TRUE,TRUE,,,,,,,CLR,,,,,,,,VFR,,,,,,,,,,,,METAR,1317.0
KTNU 291535Z AUTO 06013G22KT 10SM FEW048 FEW060 BKN070 07/02 A3008 RMK AO2 PWINO,KTNU,2017-04-29T15:35:00Z,41.67,-93.02,7.0,2.0,60,13,22,10.0,30.079725,,,TRUE,TRUE,,,,,TRUE,,FEW,4800,FEW,6000,BKN,7000,,,VFR,,,,,,,,,,,,METAR,290.0
KTKX 291535Z AUTO 16012G17KT 4SM HZ FEW034 BKN045 26/22 A2988 RMK AO2,KTKX,2017-04-29T15:35:00Z,36.22,-90.02,26.0,22.0,160,12,17,4.0,29.878937,,,TRUE,TRUE,,,,,,HZ,FEW,3400,BKN,4500,,,,,MVFR,,,,,,,,,,,,METAR,80.0
KTEX 291535Z AUTO 00000KT 10SM SCT013 M02/M06 A2992 RMK AO2 T10191056,KTEX,2017-04-29T15:35:00Z,37.95,-107.9,-1.9,-5.6,0,0,,10.0,29.920275,,,TRUE,TRUE,,,,,,,SCT,1300,,,,,,,VFR,,,,,,,,,,,,METAR,2769.0
KSYI 291535Z AUTO 17010KT 10SM CLR 28/22 A3003 RMK,KSYI,2017-04-29T15:35:00Z,35.57,-86.45,28.0,22.0,170,10,,10.0,30.029528,,,TRUE,,,,,,,,CLR,,,,,,,,VFR,,,,,,,,,,,,METAR,245.0
KSOW 291535Z AUTO 35011KT 10SM CLR 03/M08 A2998 RMK AO2,KSOW,2017-04-29T15:35:00Z,34.27,-110.0,3.0,-8.0,350,11,,10.0,29.97933,,,TRUE,TRUE,,,,,,,CLR,,,,,,,,VFR,,,,,,,,,,,,METAR,1954.0
KSNC 291535Z AUTO 22007G13KT 190V270 10SM CLR 23/17 A2997 RMK AO2,KSNC,2017-04-29T15:35:00Z,41.38,-72.5,23.0,17.0,220,7,13,10.0,29.970472,,,TRUE,TRUE,,,,,,,CLR,,,,,,,,VFR,,,,,,,,,,,,METAR,127.0
K82C 291535Z AUTO 05005KT 10SM CLR 06/M01 A3026 RMK AO2 T00601012,K82C,2017-04-29T15:35:00Z,43.83,-90.13,6.0,-1.2,50,5,,10.0,30.259842,,,TRUE,TRUE,,,,,,,CLR,,,,,,,,VFR,,,,,,,,,,,,METAR,276.0
K6S0 291535Z AUTO 00000KT 10SM FEW008 FEW013 05/02 A3026 RMK A01,K6S0,2017-04-29T15:35:00Z,,,5.0,2.0,0,0,,10.0,30.259842,,,TRUE,TRUE,,,,,,,FEW,800,FEW,1300,,,,,VFR,,,,,,,,,,,,METAR,
K6A1 291535Z AUTO 18008KT 10SM 31/23 A3017 RMK AO2 T03110234,K6A1,2017-04-29T15:35:00Z,32.57,-84.25,31.1,23.4,180,8,,10.0,30.171259,,,TRUE,TRUE,,,,,,,,,,,,,,,,,,,,,,,,,,,METAR,203.0
K65S 291535Z AUTO 17005KT 10SM FEW100 07/04 A3024 RMK AO2,K65S,2017-04-29T15:35:00Z,48.73,-116.3,7.0,4.0,170,5,,10.0,30.239174,,,TRUE,TRUE,,,,,,,FEW,10000,,,,,,,VFR,,,,,,,,,,,,METAR,713.0
K5C1 291535Z AUTO 16012G20KT 5SM BKN022 BKN033 25/20 A2962 RMK AO1,K5C1,2017-04-29T15:35:00Z,29.72,-98.7,25.0,20.0,160,12,20,5.0,29.619095,,,TRUE,TRUE,,,,,,,BKN,2200,BKN,3300,,,,,MVFR,,,,,,,,,,,,METAR,423.0
K57C 291535Z AUTO 06010G18KT 10SM CLR 06/00 A3019 RMK AO2 T00631002,K57C,2017-04-29T15:35:00Z,42.8,-88.37,6.3,-0.2,60,10,18,10.0,30.188976,,,TRUE,TRUE,,,,,,,CLR,,,,,,,,VFR,,,,,,,,,,,,METAR,262.0
K54J 291535Z AUTO 17014G21KT 10SM SCT025 BKN033 28/21 A3010 RMK AO2 T02810207,K54J,2017-04-29T15:35:00Z,30.73,-86.15,28.1,20.7,170,14,21,10.0,30.100393,,,TRUE,TRUE,,,,,,,SCT,2500,BKN,3300,,,,,VFR,,,,,,,,,,,,METAR,88.0
K4R5 291535Z AUTO 10003KT 10SM SCT110 06/M05 A3038 RMK AO2 T00571050,K4R5,2017-04-29T15:35:00Z,46.78,-90.77,5.7,-5.0,100,3,,10.0,30.380905,,,TRUE,TRUE,,,,,,,SCT,11000,,,,,,,VFR,,,,,,,,,,,,METAR,198.0
K3T5 291535Z AUTO 16011G21KT 5SM HZ OVC019 29/25 A2960 RMK AO2 T02860248,K3T5,2017-04-29T15:35:00Z,29.9,-96.95,28.6,24.8,160,11,21,5.0,29.601377,,,TRUE,TRUE,,,,,,HZ,OVC,1900,,,,,,,MVFR,,,,,,,,,,,,METAR,99.0
K3S8 291535Z AUTO 00000KT 10SM CLR 07/03 A3034 RMK AO2,K3S8,2017-04-29T15:35:00Z,,,7.0,3.0,0,0,,10.0,30.339567,,,TRUE,TRUE,,,,,,,CLR,,,,,,,,VFR,,,,,,,,,,,,METAR,
K3N8 291535Z AUTO 22009KT 10SM CLR 08/M03 A3036 RMK AO2 T00811035,K3N8,2017-04-29T15:35:00Z,47.25,-95.88,8.1,-3.5,220,9,,10.0,30.360237,,,TRUE,TRUE,,,,,,,CLR,,,,,,,,VFR,,,,,,,,,,,,METAR,383.0
K3F3 291535Z AUTO 14014G27KT 10SM OVC024 27/23 A2978 RMK AO2 LTG DSNT S T02670226 PWINO,K3F3,2017-04-29T15:35:00Z,32.07,-93.77,26.7,22.6,140,14,27,10.0,29.778543,,,TRUE,TRUE,,,,,TRUE,,OVC,2400,,,,,,,MVFR,,,,,,,,,,,,METAR,96.0
K3D2 291535Z AUTO 02010G16KT 10SM SCT024 04/M01 A3029 RMK AO2 T00431015,K3D2,2017-04-29T15:35:00Z,45.13,-87.18,4.3,-1.5,20,10,16,10.0,30.28937,,,TRUE,TRUE,,,,,,,SCT,2400,,,,,,,VFR,,,,,,,,,,,,METAR,234.0
K2LS 291535Z AUTO 14014G26KT 6SM HZ BKN015 27/24 A2992 RMK AO2,K2LS,2017-04-29T15:35:00Z,,,27.0,24.0,140,14,26,6.0,29.920275,,,TRUE,TRUE,,,,,,HZ,BKN,1500,,,,,,,MVFR,,,,,,,,,,,,METAR,
K2G9 291535Z AUTO 22016G24KT 10SM CLR 20/14 A3013 RMK AO2,K2G9,2017-04-29T15:35:00Z,40.03,-79.02,20.0,14.0,220,16,24,10.0,30.129921,,,TRUE,TRUE,,,,,,,CLR,,,,,,,,VFR,,,,,,,,,,,,METAR,693.0
K2A0 291535Z AUTO 20010G15KT 160V230 10SM FEW037 28/20 A3011 RMK A01,K2A0,2017-04-29T15:35:00Z,35.48,-84.93,28.0,20.0,200,10,15,10.0,30.109253,,,TRUE,TRUE,,,,,,,FEW,3700,,,,,,,VFR,,,,,,,,,,,,METAR,219.0
K24A 291535Z AUTO 22013G22KT 10SM BKN046 BKN050 25/15 A3026 RMK AO2 T02500151,K24A,2017-04-29T15:35:00Z,35.32,-83.2,25.0,15.1,220,13,22,10.0,30.259842,,,TRUE,TRUE,,,,,,,BKN,4600,BKN,5000,,,,,VFR,,,,,,,,,,,,METAR,871.0
K1M5 291535Z AUTO 21010G15KT 10SM CLR 27/20 A3003 RMK A01,K1M5,2017-04-29T15:35:00Z,36.6,-86.48,27.0,20.0,210,10,15,10.0,30.029528,,,TRUE,TRUE,,,,,,,CLR,,,,,,,,VFR,,,,,,,,,,,,METAR,250.0
K1H2 291535Z AUTO 08004KT 10SM OVC005 16/16 A3003 RMK AO2 LTG DSNT W P0001 T01550155,K1H2,2017-04-29T15:35:00Z,39.07,-88.53,15.5,15.5,80,4,,10.0,30.029528,,,TRUE,TRUE,,,,,,,OVC,500,,,,,,,IFR,,,,,,0.01,,,,,,METAR,179.0
K1A6 291535Z AUTO 19008G16KT 10SM CLR 28/17 A3012 RMK AO2 T02820172,K1A6,2017-04-29T15:35:00Z,36.62,-83.73,28.2,17.2,190,8,16,10.0,30.121063,,,TRUE,TRUE,,,,,,,CLR,,,,,,,,VFR,,,,,,,,,,,,METAR,352.0
K18H 291535Z AUTO 13014G29KT 110V170 2SM HZ SCT015 SCT021 27/24 A2982 RMK A01,K18H,2017-04-29T15:35:00Z,,,27.0,24.0,130,14,29,2.0,29.819881,,,TRUE,TRUE,,,,,,HZ,SCT,1500,SCT,2100,,,,,IFR,,,,,,,,,,,,METAR,
K11R 291535Z AUTO 16013G17KT 5SM HZ OVC016 28/24 A2965 RMK AO2 T02760238,K11R,2017-04-29T15:35:00Z,30.22,-96.37,27.6,23.8,160,13,17,5.0,29.648623,,,TRUE,TRUE,,,,,,HZ,OVC,1600,,,,,,,MVFR,,,,,,,,,,,,METAR,94.0
K0VG 291535Z AUTO 20006KT 10SM CLR 28/16 A3017 RMK AO2,K0VG,2017-04-29T15:35:00Z,36.65,-83.22,28.0,16.0,200,6,,10.0,30.171259,,,TRUE,TRUE,,,,,,,CLR,,,,,,,,VFR,,,,,,,,,,,,METAR,430.0
K0V4 291535Z AUTO 22008KT 10SM SCT020 28/22 A3016 RMK AO1 T02810215,K0V4,2017-04-29T15:35:00Z,37.15,-79.02,28.1,21.5,220,8,,10.0,30.159449,,,TRUE,TRUE,,,,,,,SCT,2000,,,,,,,VFR,,,,,,,,,,,,METAR,182.0
K0F2 291535Z AUTO 00000KT 10SM SCT028 BKN050 OVC055 20/17 A2958 RMK AO2 LTG DSNT N AND NE T01970166,K0F2,2017-04-29T15:35:00Z,33.6,-97.78,19.7,16.6,0,0,,10.0,29.58071,,,TRUE,TRUE,,,,,,,SCT,2800,BKN,5000,OVC,5500,,,VFR,,,,,,,,,,,,METAR,336.0
K0A9 291535Z AUTO 00000KT 10SM CLR 29/16 A3015 RMK AO2,K0A9,2017-04-29T15:35:00Z,36.37,-82.17,29.0,16.0,0,0,,10.0,30.15059,,,TRUE,TRUE,,,,,,,CLR,,,,,,,,VFR,,,,,,,,,,,,METAR,486.0
KEAN 291535Z AUTO 35004KT 10SM SCT075 OVC090 00/M01 A3026 RMK AO2 T00031014,KEAN,2017-04-29T15:35:00Z,42.05,-104.93,0.3,-1.4,350,4,,10.0,30.259842,,,TRUE,TRUE,,,,,,,SCT,7500,OVC,9000,,,,,VFR,,,,,,,,,,,,METAR,1456.0
KE38 291535Z AUTO 03009KT 10SM CLR 14/04 A2989 RMK AO2 T01360039,KE38,2017-04-29T15:35:00Z,30.38,-103.68,13.6,3.9,30,9,,10.0,29.890747,,,TRUE,TRUE,,,,,,,CLR,,,,,,,,VFR,,,,,,,,,,,,METAR,1376.0
KE16 291535Z AUTO 04003KT 10SM CLR 14/07 A3013 RMK AO2,KE16,2017-04-29T15:35:00Z,37.08,-121.6,14.0,7.0,40,3,,10.0,30.129921,,,TRUE,TRUE,,,,,,,CLR,,,,,,,,VFR,,,,,,,,,,,,METAR,86.0
KE11 291535Z AUTO 01022G28KT 10SM BKN022 OVC031 11/04 A2980 RMK AO2 T01060043,KE11,2017-04-29T15:35:00Z,32.33,-102.53,10.6,4.3,10,22,28,10.0,29.799213,,,TRUE,TRUE,,,,,,,BKN,2200,OVC,3100,,,,,MVFR,,,,,,,,,,,,METAR,967.0
KDWX 291535Z AUTO 07013G18KT 10SM 03/M08 A3012 RMK AO2 T00261081,KDWX,2017-04-29T15:35:00Z,41.03,-107.5,2.6,-8.1,70,13,18,10.0,30.121063,,,TRUE,TRUE,,,,,,,,,,,,,,,,,,,,,,,,,,,METAR,1996.0
KDUB 291535Z AUTO 00000KT 10SM BKN013 OVC035 M02/M06 A3022 RMK AO2,KDUB,2017-04-29T15:35:00Z,43.55,-109.68,-2.0,-6.0,0,0,,10.0,30.221457,,,TRUE,TRUE,,,,,,,BKN,1300,OVC,3500,,,,,MVFR,,,,,,,,,,,,METAR,2224.0
KDTA 291535Z AUTO 03004KT 10SM CLR 06/M03 A3015 RMK AO1,KDTA,2017-04-29T15:35:00Z,39.38,-112.5,6.0,-3.0,30,4,,10.0,30.15059,,,TRUE,TRUE,,,,,,,CLR,,,,,,,,VFR,,,,,,,,,,,,METAR,1402.0
KDKX 291535Z AUTO VRB06KT 10SM CLR 29/20 A3012 RMK A01,KDKX,2017-04-29T15:35:00Z,35.97,-83.87,29.0,20.0,0,6,,10.0,30.121063,,,TRUE,TRUE,,,,,,,CLR,,,,,,,,VFR,,,,,,,,,,,,METAR,254.0
KDKR 291535Z AUTO 15011G19KT 5SM HZ FEW001 BKN017 25/23 A2970 RMK AO2 LTG DSNT E AND SE,KDKR,2017-04-29T15:35:00Z,31.3,-95.4,25.0,23.0,150,11,19,5.0,29.698818,,,TRUE,TRUE,,,,,,HZ,FEW,100,BKN,1700,,,,,MVFR,,,,,,,,,,,,METAR,106.0
KDBN 291535Z AUTO 19008G14KT 10SM BKN020 OVC026 27/21 A3019 RMK AO2,KDBN,2017-04-29T15:35:00Z,32.57,-82.98,27.0,21.0,190,8,14,10.0,30.188976,,,TRUE,TRUE,,,,,,,BKN,2000,OVC,2600,,,,,MVFR,,,,,,,,,,,,METAR,94.0
KCZL 291535Z AUTO 19012KT 10SM CLR 28/19 A3013 RMK AO2 T02810189,KCZL,2017-04-29T15:35:00Z,34.47,-84.93,28.1,18.9,190,12,,10.0,30.129921,,,TRUE,TRUE,,,,,,,CLR,,,,,,,,VFR,,,,,,,,,,,,METAR,195.0
KCXW 291535Z AUTO 16016G31KT 7SM 27/22 A2971 RMK A01,KCXW,2017-04-29T15:35:00Z,35.02,-92.55,27.0,22.0,160,16,31,7.0,29.71063,,,TRUE,TRUE,,,,,,,,,,,,,,,,,,,,,,,,,,,METAR,84.0
KCXE 291535Z AUTO 23003KT 10SM OVC019 26/24 A3018 RMK AO1 T02580236,KCXE,2017-04-29T15:35:00Z,36.78,-78.5,25.8,23.6,230,3,,10.0,30.180119,,,TRUE,TRUE,,,,,,,OVC,1900,,,,,,,MVFR,,,,,,,,,,,,METAR,153.0
KCVW 291535Z AUTO 15021G31KT 2SM BR BKN013 25/24 A2977 RMK A01,KCVW,2017-04-29T15:35:00Z,29.78,-93.3,25.0,24.0,150,21,31,2.0,29.769686,,,TRUE,TRUE,,,,,,BR,BKN,1300,,,,,,,IFR,,,,,,,,,,,,METAR,1.0
KCUH 291535Z AUTO 36015G21KT 10SM OVC007 11/10 A2965 RMK AO2 LTG DSNT ALQS T01090097,KCUH,2017-04-29T15:35:00Z,35.95,-96.77,10.9,9.7,360,15,21,10.0,29.648623,,,TRUE,TRUE,,,,,,,OVC,700,,,,,,,IFR,,,,,,,,,,,,METAR,279.0
KCRX 291535Z AUTO 17015KT 10SM BKN027 OVC033 27/20 A2997 RMK AO2,KCRX,2017-04-29T15:35:00Z,34.92,-88.6,27.0,20.0,170,15,,10.0,29.970472,,,TRUE,TRUE,,,,,,,BKN,2700,OVC,3300,,,,,MVFR,,,,,,,,,,,,METAR,130.0
KCQB 291535Z AUTO 00000KT 10SM OVC006 12/11 A2965 RMK AO2 LTG DSNT ALQDS T01170110,KCQB,2017-04-29T15:35:00Z,35.72,-96.82,11.7,11.0,0,0,,10.0,29.648623,,,TRUE,TRUE,,,,,,,OVC,600,,,,,,,IFR,,,,,,,,,,,,METAR,300.0
KCPK 291535Z AUTO 23007G15KT 7SM SCT024 28/22 A3017 RMK AO2 T02780219,KCPK,2017-04-29T15:35:00Z,36.67,-76.32,27.8,21.9,230,7,15,7.0,30.171259,,,TRUE,TRUE,,,,,,,SCT,2400,,,,,,,VFR,,,,,,,,,,,,METAR,6.0
KCHK 291535Z AUTO 03015KT BKN007 OVC011 09/08 A2966 RMK AO2 P0008 PWINO,KCHK,2017-04-29T15:35:00Z,35.1,-97.97,9.0,8.0,30,15,,,29.660433,,,TRUE,TRUE,,,,,TRUE,,BKN,700,OVC,1100,,,,,,,,,,,0.08,,,,,,METAR,351.0
KCDH 291535Z AUTO 16016G21KT 9SM FEW024 BKN032 28/20 A2975 RMK AO2,KCDH,2017-04-29T15:35:00Z,33.62,-92.77,28.0,20.0,160,16,21,9.0,29.749016,,,TRUE,TRUE,,,,,,,FEW,2400,BKN,3200,,,,,VFR,,,,,,,,,,,,METAR,35.0
KC09 291535Z AUTO 05012G21KT 020V080 10SM CLR 08/02 A3005 RMK AO2 T00830015,KC09,2017-04-29T15:35:00Z,41.43,-88.42,8.3,1.5,50,12,21,10.0,30.050198,,,TRUE,TRUE,,,,,,,CLR,,,,,,,,VFR,,,,,,,,,,,,METAR,178.0
KBXK 291535Z AUTO 01008KT 10SM CLR 19/M08 A2995 RMK AO1,KBXK,2017-04-29T15:35:00Z,33.42,-112.68,19.0,-8.0,10,8,,10.0,29.949802,,,TRUE,TRUE,,,,,,,CLR,,,,,,,,VFR,,,,,,,,,,,,METAR,315.0
KBQX 291535Z AUTO 14015G24KT 2SM BR CLR 27/27 A2965 RMK A01,KBQX,2017-04-29T15:35:00Z,28.5,-95.72,27.0,27.0,140,15,24,2.0,29.648623,,,TRUE,TRUE,,,,,,BR,CLR,,,,,,,,IFR,,,,,,,,,,,,METAR,34.0
KBKD 291535Z AUTO 32008G20KT 10SM BKN014 OVC029 14/09 A2966 RMK AO2 T01360093,KBKD,2017-04-29T15:35:00Z,32.72,-98.88,13.6,9.3,320,8,20,10.0,29.660433,,,TRUE,TRUE,,,,,,,BKN,1400,OVC,2900,,,,,MVFR,,,,,,,,,,,,METAR,392.0
KBIJ 291535Z AUTO 17007KT 140V200 10SM BKN028 BKN034 BKN070 29/22 A3014 RMK AO2,KBIJ,2017-04-29T15:35:00Z,31.4,-84.9,29.0,22.0,170,7,,10.0,30.138779,,,TRUE,TRUE,,,,,,,BKN,2800,BKN,3400,BKN,7000,,,MVFR,,,,,,,,,,,,METAR,65.0
KBBP 291535Z AUTO 19005KT 10SM CLR 29/21 A3020 RMK AO2,KBBP,2017-04-29T15:35:00Z,34.62,-79.73,29.0,21.0,190,5,,10.0,30.200787,,,TRUE,TRUE,,,,,,,CLR,,,,,,,,VFR,,,,,,,,,,,,METAR,45.0
KBBF 291535Z AUTO 17032G38KT 1 1/4SM HZ CLR 26/24 A2959 RMK A01,KBBF,2017-04-29T15:35:00Z,27.83,-96.02,26.0,24.0,170,32,38,1.25,29.589567,,,TRUE,TRUE,,,,,,HZ,CLR,,,,,,,,IFR,,,,,,,,,,,,METAR,36.0
KAZC 291535Z AUTO 33010G20KT 10SM SCT065 11/M03 A3008 RMK AO2,KAZC,2017-04-29T15:35:00Z,36.97,-113.02,11.0,-3.0,330,10,20,10.0,30.079725,,,TRUE,TRUE,,,,,,,SCT,6500,,,,,,,VFR,,,,,,,,,,,,METAR,1486.0
KAVK 291535Z AUTO 35009KT 9SM -RA OVC007 07/07 A2980 RMK AO2 LTG DSNT NE-S,KAVK,2017-04-29T15:35:00Z,36.77,-98.67,7.0,7.0,350,9,,9.0,29.799213,,,TRUE,TRUE,,,,,,-RA,OVC,700,,,,,,,IFR,,,,,,,,,,,,METAR,449.0
KATP 291535Z AUTO 14022G29KT 4SM BR CLR 26/24 A2991 RMK A01,KATP,2017-04-29T15:35:00Z,27.2,-90.03,26.0,24.0,140,22,29,4.0,29.911417,,,TRUE,TRUE,,,,,,BR,CLR,,,,,,,,MVFR,,,,,,,,,,,,METAR,62.0
KASL 291535Z AUTO 16007G15KT 5SM OVC024 25/21 A2972 RMK AO1 T02460214,KASL,2017-04-29T15:35:00Z,32.52,-94.3,24.6,21.4,160,7,15,5.0,29.719488,,,TRUE,TRUE,,,,,,,OVC,2400,,,,,,,MVFR,,,,,,,,,,,,METAR,109.0
KIBM 291535Z AUTO 02009KT 10SM SCT015 SCT055 BKN090 01/M01 A3019 RMK AO2 T00081014,KIBM,2017-04-29T15:35:00Z,41.18,-103.68,0.8,-1.4,20,9,,10.0,30.188976,,,TRUE,TRUE,,,,,,,SCT,1500,SCT,5500,BKN,9000,,,VFR,,,,,,,,,,,,METAR,1501.0
KI63 291535Z AUTO 08017G22KT 3SM -VCTSRA SCT007 BKN014 OVC085 08/08 A2998 RMK AO2 LTG DSNT SE THRU SW P0013 T00810075,KI63,2017-04-29T15:35:00Z,39.98,-90.8,8.1,7.5,80,17,22,3.0,29.97933,,,TRUE,TRUE,,,,,,VCTS -RA,SCT,700,BKN,1400,OVC,8500,,,MVFR,,,,,,0.13,,,,,,METAR,223.0
KI35 291535Z AUTO 00000KT 10SM CLR 29/12 A3013 RMK AO1,KI35,2017-04-29T15:35:00Z,36.87,-83.37,29.0,12.0,0,0,,10.0,30.129921,,,TRUE,TRUE,,,,,,,CLR,,,,,,,,VFR,,,,,,,,,,,,METAR,473.0
KI16 291535Z AUTO 10SM CLR 29/15 A3021 RMK AO2 T02860148,KI16,2017-04-29T15:35:00Z,37.6,-81.57,28.6,14.8,,,,10.0,30.209646,,,TRUE,TRUE,,,,,,,CLR,,,,,,,,VFR,,,,,,,,,,,,METAR,544.0
KHZR 291535Z AUTO 15014G20KT 10SM SCT027 SCT035 OVC046 28/22 A2987 RMK AO2 T02760224,KHZR,2017-04-29T15:35:00Z,30.72,-91.48,27.6,22.4,150,14,20,10.0,29.870079,,,TRUE,TRUE,,,,,,,SCT,2700,SCT,3500,OVC,4600,,,VFR,,,,,,,,,,,,METAR,12.0
KHZD 291535Z AUTO 19006KT 10SM SCT026 BKN032 BKN040 26/21 A2997 RMK A01,KHZD,2017-04-29T15:35:00Z,36.08,-88.47,26.0,21.0,190,6,,10.0,29.970472,,,TRUE,TRUE,,,,,,,SCT,2600,BKN,3200,BKN,4000,,,VFR,,,,,,,,,,,,METAR,151.0
KHWY 291535Z AUTO 17008KT 10SM CLR 30/16 A3009 RMK AO2 T02990162,KHWY,2017-04-29T15:35:00Z,38.58,-77.72,29.9,16.2,170,8,,10.0,30.088583,,,TRUE,TRUE,,,,,,,CLR,,,,,,,,VFR,,,,,,,,,,,,METAR,103.0
KHTH 291535Z AUTO 00000KT 10SM CLR 07/M07 A3030 RMK A01,KHTH,2017-04-29T15:35:00Z,,,7.0,-7.0,0,0,,10.0,30.301182,,,TRUE,TRUE,,,,,,,CLR,,,,,,,,VFR,,,,,,,,,,,,METAR,
KHSD 291535Z AUTO 34011G23KT 320V040 7SM OVC007 09/09 A2970 RMK A01,KHSD,2017-04-29T15:35:00Z,35.6,-97.72,9.0,9.0,340,11,23,7.0,29.698818,,,TRUE,TRUE,,,,,,,OVC,700,,,,,,,IFR,,,,,,,,,,,,METAR,364.0
KHQU 291535Z AUTO 23004KT 10SM OVC017 26/22 A3024 RMK AO2 T02580218,KHQU,2017-04-29T15:35:00Z,33.53,-82.52,25.8,21.8,230,4,,10.0,30.239174,,,TRUE,TRUE,,,,,,,OVC,1700,,,,,,,MVFR,,,,,,,,,,,,METAR,152.0
KHQI 291535Z AUTO 13021G32KT 2 1/2SM HZ OVC026 27/24 A2975 RMK A01,KHQI,2017-04-29T15:35:00Z,27.93,-93.67,27.0,24.0,130,21,32,2.5,29.749016,,,TRUE,TRUE,,,,,,HZ,OVC,2600,,,,,,,IFR,,,,,,,,,,,,METAR,26.0
KHMP 291535Z AUTO 19007KT 150V220 10SM SCT060 28/22 A3017 RMK AO2 T02800218,KHMP,2017-04-29T15:35:00Z,33.38,-84.33,28.0,21.8,190,7,,10.0,30.171259,,,TRUE,TRUE,,,,,,,SCT,6000,,,,,,,VFR,,,,,,,,,,,,METAR,269.0
KHLX 291535Z AUTO 21007G14KT 10SM CLR 25/19 A3024 RMK AO2 T02450193,KHLX,2017-04-29T15:35:00Z,36.77,-80.82,24.5,19.3,210,7,14,10.0,30.239174,,,TRUE,TRUE,,,,,,,CLR,,,,,,,,VFR,,,,,,,,,,,,METAR,834.0
KHLB 291535Z AUTO 15006KT 10SM SCT006 SCT028 SCT075 17/17 A3009 RMK A01,KHLB,2017-04-29T15:35:00Z,,,17.0,17.0,150,6,,10.0,30.088583,,,TRUE,TRUE,,,,,,,SCT,600,SCT,2800,SCT,7500,,,VFR,,,,,,,,,,,,METAR,
KHJH 291535Z AUTO 04014KT 10SM BKN013 OVC020 05/04 A3000 RMK AO2 T00470038,KHJH,2017-04-29T15:35:00Z,40.15,-97.58,4.7,3.8,40,14,,10.0,30.0,,,TRUE,TRUE,,,,,,,BKN,1300,OVC,2000,,,,,MVFR,,,,,,,,,,,,METAR,447.0
KHHW 291535Z AUTO 17010G18KT 7SM OVC015 25/22 A2960 RMK AO2 LTG DSNT N T02530223,KHHW,2017-04-29T15:35:00Z,34.03,-95.55,25.3,22.3,170,10,18,7.0,29.601377,,,TRUE,TRUE,,,,,,,OVC,1500,,,,,,,MVFR,,,,,,,,,,,,METAR,144.0
KHHG 291535Z AUTO 07006KT 7SM -RA SCT013 OVC020 A3012 RMK AO2 P0002,KHHG,2017-04-29T15:35:00Z,40.85,-85.45,,,70,6,,7.0,30.121063,,,TRUE,TRUE,,,,,,-RA,SCT,1300,OVC,2000,,,,,MVFR,,,,,,0.02,,,,,,METAR,246.0
KHDE 291535Z AUTO 03013G23KT 10SM SCT018 SCT023 OVC036 04/00 A3006 RMK AO2 T00390000,KHDE,2017-04-29T15:35:00Z,40.45,-99.32,3.9,0.0,30,13,23,10.0,30.059055,,,TRUE,TRUE,,,,,,,SCT,1800,SCT,2300,OVC,3600,,,VFR,,,,,,,,,,,,METAR,705.0
KGZS 291535Z AUTO 19012G19KT 10SM CLR 28/20 A3002 RMK A01,KGZS,2017-04-29T15:35:00Z,35.15,-87.05,28.0,20.0,190,12,19,10.0,30.02067,,,TRUE,TRUE,,,,,,,CLR,,,,,,,,VFR,,,,,,,,,,,,METAR,209.0
KGWB 291535Z AUTO 06011KT 4SM -RA SCT007 SCT017 OVC035 10/08 A3015 RMK AO2 P0003,KGWB,2017-04-29T15:35:00Z,41.3,-85.07,10.0,8.0,60,11,,4.0,30.15059,,,TRUE,TRUE,,,,,,-RA,SCT,700,SCT,1700,OVC,3500,,,MVFR,,,,,,0.03,,,,,,METAR,269.0
KGVT 291535Z AUTO 17014G21KT 7SM 28/22 A2960 RMK AO2 LTG DSNT NW,KGVT,2017-04-29T15:35:00Z,33.07,-96.07,28.0,22.0,170,14,21,7.0,29.601377,,,TRUE,TRUE,,,,,,,,,,,,,,,,,,,,,,,,,,,METAR,163.0
KGVE 291535Z AUTO 20007KT 10SM CLR 28/21 A3011 RMK AO1 T02810208,KGVE,2017-04-29T15:35:00Z,38.15,-78.17,28.1,20.8,200,7,,10.0,30.109253,,,TRUE,TRUE,,,,,,,CLR,,,,,,,,VFR,,,,,,,,,,,,METAR,138.0
KGUL 291535Z AUTO 17028G35KT 2SM HZ CLR 27/24 A2976 RMK A01,KGUL,2017-04-29T15:35:00Z,27.3,-93.53,27.0,24.0,170,28,35,2.0,29.760826,,,TRUE,TRUE,,,,,,HZ,CLR,,,,,,,,IFR,,,,,,,,,,,,METAR,30.0
KGRY 291535Z AUTO 16023KT 2SM BR FEW015 26/24 A2990 RMK A01,KGRY,2017-04-29T15:35:00Z,27.63,-90.45,26.0,24.0,160,23,,2.0,29.899607,,,TRUE,TRUE,,,,,,BR,FEW,1500,,,,,,,IFR,,,,,,,,,,,,METAR,58.0
KGRN 291535Z AUTO 06010G14KT 10SM BKN095 OVC120 06/M06 A3027 RMK AO2 T00551060,KGRN,2017-04-29T15:35:00Z,,,5.5,-6.0,60,10,14,10.0,30.268702,,,TRUE,TRUE,,,,,,,BKN,9500,OVC,12000,,,,,VFR,,,,,,,,,,,,METAR,
KGOP 291535Z AUTO 19015G24KT 7SM FEW030 28/20 A2961 RMK AO2,KGOP,2017-04-29T15:35:00Z,31.42,-97.8,28.0,20.0,190,15,24,7.0,29.610237,,,TRUE,TRUE,,,,,,,FEW,3000,,,,,,,VFR,,,,,,,,,,,,METAR,276.0
KGNC 291535Z AUTO 03017G24KT 10SM BKN039 OVC120 10/04 A2981 RMK AO2 T00990042,KGNC,2017-04-29T15:35:00Z,32.68,-102.65,9.9,4.2,30,17,24,10.0,29.811024,,,TRUE,TRUE,,,,,,,BKN,3900,OVC,12000,,,,,VFR,,,,,,,,,,,,METAR,1010.0
KGIC 291535Z AUTO 02004KT 10SM CLR 03/01 A3026 RMK AO1,KGIC,2017-04-29T15:35:00Z,45.95,-116.12,3.0,1.0,20,4,,10.0,30.259842,,,TRUE,TRUE,,,,,,,CLR,,,,,,,,VFR,,,,,,,,,,,,METAR,1009.0
KGHG 291535Z AUTO 22013G21KT 10SM CLR 26/15 A2991 RMK AO2,KGHG,2017-04-29T15:35:00Z,42.1,-70.67,26.0,15.0,220,13,21,10.0,29.911417,,,TRUE,TRUE,,,,,,,CLR,,,,,,,,VFR,,,,,,,,,,,,METAR,4.0
KGHB 291535Z AUTO VRB09G25KT 4SM BR CLR 26/25 A2983 RMK A01,KGHB,2017-04-29T15:35:00Z,27.83,-91.98,26.0,25.0,0,9,25,4.0,29.828741,,,TRUE,TRUE,,,,,,BR,CLR,,,,,,,,MVFR,,,,,,,,,,,,METAR,30.0
KGGP 291535Z AUTO 08010KT 5SM -RA OVC016 11/10 A3008 RMK AO2 P0003,KGGP,2017-04-29T15:35:00Z,40.72,-86.37,11.0,10.0,80,10,,5.0,30.079725,,,TRUE,TRUE,,,,,,-RA,OVC,1600,,,,,,,MVFR,,,,,,0.03,,,,,,METAR,225.0
KGDJ 291535Z AUTO 18016G23KT 7SM BKN033 OVC040 28/20 A2958 RMK AO2 T02750195,KGDJ,2017-04-29T15:35:00Z,32.45,-97.82,27.5,19.5,180,16,23,7.0,29.58071,,,TRUE,TRUE,,,,,,,BKN,3300,OVC,4000,,,,,VFR,,,,,,,,,,,,METAR,237.0
KCZT 291535Z AUTO 17006KT 7SM OVC021 26/21 A2956 RMK AO2,KCZT,2017-04-29T15:35:00Z,28.52,-99.82,26.0,21.0,170,6,,7.0,29.56004,,,TRUE,TRUE,,,,,,,OVC,2100,,,,,,,MVFR,,,,,,,,,,,,SPECI,183.0
KCWV 291535Z AUTO 10005KT 10SM SCT028 SCT035 29/23 A3019 RMK AO2 T02890234,KCWV,2017-04-29T15:35:00Z,32.2,-81.87,28.9,23.4,100,5,,10.0,30.188976,,,TRUE,TRUE,,,,,,,SCT,2800,SCT,3500,,,,,VFR,,,,,,,,,,,,SPECI,33.0
KCVX 291535Z AUTO 36009G14KT 10SM SCT023 04/M01 A3031 RMK AO2 T00411013,KCVX,2017-04-29T15:35:00Z,45.3,-85.27,4.1,-1.3,360,9,14,10.0,30.31004,,,TRUE,TRUE,,,,,,,SCT,2300,,,,,,,VFR,,,,,,,,,,,,SPECI,204.0
KCUL 291535Z AUTO 12013KT 10SM SCT060 SCT100 20/18 A2998 RMK AO2 T01980181,KCUL,2017-04-29T15:35:00Z,38.08,-88.12,19.8,18.1,120,13,,10.0,29.97933,,,TRUE,TRUE,,,,,,,SCT,6000,SCT,10000,,,,,VFR,,,,,,,,,,,,METAR,118.0
KCTY 291535Z AUTO 16007KT 10SM SCT027 BKN033 29/21 A3016 RMK AO2,KCTY,2017-04-29T15:35:00Z,29.63,-83.1,29.0,21.0,160,7,,10.0,30.159449,,,TRUE,TRUE,,,,,,,SCT,2700,BKN,3300,,,,,VFR,,,,,,,,,,,,METAR,13.0
KCOQ 291535Z AUTO 03003KT 10SM CLR 07/M09 A3034 RMK AO2,KCOQ,2017-04-29T15:35:00Z,46.7,-92.5,7.0,-9.0,30,3,,10.0,30.339567,,,TRUE,TRUE,,,,,,,CLR,,,,,,,,VFR,,,,,,,,,,,,SPECI,390.0
KCOM 291535Z AUTO 19010G18KT 7SM SCT037 BKN042 BKN050 25/18 A2962 RMK AO2 T02500181,KCOM,2017-04-29T15:35:00Z,31.83,-99.4,25.0,18.1,190,10,18,7.0,29.619095,,,TRUE,TRUE,,,,,,,SCT,3700,BKN,4200,BKN,5000,,,VFR,,,,,,,,,,,,SPECI,517.0
KCNI 291535Z AUTO 17004KT 10SM SCT055 27/14 A3019 RMK AO2,KCNI,2017-04-29T15:35:00Z,34.32,-84.42,27.0,14.0,170,4,,10.0,30.188976,,,TRUE,TRUE,,,,,,,SCT,5500,,,,,,,VFR,,,,,,,,,,,,SPECI,372.0
KCMY 291535Z AUTO 06009G14KT 10SM CLR 07/M02 A3026 RMK AO2 T00671024,KCMY,2017-04-29T15:35:00Z,43.97,-90.73,6.7,-2.4,60,9,14,10.0,30.259842,,,TRUE,TRUE,,,,,,,CLR,,,,,,,,VFR,,,,,,,,,,,,SPECI,256.0
KCMD 291535Z AUTO 16013G20KT 10SM CLR 28/19 A3008 RMK AO2 T02750194,KCMD,2017-04-29T15:35:00Z,34.27,-86.85,27.5,19.4,160,13,20,10.0,30.079725,,,TRUE,TRUE,,,,,,,CLR,,,,,,,,VFR,,,,,,,,,,,,SPECI,294.0
KCLI 291535Z AUTO 03014G18KT 10SM CLR 06/M03 A3029 RMK AO2,KCLI,2017-04-29T15:35:00Z,44.62,-88.73,6.0,-3.0,30,14,18,10.0,30.28937,,,TRUE,TRUE,,,,,,,CLR,,,,,,,,VFR,,,,,,,,,,,,METAR,250.0
KCKZ 291535Z AUTO 24004KT 10SM CLR 24/19 A3006 RMK AO2,KCKZ,2017-04-29T15:35:00Z,40.38,-75.28,24.0,19.0,240,4,,10.0,30.059055,,,TRUE,TRUE,,,,,,,CLR,,,,,,,,VFR,,,,,,,,,,,,SPECI,173.0
KCKP 291535Z AUTO 05012G18KT 10SM CLR 07/01 A3016 RMK AO2 T00680005,KCKP,2017-04-29T15:35:00Z,42.73,-95.55,6.8,0.5,50,12,18,10.0,30.159449,,,TRUE,TRUE,,,,,,,CLR,,,,,,,,VFR,,,,,,,,,,,,METAR,374.0
KCKN 291535Z AUTO 20004KT 10SM CLR 08/M06 A3037 RMK AO2,KCKN,2017-04-29T15:35:00Z,47.85,-96.62,8.0,-6.0,200,4,,10.0,30.369095,,,TRUE,TRUE,,,,,,,CLR,,,,,,,,VFR,,,,,,,,,,,,SPECI,273.0
KCKF 291535Z AUTO 17007KT 140V200 10SM SCT026 BKN040 BKN050 29/22 A3017 RMK AO2 T02920220,KCKF,2017-04-29T15:35:00Z,31.98,-83.77,29.2,22.0,170,7,,10.0,30.171259,,,TRUE,TRUE,,,,,,,SCT,2600,BKN,4000,BKN,5000,,,VFR,,,,,,,,,,,,SPECI,91.0
KCIR 291535Z AUTO 10006KT 10SM SCT065 23/20 A2994 RMK AO2 T02280199,KCIR,2017-04-29T15:35:00Z,37.07,-89.22,22.8,19.9,100,6,,10.0,29.940945,,,TRUE,TRUE,,,,,,,SCT,6500,,,,,,,VFR,,,,,,,,,,,,METAR,98.0
KCFD 291535Z AUTO 15017G22KT 7SM OVC017 27/23 A2964 RMK AO2 T02650233,KCFD,2017-04-29T15:35:00Z,30.72,-96.33,26.5,23.3,150,17,22,7.0,29.639763,,,TRUE,TRUE,,,,,,,OVC,1700,,,,,,,MVFR,,,,,,,,,,,,SPECI,112.0
KCDA 291535Z AUTO 23011G23KT 10SM SCT060 SCT110 20/06 A2991 RMK AO2 T01950063,KCDA,2017-04-29T15:35:00Z,44.57,-72.02,19.5,6.3,230,11,23,10.0,29.911417,,,TRUE,TRUE,,,,,,,SCT,6000,SCT,11000,,,,,VFR,,,,,,,,,,,,SPECI,363.0
KCAD 291535Z AUTO 36006G17KT 330V030 10SM CLR 07/M01 A3020 RMK AO2 T00691014,KCAD,2017-04-29T15:35:00Z,44.27,-85.42,6.9,-1.4,360,6,17,10.0,30.200787,,,TRUE,TRUE,,,,,,,CLR,,,,,,,,VFR,,,,,,,,,,,,SPECI,398.0
KC35 291535Z AUTO 05011G16KT 10SM CLR 05/M02 A3024 RMK AO2 T00531022,KC35,2017-04-29T15:35:00Z,43.53,-89.98,5.3,-2.2,50,11,16,10.0,30.239174,,,TRUE,TRUE,,,,,,,CLR,,,,,,,,VFR,,,,,,,,,,,,SPECI,276.0
LTCC 291535Z 26016G26KT 230V360 9999 FEW025CB SCT035 18/06 Q1014 RESHRA NOSIG RMK RWY16 23018KT 190V270,LTCC,2017-04-29T15:35:00Z,37.87,40.2,18.0,6.0,260,16,26,6.21,29.940945,,,,,,TRUE,,,,,FEW,2500,SCT,3500,,,,,VFR,,,,,,,,,,,,SPECI,677.0
KFSI 291535Z AUTO 03017G22KT 8SM +RA SCT007 OVC022 09/09 A2963 RMK AO2 RAE16RAB17 CIG 006V022 SLP029,KFSI,2017-04-29T15:35:00Z,34.65,-98.4,9.0,9.0,30,17,22,8.0,29.630905,1002.9,,TRUE,TRUE,,,,,,+RA,SCT,700,OVC,2200,,,,,MVFR,,,,,,,,,,,,SPECI,362.0
CYYU 291535Z 33011KT 6SM BR BKN026 OVC070 M00/M06 A3021 RMK SC7AC1 PRESRR SLP244,CYYU,2017-04-29T15:35:00Z,49.42,-82.47,0.0,-6.0,330,11,,6.0,30.209646,1024.4,,,,,,,,,BR,BKN,2600,OVC,7000,,,,,MVFR,,,,,,,,,,,,SPECI,227.0
LECV 291535Z VRB01KT 4000 BR -DZ BKN005 09/08 Q1011,LECV,2017-04-29T15:35:00Z,40.63,-3.72,9.0,8.0,0,1,,2.49,29.852362,,,,,,,,,,BR -DZ,BKN,500,,,,,,,IFR,,,,,,,,,,,,SPECI,710.0
PAUT 291535Z AUTO 13025G38KT 7SM -RA OVC009 03/02 A2945 RMK AO2 P0005 T00280021,PAUT,2017-04-29T15:35:00Z,54.15,-165.6,2.8,2.1,130,25,38,7.0,29.450787,,,TRUE,TRUE,,,,,,-RA,OVC,900,,,,,,,IFR,,,,,,0.05,,,,,,METAR,25.0
KY51 291535Z AUTO 06012G15KT 10SM CLR 05/M01 A3023 RMK AO1 T00541008,KY51,2017-04-29T15:35:00Z,43.58,-90.9,5.4,-0.8,60,12,15,10.0,30.230314,,,TRUE,TRUE,,,,,,,CLR,,,,,,,,VFR,,,,,,,,,,,,METAR,394.0
KXSA 291535Z AUTO 17007KT 110V250 10SM SCT022 SCT030 28/20 A3015 RMK AO2 T02810200,KXSA,2017-04-29T15:35:00Z,37.87,-76.9,28.1,20.0,170,7,,10.0,30.15059,,,TRUE,TRUE,,,,,,,SCT,2200,SCT,3000,,,,,VFR,,,,,,,,,,,,METAR,42.0
KXLL 291535Z AUTO 25007KT 180V280 10SM CLR 24/17 A3004 RMK AO2,KXLL,2017-04-29T15:35:00Z,40.57,-75.48,24.0,17.0,250,7,,10.0,30.041338,,,TRUE,TRUE,,,,,,,CLR,,,,,,,,VFR,,,,,,,,,,,,METAR,122.0
KXBP 291535Z AUTO 20010G15KT 7SM SCT034 BKN050 OVC055 25/19 A2959 RMK AO2 LTG DSNT N AND NE T02530191,KXBP,2017-04-29T15:35:00Z,33.18,-97.83,25.3,19.1,200,10,15,7.0,29.589567,,,TRUE,TRUE,,,,,,,SCT,3400,BKN,5000,OVC,5500,,,VFR,,,,,,,,,,,,METAR,260.0
KWWR 291535Z AUTO 35013KT 4SM +DZ OVC005 05/03 A2984 RMK AO2 LTG DSNT E AND SE,KWWR,2017-04-29T15:35:00Z,36.45,-99.52,5.0,3.0,350,13,,4.0,29.840551,,,TRUE,TRUE,,,,,,+DZ,OVC,500,,,,,,,IFR,,,,,,,,,,,,METAR,667.0
KW96 291535Z AUTO 24006KT 10SM SCT021 27/23 A3014 RMK AO1 T02700229,KW96,2017-04-29T15:35:00Z,37.5,-77.12,27.0,22.9,240,6,,10.0,30.138779,,,TRUE,TRUE,,,,,,,SCT,2100,,,,,,,VFR,,,,,,,,,,,,METAR,37.0
KW75 291535Z AUTO 24004KT 10SM SCT020 27/23 A3013 RMK AO1 T02660231,KW75,2017-04-29T15:35:00Z,37.6,-76.45,26.6,23.1,240,4,,10.0,30.129921,,,TRUE,TRUE,,,,,,,SCT,2000,,,,,,,VFR,,,,,,,,,,,,METAR,9.0
KW63 291535Z AUTO 24005KT 10SM OVC017 26/23 A3018 RMK AO1,KW63,2017-04-29T15:35:00Z,36.6,-78.55,26.0,23.0,240,5,,10.0,30.180119,,,TRUE,TRUE,,,,,,,OVC,1700,,,,,,,MVFR,,,,,,,,,,,,METAR,129.0
KW31 291535Z AUTO 22007KT 190V250 10SM OVC016 26/25 A3018 RMK AO1 T02580251,KW31,2017-04-29T15:35:00Z,36.95,-78.18,25.8,25.1,220,7,,10.0,30.180119,,,TRUE,TRUE,,,,,,,OVC,1600,,,,,,,MVFR,,,,,,,,,,,,METAR,162.0
KW13 291535Z AUTO 24007KT 10SM CLR 27/19 A3017 RMK AO1 T02710186,KW13,2017-04-29T15:35:00Z,38.08,-78.95,27.1,18.6,240,7,,10.0,30.171259,,,TRUE,TRUE,,,,,,,CLR,,,,,,,,VFR,,,,,,,,,,,,SPECI,443.0
KVJI 291535Z AUTO 23004KT 10SM CLR 27/17 A3020 RMK AO2 T02730170,KVJI,2017-04-29T15:35:00Z,36.67,-82.02,27.3,17.0,230,4,,10.0,30.200787,,,TRUE,TRUE,,,,,,,CLR,,,,,,,,VFR,,,,,,,,,,,,SPECI,631.0
KVER 291535Z AUTO 05012G16KT 5SM TSRA BKN006 BKN014 OVC050 12/ A2985 RMK AO2 LTG DSNT ALQS P0010 T0121,KVER,2017-04-29T15:35:00Z,38.95,-92.68,12.1,,50,12,16,5.0,29.84941,,,TRUE,TRUE,,,,,,TSRA,BKN,600,BKN,1400,OVC,5000,,,IFR,,,,,,0.1,,,,,,SPECI,218.0
KVCV 291535Z AUTO 04012G15KT 10SM SCT120 14/M12 A3015 RMK AO2,KVCV,2017-04-29T15:35:00Z,34.58,-117.38,14.0,-12.0,40,12,15,10.0,30.15059,,,TRUE,TRUE,,,,,,,SCT,12000,,,,,,,VFR,,,,,,,,,,,,SPECI,876.0
KVBW 291535Z AUTO 15005KT 10SM CLR 27/19 A3014 RMK AO2 T02660188,KVBW,2017-04-29T15:35:00Z,38.37,-78.97,26.6,18.8,150,5,,10.0,30.138779,,,TRUE,TRUE,,,,,,,CLR,,,,,,,,VFR,,,,,,,,,,,,METAR,355.0
KUKT 291535Z AUTO 28009G14KT 10SM CLR 24/17 A3006 RMK AO1,KUKT,2017-04-29T15:35:00Z,40.43,-75.38,24.0,17.0,280,9,14,10.0,30.059055,,,TRUE,TRUE,,,,,,,CLR,,,,,,,,VFR,,,,,,,,,,,,SPECI,160.0
KU68 291535Z AUTO 00000KT 10SM CLR 05/01 A3027 RMK AO2,KU68,2017-04-29T15:35:00Z,44.92,-108.45,5.0,1.0,0,0,,10.0,30.268702,,,TRUE,TRUE,,,,,,,CLR,,,,,,,,VFR,,,,,,,,,,,,SPECI,1247.0
KTVI 291535Z AUTO 19008KT 10SM SCT032 SCT041 28/22 A3016 RMK AO2,KTVI,2017-04-29T15:35:00Z,30.9,-83.88,28.0,22.0,190,8,,10.0,30.159449,,,TRUE,TRUE,,,,,,,SCT,3200,SCT,4100,,,,,VFR,,,,,,,,,,,,SPECI,80.0
KTSP 291535Z AUTO 09013G18KT 10SM CLR 12/M13 A3015 RMK AO2,KTSP,2017-04-29T15:35:00Z,35.13,-118.43,12.0,-13.0,90,13,18,10.0,30.15059,,,TRUE,TRUE,,,,,,,CLR,,,,,,,,VFR,,,,,,,,,,,,SPECI,1220.0
KTQH 291535Z AUTO 32011G27KT 1/2SM FG SCT002 OVC006 13/12 A2963 RMK AO2 P0016,KTQH,2017-04-29T15:35:00Z,35.93,-95.0,13.0,12.0,320,11,27,0.5,29.630905,,,TRUE,TRUE,,,,,,FG,SCT,200,OVC,600,,,,,LIFR,,,,,,0.16,,,,,,SPECI,266.0
KTHA 291535Z AUTO 18013KT 10SM CLR 28/18 A3007 RMK,KTHA,2017-04-29T15:35:00Z,35.38,-86.25,28.0,18.0,180,13,,10.0,30.070866,,,TRUE,,,,,,,,CLR,,,,,,,,VFR,,,,,,,,,,,,METAR,331.0
KTFP 291535Z AUTO 15017G25KT 5SM HZ OVC014 29/25 A2961 RMK AO2 T02910248,KTFP,2017-04-29T15:35:00Z,27.92,-97.22,29.1,24.8,150,17,25,5.0,29.610237,,,TRUE,TRUE,,,,,,HZ,OVC,1400,,,,,,,MVFR,,,,,,,,,,,,SPECI,6.0
KOZS 291535Z AUTO 05004KT 10SM -VCTSRA OVC004 14/14 A2979 RMK AO2 LTG DSNT ALQS P0004,KOZS,2017-04-29T15:35:00Z,37.97,-92.68,14.0,14.0,50,4,,10.0,29.790354,,,TRUE,TRUE,,,,,,VCTS -RA,OVC,400,,,,,,,LIFR,,,,,,0.04,,,,,,SPECI,324.0
KOWP 291535Z AUTO 01009G14KT 10SM VCTS OVC006 14/13 A2968 RMK AO2 LTG DSNT ALQS T01420132,KOWP,2017-04-29T15:35:00Z,36.18,-96.15,14.2,13.2,10,9,14,10.0,29.681103,,,TRUE,TRUE,,,,,,VCTS,OVC,600,,,,,,,IFR,,,,,,,,,,,,SPECI,272.0
KOUN 291535Z AUTO 02017G23KT 10SM VCTSRA OVC006 10/10 A2964 RMK AO2 LTG DSNT ALQS,KOUN,2017-04-29T15:35:00Z,35.25,-97.47,10.0,10.0,20,17,23,10.0,29.639763,,,TRUE,TRUE,,,,,,VCTSRA,OVC,600,,,,,,,IFR,,,,,,,,,,,,SPECI,357.0
KORG 291535Z AUTO 17017G25KT 5SM VCTS BR OVC012 26/24 A2977 RMK AO2 LTG DSNT N T02580240,KORG,2017-04-29T15:35:00Z,30.07,-93.8,25.8,24.0,170,17,25,5.0,29.769686,,,TRUE,TRUE,,,,,,VCTS BR,OVC,1200,,,,,,,MVFR,,,,,,,,,,,,SPECI,4.0
KOOA 291535Z AUTO 06015G20KT 10SM -RA SCT016 BKN026 OVC050 07/05 A3009 RMK AO2 P0001 T00700052,KOOA,2017-04-29T15:35:00Z,41.23,-92.5,7.0,5.2,60,15,20,10.0,30.088583,,,TRUE,TRUE,,,,,,-RA,SCT,1600,BKN,2600,OVC,5000,,,MVFR,,,,,,0.01,,,,,,SPECI,256.0
KONP 291535Z AUTO 08003KT 10SM CLR 08/07 A3033 RMK AO2,KONP,2017-04-29T15:35:00Z,44.57,-124.03,8.0,7.0,80,3,,10.0,30.33071,,,TRUE,TRUE,,,,,,,CLR,,,,,,,,VFR,,,,,,,,,,,,SPECI,48.0
KOMH 291535Z AUTO 22004KT 10SM CLR 28/20 A3012 RMK AO2,KOMH,2017-04-29T15:35:00Z,38.25,-78.05,28.0,20.0,220,4,,10.0,30.121063,,,TRUE,TRUE,,,,,,,CLR,,,,,,,,VFR,,,,,,,,,,,,SPECI,142.0
KOJA 291535Z AUTO 36010G14KT 10SM TS OVC008 07/07 A2971 RMK AO2 LTG DSNT N THRU SE,KOJA,2017-04-29T15:35:00Z,35.55,-98.67,7.0,7.0,360,10,14,10.0,29.71063,,,TRUE,TRUE,,,,,,TS,OVC,800,,,,,,,IFR,,,,,,,,,,,,SPECI,490.0
KOEB 291535Z AUTO 06008KT 10SM SCT021 OVC047 10/06 A3015 RMK AO2 T01030058,KOEB,2017-04-29T15:35:00Z,41.92,-85.03,10.3,5.8,60,8,,10.0,30.15059,,,TRUE,TRUE,,,,,,,SCT,2100,OVC,4700,,,,,VFR,,,,,,,,,,,,SPECI,292.0
KOBE 291535Z AUTO 13010G17KT 10SM CLR 31/17 A3015 RMK AO2,KOBE,2017-04-29T15:35:00Z,27.27,-80.85,31.0,17.0,130,10,17,10.0,30.15059,,,TRUE,TRUE,,,,,,,CLR,,,,,,,,VFR,,,,,,,,,,,,SPECI,11.0
KMZH 291535Z AUTO 00000KT 10SM CLR 08/M05 A3032 RMK AO2,KMZH,2017-04-29T15:35:00Z,46.42,-92.8,8.0,-5.0,0,0,,10.0,30.318897,,,TRUE,TRUE,,,,,,,CLR,,,,,,,,VFR,,,,,,,,,,,,SPECI,328.0
KMQB 291535Z AUTO 07009KT 5SM +RA OVC017 09/07 A3010 RMK AO2 LTG DSNT SE AND S P0002 T00860068,KMQB,2017-04-29T15:35:00Z,40.52,-90.65,8.6,6.8,70,9,,5.0,30.100393,,,TRUE,TRUE,,,,,,+RA,OVC,1700,,,,,,,MVFR,,,,,,0.02,,,,,,SPECI,215.0
KMOP 291535Z AUTO 03009KT 10SM CLR 08/00 A3019 RMK AO2 T00841004,KMOP,2017-04-29T15:35:00Z,43.62,-84.73,8.4,-0.4,30,9,,10.0,30.188976,,,TRUE,TRUE,,,,,,,CLR,,,,,,,,VFR,,,,,,,,,,,,SPECI,230.0
KMNZ 291535Z AUTO 19020G28KT 7SM BKN028 BKN035 27/20 A2959 RMK AO2 T02650199,KMNZ,2017-04-29T15:35:00Z,31.67,-98.15,26.5,19.9,190,20,28,7.0,29.589567,,,TRUE,TRUE,,,,,,,BKN,2800,BKN,3500,,,,,MVFR,,,,,,,,,,,,SPECI,396.0
KMNE 291535Z AUTO 15008G20KT 110V180 10SM OVC023 27/22 A2976 RMK AO2 T02670220,KMNE,2017-04-29T15:35:00Z,32.65,-93.3,26.7,22.0,150,8,20,10.0,29.760826,,,TRUE,TRUE,,,,,,,OVC,2300,,,,,,,MVFR,,,,,,,,,,,,SPECI,85.0
KMMH 291535Z AUTO 31006KT 10SM CLR 03/M13 A3028 RMK AO2 T00301130,KMMH,2017-04-29T15:35:00Z,37.62,-118.82,3.0,-13.0,310,6,,10.0,30.280512,,,TRUE,TRUE,,,,,,,CLR,,,,,,,,VFR,,,,,,,,,,,,SPECI,2173.0
KMKS 291535Z AUTO 21009KT 7SM SCT030 BKN036 28/20 A3021 RMK AO2,KMKS,2017-04-29T15:35:00Z,33.18,-80.03,28.0,20.0,210,9,,7.0,30.209646,,,TRUE,TRUE,,,,,,,SCT,3000,BKN,3600,,,,,VFR,,,,,,,,,,,,SPECI,23.0
KMKN 291535Z AUTO 20010G19KT 7SM SCT028 OVC041 26/20 A2959 RMK AO2 T02600200,KMKN,2017-04-29T15:35:00Z,31.92,-98.6,26.0,20.0,200,10,19,7.0,29.589567,,,TRUE,TRUE,,,,,,,SCT,2800,OVC,4100,,,,,VFR,,,,,,,,,,,,METAR,423.0
KMGC 291535Z AUTO 35007KT 10SM OVC065 08/05 A3015 RMK AO2,KMGC,2017-04-29T15:35:00Z,41.7,-86.82,8.0,5.0,350,7,,10.0,30.15059,,,TRUE,TRUE,,,,,,,OVC,6500,,,,,,,VFR,,,,,,,,,,,,SPECI,200.0
KMFV 291535Z AUTO 25012G20KT 10SM BKN015 27/22 A3015 RMK AO2 T02650221,KMFV,2017-04-29T15:35:00Z,37.63,-75.77,26.5,22.1,250,12,20,10.0,30.15059,,,TRUE,TRUE,,,,,,,BKN,1500,,,,,,,MVFR,,,,,,,,,,,,SPECI,15.0
KMDQ 291535Z AUTO 15011G16KT 10SM CLR 28/17 A3005 RMK AO2,KMDQ,2017-04-29T15:35:00Z,34.87,-86.55,28.0,17.0,150,11,16,10.0,30.050198,,,TRUE,TRUE,,,,,,,CLR,,,,,,,,VFR,,,,,,,,,,,,SPECI,230.0
KMBO 291535Z AUTO 15008G18KT 10SM BKN029 BKN036 27/21 A2992 RMK AO2 PWINO,KMBO,2017-04-29T15:35:00Z,32.43,-90.1,27.0,21.0,150,8,18,10.0,29.920275,,,TRUE,TRUE,,,,,TRUE,,BKN,2900,BKN,3600,,,,,MVFR,,,,,,,,,,,,SPECI,99.0
KM21 291535Z AUTO 18006KT 10SM SCT032 BKN041 BKN047 26/20 A3002 RMK AO2 T02570198,KM21,2017-04-29T15:35:00Z,37.22,-87.15,25.7,19.8,180,6,,10.0,30.02067,,,TRUE,TRUE,,,,,,,SCT,3200,BKN,4100,BKN,4700,,,VFR,,,,,,,,,,,,METAR,129.0
KLUM 291535Z AUTO 04009KT 10SM CLR 08/M05 A3029 RMK AO2 T00751050,KLUM,2017-04-29T15:35:00Z,44.9,-91.87,7.5,-5.0,40,9,,10.0,30.28937,,,TRUE,TRUE,,,,,,,CLR,,,,,,,,VFR,,,,,,,,,,,,SPECI,273.0
KLUA 291535Z AUTO 20005KT 10SM CLR 27/18 A3011 RMK AO2,KLUA,2017-04-29T15:35:00Z,38.67,-78.5,27.0,18.0,200,5,,10.0,30.109253,,,TRUE,TRUE,,,,,,,CLR,,,,,,,,VFR,,,,,,,,,,,,SPECI,275.0
KLNL 291535Z AUTO 05008G16KT 010V070 10SM CLR 05/M08 A3031 RMK AO2 T00451076,KLNL,2017-04-29T15:35:00Z,46.15,-89.22,4.5,-7.6,50,8,16,10.0,30.31004,,,TRUE,TRUE,,,,,,,CLR,,,,,,,,VFR,,,,,,,,,,,,SPECI,520.0
KLNC 291535Z AUTO 18015G22KT 7SM SCT026 BKN033 OVC044 27/22 A2959 RMK AO2 T02650216,KLNC,2017-04-29T15:35:00Z,32.58,-96.72,26.5,21.6,180,15,22,7.0,29.589567,,,TRUE,TRUE,,,,,,,SCT,2600,BKN,3300,OVC,4400,,,VFR,,,,,,,,,,,,SPECI,153.0
KLHM 291535Z AUTO 34005KT 10SM CLR 13/05 A3010 RMK AO1,KLHM,2017-04-29T15:35:00Z,38.92,-121.35,13.0,5.0,340,5,,10.0,30.100393,,,TRUE,TRUE,,,,,,,CLR,,,,,,,,VFR,,,,,,,,,,,,SPECI,37.0
KLDM 291535Z AUTO 02009G14KT 10SM CLR 08/M01 A3022 RMK AO2 T00771009,KLDM,2017-04-29T15:35:00Z,43.97,-86.4,7.7,-0.9,20,9,14,10.0,30.221457,,,TRUE,TRUE,,,,,,,CLR,,,,,,,,VFR,,,,,,,,,,,,SPECI,197.0
KLAM 291535Z AUTO 00000KT 2SM -SN BKN006 OVC012 M02/M02 A2990 RMK AO2 T10161023,KLAM,2017-04-29T15:35:00Z,35.87,-106.27,-1.6,-2.3,0,0,,2.0,29.899607,,,TRUE,TRUE,,,,,,-SN,BKN,600,OVC,1200,,,,,IFR,,,,,,,,,,,,SPECI,2179.0
KC29 291535Z AUTO 04014G22KT 10SM CLR 07/01 A3021 RMK AO1 T00700008,KC29,2017-04-29T15:35:00Z,43.12,-89.53,7.0,0.8,40,14,22,10.0,30.209646,,,TRUE,TRUE,,,,,,,CLR,,,,,,,,VFR,,,,,,,,,,,,SPECI,283.0
KBYY 291535Z AUTO 15022G28KT 5SM HZ OVC017 29/24 A2964 RMK AO2 T02910246,KBYY,2017-04-29T15:35:00Z,28.97,-95.87,29.1,24.6,150,22,28,5.0,29.639763,,,TRUE,TRUE,,,,,,HZ,OVC,1700,,,,,,,MVFR,,,,,,,,,,,,SPECI,14.0
KBYL 291535Z AUTO 19009KT 10SM CLR 28/19 A3009 RMK AO1,KBYL,2017-04-29T15:35:00Z,36.8,-84.2,28.0,19.0,190,9,,10.0,30.088583,,,TRUE,TRUE,,,,,,,CLR,,,,,,,,VFR,,,,,,,,,,,,SPECI,359.0
KBVS 291535Z AUTO 00000KT 9SM CLR 08/05 A3030 RMK A01,KBVS,2017-04-29T15:35:00Z,48.47,-122.42,8.0,5.0,0,0,,9.0,30.301182,,,TRUE,TRUE,,,,,,,CLR,,,,,,,,VFR,,,,,,,,,,,,SPECI,43.0
KBVN 291535Z AUTO 05015G19KT 10SM OVC070 07/M01 A3015 RMK AO2 T00701006,KBVN,2017-04-29T15:35:00Z,41.73,-98.05,7.0,-0.6,50,15,19,10.0,30.15059,,,TRUE,TRUE,,,,,,,OVC,7000,,,,,,,VFR,,,,,,,,,,,,SPECI,551.0
KBUU 291535Z AUTO 03017G25KT 10SM CLR 09/03 A3019 RMK AO2 T00930032,KBUU,2017-04-29T15:35:00Z,42.68,-88.3,9.3,3.2,30,17,25,10.0,30.188976,,,TRUE,TRUE,,,,,,,CLR,,,,,,,,VFR,,,,,,,,,,,,SPECI,237.0
KBTA 291535Z AUTO 02019G24KT 10SM SCT065 BKN080 BKN120 07/02 A3005 RMK AO2 T00660018,KBTA,2017-04-29T15:35:00Z,41.42,-96.12,6.6,1.8,20,19,24,10.0,30.050198,,,TRUE,TRUE,,,,,,,SCT,6500,BKN,8000,BKN,12000,,,VFR,,,,,,,,,,,,SPECI,396.0
KBQK 291535Z AUTO 15011G18KT 10SM SCT017 BKN030 28/23 A3022 RMK AO2,KBQK,2017-04-29T15:35:00Z,31.25,-81.47,28.0,23.0,150,11,18,10.0,30.221457,,,TRUE,TRUE,,,,,,,SCT,1700,BKN,3000,,,,,MVFR,,,,,,,,,,,,SPECI,8.0
KBPG 291535Z AUTO 34016G20KT 7SM OVC017 11/07 A2980 RMK AO2 T01060071,KBPG,2017-04-29T15:35:00Z,32.22,-101.52,10.6,7.1,340,16,20,7.0,29.799213,,,TRUE,TRUE,,,,,,,OVC,1700,,,,,,,MVFR,,,,,,,,,,,,SPECI,784.0
KBPC 291535Z AUTO 33014G20KT 3SM +RA OVC009 01/01 A2989 RMK AO2 P0004,KBPC,2017-04-29T15:35:00Z,35.88,-101.03,1.0,1.0,330,14,20,3.0,29.890747,,,TRUE,TRUE,,,,,,+RA,OVC,900,,,,,,,IFR,,,,,,0.04,,,,,,SPECI,845.0
KBMT 291535Z AUTO 15011G22KT 5SM VCTSHZ OVC012 27/23 A2974 RMK AO2 LTG DSNT N AND NE T02660232,KBMT,2017-04-29T15:35:00Z,30.07,-94.22,26.6,23.2,150,11,22,5.0,29.740158,,,TRUE,TRUE,,,,,,VCTS HZ,OVC,1200,,,,,,,MVFR,,,,,,,,,,,,SPECI,10.0
KBMC 291535Z AUTO 06006KT 10SM CLR 07/M06 A3021 RMK AO1 T00691058,KBMC,2017-04-29T15:35:00Z,41.55,-112.07,6.9,-5.8,60,6,,10.0,30.209646,,,TRUE,TRUE,,,,,,,CLR,,,,,,,,VFR,,,,,,,,,,,,SPECI,1288.0
KBKS 291535Z AUTO 15018G22KT 7SM CLR 31/23 A2953 RMK AO1 T03120226,KBKS,2017-04-29T15:35:00Z,27.2,-98.12,31.2,22.6,150,18,22,7.0,29.530512,,,TRUE,TRUE,,,,,,,CLR,,,,,,,,VFR,,,,,,,,,,,,SPECI,34.0
KBIE 291535Z AUTO 04014G19KT 10SM OVC017 06/04 A2999 RMK AO2 T00580042,KBIE,2017-04-29T15:35:00Z,40.28,-96.75,5.8,4.2,40,14,19,10.0,29.991142,,,TRUE,TRUE,,,,,,,OVC,1700,,,,,,,MVFR,,,,,,,,,,,,SPECI,403.0
KBGE 291535Z AUTO 18009KT 10SM SCT031 BKN039 29/20 A3014 RMK AO2,KBGE,2017-04-29T15:35:00Z,30.97,-84.63,29.0,20.0,180,9,,10.0,30.138779,,,TRUE,TRUE,,,,,,,SCT,3100,BKN,3900,,,,,VFR,,,,,,,,,,,,SPECI,43.0
KBEC 291535Z AUTO 04014G23KT 10SM -RA OVC008 07/06 A2980 RMK AO2 LTG DSNT SE THRU SW T00690060,KBEC,2017-04-29T15:35:00Z,37.7,-97.22,6.9,6.0,40,14,23,10.0,29.799213,,,TRUE,TRUE,,,,,,-RA,OVC,800,,,,,,,IFR,,,,,,,,,,,,SPECI,429.0
KBEA 291535Z AUTO 17016G26KT 7SM BKN021 OVC026 29/25 A2959 RMK AO2 T02880246,KBEA,2017-04-29T15:35:00Z,28.37,-97.78,28.8,24.6,170,16,26,7.0,29.589567,,,TRUE,TRUE,,,,,,,BKN,2100,OVC,2600,,,,,MVFR,,,,,,,,,,,,SPECI,82.0
KBDG 291535Z AUTO 02015G25KT 10SM SCT049 SCT065 08/M05 A2999 RMK AO1 T00791048,KBDG,2017-04-29T15:35:00Z,37.58,-109.47,7.9,-4.8,20,15,25,10.0,29.991142,,,TRUE,TRUE,,,,,,,SCT,4900,SCT,6500,,,,,VFR,,,,,,,,,,,,SPECI,1788.0
KBCK 291535Z AUTO 08011G18KT 10SM CLR 08/M05 A3026 RMK AO2 T00761050,KBCK,2017-04-29T15:35:00Z,44.25,-90.85,7.6,-5.0,80,11,18,10.0,30.259842,,,TRUE,TRUE,,,,,,,CLR,,,,,,,,VFR,,,,,,,,,,,,SPECI,255.0
KBCB 291535Z AUTO 00000KT 10SM CLR 25/18 A3024 RMK AO2 T02540180,KBCB,2017-04-29T15:35:00Z,37.22,-80.42,25.4,18.0,0,0,,10.0,30.239174,,,TRUE,TRUE,,,,,,,CLR,,,,,,,,VFR,,,,,,,,,,,,SPECI,650.0
KBAM 291535Z AUTO 00000KT 10SM CLR 05/M03 A3030 RMK AO1,KBAM,2017-04-29T15:35:00Z,,,5.0,-3.0,0,0,,10.0,30.301182,,,TRUE,TRUE,,,,,,,CLR,,,,,,,,VFR,,,,,,,,,,,,SPECI,
KAXX 291535Z AUTO 01016G24KT 3/4SM -SN OVC007 M06/M08 A2992 RMK AO2 T10601080,KAXX,2017-04-29T15:35:00Z,36.42,-105.28,-6.0,-8.0,10,16,24,0.75,29.920275,,,TRUE,TRUE,,,,,,-SN,OVC,700,,,,,,,LIFR,,,,,,,,,,,,SPECI,2548.0
KAXS 291535Z AUTO 01017G22KT 10SM OVC012 10/09 A2971 RMK AO2 LTG DSNT NE T01040090,KAXS,2017-04-29T15:35:00Z,34.7,-99.33,10.4,9.0,10,17,22,10.0,29.71063,,,TRUE,TRUE,,,,,,,OVC,1200,,,,,,,MVFR,,,,,,,,,,,,SPECI,437.0
KAXH 291535Z AUTO 16014G27KT 5SM HZ OVC017 28/24 A2968 RMK AO2 LTG DSNT NE T02750236,KAXH,2017-04-29T15:35:00Z,29.52,-95.48,27.5,23.6,160,14,27,5.0,29.681103,,,TRUE,TRUE,,,,,,HZ,OVC,1700,,,,,,,MVFR,,,,,,,,,,,,SPECI,21.0
KAVQ 291535Z AUTO 31008KT 10SM CLR 15/M08 A2995 RMK AO2 T01531083,KAVQ,2017-04-29T15:35:00Z,32.4,-111.22,15.3,-8.3,310,8,,10.0,29.949802,,,TRUE,TRUE,,,,,,,CLR,,,,,,,,VFR,,,,,,,,,,,,SPECI,619.0
KAUN 291535Z AUTO 05004KT 10SM CLR 17/M02 A3011 RMK AO1,KAUN,2017-04-29T15:35:00Z,38.95,-121.08,17.0,-2.0,50,4,,10.0,30.109253,,,TRUE,TRUE,,,,,,,CLR,,,,,,,,VFR,,,,,,,,,,,,SPECI,467.0
KAUH 291535Z AUTO 03021G26KT 10SM OVC042 05/02 A3006 RMK AO2 T00540024,KAUH,2017-04-29T15:35:00Z,40.88,-98.0,5.4,2.4,30,21,26,10.0,30.059055,,,TRUE,TRUE,,,,,,,OVC,4200,,,,,,,VFR,,,,,,,,,,,,SPECI,550.0
KASW 291535Z AUTO 08008KT 10SM -RA OVC024 10/07 A3012 RMK AO2,KASW,2017-04-29T15:35:00Z,41.27,-85.83,10.0,7.0,80,8,,10.0,30.121063,,,TRUE,TRUE,,,,,,-RA,OVC,2400,,,,,,,MVFR,,,,,,,,,,,,SPECI,259.0
KASN 291535Z AUTO 17013G17KT 10SM SCT038 BKN060 29/21 A3010 RMK AO2 T02880206,KASN,2017-04-29T15:35:00Z,33.57,-86.05,28.8,20.6,170,13,17,10.0,30.100393,,,TRUE,TRUE,,,,,,,SCT,3800,BKN,6000,,,,,VFR,,,,,,,,,,,,SPECI,162.0
KAQR 291535Z AUTO 18008KT 4SM SCT023 BKN030 BKN039 23/23 A2959 RMK AO2 P0002 LTG DSNT W THRU N,KAQR,2017-04-29T15:35:00Z,34.4,-96.15,23.0,23.0,180,8,,4.0,29.589567,,,TRUE,TRUE,,,,,,,SCT,2300,BKN,3000,BKN,3900,,,MVFR,,,,,,0.02,,,,,,SPECI,189.0
KAQP 291535Z AUTO 11008KT 10SM CLR 09/M04 A3031 RMK AO2,KAQP,2017-04-29T15:35:00Z,45.22,-96.0,9.0,-4.0,110,8,,10.0,30.31004,,,TRUE,TRUE,,,,,,,CLR,,,,,,,,VFR,,,,,,,,,,,,SPECI,311.0
KANW 291535Z AUTO 04010KT 10SM OVC090 06/M04 A3023 RMK AO2 T00581039,KANW,2017-04-29T15:35:00Z,42.57,-100.0,5.8,-3.9,40,10,,10.0,30.230314,,,TRUE,TRUE,,,,,,,OVC,9000,,,,,,,VFR,,,,,,,,,,,,SPECI,789.0
KGMJ 291535Z AUTO 29017G26KT 1 1/4SM +TSRA BKN005 BKN016 OVC029 13/13 A2974 RMK AO2 LTG DSNT ALQS P0050,KGMJ,2017-04-29T15:35:00Z,36.6,-94.73,13.0,13.0,290,17,26,1.25,29.740158,,,TRUE,TRUE,,,,,,+TSRA,BKN,500,BKN,1600,OVC,2900,,,IFR,,,,,,0.5,,,,,,SPECI,254.0
KGCM 291535Z AUTO 02014G20KT 10SM -TSRA BKN055 BKN080 OVC110 11/11 A2964 RMK AO2 P0003 LTG DSNT ALQS,KGCM,2017-04-29T15:35:00Z,36.3,-95.48,11.0,11.0,20,14,20,10.0,29.639763,,,TRUE,TRUE,,,,,,-TSRA,BKN,5500,BKN,8000,OVC,11000,,,VFR,,,,,,0.03,,,,,,SPECI,221.0
KGAO 291535Z AUTO 15013G21KT 7SM OVC012 27/23 A2992 RMK AO2 T02720230,KGAO,2017-04-29T15:35:00Z,29.45,-90.27,27.2,23.0,150,13,21,7.0,29.920275,,,TRUE,TRUE,,,,,,,OVC,1200,,,,,,,MVFR,,,,,,,,,,,,SPECI,1.0
KFWZ 291535Z AUTO 03012KT 10SM OVC003 M06/M07 RMK AO2,KFWZ,2017-04-29T15:35:00Z,42.52,-108.78,-6.0,-7.0,30,12,,10.0,,,,TRUE,TRUE,,,,,,,OVC,300,,,,,,,LIFR,,,,,,,,,,,,SPECI,2588.0
KFOA 291535Z AUTO 13008KT 10SM SCT009 BKN100 20/19 A3000 RMK AO2 LTG DSNT W T02020187,KFOA,2017-04-29T15:35:00Z,38.67,-88.45,20.2,18.7,130,8,,10.0,30.0,,,TRUE,TRUE,,,,,,,SCT,900,BKN,10000,,,,,VFR,,,,,,,,,,,,SPECI,144.0
KFLY 291535Z AUTO 36014G20KT 1 1/2SM -SN BKN012 OVC019 M03/M05 A3009 RMK AO2 T10301055,KFLY,2017-04-29T15:35:00Z,38.95,-104.57,-3.0,-5.5,360,14,20,1.5,30.088583,,,TRUE,TRUE,,,,,,-SN,BKN,1200,OVC,1900,,,,,IFR,,,,,,,,,,,,SPECI,2096.0
KFKR 291535Z AUTO 13008KT 2SM +RA OVC004 14/13 A3010 RMK AO2 LTG DSNT W P0007 T01400131,KFKR,2017-04-29T15:35:00Z,40.27,-86.57,14.0,13.1,130,8,,2.0,30.100393,,,TRUE,TRUE,,,,,,+RA,OVC,400,,,,,,,LIFR,,,,,,0.07,,,,,,SPECI,262.0
KFGX 291535Z AUTO 31008KT 10SM BKN020 BKN031 OVC049 20/17 A3014 RMK AO2 T02010173,KFGX,2017-04-29T15:35:00Z,38.55,-83.75,20.1,17.3,310,8,,10.0,30.138779,,,TRUE,TRUE,,,,,,,BKN,2000,BKN,3100,OVC,4900,,,MVFR,,,,,,,,,,,,SPECI,278.0
KFEP 291535Z AUTO 03019G22KT 10SM CLR 08/03 A3015 RMK AO2 T00750025,KFEP,2017-04-29T15:35:00Z,42.25,-89.58,7.5,2.5,30,19,22,10.0,30.15059,,,TRUE,TRUE,,,,,,,CLR,,,,,,,,VFR,,,,,,,,,,,,SPECI,262.0
KFBR 291535Z AUTO 06006KT 10SM SCT015 OVC026 M01/M05 A3024 RMK AO2 T10081047,KFBR,2017-04-29T15:35:00Z,41.4,-110.4,-0.8,-4.7,60,6,,10.0,30.239174,,,TRUE,TRUE,,,,,,,SCT,1500,OVC,2600,,,,,MVFR,,,,,,,,,,,,SPECI,2144.0
KF46 291535Z AUTO 19022G32KT 7SM OVC026 27/23 A2959 RMK AO2 T02670225,KF46,2017-04-29T15:35:00Z,32.93,-96.43,26.7,22.5,190,22,32,7.0,29.589567,,,TRUE,TRUE,,,,,,,OVC,2600,,,,,,,MVFR,,,,,,,,,,,,SPECI,176.0
KEZS 291535Z AUTO 03011KT 10SM CLR 08/M02 A3029 RMK AO2 T00751016,KEZS,2017-04-29T15:35:00Z,44.78,-88.57,7.5,-1.6,30,11,,10.0,30.28937,,,TRUE,TRUE,,,,,,,CLR,,,,,,,,VFR,,,,,,,,,,,,SPECI,248.0
KEVU 291535Z AUTO 05013G21KT 5SM -RA OVC011 07/07 A2999 RMK AO2 P0005,KEVU,2017-04-29T15:35:00Z,40.35,-94.92,7.0,7.0,50,13,21,5.0,29.991142,,,TRUE,TRUE,,,,,,-RA,OVC,1100,,,,,,,MVFR,,,,,,0.05,,,,,,SPECI,349.0
KELK 291535Z AUTO 36016G21KT 10SM VCTS OVC007 07/06 A2969 RMK AO2 LTG DSNT NE AND E P0001 T00660058,KELK,2017-04-29T15:35:00Z,35.43,-99.4,6.6,5.8,360,16,21,10.0,29.68996,,,TRUE,TRUE,,,,,,VCTS,OVC,700,,,,,,,IFR,,,,,,0.01,,,,,,SPECI,610.0
KEDN 291535Z AUTO 15010G18KT 10SM BKN022 BKN030 28/22 A3011 RMK AO2 T02760221,KEDN,2017-04-29T15:35:00Z,31.3,-85.9,27.6,22.1,150,10,18,10.0,30.109253,,,TRUE,TRUE,,,,,,,BKN,2200,BKN,3000,,,,,MVFR,,,,,,,,,,,,SPECI,110.0
KECS 291535Z AUTO 19006KT 10SM CLR 05/M07 A3029 RMK AO2,KECS,2017-04-29T15:35:00Z,43.88,-104.32,5.0,-7.0,190,6,,10.0,30.28937,,,TRUE,TRUE,,,,,,,CLR,,,,,,,,VFR,,,,,,,,,,,,SPECI,1273.0
KE80 291535Z AUTO 07012KT 10SM SCT014 BKN046 OVC080 03/01 A2993 RMK AO2 T00280005,KE80,2017-04-29T15:35:00Z,34.65,-106.83,2.8,0.5,70,12,,10.0,29.929134,,,TRUE,TRUE,,,,,,,SCT,1400,BKN,4600,OVC,8000,,,VFR,,,,,,,,,,,,SPECI,1582.0
KDZB 291535Z AUTO 17011G20KT 7SM OVC026 28/20 A2959 RMK AO2 T02770201,KDZB,2017-04-29T15:35:00Z,30.53,-98.37,27.7,20.1,170,11,20,7.0,29.589567,,,TRUE,TRUE,,,,,,,OVC,2600,,,,,,,MVFR,,,,,,,,,,,,SPECI,334.0
KDVO 291535Z AUTO 36010KT 10SM CLR 18/05 A3012 RMK AO2,KDVO,2017-04-29T15:35:00Z,38.15,-122.55,18.0,5.0,360,10,,10.0,30.121063,,,TRUE,TRUE,,,,,,,CLR,,,,,,,,VFR,,,,,,,,,,,,SPECI,1.0
KDUX 291535Z AUTO 35025G31KT 2SM OVC007 00/00 A2993 RMK AO2 T00001003 PWINO,KDUX,2017-04-29T15:35:00Z,35.85,-102.02,0.0,-0.3,350,25,31,2.0,29.929134,,,TRUE,TRUE,,,,,TRUE,,OVC,700,,,,,,,IFR,,,,,,,,,,,,SPECI,1129.0
KDUC 291535Z AUTO 33008G18KT 300V360 OVC009 11/10 A2964 RMK AO2 PWINO TSNO,KDUC,2017-04-29T15:35:00Z,34.47,-97.97,11.0,10.0,330,8,18,,29.639763,,,TRUE,TRUE,,,TRUE,,TRUE,,OVC,900,,,,,,,,,,,,,,,,,,,SPECI,339.0
KDUA 291535Z AUTO 20018G23KT 7SM SCT025 BKN041 OVC070 26/22 A2959 RMK AO2,KDUA,2017-04-29T15:35:00Z,33.95,-96.4,26.0,22.0,200,18,23,7.0,29.589567,,,TRUE,TRUE,,,,,,,SCT,2500,BKN,4100,OVC,7000,,,VFR,,,,,,,,,,,,SPECI,213.0
KDRM 291535Z AUTO 32006KT 10SM CLR 06/M02 A3023 RMK AO2 T00611019,KDRM,2017-04-29T15:35:00Z,46.0,-83.75,6.1,-1.9,320,6,,10.0,30.230314,,,TRUE,TRUE,,,,,,,CLR,,,,,,,,VFR,,,,,,,,,,,,SPECI,204.0
KDRI 291535Z AUTO 15015G21KT 4SM VCTS BR OVC021 26/25 A2980 RMK AO2 LTG DSNT SW THRU NW T02610245,KDRI,2017-04-29T15:35:00Z,30.83,-93.33,26.1,24.5,150,15,21,4.0,29.799213,,,TRUE,TRUE,,,,,,VCTS BR,OVC,2100,,,,,,,MVFR,,,,,,,,,,,,SPECI,63.0
KDNV 291535Z AUTO 02007KT 4SM -RA OVC006 10/10 A3003 RMK AO2 T01020098,KDNV,2017-04-29T15:35:00Z,40.2,-87.6,10.2,9.8,20,7,,4.0,30.029528,,,TRUE,TRUE,,,,,,-RA,OVC,600,,,,,,,IFR,,,,,,,,,,,,SPECI,212.0
KALX 291535Z AUTO 16005KT 10SM CLR 26/21 A3012 RMK AO2 T02590207,KALX,2017-04-29T15:35:00Z,32.92,-85.97,25.9,20.7,160,5,,10.0,30.121063,,,TRUE,TRUE,,,,,,,CLR,,,,,,,,VFR,,,,,,,,,,,,SPECI,209.0
KAJR 291535Z AUTO 14003KT 10SM OVC055 25/20 A3022 RMK AO2 T02460203,KAJR,2017-04-29T15:35:00Z,34.5,-83.55,24.6,20.3,140,3,,10.0,30.221457,,,TRUE,TRUE,,,,,,,OVC,5500,,,,,,,VFR,,,,,,,,,,,,SPECI,441.0
KAJG 291535Z AUTO 13012KT 10SM SCT090 SCT110 21/18 A3000 RMK AO2 T02060180,KAJG,2017-04-29T15:35:00Z,38.62,-87.73,20.6,18.0,130,12,,10.0,30.0,,,TRUE,TRUE,,,,,,,SCT,9000,SCT,11000,,,,,VFR,,,,,,,,,,,,SPECI,131.0
KAHQ 291535Z AUTO 01012G20KT 10SM SCT060 SCT110 06/02 A3009 RMK AO2 T00630022,KAHQ,2017-04-29T15:35:00Z,41.23,-96.6,6.3,2.2,10,12,20,10.0,30.088583,,,TRUE,TRUE,,,,,,,SCT,6000,SCT,11000,,,,,VFR,,,,,,,,,,,,SPECI,374.0
KAFO 291535Z AUTO 00000KT 10SM CLR 01/M03 A3020 RMK AO2,KAFO,2017-04-29T15:35:00Z,42.72,-110.95,1.0,-3.0,0,0,,10.0,30.200787,,,TRUE,TRUE,,,,,,,CLR,,,,,,,,VFR,,,,,,,,,,,,SPECI,1897.0
KAFK 291535Z AUTO 04013KT 10SM -RA BKN080 OVC085 06/04 A3000 RMK AO2 T00590037,KAFK,2017-04-29T15:35:00Z,40.6,-95.85,5.9,3.7,40,13,,10.0,30.0,,,TRUE,TRUE,,,,,,-RA,BKN,8000,OVC,8500,,,,,VFR,,,,,,,,,,,,SPECI,354.0
KADH 291535Z AUTO 36008KT 10SM OVC005 13/13 A2963 RMK AO2 LTG DSNT ALQS,KADH,2017-04-29T15:35:00Z,34.8,-96.67,13.0,13.0,360,8,,10.0,29.630905,,,TRUE,TRUE,,,,,,,OVC,500,,,,,,,IFR,,,,,,,,,,,,SPECI,308.0
KACB 291535Z AUTO 35007KT 320V020 10SM CLR 06/M02 A3028 RMK AO2 T00581024,KACB,2017-04-29T15:35:00Z,44.98,-85.2,5.8,-2.4,350,7,,10.0,30.280512,,,TRUE,TRUE,,,,,,,CLR,,,,,,,,VFR,,,,,,,,,,,,SPECI,190.0
K9A5 291535Z AUTO 19006G16KT 3/4SM VV005 29/20 A3012 RMK AO2 T02900201,K9A5,2017-04-29T15:35:00Z,34.68,-85.28,29.0,20.1,190,6,16,0.75,30.121063,,,TRUE,TRUE,,,,,,,OVX,0,,,,,,,LIFR,,,,,,,,,,,500,SPECI,237.0
K8W2 291535Z AUTO 21006G14KT 10SM CLR 27/16 A3010 RMK AO1 T02720162,K8W2,2017-04-29T15:35:00Z,38.65,-78.7,27.2,16.2,210,6,14,10.0,30.100393,,,TRUE,TRUE,,,,,,,CLR,,,,,,,,VFR,,,,,,,,,,,,SPECI,297.0
K82V 291535Z AUTO 01012KT 10SM SCT018 OVC055 00/M01 A3020 RMK AO2 PWINO,K82V,2017-04-29T15:35:00Z,41.15,-104.13,0.0,-1.0,10,12,,10.0,30.200787,,,TRUE,TRUE,,,,,TRUE,,SCT,1800,OVC,5500,,,,,VFR,,,,,,,,,,,,SPECI,1570.0
K7W4 291535Z AUTO 23006KT 10SM CLR 28/22 A3014 RMK AO1 T02800224,K7W4,2017-04-29T15:35:00Z,37.97,-77.75,28.0,22.4,230,6,,10.0,30.138779,,,TRUE,TRUE,,,,,,,CLR,,,,,,,,VFR,,,,,,,,,,,,SPECI,106.0
K6S2 291535Z AUTO 11003KT 10SM CLR 08/06 A3030 RMK AO2,K6S2,2017-04-29T15:35:00Z,43.98,-124.12,8.0,6.0,110,3,,10.0,30.301182,,,TRUE,TRUE,,,,,,,CLR,,,,,,,,VFR,,,,,,,,,,,,METAR,16.0
K6A2 291535Z AUTO 16004KT 10SM CLR 28/22 A3017 RMK AO2,K6A2,2017-04-29T15:35:00Z,33.23,-84.27,28.0,22.0,160,4,,10.0,30.171259,,,TRUE,TRUE,,,,,,,CLR,,,,,,,,VFR,,,,,,,,,,,,SPECI,292.0
K66R 291535Z AUTO 17014G24KT 7SM BKN020 OVC026 28/24 A2965 RMK AO2 T02750236,K66R,2017-04-29T15:35:00Z,29.65,-96.52,27.5,23.6,170,14,24,7.0,29.648623,,,TRUE,TRUE,,,,,,,BKN,2000,OVC,2600,,,,,MVFR,,,,,,,,,,,,SPECI,74.0
K5R8 291535Z AUTO 13015G25KT 10SM TS OVC019 26/22 A2977 RMK AO2 LTG DSNT SW THRU N T02570224,K5R8,2017-04-29T15:35:00Z,30.43,-93.47,25.7,22.4,130,15,25,10.0,29.769686,,,TRUE,TRUE,,,,,,TS,OVC,1900,,,,,,,MVFR,,,,,,,,,,,,SPECI,24.0
K5M9 291535Z AUTO 06008KT 10SM SCT017 SCT028 BKN046 21/19 A3001 RMK AO2 T02140189,K5M9,2017-04-29T15:35:00Z,37.33,-88.12,21.4,18.9,60,8,,10.0,30.008858,,,TRUE,TRUE,,,,,,,SCT,1700,SCT,2800,BKN,4600,,,VFR,,,,,,,,,,,,SPECI,199.0
K4V0 291535Z AUTO 03014G23KT 10SM SCT041 BKN050 OVC080 04/M06 A3011 RMK AO2 T00351059,K4V0,2017-04-29T15:35:00Z,40.1,-108.77,3.5,-5.9,30,14,23,10.0,30.109253,,,TRUE,TRUE,,,,,,,SCT,4100,BKN,5000,OVC,8000,,,VFR,,,,,,,,,,,,METAR,1608.0
K4O4 291535Z AUTO 16013G21KT 5SM SCT006 SCT010 BKN025 23/20 A2964 RMK AO2,K4O4,2017-04-29T15:35:00Z,33.92,-94.87,23.0,20.0,160,13,21,5.0,29.639763,,,TRUE,TRUE,,,,,,,SCT,600,SCT,1000,BKN,2500,,,MVFR,,,,,,,,,,,,METAR,144.0
K40J 291535Z AUTO 15007KT 10SM SCT024 BKN031 28/22 A3016 RMK AO2 T02830217,K40J,2017-04-29T15:35:00Z,30.07,-83.57,28.3,21.7,150,7,,10.0,30.159449,,,TRUE,TRUE,,,,,,,SCT,2400,BKN,3100,,,,,VFR,,,,,,,,,,,,METAR,13.0
K3R7 291535Z AUTO 15014G23KT 120V180 10SM BKN021 OVC026 28/23 A2982 RMK AO2 LTG DSNT W T02750228,K3R7,2017-04-29T15:35:00Z,30.25,-92.67,27.5,22.8,150,14,23,10.0,29.819881,,,TRUE,TRUE,,,,,,,BKN,2100,OVC,2600,,,,,MVFR,,,,,,,,,,,,SPECI,7.0
K3LF 291535Z AUTO 04010KT 2 1/2SM RA OVC003 11/11 A2998 RMK AO2 LTG DSNT ALQS T01140112,K3LF,2017-04-29T15:35:00Z,39.17,-89.67,11.4,11.2,40,10,,2.5,29.97933,,,TRUE,TRUE,,,,,,RA,OVC,300,,,,,,,LIFR,,,,,,,,,,,,SPECI,210.0
K3J7 291535Z AUTO 17005KT 10SM CLR 27/22 A3015 RMK AO2,K3J7,2017-04-29T15:35:00Z,33.6,-83.13,27.0,22.0,170,5,,10.0,30.15059,,,TRUE,TRUE,,,,,,,CLR,,,,,,,,VFR,,,,,,,,,,,,SPECI,206.0
K3I2 291535Z AUTO 00000KT 10SM CLR 21/20 A3013 RMK AO2 T02100197,K3I2,2017-04-29T15:35:00Z,38.92,-82.1,21.0,19.7,0,0,,10.0,30.129921,,,TRUE,TRUE,,,,,,,CLR,,,,,,,,VFR,,,,,,,,,,,,SPECI,196.0
K2P2 291535Z AUTO 03009G14KT 10SM SCT025 SCT110 04/M02 A3029 RMK AO2 T00431019,K2P2,2017-04-29T15:35:00Z,45.38,-86.92,4.3,-1.9,30,9,14,10.0,30.28937,,,TRUE,TRUE,,,,,,,SCT,2500,SCT,11000,,,,,VFR,,,,,,,,,,,,SPECI,199.0
K2F5 291535Z AUTO 01022G28KT 10SM BKN014 OVC020 09/06 A2980 RMK AO2,K2F5,2017-04-29T15:35:00Z,32.75,-101.92,9.0,6.0,10,22,28,10.0,29.799213,,,TRUE,TRUE,,,,,,,BKN,1400,OVC,2000,,,,,MVFR,,,,,,,,,,,,METAR,912.0
K22N 291535Z AUTO 24004KT 10SM CLR 22/16 A3001 RMK AO2,K22N,2017-04-29T15:35:00Z,40.8,-75.77,22.0,16.0,240,4,,10.0,30.008858,,,TRUE,TRUE,,,,,,,CLR,,,,,,,,VFR,,,,,,,,,,,,SPECI,163.0
K1K1 291535Z AUTO 04007G18KT 350V070 10SM RA OVC008 06/06 A2981 RMK AO2 T00630057,K1K1,2017-04-29T15:35:00Z,37.77,-97.12,6.3,5.7,40,7,18,10.0,29.811024,,,TRUE,TRUE,,,,,,RA,OVC,800,,,,,,,IFR,,,,,,,,,,,,SPECI,416.0
K1A9 291535Z AUTO 14011G17KT 10SM OVC023 27/22 A3008 RMK AO2 T02670219,K1A9,2017-04-29T15:35:00Z,32.43,-86.52,26.7,21.9,140,11,17,10.0,30.079725,,,TRUE,TRUE,,,,,,,OVC,2300,,,,,,,MVFR,,,,,,,,,,,,SPECI,69.0
K19S 291535Z AUTO 01020G25KT 7SM -RA BR OVC005 01/01 A2992 RMK AO2 P0001 T00120008,K19S,2017-04-29T15:35:00Z,37.48,-100.83,1.2,0.8,10,20,25,7.0,29.920275,,,TRUE,TRUE,,,,,,-RA BR,OVC,500,,,,,,,IFR,,,,,,0.01,,,,,,SPECI,886.0
K18A 291535Z AUTO 18003KT 10SM SCT018 BKN042 28/21 A3019 RMK AO2 T02760211,K18A,2017-04-29T15:35:00Z,34.35,-83.13,27.6,21.1,180,3,,10.0,30.188976,,,TRUE,TRUE,,,,,,,SCT,1800,BKN,4200,,,,,VFR,,,,,,,,,,,,SPECI,271.0
K0R4 291535Z AUTO 15018G21KT 10SM SCT032 BKN043 29/22 A2985 RMK AO2 T02860219,K0R4,2017-04-29T15:35:00Z,31.57,-91.5,28.6,21.9,150,18,21,10.0,29.84941,,,TRUE,TRUE,,,,,,,SCT,3200,BKN,4300,,,,,VFR,,,,,,,,,,,,SPECI,17.0
K0E0 291535Z AUTO 03015KT 1/4SM SN OVC006 00/00 A2994 RMK AO2 T00001005,K0E0,2017-04-29T15:35:00Z,34.98,-106.0,0.0,-0.5,30,15,,0.25,29.940945,,,TRUE,TRUE,,,,,,SN,OVC,600,,,,,,,LIFR,,,,,,,,,,,,SPECI,1890.0
KTBX 291535Z AUTO 00000KT M03/M05 A3031 RMK AO2 PWINO,KTBX,2017-04-29T15:35:00Z,43.47,-108.23,-3.0,-5.0,0,0,,,30.31004,,,TRUE,TRUE,,,,,TRUE,,,,,,,,,,,,,,,,,,,,,,SPECI,2225.0
KSZT 291535Z AUTO 00000KT 10SM CLR 08/04 A3025 RMK AO2,KSZT,2017-04-29T15:35:00Z,48.3,-116.57,8.0,4.0,0,0,,10.0,30.250984,,,TRUE,TRUE,,,,,,,CLR,,,,,,,,VFR,,,,,,,,,,,,SPECI,648.0
KSYF 291535Z AUTO 02019G25KT 3SM -SN BKN007 OVC013 01/00 A3011 RMK AO2 T00050000,KSYF,2017-04-29T15:35:00Z,39.77,-101.8,0.5,0.0,20,19,25,3.0,30.109253,,,TRUE,TRUE,,,,,,-SN,BKN,700,OVC,1300,,,,,IFR,,,,,,,,,,,,SPECI,1025.0
KSNK 291535Z AUTO 34016G22KT 10SM OVC015 A2977 RMK AO2,KSNK,2017-04-29T15:35:00Z,32.7,-100.95,,,340,16,22,10.0,29.769686,,,TRUE,TRUE,,,,,,,OVC,1500,,,,,,,MVFR,,,,,,,,,,,,SPECI,741.0
KSLO 291535Z AUTO 11004KT 10SM OVC006 18/17 A2997 RMK AO2 LTG DSNT W AND NW T01810171,KSLO,2017-04-29T15:35:00Z,38.65,-88.97,18.1,17.1,110,4,,10.0,29.970472,,,TRUE,TRUE,,,,,,,OVC,600,,,,,,,IFR,,,,,,,,,,,,SPECI,175.0
KSJX 291535Z AUTO 33008G14KT 300V010 10SM CLR 06/M02 A3028 RMK AO2 T00641019,KSJX,2017-04-29T15:35:00Z,45.7,-85.57,6.4,-1.9,330,8,14,10.0,30.280512,,,TRUE,TRUE,,,,,,,CLR,,,,,,,,VFR,,,,,,,,,,,,SPECI,204.0
KSHD 291535Z AUTO 19004KT 10SM CLR 27/18 A3017 RMK AO2 T02660175,KSHD,2017-04-29T15:35:00Z,38.27,-78.9,26.6,17.5,190,4,,10.0,30.171259,,,TRUE,TRUE,,,,,,,CLR,,,,,,,,VFR,,,,,,,,,,,,SPECI,366.0
KSEP 291535Z AUTO 19014G23KT 5SM BKN030 OVC037 26/19 A2961 RMK AO2 T02560188,KSEP,2017-04-29T15:35:00Z,32.22,-98.17,25.6,18.8,190,14,23,5.0,29.610237,,,TRUE,TRUE,,,,,,,BKN,3000,OVC,3700,,,,,MVFR,,,,,,,,,,,,METAR,402.0
KSCD 291535Z AUTO 16015KT 10SM SCT027 28/22 A3010 RMK AO2 T02840219,KSCD,2017-04-29T15:35:00Z,33.17,-86.3,28.4,21.9,160,15,,10.0,30.100393,,,TRUE,TRUE,,,,,,,SCT,2700,,,,,,,VFR,,,,,,,,,,,,SPECI,173.0
KRYW 291535Z AUTO 18014G21KT 7SM BKN024 OVC031 27/21 A2963 RMK AO2 T02670208,KRYW,2017-04-29T15:35:00Z,30.5,-97.97,26.7,20.8,180,14,21,7.0,29.630905,,,TRUE,TRUE,,,,,,,BKN,2400,OVC,3100,,,,,MVFR,,,,,,,,,,,,SPECI,376.0
KRSV 291535Z AUTO 00000KT 10SM OVC004 17/17 A3004 RMK AO2 LTG DSNT NW T01730171,KRSV,2017-04-29T15:35:00Z,39.02,-87.65,17.3,17.1,0,0,,10.0,30.041338,,,TRUE,TRUE,,,,,,,OVC,400,,,,,,,LIFR,,,,,,,,,,,,SPECI,141.0
KRSN 291535Z AUTO 17012KT 10SM OVC024 26/21 A2982 RMK AO2 T02600213,KRSN,2017-04-29T15:35:00Z,32.52,-92.58,26.0,21.3,170,12,,10.0,29.819881,,,TRUE,TRUE,,,,,,,OVC,2400,,,,,,,MVFR,,,,,,,,,,,,SPECI,95.0
KRRL 291535Z AUTO 06008KT 10SM CLR 06/M04 A3028 RMK AO2 T00601036,KRRL,2017-04-29T15:35:00Z,45.2,-89.72,6.0,-3.6,60,8,,10.0,30.280512,,,TRUE,TRUE,,,,,,,CLR,,,,,,,,VFR,,,,,,,,,,,,SPECI,401.0
KRPJ 291535Z AUTO 04021G29KT 10SM CLR 07/02 A3010 RMK AO2 T00720022,KRPJ,2017-04-29T15:35:00Z,41.88,-89.08,7.2,2.2,40,21,29,10.0,30.100393,,,TRUE,TRUE,,,,,,,CLR,,,,,,,,VFR,,,,,,,,,,,,SPECI,238.0
KRPD 291535Z AUTO 36009G15KT 10SM CLR 07/M05 A3033 RMK AO2 T00691046,KRPD,2017-04-29T15:35:00Z,45.42,-91.77,6.9,-4.6,360,9,15,10.0,30.33071,,,TRUE,TRUE,,,,,,,CLR,,,,,,,,VFR,,,,,,,,,,,,SPECI,338.0
KRNC 291535Z AUTO 19008KT 160V230 10SM CLR 30/19 A3005 RMK,KRNC,2017-04-29T15:35:00Z,35.7,-85.85,30.0,19.0,190,8,,10.0,30.050198,,,TRUE,,,,,,,,CLR,,,,,,,,VFR,,,,,,,,,,,,METAR,315.0
KRGK 291535Z AUTO 08011G15KT 042V102 10SM CLR 09/M07 A3026 RMK AO2,KRGK,2017-04-29T15:35:00Z,44.58,-92.48,9.0,-7.0,80,11,15,10.0,30.259842,,,TRUE,TRUE,,,,,,,CLR,,,,,,,,VFR,,,,,,,,,,,,SPECI,239.0
KRGA 291535Z AUTO 26007KT 10SM SCT037 SCT045 SCT060 26/19 A3011 RMK AO2,KRGA,2017-04-29T15:35:00Z,37.63,-84.33,26.0,19.0,260,7,,10.0,30.109253,,,TRUE,TRUE,,,,,,,SCT,3700,SCT,4500,SCT,6000,,,VFR,,,,,,,,,,,,METAR,305.0
KRCX 291535Z AUTO 01010G15KT 10SM CLR 07/M04 A3031 RMK AO2 T00701040,KRCX,2017-04-29T15:35:00Z,45.5,-91.0,7.0,-4.0,10,10,15,10.0,30.31004,,,TRUE,TRUE,,,,,,,CLR,,,,,,,,VFR,,,,,,,,,,,,SPECI,377.0
KRBW 291535Z AUTO 20011KT 10SM BKN029 28/20 A3022 RMK AO2,KRBW,2017-04-29T15:35:00Z,32.92,-80.63,28.0,20.0,200,11,,10.0,30.221457,,,TRUE,TRUE,,,,,,,BKN,2900,,,,,,,MVFR,,,,,,,,,,,,SPECI,31.0
KPYX 291535Z AUTO 34015KT 7SM OVC006 03/03 A2985 RMK AO2 T00330027,KPYX,2017-04-29T15:35:00Z,36.42,-100.75,3.3,2.7,340,15,,7.0,29.84941,,,TRUE,TRUE,,,,,,,OVC,600,,,,,,,IFR,,,,,,,,,,,,SPECI,889.0
KPVJ 291535Z AUTO 36007KT 10SM VCTS OVC007 14/14 A2961 RMK AO2 LTG DSNT NE SE AND NW T01430143,KPVJ,2017-04-29T15:35:00Z,34.72,-97.22,14.3,14.3,360,7,,10.0,29.610237,,,TRUE,TRUE,,,,,,VCTS,OVC,700,,,,,,,IFR,,,,,,,,,,,,SPECI,295.0
KPSN 291535Z AUTO 14013G20KT 5SM HZ BKN024 OVC033 26/23 A2965 RMK AO2 T02680231,KPSN,2017-04-29T15:35:00Z,31.78,-95.7,26.8,23.1,140,13,20,5.0,29.648623,,,TRUE,TRUE,,,,,,HZ,BKN,2400,OVC,3300,,,,,MVFR,,,,,,,,,,,,METAR,129.0
KPRS 291535Z AUTO 30015G21KT 10SM CLR 22/06 A2975 RMK AO2 T02200061,KPRS,2017-04-29T15:35:00Z,29.63,-104.35,22.0,6.1,300,15,21,10.0,29.749016,,,TRUE,TRUE,,,,,,,CLR,,,,,,,,VFR,,,,,,,,,,,,SPECI,896.0
KPPQ 291535Z AUTO 06011G16KT 2 1/2SM TSRA OVC006 10/09 A3002 RMK AO2 LTG DSNT ALQS P0016 T00970093,KPPQ,2017-04-29T15:35:00Z,39.63,-90.78,9.7,9.3,60,11,16,2.5,30.02067,,,TRUE,TRUE,,,,,,TSRA,OVC,600,,,,,,,IFR,,,,,,0.16,,,,,,SPECI,216.0
KPKV 291535Z AUTO 16023G30KT 7SM SCT018 29/26 A2964 RMK AO2 T02920256,KPKV,2017-04-29T15:35:00Z,28.65,-96.68,29.2,25.6,160,23,30,7.0,29.639763,,,TRUE,TRUE,,,,,,,SCT,1800,,,,,,,VFR,,,,,,,,,,,,SPECI,9.0
KPEZ 291535Z AUTO 15015G21KT 7SM BKN025 BKN030 29/21 A2958 RMK AO2 T02860208,KPEZ,2017-04-29T15:35:00Z,28.95,-98.52,28.6,20.8,150,15,21,7.0,29.58071,,,TRUE,TRUE,,,,,,,BKN,2500,BKN,3000,,,,,MVFR,,,,,,,,,,,,SPECI,132.0
KPCZ 291535Z AUTO 01008KT 340V060 10SM CLR 08/M03 A3029 RMK AO2 T00751035,KPCZ,2017-04-29T15:35:00Z,44.33,-89.02,7.5,-3.5,10,8,,10.0,30.28937,,,TRUE,TRUE,,,,,,,CLR,,,,,,,,VFR,,,,,,,,,,,,SPECI,252.0
KPCM 291535Z AUTO 16010G17KT 10SM BKN035 BKN042 30/21 A3016 RMK AO2,KPCM,2017-04-29T15:35:00Z,28.0,-82.17,30.0,21.0,160,10,17,10.0,30.159449,,,TRUE,TRUE,,,,,,,BKN,3500,BKN,4200,,,,,VFR,,,,,,,,,,,,SPECI,47.0
KPBH 291535Z AUTO 02007KT 10SM CLR 05/M05 A3030 RMK AO2 T00521047,KPBH,2017-04-29T15:35:00Z,45.7,-90.4,5.2,-4.7,20,7,,10.0,30.301182,,,TRUE,TRUE,,,,,,,CLR,,,,,,,,VFR,,,,,,,,,,,,SPECI,449.0
KL18 291535Z AUTO 01009G16KT 340V040 10SM CLR 20/M08 A2998 RMK AO2,KL18,2017-04-29T15:35:00Z,33.35,-117.25,20.0,-8.0,10,9,16,10.0,29.97933,,,TRUE,TRUE,,,,,,,CLR,,,,,,,,VFR,,,,,,,,,,,,SPECI,216.0
KK88 291535Z AUTO 04022G31KT 3SM SCT007 BKN012 OVC029 09/09 A2975 RMK AO1 P0017 T00870087,KK88,2017-04-29T15:35:00Z,37.87,-95.38,8.7,8.7,40,22,31,3.0,29.749016,,,TRUE,TRUE,,,,,,,SCT,700,BKN,1200,OVC,2900,,,MVFR,,,,,,0.17,,,,,,SPECI,309.0
KJYR 291535Z AUTO 04020G26KT 10SM CLR 05/03 A3005 RMK AO2,KJYR,2017-04-29T15:35:00Z,40.9,-97.62,5.0,3.0,40,20,26,10.0,30.050198,,,TRUE,TRUE,,,,,,,CLR,,,,,,,,VFR,,,,,,,,,,,,SPECI,509.0
KJYG 291535Z AUTO 05011KT 10SM CLR 07/M02 A3027 RMK AO2,KJYG,2017-04-29T15:35:00Z,43.98,-94.55,7.0,-2.0,50,11,,10.0,30.268702,,,TRUE,TRUE,,,,,,,CLR,,,,,,,,VFR,,,,,,,,,,,,SPECI,325.0
KJWY 291535Z AUTO 17020G30KT 7SM BKN028 BKN033 OVC042 27/22 A2959 RMK AO2 T02680217,KJWY,2017-04-29T15:35:00Z,32.45,-96.92,26.8,21.7,170,20,30,7.0,29.589567,,,TRUE,TRUE,,,,,,,BKN,2800,BKN,3300,OVC,4200,,,MVFR,,,,,,,,,,,,SPECI,217.0
KJWG 291535Z AUTO 36014KT VCTS OVC006 08/08 A2968 RMK AO2 LTG DSNT ALQS P0004 T00790079,KJWG,2017-04-29T15:35:00Z,35.87,-98.42,7.9,7.9,360,14,,,29.681103,,,TRUE,TRUE,,,,,,VCTS,OVC,600,,,,,,,,,,,,,0.04,,,,,,SPECI,472.0
KIZA 291535Z AUTO 00000KT 10SM CLR 12/02 A3006 RMK AO2,KIZA,2017-04-29T15:35:00Z,34.6,-120.07,12.0,2.0,0,0,,10.0,30.059055,,,TRUE,TRUE,,,,,,,CLR,,,,,,,,VFR,,,,,,,,,,,,METAR,205.0
KIRS 291535Z AUTO 08009KT 10SM OVC050 11/06 A3015 RMK AO2 T01060055,KIRS,2017-04-29T15:35:00Z,41.8,-85.43,10.6,5.5,80,9,,10.0,30.15059,,,TRUE,TRUE,,,,,,,OVC,5000,,,,,,,VFR,,,,,,,,,,,,SPECI,282.0
KIOB 291535Z AUTO 25013G19KT 170V280 10SM CLR 26/19 A3012 RMK AO2,KIOB,2017-04-29T15:35:00Z,38.05,-83.98,26.0,19.0,250,13,19,10.0,30.121063,,,TRUE,TRUE,,,,,,,CLR,,,,,,,,VFR,,,,,,,,,,,,SPECI,311.0
KINJ 291535Z AUTO 17025G29KT 7SM BKN027 OVC035 27/22 A2958 RMK AO2 T02730221,KINJ,2017-04-29T15:35:00Z,32.08,-97.1,27.3,22.1,170,25,29,7.0,29.58071,,,TRUE,TRUE,,,,,,,BKN,2700,OVC,3500,,,,,MVFR,,,,,,,,,,,,SPECI,209.0
KINF 291535Z AUTO 13008KT 10SM BKN033 BKN040 30/21 A3016 RMK AO2,KINF,2017-04-29T15:35:00Z,28.8,-82.32,30.0,21.0,130,8,,10.0,30.159449,,,TRUE,TRUE,,,,,,,BKN,3300,BKN,4000,,,,,VFR,,,,,,,,,,,,SPECI,15.0
KIGQ 291535Z AUTO 03015G24KT 10SM SCT028 BKN060 07/04 A3016 RMK AO2 T00700041,KIGQ,2017-04-29T15:35:00Z,41.53,-87.53,7.0,4.1,30,15,24,10.0,30.159449,,,TRUE,TRUE,,,,,,,SCT,2800,BKN,6000,,,,,VFR,,,,,,,,,,,,SPECI,188.0
KIER 291535Z AUTO 16014G23KT 7SM OVC023 26/23 A2977 RMK AO2 LTG DSNT SW AND W T02570226,KIER,2017-04-29T15:35:00Z,31.73,-93.1,25.7,22.6,160,14,23,7.0,29.769686,,,TRUE,TRUE,,,,,,,OVC,2300,,,,,,,MVFR,,,,,,,,,,,,SPECI,37.0
KI75 291535Z AUTO 04015G20KT 10SM -RA OVC018 07/05 A3005 RMK AO2 T00680051,KI75,2017-04-29T15:35:00Z,41.05,-93.68,6.8,5.1,40,15,20,10.0,30.050198,,,TRUE,TRUE,,,,,,-RA,OVC,1800,,,,,,,MVFR,,,,,,,,,,,,SPECI,339.0
KHZL 291535Z AUTO 30007KT 10SM CLR 18/15 A3009 RMK AO2 PNO,KHZL,2017-04-29T15:35:00Z,40.98,-76.0,18.0,15.0,300,7,,10.0,30.088583,,,TRUE,TRUE,,,,,,,CLR,,,,,,,,VFR,,,,,,,,,,,,SPECI,489.0
KHYW 291535Z AUTO 17008KT 7SM CLR 28/21 A3022 RMK AO2,KHYW,2017-04-29T15:35:00Z,33.83,-79.12,28.0,21.0,170,8,,7.0,30.221457,,,TRUE,TRUE,,,,,,,CLR,,,,,,,,VFR,,,,,,,,,,,,SPECI,11.0
KHVS 291535Z AUTO 19008KT 10SM CLR 27/20 A3021 RMK AO2,KHVS,2017-04-29T15:35:00Z,34.4,-80.12,27.0,20.0,190,8,,10.0,30.209646,,,TRUE,TRUE,,,,,,,CLR,,,,,,,,VFR,,,,,,,,,,,,SPECI,111.0
KHVE 291535Z AUTO 01015G21KT 10SM BKN080 10/M07 A3005 RMK AO2,KHVE,2017-04-29T15:35:00Z,38.42,-110.7,10.0,-7.0,10,15,21,10.0,30.050198,,,TRUE,TRUE,,,,,,,BKN,8000,,,,,,,VFR,,,,,,,,,,,,SPECI,1350.0
KHSP 291535Z AUTO 27005KT 10SM SCT025 22/11 A3029 RMK AO2,KHSP,2017-04-29T15:35:00Z,37.95,-79.82,22.0,11.0,270,5,,10.0,30.28937,,,TRUE,TRUE,,,,,,,SCT,2500,,,,,,,VFR,,,,,,,,,,,,SPECI,1156.0
KHSB 291535Z AUTO 12009KT 10SM -RA OVC043 19/18 A2999 RMK AO2 T01940183,KHSB,2017-04-29T15:35:00Z,37.82,-88.55,19.4,18.3,120,9,,10.0,29.991142,,,TRUE,TRUE,,,,,,-RA,OVC,4300,,,,,,,VFR,,,,,,,,,,,,SPECI,121.0
KHRX 291535Z AUTO 01018G27KT 5SM -SN OVC006 02/02 A2992 RMK AO2 T00200015,KHRX,2017-04-29T15:35:00Z,34.87,-102.33,2.0,1.5,10,18,27,5.0,29.920275,,,TRUE,TRUE,,,,,,-SN,OVC,600,,,,,,,IFR,,,,,,,,,,,,SPECI,1154.0
KHOE 291535Z AUTO 16007KT 10SM SCT031 SCT038 29/22 A3019 RMK AO2,KHOE,2017-04-29T15:35:00Z,31.05,-82.78,29.0,22.0,160,7,,10.0,30.188976,,,TRUE,TRUE,,,,,,,SCT,3100,SCT,3800,,,,,VFR,,,,,,,,,,,,SPECI,57.0
KHHF 291535Z AUTO 36011G19KT 4SM +RA BKN011 OVC016 05/05 A2981 RMK AO2 LTG DSNT NE AND E P0002 T00530047,KHHF,2017-04-29T15:35:00Z,35.9,-100.4,5.3,4.7,360,11,19,4.0,29.811024,,,TRUE,TRUE,,,,,,+RA,BKN,1100,OVC,1600,,,,,MVFR,,,,,,0.02,,,,,,SPECI,712.0
KHFY 291535Z AUTO 32006KT 7SM OVC003 16/16 A3007 RMK AO2 T01620159,KHFY,2017-04-29T15:35:00Z,39.63,-86.08,16.2,15.9,320,6,,7.0,30.070866,,,TRUE,TRUE,,,,,,,OVC,300,,,,,,,LIFR,,,,,,,,,,,,SPECI,251.0
KHDC 291535Z AUTO 16013G21KT 10SM OVC016 27/22 A2993 RMK AO2,KHDC,2017-04-29T15:35:00Z,30.52,-90.42,27.0,22.0,160,13,21,10.0,29.929134,,,TRUE,TRUE,,,,,,,OVC,1600,,,,,,,MVFR,,,,,,,,,,,,SPECI,13.0
KHBE 291535Z AUTO 16009KT 10SM BKN004 BKN120 18/17 A3007 RMK AO2 PWINO,KHBE,2017-04-29T15:35:00Z,39.33,-86.03,18.0,17.0,160,9,,10.0,30.070866,,,TRUE,TRUE,,,,,TRUE,,BKN,400,BKN,12000,,,,,LIFR,,,,,,,,,,,,METAR,215.0
KHAI 291535Z AUTO 08010KT 10SM BKN020 OVC060 11/06 A3015 RMK AO2 T01100063,KHAI,2017-04-29T15:35:00Z,41.97,-85.6,11.0,6.3,80,10,,10.0,30.15059,,,TRUE,TRUE,,,,,,,BKN,2000,OVC,6000,,,,,MVFR,,,,,,,,,,,,SPECI,251.0
KHAF 291535Z AUTO 32009KT 7SM CLR 14/08 A3011 RMK AO2,KHAF,2017-04-29T15:35:00Z,37.52,-122.5,14.0,8.0,320,9,,7.0,30.109253,,,TRUE,TRUE,,,,,,,CLR,,,,,,,,VFR,,,,,,,,,,,,SPECI,21.0
KHAE 291535Z AUTO 06008G19KT 3SM VCTSRA BKN007 OVC011 10/08 A2998 RMK AO2 P0012 LTG DSNT E THRU SW,KHAE,2017-04-29T15:35:00Z,39.73,-91.45,10.0,8.0,60,8,19,3.0,29.97933,,,TRUE,TRUE,,,,,,VCTSRA,BKN,700,OVC,1100,,,,,IFR,,,,,,0.12,,,,,,SPECI,234.0
KGYB 291535Z AUTO 17010G22KT 130V190 5SM HZ BKN020 BKN030 OVC044 28/23 A2962 RMK AO2 T02750225,KGYB,2017-04-29T15:35:00Z,30.17,-96.98,27.5,22.5,170,10,22,5.0,29.619095,,,TRUE,TRUE,,,,,,HZ,BKN,2000,BKN,3000,OVC,4400,,,MVFR,,,,,,,,,,,,SPECI,148.0
KDLO 291535Z AUTO 25003KT 10SM CLR 15/00 A3010 RMK AO2 T01451004,KDLO,2017-04-29T15:35:00Z,35.75,-119.23,14.5,-0.4,250,3,,10.0,30.100393,,,TRUE,TRUE,,,,,,,CLR,,,,,,,,VFR,,,,,,,,,,,,METAR,96.0
KDKB 291535Z AUTO 04020G25KT 10SM CLR 08/02 A3012 RMK AO2 T00750016,KDKB,2017-04-29T15:35:00Z,41.93,-88.7,7.5,1.6,40,20,25,10.0,30.121063,,,TRUE,TRUE,,,,,,,CLR,,,,,,,,VFR,,,,,,,,,,,,SPECI,279.0
KDED 291535Z AUTO 13011G16KT 10SM BKN037 BKN047 29/20 A3018 RMK AO2,KDED,2017-04-29T15:35:00Z,29.07,-81.28,29.0,20.0,130,11,16,10.0,30.180119,,,TRUE,TRUE,,,,,,,BKN,3700,BKN,4700,,,,,VFR,,,,,,,,,,,,SPECI,24.0
KDCY 291535Z AUTO 13010KT 10SM BKN090 20/18 A3003 RMK AO2 T01990181,KDCY,2017-04-29T15:35:00Z,38.7,-87.13,19.9,18.1,130,10,,10.0,30.029528,,,TRUE,TRUE,,,,,,,BKN,9000,,,,,,,VFR,,,,,,,,,,,,SPECI,144.0
KDCM 291535Z AUTO 00000KT 7SM BKN019 BKN024 26/20 A3021 RMK AO2,KDCM,2017-04-29T15:35:00Z,34.78,-81.2,26.0,20.0,0,0,,7.0,30.209646,,,TRUE,TRUE,,,,,,,BKN,1900,BKN,2400,,,,,MVFR,,,,,,,,,,,,SPECI,200.0
KD25 291535Z AUTO 05009G14KT 10SM CLR 05/M06 A3031 RMK AO2 T00481061,KD25,2017-04-29T15:35:00Z,46.12,-89.88,4.8,-6.1,50,9,14,10.0,30.31004,,,TRUE,TRUE,,,,,,,CLR,,,,,,,,VFR,,,,,,,,,,,,SPECI,491.0
KOJC 291534Z 03012KT 3SM RA BR BKN007 BKN011 OVC027 08/08 A2988 RMK AO2 P0022 T00780078,KOJC,2017-04-29T15:34:00Z,38.85,-94.73,7.8,7.8,30,12,,3.0,29.878937,,,,TRUE,,,,,,RA BR,BKN,700,BKN,1100,OVC,2700,,,IFR,,,,,,0.22,,,,,,METAR,326.0
KY70 291534Z AUTO 05014G18KT 10SM CLR 10/02 A3016 RMK AO2 T00980022,KY70,2017-04-29T15:34:00Z,42.93,-85.07,9.8,2.2,50,14,18,10.0,30.159449,,,TRUE,TRUE,,,,,,,CLR,,,,,,,,VFR,,,,,,,,,,,,METAR,250.0
KSYN 291534Z AUTO 04012G16KT 10SM CLR 08/M02 A3026 RMK AO2 T00781016,KSYN,2017-04-29T15:34:00Z,44.47,-93.02,7.8,-1.6,40,12,16,10.0,30.259842,,,TRUE,TRUE,,,,,,,CLR,,,,,,,,VFR,,,,,,,,,,,,METAR,280.0
KSGS 291534Z AUTO 08010KT 10SM CLR 08/M05 A3030 RMK AO2 T00791050,KSGS,2017-04-29T15:34:00Z,44.87,-93.03,7.9,-5.0,80,10,,10.0,30.301182,,,TRUE,TRUE,,,,,,,CLR,,,,,,,,VFR,,,,,,,,,,,,METAR,250.0
KRRT 291534Z AUTO 00000KT 10SM CLR 08/00 A3035 RMK AO2,KRRT,2017-04-29T15:34:00Z,48.93,-95.33,8.0,0.0,0,0,,10.0,30.351377,,,TRUE,TRUE,,,,,,,CLR,,,,,,,,VFR,,,,,,,,,,,,METAR,327.0
KROX 291534Z AUTO 15004KT 10SM CLR 08/M01 A3035 RMK AO2,KROX,2017-04-29T15:34:00Z,48.85,-95.7,8.0,-1.0,150,4,,10.0,30.351377,,,TRUE,TRUE,,,,,,,CLR,,,,,,,,VFR,,,,,,,,,,,,METAR,323.0
KROS 291534Z AUTO 08003KT 10SM CLR 08/M03 A3033 RMK AO2 T00811033,KROS,2017-04-29T15:34:00Z,45.7,-92.95,8.1,-3.3,80,3,,10.0,30.33071,,,TRUE,TRUE,,,,,,,CLR,,,,,,,,VFR,,,,,,,,,,,,METAR,281.0
KRMY 291534Z AUTO 03005KT 10SM OVC021 10/05 A3015 RMK AO2 T01030049,KRMY,2017-04-29T15:34:00Z,42.23,-84.95,10.3,4.9,30,5,,10.0,30.15059,,,TRUE,TRUE,,,,,,,OVC,2100,,,,,,,MVFR,,,,,,,,,,,,METAR,287.0
KLIC 291534Z AUTO 01017KT 1 1/2SM -SN BR FEW016 BKN026 OVC035 M02/M02 A3012 RMK AO2 P0000 T10171022,KLIC,2017-04-29T15:34:00Z,39.27,-103.67,-1.7,-2.2,10,17,,1.5,30.121063,,,TRUE,TRUE,,,,,,-SN BR,FEW,1600,BKN,2600,OVC,3500,,,IFR,,,,,,0.005,,,,,,METAR,1630.0
KJKJ 291534Z AUTO 18007KT 10SM CLR 09/M04 A3036 RMK AO2,KJKJ,2017-04-29T15:34:00Z,46.83,-96.67,9.0,-4.0,180,7,,10.0,30.360237,,,TRUE,TRUE,,,,,,,CLR,,,,,,,,VFR,,,,,,,,,,,,METAR,280.0
KHZX 291534Z AUTO 10005KT 10SM CLR 08/M05 A3035 RMK AO2,KHZX,2017-04-29T15:34:00Z,46.62,-93.32,8.0,-5.0,100,5,,10.0,30.351377,,,TRUE,TRUE,,,,,,,CLR,,,,,,,,VFR,,,,,,,,,,,,METAR,374.0
KHCO 291534Z AUTO 17006KT 10SM CLR 09/M08 A3034 RMK AO2,KHCO,2017-04-29T15:34:00Z,48.75,-96.93,9.0,-8.0,170,6,,10.0,30.339567,,,TRUE,TRUE,,,,,,,CLR,,,,,,,,VFR,,,,,,,,,,,,METAR,250.0
KHCD 291534Z AUTO 05012G15KT 10SM CLR 08/M02 A3032 RMK AO2 T00801022,KHCD,2017-04-29T15:34:00Z,44.87,-94.38,8.0,-2.2,50,12,15,10.0,30.318897,,,TRUE,TRUE,,,,,,,CLR,,,,,,,,VFR,,,,,,,,,,,,METAR,323.0
KFFM 291534Z AUTO 19006KT 10SM CLR 08/M03 A3034 RMK AO2,KFFM,2017-04-29T15:34:00Z,46.28,-96.15,8.0,-3.0,190,6,,10.0,30.339567,,,TRUE,TRUE,,,,,,,CLR,,,,,,,,VFR,,,,,,,,,,,,METAR,361.0
KFBL 291534Z AUTO 03010G16KT 10SM CLR 07/M03 A3027 RMK AO2,KFBL,2017-04-29T15:34:00Z,44.33,-93.32,7.0,-3.0,30,10,16,10.0,30.268702,,,TRUE,TRUE,,,,,,,CLR,,,,,,,,VFR,,,,,,,,,,,,METAR,322.0
KEWN 291534Z 24008KT 10SM SCT029 29/22 A3022 RMK AO2 T02890217,KEWN,2017-04-29T15:34:00Z,35.07,-77.05,28.9,21.7,240,8,,10.0,30.221457,,,,TRUE,,,,,,,SCT,2900,,,,,,,VFR,,,,,,,,,,,,METAR,3.0
KEVM 291534Z AUTO 05005KT 10SM CLR 07/M17 A3036 RMK AO2 T00721170,KEVM,2017-04-29T15:34:00Z,47.42,-92.5,7.2,-17.0,50,5,,10.0,30.360237,,,TRUE,TRUE,,,,,,,CLR,,,,,,,,VFR,,,,,,,,,,,,METAR,421.0
KDXX 291534Z AUTO 10008KT 10SM CLR 10/M03 A3030 RMK AO2,KDXX,2017-04-29T15:34:00Z,44.98,-96.18,10.0,-3.0,100,8,,10.0,30.301182,,,TRUE,TRUE,,,,,,,CLR,,,,,,,,VFR,,,,,,,,,,,,METAR,330.0
KDEN 291534Z 01014KT 1SM R35L/4500VP6000FT -SN BR BKN007 BKN013 OVC025 M01/M03 A3017 RMK AO2 TWR VIS 1 1/4 P0000 T10111028 $,KDEN,2017-04-29T15:34:00Z,39.85,-104.65,-1.1,-2.8,10,14,,1.0,30.171259,,,,TRUE,TRUE,,,,,-SN BR,BKN,700,BKN,1300,OVC,2500,,,IFR,,,,,,0.005,,,,,,METAR,1640.0
KCNU 291534Z AUTO 05020G34KT 4SM VCTS RA BR FEW010 BKN044 OVC110 09/08 A2963 RMK AO2 PK WND 05034/1527 WSHFT 1455 LTG DSNT NW-E TSE13 P0023 T00940083,KCNU,2017-04-29T15:34:00Z,37.67,-95.48,9.4,8.3,50,20,34,4.0,29.630905,,,TRUE,TRUE,,,,,,VCTS RA BR,FEW,1000,BKN,4400,OVC,11000,,,MVFR,,,,,,0.23,,,,,,METAR,297.0
KBJI 291534Z AUTO 15004KT 10SM CLR 09/M07 A3036 RMK AO2 T00881071,KBJI,2017-04-29T15:34:00Z,47.5,-94.92,8.8,-7.1,150,4,,10.0,30.360237,,,TRUE,TRUE,,,,,,,CLR,,,,,,,,VFR,,,,,,,,,,,,METAR,420.0
PAFR 291534Z AUTO 00000KT 10SM CLR 02/00 A3003 RMK AO1,PAFR,2017-04-29T15:34:00Z,61.27,-149.65,2.0,0.0,0,0,,10.0,30.029528,,,TRUE,TRUE,,,,,,,CLR,,,,,,,,VFR,,,,,,,,,,,,SPECI,115.0
PAMO 291534Z AUTO 13007KT SCT002 BKN014 OVC031 01/01 A2989 RMK AO2 PWINO FZRANO $,PAMO,2017-04-29T15:34:00Z,62.1,-163.68,1.0,1.0,130,7,,,29.890747,,,TRUE,TRUE,TRUE,,,TRUE,TRUE,,SCT,200,BKN,1400,OVC,3100,,,,,,,,,,,,,,,SPECI,103.0
CZCP 291534Z AUTO 08019KT ////SM //// FEW003 M18/M20 A3025,CZCP,2017-04-29T15:34:00Z,70.17,-124.72,-18.0,-20.0,80,19,,,30.250984,,,TRUE,,,,,,,,FEW,300,,,,,,,,,,,,,,,,,,,SPECI,93.0
KUCP 291534Z AUTO 29004KT 10SM OVC008 15/13 A3013 RMK AO2 TSNO,KUCP,2017-04-29T15:34:00Z,41.03,-80.42,15.0,13.0,290,4,,10.0,30.129921,,,TRUE,TRUE,,,TRUE,,,,OVC,800,,,,,,,IFR,,,,,,,,,,,,SPECI,327.0
KPQN 291534Z AUTO 08010G19KT 035V095 10SM CLR 07/M06 A3023 RMK AO2,KPQN,2017-04-29T15:34:00Z,43.97,-96.32,7.0,-6.0,80,10,19,10.0,30.230314,,,TRUE,TRUE,,,,,,,CLR,,,,,,,,VFR,,,,,,,,,,,,METAR,529.0
KPOV 291534Z AUTO 00000KT 3SM RA OVC006 13/12 A3015 RMK AO2 P0004 T01300122,KPOV,2017-04-29T15:34:00Z,41.22,-81.25,13.0,12.2,0,0,,3.0,30.15059,,,TRUE,TRUE,,,,,,RA,OVC,600,,,,,,,IFR,,,,,,0.04,,,,,,METAR,365.0
KPNM 291534Z AUTO 07007KT 10SM CLR 09/M04 A3033 RMK AO2,KPNM,2017-04-29T15:34:00Z,45.57,-93.6,9.0,-4.0,70,7,,10.0,30.33071,,,TRUE,TRUE,,,,,,,CLR,,,,,,,,VFR,,,,,,,,,,,,METAR,298.0
KOWA 291534Z AUTO 08010G15KT 10SM CLR 07/M02 A3026 RMK AO2,KOWA,2017-04-29T15:34:00Z,44.12,-93.25,7.0,-2.0,80,10,15,10.0,30.259842,,,TRUE,TRUE,,,,,,,CLR,,,,,,,,VFR,,,,,,,,,,,,METAR,350.0
KBFW 291534Z AUTO 11006KT 10SM CLR 06/M06 A3036 RMK AO2,KBFW,2017-04-29T15:34:00Z,47.25,-91.4,6.0,-6.0,110,6,,10.0,30.360237,,,TRUE,TRUE,,,,,,,CLR,,,,,,,,VFR,,,,,,,,,,,,METAR,331.0
KSHM 291534Z AUTO 36017G25KT 2SM -SN FEW010 BKN026 M03/M05 A3009 RMK AO2 VIS 2V3 SLP232,KSHM,2017-04-29T15:34:00Z,38.8,-104.52,-3.0,-5.0,360,17,25,2.0,30.088583,1023.2,,TRUE,TRUE,,,,,,-SN,FEW,1000,BKN,2600,,,,,IFR,,,,,,,,,,,,SPECI,1900.0
KQC5 291534Z AUTO 32005G16KT 1600 +TSRA FEW007 BKN014 BKN055 M M RMK AO2 LTG DSNT ALQDS RAE1457SHRAB1457E12RAB12 TSB12 CIG 014V029 $,KQC5,2017-04-29T15:34:00Z,,,,,320,5,16,0.99,,,,TRUE,TRUE,TRUE,,,,,+TSRA,FEW,700,BKN,1400,BKN,5500,,,LIFR,,,,,,,,,,,,SPECI,
KCNB 291534Z AUTO 13010G15KT 070V150 10SM CLR 09/M04 A3030 RMK AO2 T00931041,KCNB,2017-04-29T15:34:00Z,44.73,-96.27,9.3,-4.1,130,10,15,10.0,30.301182,,,TRUE,TRUE,,,,,,,CLR,,,,,,,,VFR,,,,,,,,,,,,SPECI,364.0
KCKC 291534Z AUTO 00000KT 10SM CLR 04/M10 A3035 RMK AO2 P0012,KCKC,2017-04-29T15:34:00Z,47.83,-90.37,4.0,-10.0,0,0,,10.0,30.351377,,,TRUE,TRUE,,,,,,,CLR,,,,,,,,VFR,,,,,,0.12,,,,,,SPECI,548.0
KCFS 291534Z AUTO 01006KT 10SM SCT040 08/02 A3020 RMK AO2 T00840020,KCFS,2017-04-29T15:34:00Z,43.47,-83.45,8.4,2.0,10,6,,10.0,30.200787,,,TRUE,TRUE,,,,,,,SCT,4000,,,,,,,VFR,,,,,,,,,,,,SPECI,214.0
KMGN 291534Z AUTO 02007KT 340V050 10SM CLR 06/M01 A3027 RMK AO2 T00621016,KMGN,2017-04-29T15:34:00Z,45.43,-84.92,6.2,-1.6,20,7,,10.0,30.268702,,,TRUE,TRUE,,,,,,,CLR,,,,,,,,VFR,,,,,,,,,,,,SPECI,209.0
KBDH 291534Z AUTO 08009KT 10SM CLR 08/M02 A3032 RMK AO2,KBDH,2017-04-29T15:34:00Z,45.12,-95.13,8.0,-2.0,80,9,,10.0,30.318897,,,TRUE,TRUE,,,,,,,CLR,,,,,,,,VFR,,,,,,,,,,,,SPECI,247.0
KGOV 291534Z AUTO 31006KT 10SM CLR 07/M02 A3023 RMK AO2 T00731024,KGOV,2017-04-29T15:34:00Z,44.68,-84.73,7.3,-2.4,310,6,,10.0,30.230314,,,TRUE,TRUE,,,,,,,CLR,,,,,,,,VFR,,,,,,,,,,,,SPECI,353.0
KFSE 291534Z AUTO 17005G08KT 10SM CLR 08/M06 A3035 RMK AO2,KFSE,2017-04-29T15:34:00Z,47.58,-95.77,8.0,-6.0,170,5,8,10.0,30.351377,,,TRUE,TRUE,,,,,,,CLR,,,,,,,,VFR,,,,,,,,,,,,SPECI,389.0
KFPK 291534Z AUTO 04009KT 360V060 10SM SCT023 SCT028 10/05 A3015 RMK AO2 T01000045,KFPK,2017-04-29T15:34:00Z,42.57,-84.82,10.0,4.5,40,9,,10.0,30.15059,,,TRUE,TRUE,,,,,,,SCT,2300,SCT,2800,,,,,VFR,,,,,,,,,,,,SPECI,272.0
KFFX 291534Z AUTO 05005KT 10SM CLR 09/M01 A3018 RMK AO2 T00901013,KFFX,2017-04-29T15:34:00Z,43.43,-86.0,9.0,-1.3,50,5,,10.0,30.180119,,,TRUE,TRUE,,,,,,,CLR,,,,,,,,VFR,,,,,,,,,,,,SPECI,236.0
KERY 291534Z AUTO 35010G16KT 10SM CLR 05/M03 A3027 RMK AO2 T00481030,KERY,2017-04-29T15:34:00Z,46.3,-85.45,4.8,-3.0,350,10,16,10.0,30.268702,,,TRUE,TRUE,,,,,,,CLR,,,,,,,,VFR,,,,,,,,,,,,SPECI,265.0
KDUH 291534Z AUTO 06004KT 3SM DZ SCT014 BKN020 OVC036 07/05 A3018 RMK AO2 T00650050,KDUH,2017-04-29T15:34:00Z,41.73,-83.65,6.5,5.0,60,4,,3.0,30.180119,,,TRUE,TRUE,,,,,,DZ,SCT,1400,BKN,2000,OVC,3600,,,MVFR,,,,,,,,,,,,SPECI,204.0
KDTL 291534Z AUTO 22007KT 10SM CLR 09/M05 A3035 RMK AO2,KDTL,2017-04-29T15:34:00Z,46.82,-95.87,9.0,-5.0,220,7,,10.0,30.351377,,,TRUE,TRUE,,,,,,,CLR,,,,,,,,VFR,,,,,,,,,,,,SPECI,426.0
KADC 291534Z AUTO 15003KT 10SM CLR 08/M04 A3034 RMK AO2,KADC,2017-04-29T15:34:00Z,46.45,-95.22,8.0,-4.0,150,3,,10.0,30.339567,,,TRUE,TRUE,,,,,,,CLR,,,,,,,,VFR,,,,,,,,,,,,SPECI,418.0
KSLH 291534Z AUTO 34009G17KT 10SM CLR 05/M01 A3025 RMK AO2 T00581017,KSLH,2017-04-29T15:34:00Z,45.65,-84.52,5.8,-1.7,340,9,17,10.0,30.250984,,,TRUE,TRUE,,,,,,,CLR,,,,,,,,VFR,,,,,,,,,,,,SPECI,195.0
KRQB 291534Z AUTO 02011G15KT 10SM CLR 08/M01 A3018 RMK AO2 T00801007,KRQB,2017-04-29T15:34:00Z,43.72,-85.5,8.0,-0.7,20,11,15,10.0,30.180119,,,TRUE,TRUE,,,,,,,CLR,,,,,,,,VFR,,,,,,,,,,,,SPECI,302.0
KPZQ 291534Z AUTO 34014G23KT 10SM SCT026 05/M02 A3026 RMK AO2 T00501017,KPZQ,2017-04-29T15:34:00Z,45.4,-83.82,5.0,-1.7,340,14,23,10.0,30.259842,,,TRUE,TRUE,,,,,,,SCT,2600,,,,,,,VFR,,,,,,,,,,,,METAR,204.0
KOZW 291534Z AUTO 04009KT 10SM BKN030 OVC065 09/02 A3018 RMK AO2 T00900020,KOZW,2017-04-29T15:34:00Z,42.62,-83.97,9.0,2.0,40,9,,10.0,30.180119,,,TRUE,TRUE,,,,,,,BKN,3000,OVC,6500,,,,,MVFR,,,,,,,,,,,,SPECI,293.0
KJYM 291534Z AUTO 07008KT 10SM OVC044 09/04 A3016 RMK AO2,KJYM,2017-04-29T15:34:00Z,41.92,-84.58,9.0,4.0,70,8,,10.0,30.159449,,,TRUE,TRUE,,,,,,,OVC,4400,,,,,,,VFR,,,,,,,,,,,,SPECI,360.0
KISQ 291534Z AUTO 36014G21KT 10SM CLR 07/M04 A3027 RMK AO2 T00661041,KISQ,2017-04-29T15:34:00Z,45.97,-86.17,6.6,-4.1,360,14,21,10.0,30.268702,,,TRUE,TRUE,,,,,,,CLR,,,,,,,,VFR,,,,,,,,,,,,SPECI,209.0
KOSC 291533Z AUTO 01009KT 330V030 10SM CLR 09/M02 A3021 RMK AO2 T00921019,KOSC,2017-04-29T15:33:00Z,44.45,-83.4,9.2,-1.9,10,9,,10.0,30.209646,,,TRUE,TRUE,,,,,,,CLR,,,,,,,,VFR,,,,,,,,,,,,SPECI,193.0
KORB 291533Z AUTO 20006KT 10SM CLR 08/M10 A3033 RMK AO2,KORB,2017-04-29T15:33:00Z,48.02,-92.87,8.0,-10.0,200,6,,10.0,30.33071,,,TRUE,TRUE,,,,,,,CLR,,,,,,,,VFR,,,,,,,,,,,,METAR,397.0
KONZ 291533Z AUTO 07009KT 10SM OVC046 08/02 A3019 RMK AO2 T00750024,KONZ,2017-04-29T15:33:00Z,42.1,-83.15,7.5,2.4,70,9,,10.0,30.188976,,,TRUE,TRUE,,,,,,,OVC,4600,,,,,,,VFR,,,,,,,,,,,,METAR,180.0
KMGG 291533Z AUTO 07011KT 10SM CLR 08/M03 A3033 RMK AO2 T00821026,KMGG,2017-04-29T15:33:00Z,45.23,-93.98,8.2,-2.6,70,11,,10.0,30.33071,,,TRUE,TRUE,,,,,,,CLR,,,,,,,,VFR,,,,,,,,,,,,METAR,313.0
KY31 291533Z AUTO 36005G18KT 10SM CLR 09/M01 A3018 RMK AO2 T00881015,KY31,2017-04-29T15:33:00Z,44.25,-84.18,8.8,-1.5,360,5,18,10.0,30.180119,,,TRUE,TRUE,,,,,,,CLR,,,,,,,,VFR,,,,,,,,,,,,METAR,269.0
KULM 291533Z AUTO 09013G16KT 10SM CLR 07/M04 A3028 RMK AO2,KULM,2017-04-29T15:33:00Z,44.32,-94.5,7.0,-4.0,90,13,16,10.0,30.280512,,,TRUE,TRUE,,,,,,,CLR,,,,,,,,VFR,,,,,,,,,,,,METAR,308.0
KTWM 291533Z AUTO 11006KT 10SM CLR 08/M02 A3035 RMK AO2,KTWM,2017-04-29T15:33:00Z,47.03,-91.75,8.0,-2.0,110,6,,10.0,30.351377,,,TRUE,TRUE,,,,,,,CLR,,,,,,,,VFR,,,,,,,,,,,,METAR,328.0
KTOB 291533Z AUTO 07015KT 10SM CLR 06/M02 A3024 RMK AO2,KTOB,2017-04-29T15:33:00Z,44.02,-92.82,6.0,-2.0,70,15,,10.0,30.239174,,,TRUE,TRUE,,,,,,,CLR,,,,,,,,VFR,,,,,,,,,,,,METAR,398.0
KTKC 291533Z AUTO 09015G24KT 10SM CLR 08/M03 A3027 RMK AO2 T00781026,KTKC,2017-04-29T15:33:00Z,44.25,-95.62,7.8,-2.6,90,15,24,10.0,30.268702,,,TRUE,TRUE,,,,,,,CLR,,,,,,,,VFR,,,,,,,,,,,,METAR,408.0
KIMS 291533Z AUTO 11004KT 10SM SCT080 BKN110 19/17 A3010 RMK AO1,KIMS,2017-04-29T15:33:00Z,38.75,-85.47,19.0,17.0,110,4,,10.0,30.100393,,,TRUE,TRUE,,,,,,,SCT,8000,BKN,11000,,,,,VFR,,,,,,,,,,,,METAR,250.0
KIKW 291533Z AUTO 33006KT 10SM CLR 10/M01 A3020 RMK AO2 T00971006,KIKW,2017-04-29T15:33:00Z,43.67,-84.27,9.7,-0.6,330,6,,10.0,30.200787,,,TRUE,TRUE,,,,,,,CLR,,,,,,,,VFR,,,,,,,,,,,,METAR,194.0
KGHW 291533Z AUTO 10006KT 10SM CLR 08/M04 A3032 RMK AO2,KGHW,2017-04-29T15:33:00Z,45.63,-95.32,8.0,-4.0,100,6,,10.0,30.318897,,,TRUE,TRUE,,,,,,,CLR,,,,,,,,VFR,,,,,,,,,,,,METAR,425.0
KFKA 291533Z AUTO 06008G14KT 10SM CLR 05/M03 A3022 RMK AO2 T00501028,KFKA,2017-04-29T15:33:00Z,43.68,-92.17,5.0,-2.8,60,8,14,10.0,30.221457,,,TRUE,TRUE,,,,,,,CLR,,,,,,,,VFR,,,,,,,,,,,,METAR,389.0
KFGN 291533Z AUTO 16004KT 10SM CLR 03/M01 A3034 RMK AO2,KFGN,2017-04-29T15:33:00Z,49.32,-94.9,3.0,-1.0,160,4,,10.0,30.339567,,,TRUE,TRUE,,,,,,,CLR,,,,,,,,VFR,,,,,,,,,,,,METAR,328.0
KELO 291533Z AUTO 15005KT 10SM CLR 06/M11 A3035 RMK AO2,KELO,2017-04-29T15:33:00Z,47.82,-91.82,6.0,-11.0,150,5,,10.0,30.351377,,,TRUE,TRUE,,,,,,,CLR,,,,,,,,VFR,,,,,,,,,,,,METAR,443.0
KDYT 291533Z AUTO 36006KT 10SM CLR 06/00 A3039 RMK AO2,KDYT,2017-04-29T15:33:00Z,46.72,-92.03,6.0,0.0,360,6,,10.0,30.389763,,,TRUE,TRUE,,,,,,,CLR,,,,,,,,VFR,,,,,,,,,,,,METAR,186.0
KD95 291533Z AUTO 03010G16KT 10SM OVC031 08/01 A3020 RMK AO2 T00790009,KD95,2017-04-29T15:33:00Z,43.07,-83.27,7.9,0.9,30,10,16,10.0,30.200787,,,TRUE,TRUE,,,,,,,OVC,3100,,,,,,,VFR,,,,,,,,,,,,METAR,255.0
KCDI 291533Z AUTO 00000KT 10SM TS SCT020 SCT040 OVC080 17/16 A3011 RMK AO2 LTG DSNT SW THRU N T01710160,KCDI,2017-04-29T15:33:00Z,39.97,-81.58,17.1,16.0,0,0,,10.0,30.109253,,,TRUE,TRUE,,,,,,TS,SCT,2000,SCT,4000,OVC,8000,,,VFR,,,,,,,,,,,,METAR,244.0
KBBB 291533Z AUTO 13007KT 10SM CLR 10/M08 A3033 RMK AO2,KBBB,2017-04-29T15:33:00Z,45.32,-95.65,10.0,-8.0,130,7,,10.0,30.33071,,,TRUE,TRUE,,,,,,,CLR,,,,,,,,VFR,,,,,,,,,,,,METAR,317.0
KAXV 291533Z AUTO 05006KT 3SM +RA SCT006 SCT013 OVC050 13/12 A3013 RMK AO2,KAXV,2017-04-29T15:33:00Z,40.5,-84.3,13.0,12.0,50,6,,3.0,30.129921,,,TRUE,TRUE,,,,,,+RA,SCT,600,SCT,1300,OVC,5000,,,MVFR,,,,,,,,,,,,METAR,279.0
PHMK 291533Z AUTO 32012KT 6SM -RA BR SCT006 BKN011 OVC015 20/20 A2989 RMK AO2 P0028 T02000200 TSNO,PHMK,2017-04-29T15:33:00Z,21.15,-157.1,20.0,20.0,320,12,,6.0,29.890747,,,TRUE,TRUE,,,TRUE,,,-RA BR,SCT,600,BKN,1100,OVC,1500,,,MVFR,,,,,,0.28,,,,,,SPECI,141.0
CYGP 291533Z 00000KT 10SM -SHRA OVC025 07/05 A2970 RMK SC8 CU EMBD SLP059,CYGP,2017-04-29T15:33:00Z,48.77,-64.47,7.0,5.0,0,0,,10.0,29.698818,1005.9,,,,,,,,,-SHRA,OVC,2500,,,,,,,MVFR,,,,,,,,,,,,SPECI,33.0
KSET 291533Z AUTO 06009KT 4SM TSRA BR FEW009 BKN016 OVC024 14/14 A2996 RMK AO2 LTG DSNT ALQDS TSB33 P0013 T01390139,KSET,2017-04-29T15:33:00Z,38.93,-90.43,13.9,13.9,60,9,,4.0,29.958662,,,TRUE,TRUE,,,,,,TSRA BR,FEW,900,BKN,1600,OVC,2400,,,MVFR,,,,,,0.13,,,,,,SPECI,134.0
KPHF 291533Z 24010KT 9SM SCT023 27/23 A3016 RMK AO2 T02720228,KPHF,2017-04-29T15:33:00Z,37.13,-76.5,27.2,22.8,240,10,,9.0,30.159449,,,,TRUE,,,,,,,SCT,2300,,,,,,,VFR,,,,,,,,,,,,SPECI,12.0
KODO 291533Z AUTO 01020G27KT 10SM OVC016 11/06 A2980 RMK AO2 PK WND 01029/1520 T01110056,KODO,2017-04-29T15:33:00Z,31.92,-102.4,11.1,5.6,10,20,27,10.0,29.799213,,,TRUE,TRUE,,,,,,,OVC,1600,,,,,,,MVFR,,,,,,,,,,,,SPECI,902.0
KHZY 291533Z AUTO 35003KT 2SM BR SCT009 BKN016 OVC021 12/11 A3016 RMK AO2 T01170106 TSNO,KHZY,2017-04-29T15:33:00Z,41.78,-80.7,11.7,10.6,350,3,,2.0,30.159449,,,TRUE,TRUE,,,TRUE,,,BR,SCT,900,BKN,1600,OVC,2100,,,IFR,,,,,,,,,,,,SPECI,276.0
KGKY 291533Z 17019G30KT 9SM BKN029 OVC038 28/21 A2957 RMK AO2 PK WND 16033/1455 T02780206 $,KGKY,2017-04-29T15:33:00Z,32.67,-97.1,27.8,20.6,170,19,30,9.0,29.568897,,,,TRUE,TRUE,,,,,,BKN,2900,OVC,3800,,,,,MVFR,,,,,,,,,,,,SPECI,192.0
KCAK 291533Z 03003KT 3SM -TSRA BR BKN005 OVC010CB 14/12 A3013 RMK AO2 LTG DSNT SW TSB28 OCNL LTGIC OHD TS OHD MOV E P0002 T01440122 $,KCAK,2017-04-29T15:33:00Z,40.92,-81.45,14.4,12.2,30,3,,3.0,30.129921,,,,TRUE,TRUE,,,,,-TSRA BR,BKN,500,OVC,1000,,,,,IFR,,,,,,0.02,,,,,,SPECI,377.0
CYGV 291533Z AUTO 25010KT 9SM FEW005 BKN009 OVC013 02/02 A2965 RMK SLP045,CYGV,2017-04-29T15:33:00Z,50.27,-63.62,2.0,2.0,250,10,,9.0,29.648623,1004.5,,TRUE,,,,,,,,FEW,500,BKN,900,OVC,1300,,,IFR,,,,,,,,,,,,SPECI,33.0
KOKK 291533Z AUTO 08009KT 5SM -RA BR OVC005 13/12 A3010 RMK AO2 P0004,KOKK,2017-04-29T15:33:00Z,40.53,-86.07,13.0,12.0,80,9,,5.0,30.100393,,,TRUE,TRUE,,,,,,-RA BR,OVC,500,,,,,,,IFR,,,,,,0.04,,,,,,SPECI,253.0
PATG 291533Z AUTO 09010KT 10SM UP BKN021 OVC030 03/02 A2990 RMK AO2 P0000,PATG,2017-04-29T15:33:00Z,59.05,-160.38,3.0,2.0,90,10,,10.0,29.899607,,,TRUE,TRUE,,,,,,UP,BKN,2100,OVC,3000,,,,,MVFR,,,,,,0.005,,,,,,SPECI,4.0
KPWC 291533Z AUTO 14003KT 10SM CLR 08/M04 A3036 RMK AO2,KPWC,2017-04-29T15:33:00Z,46.72,-94.37,8.0,-4.0,140,3,,10.0,30.360237,,,TRUE,TRUE,,,,,,,CLR,,,,,,,,VFR,,,,,,,,,,,,METAR,395.0
KPEX 291533Z AUTO 08006KT 10SM CLR 08/M04 A3033 RMK AO2 T00751036,KPEX,2017-04-29T15:33:00Z,45.37,-94.73,7.5,-3.6,80,6,,10.0,30.33071,,,TRUE,TRUE,,,,,,,CLR,,,,,,,,VFR,,,,,,,,,,,,METAR,360.0
KOVL 291533Z AUTO 07010G16KT 10SM CLR 08/M02 A3029 RMK AO2,KOVL,2017-04-29T15:33:00Z,44.78,-95.03,8.0,-2.0,70,10,16,10.0,30.28937,,,TRUE,TRUE,,,,,,,CLR,,,,,,,,VFR,,,,,,,,,,,,METAR,328.0
KCPW 291533Z AUTO 35014G23KT 3/4SM -SN OVC002 M12/M12 A2991 RMK AO2 LTG DSNT E,KCPW,2017-04-29T15:33:00Z,37.45,-106.8,-12.0,-12.0,350,14,23,0.75,29.911417,,,TRUE,TRUE,,,,,,-SN,OVC,200,,,,,,,LIFR,,,,,,,,,,,,METAR,3584.0
KIYA 291533Z AUTO 15022G34KT 10SM OVC015 27/25 A2984 RMK AO2 LTG DSNT W,KIYA,2017-04-29T15:33:00Z,29.98,-92.08,27.0,25.0,150,22,34,10.0,29.840551,,,TRUE,TRUE,,,,,,,OVC,1500,,,,,,,MVFR,,,,,,,,,,,,SPECI,5.0
CYOY 291533Z AUTO 25006KT 210V280 9SM FEW015 BKN020 BKN042 OVC053 13/08 A2979,CYOY,2017-04-29T15:33:00Z,46.88,-71.5,13.0,8.0,250,6,,9.0,29.790354,,,TRUE,,,,,,,,FEW,1500,BKN,2000,BKN,4200,OVC,5300,MVFR,,,,,,,,,,,,SPECI,168.0
KCFE 291533Z AUTO 04006G15KT 10SM CLR 08/M04 A3033 RMK AO2 T00771041,KCFE,2017-04-29T15:33:00Z,45.17,-93.85,7.7,-4.1,40,6,15,10.0,30.33071,,,TRUE,TRUE,,,,,,,CLR,,,,,,,,VFR,,,,,,,,,,,,SPECI,295.0
KLFI 291533Z AUTO 24014G18KT 9SM SCT021 BKN190 27/23 A3015 RMK AO2 SLP216 $,KLFI,2017-04-29T15:33:00Z,37.07,-76.37,27.0,23.0,240,14,18,9.0,30.15059,1021.6,,TRUE,TRUE,TRUE,,,,,,SCT,2100,BKN,19000,,,,,VFR,,,,,,,,,,,,SPECI,3.0
KVLL 291533Z AUTO 06008KT 10SM SCT032 OVC050 09/00 A3022 RMK AO2 T00850000,KVLL,2017-04-29T15:33:00Z,42.55,-83.18,8.5,0.0,60,8,,10.0,30.221457,,,TRUE,TRUE,,,,,,,SCT,3200,OVC,5000,,,,,VFR,,,,,,,,,,,,SPECI,222.0
KACQ 291533Z AUTO 06010KT 10SM CLR 06/M02 A3027 RMK AO2,KACQ,2017-04-29T15:33:00Z,44.07,-93.55,6.0,-2.0,60,10,,10.0,30.268702,,,TRUE,TRUE,,,,,,,CLR,,,,,,,,VFR,,,,,,,,,,,,SPECI,343.0
KRNP 291533Z AUTO 04009G14KT 10SM BKN022 OVC031 09/03 A3018 RMK AO2 T00920033,KRNP,2017-04-29T15:33:00Z,43.0,-84.13,9.2,3.3,40,9,14,10.0,30.180119,,,TRUE,TRUE,,,,,,,BKN,2200,OVC,3100,,,,,MVFR,,,,,,,,,,,,SPECI,224.0
KONA 291532Z AUTO 09007KT 10SM CLR 07/M02 A3028 RMK AO2,KONA,2017-04-29T15:32:00Z,44.07,-91.7,7.0,-2.0,90,7,,10.0,30.280512,,,TRUE,TRUE,,,,,,,CLR,,,,,,,,VFR,,,,,,,,,,,,METAR,200.0
KMVE 291532Z AUTO 12009KT 10SM CLR 09/M04 A3030 RMK AO2,KMVE,2017-04-29T15:32:00Z,44.97,-95.72,9.0,-4.0,120,9,,10.0,30.301182,,,TRUE,TRUE,,,,,,,CLR,,,,,,,,VFR,,,,,,,,,,,,METAR,315.0
KMRT 291532Z AUTO 19007KT 2 1/2SM SCT008 SCT016 OVC065 16/16 A3012 RMK AO2 P0006 T01620160,KMRT,2017-04-29T15:32:00Z,40.22,-83.35,16.2,16.0,190,7,,2.5,30.121063,,,TRUE,TRUE,,,,,,,SCT,800,SCT,1600,OVC,6500,,,IFR,,,,,,0.06,,,,,,METAR,312.0
KMOX 291532Z AUTO 12004KT 10SM CLR 08/M04 A3032 RMK AO2,KMOX,2017-04-29T15:32:00Z,45.57,-95.97,8.0,-4.0,120,4,,10.0,30.318897,,,TRUE,TRUE,,,,,,,CLR,,,,,,,,VFR,,,,,,,,,,,,METAR,344.0
KLXL 291532Z AUTO 09004KT 10SM CLR 07/M04 A3034 RMK AO2,KLXL,2017-04-29T15:32:00Z,45.95,-94.33,7.0,-4.0,90,4,,10.0,30.339567,,,TRUE,TRUE,,,,,,,CLR,,,,,,,,VFR,,,,,,,,,,,,METAR,342.0
KVVV 291532Z AUTO 11004KT 10SM CLR 08/M04 A3031 RMK AO2,KVVV,2017-04-29T15:32:00Z,45.3,-96.42,8.0,-4.0,110,4,,10.0,30.31004,,,TRUE,TRUE,,,,,,,CLR,,,,,,,,VFR,,,,,,,,,,,,METAR,335.0
KSAZ 291532Z AUTO 21006KT 10SM CLR 07/M06 A3033 RMK AO2,KSAZ,2017-04-29T15:32:00Z,46.37,-94.8,7.0,-6.0,210,6,,10.0,30.33071,,,TRUE,TRUE,,,,,,,CLR,,,,,,,,VFR,,,,,,,,,,,,METAR,392.0
KI23 291532Z AUTO 20005KT 5SM BKN007 OVC013 16/16 A3013 RMK AO1 P0007,KI23,2017-04-29T15:32:00Z,39.57,-83.42,16.0,16.0,200,5,,5.0,30.129921,,,TRUE,TRUE,,,,,,,BKN,700,OVC,1300,,,,,IFR,,,,,,0.07,,,,,,METAR,299.0
KI19 291532Z AUTO 17005KT 10SM SCT004 BKN022 BKN042 17/16 A3012 RMK AO2 LTG DSNT E AND SE P0005 T01680163,KI19,2017-04-29T15:32:00Z,39.7,-83.98,16.8,16.3,170,5,,10.0,30.121063,,,TRUE,TRUE,,,,,,,SCT,400,BKN,2200,BKN,4200,,,MVFR,,,,,,0.05,,,,,,METAR,289.0
KAIT 291532Z AUTO 02005KT 10SM CLR 09/M08 A3033 RMK AO2,KAIT,2017-04-29T15:32:00Z,46.53,-93.67,9.0,-8.0,20,5,,10.0,30.33071,,,TRUE,TRUE,,,,,,,CLR,,,,,,,,VFR,,,,,,,,,,,,METAR,367.0
K9MN 291532Z AUTO 06011G17KT 020V080 10SM CLR 05/M04 A3026 RMK AO1 T00531043,K9MN,2017-04-29T15:32:00Z,44.02,-92.48,5.3,-4.3,60,11,17,10.0,30.259842,,,TRUE,TRUE,,,,,,,CLR,,,,,,,,VFR,,,,,,,,,,,,METAR,355.0
K21D 291532Z AUTO 07010G16KT 10SM CLR 08/M02 A3031 RMK AO2,K21D,2017-04-29T15:32:00Z,45.0,-92.85,8.0,-2.0,70,10,16,10.0,30.31004,,,TRUE,TRUE,,,,,,,CLR,,,,,,,,VFR,,,,,,,,,,,,METAR,285.0
K14Y 291532Z AUTO 06007KT 10SM CLR 07/M03 A3033 RMK AO2,K14Y,2017-04-29T15:32:00Z,45.9,-94.87,7.0,-3.0,60,7,,10.0,30.33071,,,TRUE,TRUE,,,,,,,CLR,,,,,,,,VFR,,,,,,,,,,,,METAR,406.0
KFOZ 291532Z AUTO 18005KT 10SM CLR 09/M06 A3035 RMK AO2,KFOZ,2017-04-29T15:32:00Z,47.77,-93.65,9.0,-6.0,180,5,,10.0,30.351377,,,TRUE,TRUE,,,,,,,CLR,,,,,,,,VFR,,,,,,,,,,,,SPECI,411.0
KSUS 291532Z 05010KT 3SM -TSRA BR BKN007 OVC013 15/15 A2991 RMK AO2 LTG DSNT ALQDS PRESFR P0020 T01500150,KSUS,2017-04-29T15:32:00Z,38.65,-90.65,15.0,15.0,50,10,,3.0,29.911417,,,,TRUE,,,,,,-TSRA BR,BKN,700,OVC,1300,,,,,IFR,,,,,,0.2,,,,,,SPECI,141.0
KROW 291532Z 04015KT 10SM -RA BKN014 OVC042 04/02 RMK AO2 PK WND 03029/1500 P0000 T00440017 $,KROW,2017-04-29T15:32:00Z,33.3,-104.5,4.4,1.7,40,15,,10.0,,,,,TRUE,TRUE,,,,,-RA,BKN,1400,OVC,4200,,,,,MVFR,,,,,,0.005,,,,,,SPECI,1112.0
KPEO 291532Z AUTO 10SM OVC016 14/09 A3008 RMK AO2 T01440094,KPEO,2017-04-29T15:32:00Z,42.65,-77.05,14.4,9.4,,,,10.0,30.079725,,,TRUE,TRUE,,,,,,,OVC,1600,,,,,,,MVFR,,,,,,,,,,,,SPECI,256.0
KJAN 291532Z 17017G25KT 10SM SCT027 BKN033 BKN045 28/22 A2992 RMK AO2 PK WND 15028/1519 T02830217,KJAN,2017-04-29T15:32:00Z,32.32,-90.08,28.3,21.7,170,17,25,10.0,29.920275,,,,TRUE,,,,,,,SCT,2700,BKN,3300,BKN,4500,,,VFR,,,,,,,,,,,,SPECI,91.0
KIXD 291532Z 01013KT 4SM RA BR BKN007 BKN012 OVC029 08/08 A2990 RMK AO2 P0016 T00830078,KIXD,2017-04-29T15:32:00Z,38.82,-94.88,8.3,7.8,10,13,,4.0,29.899607,,,,TRUE,,,,,,RA BR,BKN,700,BKN,1200,OVC,2900,,,IFR,,,,,,0.16,,,,,,SPECI,342.0
KDEQ 291532Z AUTO 13008KT 7SM SCT028 OVC036 25/23 A2963 RMK AO2 T02500228,KDEQ,2017-04-29T15:32:00Z,34.05,-94.4,25.0,22.8,130,8,,7.0,29.630905,,,TRUE,TRUE,,,,,,,SCT,2800,OVC,3600,,,,,VFR,,,,,,,,,,,,SPECI,106.0
KBKL 291532Z 04010KT 5SM BR BKN010 OVC020 08/07 A3017 RMK AO2 T00830067 $,KBKL,2017-04-29T15:32:00Z,41.53,-81.67,8.3,6.7,40,10,,5.0,30.171259,,,,TRUE,TRUE,,,,,BR,BKN,1000,OVC,2000,,,,,MVFR,,,,,,,,,,,,SPECI,184.0
PAEH 291532Z AUTO 14016G23KT 10SM BKN006 BKN029 02/01 A2982 RMK AO2 SLP103,PAEH,2017-04-29T15:32:00Z,58.65,-162.07,2.0,1.0,140,16,23,10.0,29.819881,1010.3,,TRUE,TRUE,,,,,,,BKN,600,BKN,2900,,,,,IFR,,,,,,,,,,,,SPECI,161.0
MDLR 291532Z 08010KT 8000 VCSH BKN016 BKN070 25/24 Q1018 RERA,MDLR,2017-04-29T15:32:00Z,18.45,-68.92,25.0,24.0,80,10,,4.97,30.059055,,,,,,,,,,VCSH,BKN,1600,BKN,7000,,,,,MVFR,,,,,,,,,,,,METAR,8.0
RJTL 291532Z VRB01KT 9999 R19/0300VP1800D MIFG FEW020 10/10 Q1008 RMK 1CU020 A2978 R0600 FG ON RWY,RJTL,2017-04-29T15:32:00Z,35.78,140.02,10.0,10.0,0,1,,6.21,29.763779,,,,,,,,,,MIFG,FEW,2000,,,,,,,VFR,,,,,,,,,,,,SPECI,33.0
KAMN 291532Z AUTO 01008G17KT 10SM CLR 09/02 A3019 RMK AO2 T00900015,KAMN,2017-04-29T15:32:00Z,43.32,-84.68,9.0,1.5,10,8,17,10.0,30.188976,,,TRUE,TRUE,,,,,,,CLR,,,,,,,,VFR,,,,,,,,,,,,SPECI,230.0
KGDB 291531Z AUTO 07009G14KT 10SM CLR 09/M03 A3031 RMK AO2 T00921029,KGDB,2017-04-29T15:31:00Z,44.75,-95.55,9.2,-2.9,70,9,14,10.0,30.31004,,,TRUE,TRUE,,,,,,,CLR,,,,,,,,VFR,,,,,,,,,,,,METAR,319.0
KD39 291531Z AUTO 08004KT 10SM CLR 07/M04 A3033 RMK AO2 T00671039,KD39,2017-04-29T15:31:00Z,45.7,-94.93,6.7,-3.9,80,4,,10.0,30.33071,,,TRUE,TRUE,,,,,,,CLR,,,,,,,,VFR,,,,,,,,,,,,METAR,380.0
LTCI 291531Z 33011KT 8000 FEW018CB SCT030 BKN060 13/02 Q1019 RESHRA NOSIG RMK RWY21 33012KT 290V360,LTCI,2017-04-29T15:31:00Z,38.45,43.32,13.0,2.0,330,11,,4.97,30.088583,,,,,,TRUE,,,,,FEW,1800,SCT,3000,BKN,6000,,,MVFR,,,,,,,,,,,,SPECI,1661.0
KDYS 291531Z AUTO 32012G20KT 10SM OVC006 10/10 A2970 RMK AO2 RAE31 SLP030 $,KDYS,2017-04-29T15:31:00Z,32.42,-99.83,10.0,10.0,320,12,20,10.0,29.698818,1003.0,,TRUE,TRUE,TRUE,,,,,,OVC,600,,,,,,,IFR,,,,,,,,,,,,SPECI,545.0
KCRS 291531Z AUTO 17021G30KT 7SM BKN030 OVC040 28/23 A2961 RMK AO2 PK WND 16031/1459 T02830228,KCRS,2017-04-29T15:31:00Z,32.03,-96.4,28.3,22.8,170,21,30,7.0,29.610237,,,TRUE,TRUE,,,,,,,BKN,3000,OVC,4000,,,,,MVFR,,,,,,,,,,,,SPECI,133.0
KTTF 291531Z AUTO 06008KT 10SM OVC039 08/02 A3017 RMK AO2 T00810022,KTTF,2017-04-29T15:31:00Z,41.93,-83.42,8.1,2.2,60,8,,10.0,30.171259,,,TRUE,TRUE,,,,,,,OVC,3900,,,,,,,VFR,,,,,,,,,,,,METAR,188.0
KOAJ 291531Z AUTO 23011KT 10SM BKN028 29/22 A3023 RMK AO2 TSNO,KOAJ,2017-04-29T15:31:00Z,34.82,-77.62,29.0,22.0,230,11,,10.0,30.230314,,,TRUE,TRUE,,,TRUE,,,,BKN,2800,,,,,,,MVFR,,,,,,,,,,,,SPECI,29.0
CYBX 291531Z 23013KT 1/4SM FG VV005 00/M00 A2954 RMK FG8 SLP007,CYBX,2017-04-29T15:31:00Z,51.45,-57.17,0.0,0.0,230,13,,0.25,29.53937,1000.7,,,,,,,,,FG,OVX,0,,,,,,,LIFR,,,,,,,,,,,500,SPECI,35.0
OIIE 291530Z 11010KT 9999 SHRA SCT030 SCT035CB OVC090 19/06 Q1020,OIIE,2017-04-29T15:30:00Z,35.42,51.15,19.0,6.0,110,10,,6.21,30.11811,,,,,,,,,,SHRA,SCT,3000,SCT,3500,OVC,9000,,,VFR,,,,,,,,,,,,SPECI,1008.0
KMDS 291530Z AUTO 07017G22KT 10SM CLR 07/M05 A3024 RMK AO2,KMDS,2017-04-29T15:30:00Z,44.02,-97.08,7.0,-5.0,70,17,22,10.0,30.239174,,,TRUE,TRUE,,,,,,,CLR,,,,,,,,VFR,,,,,,,,,,,,METAR,524.0
KLVN 291530Z AUTO 05012G16KT 10SM CLR 06/M03 A3028 RMK AO2,KLVN,2017-04-29T15:30:00Z,44.63,-93.23,6.0,-3.0,50,12,16,10.0,30.280512,,,TRUE,TRUE,,,,,,,CLR,,,,,,,,VFR,,,,,,,,,,,,METAR,293.0
KSYM 291530Z AUTO 00000KT 10SM SCT050 24/19 A3013 RMK AO2,KSYM,2017-04-29T15:30:00Z,38.22,-83.58,24.0,19.0,0,0,,10.0,30.129921,,,TRUE,TRUE,,,,,,,SCT,5000,,,,,,,VFR,,,,,,,,,,,,METAR,313.0
KCVH 291530Z AUTO 00000KT 10SM CLR 13/05 A3013 RMK AO1,KCVH,2017-04-29T15:30:00Z,36.9,-121.42,13.0,5.0,0,0,,10.0,30.129921,,,TRUE,TRUE,,,,,,,CLR,,,,,,,,VFR,,,,,,,,,,,,METAR,70.0
OIZH 291530Z 36006KT CAVOK 21/M04 Q1021 A3015,OIZH,2017-04-29T15:30:00Z,29.47,60.92,21.0,-4.0,360,6,,6.21,30.147638,,,,,,,,,,,CAVOK,,,,,,,,VFR,,,,,,,,,,,,SPECI,1370.0
OITT 291530Z 10008KT 9999 FEW030TCU FEW035CB FEW080 19/05 Q1016 A3003,OITT,2017-04-29T15:30:00Z,38.13,46.23,19.0,5.0,100,8,,6.21,30.0,,,,,,,,,,,FEW,3000,FEW,3500,FEW,8000,,,VFR,,,,,,,,,,,,SPECI,1361.0
OIMM 291530Z 12010KT CAVOK 15/M08 Q1025 A3028,OIMM,2017-04-29T15:30:00Z,36.23,59.62,15.0,-8.0,120,10,,6.21,30.265747,,,,,,,,,,,CAVOK,,,,,,,,VFR,,,,,,,,,,,,SPECI,980.0
OIKB 291530Z 17004KT 5000 HZ NSC 33/18 Q1007 A2975,OIKB,2017-04-29T15:30:00Z,27.22,56.37,33.0,18.0,170,4,,3.11,29.734253,,,,,,,,,,HZ,CLR,,,,,,,,MVFR,,,,,,,,,,,,METAR,10.0
UCFO 291530Z 18006MPS 9999 SCT050CB OVC100 10/02 Q1029 R12/CLRD70 TEMPO VRB09G14MPS TS,UCFO,2017-04-29T15:30:00Z,40.6,72.8,10.0,2.0,180,12,,6.21,30.383858,,,,,,,,,,,SCT,5000,OVC,10000,,,,,VFR,,,,,,,,,,,,METAR,884.0
UCFM 291530Z 24004MPS 9999 SCT056CB 08/03 Q1027 R26/CLRD70 NOSIG,UCFM,2017-04-29T15:30:00Z,43.07,74.48,8.0,3.0,240,8,,6.21,30.324802,,,,,,TRUE,,,,,SCT,5600,,,,,,,VFR,,,,,,,,,,,,METAR,633.0
UTDL 291530Z 25002MPS 9999 FEW070CB BKN100 OVC200 13/04 Q1028 88CLRD70 NOSIG RMK QFE733/0977,UTDL,2017-04-29T15:30:00Z,40.22,69.7,13.0,4.0,250,4,,6.21,30.35433,,,,,,TRUE,,,,,FEW,7000,BKN,10000,OVC,20000,,,VFR,,,,,,,,,,,,SPECI,442.0
UTDT 291530Z 09002MPS 9999 SCT083 16/09 Q1024 35CLRD70 RMK QFE728/0971,UTDT,2017-04-29T15:30:00Z,37.87,68.87,16.0,9.0,90,4,,6.21,30.236221,,,,,,,,,,,SCT,8300,,,,,,,VFR,,,,,,,,,,,,METAR,449.0
UTDK 291530Z 06002MPS 9999 NSC 14/10 Q1026 R01/09//70 RMK QFE711/0949,UTDK,2017-04-29T15:30:00Z,37.98,69.8,14.0,10.0,60,4,,6.21,30.295275,,,,,,,,,,,CLR,,,,,,,,VFR,,,,,,,,,,,,METAR,699.0
UTDD 291530Z 01002MPS 9999 FEW066CB 13/09 Q1026 R09/D NOSIG RMK QFE700/0934,UTDD,2017-04-29T15:30:00Z,38.53,68.82,13.0,9.0,10,4,,6.21,30.295275,,,,,,TRUE,,,,,FEW,6600,,,,,,,VFR,,,,,,,,,,,,METAR,803.0
UDSG 291530Z 03007KT 9999 SCT043CB 10/03 Q1018 R02/290255 NOSIG,UDSG,2017-04-29T15:30:00Z,40.75,43.87,10.0,3.0,30,7,,6.21,30.059055,,,,,,TRUE,,,,,SCT,4300,,,,,,,VFR,,,,,,,,,,,,METAR,1524.0
UDYZ 291530Z 03007KT 9999 NSC 18/05 Q1015 R09/010070 NOSIG,UDYZ,2017-04-29T15:30:00Z,40.15,44.4,18.0,5.0,30,7,,6.21,29.970472,,,,,,TRUE,,,,,CLR,,,,,,,,VFR,,,,,,,,,,,,SPECI,865.0
UAUU 291530Z 36004MPS CAVOK 15/05 Q1025 R33/290150 NOSIG RMK QFE753/1004,UAUU,2017-04-29T15:30:00Z,53.2,63.55,15.0,5.0,360,8,,6.21,30.265747,,,,,,TRUE,,,,,CAVOK,,,,,,,,VFR,,,,,,,,,,,,SPECI,182.0
UATT 291530Z 32002MPS 300V020 CAVOK 17/01 Q1029 R31/////// NOSIG RMK QFE751/1002,UATT,2017-04-29T15:30:00Z,50.25,57.2,17.0,1.0,320,4,,6.21,30.383858,,,,,,TRUE,,,,,CAVOK,,,,,,,,VFR,,,,,,,,,,,,METAR,227.0
UATG 291530Z 10003MPS CAVOK 21/M01 Q1027 R14/CLRD70 NOSIG RMK QFE772/1030,UATG,2017-04-29T15:30:00Z,47.12,51.83,21.0,-1.0,100,6,,6.21,30.324802,,,,,,TRUE,,,,,CAVOK,,,,,,,,VFR,,,,,,,,,,,,SPECI,-22.0
UATE 291530Z 10006MPS CAVOK 22/M06 Q1022 R12/0///70 NOSIG RMK QFE764/1019,UATE,2017-04-29T15:30:00Z,43.87,51.1,22.0,-6.0,100,12,,6.21,30.177166,,,,,,TRUE,,,,,CAVOK,,,,,,,,VFR,,,,,,,,,,,,METAR,22.0
UASP 291530Z 23007MPS 9999 FEW016 OVC100 14/02 Q1020 R21/0///70 NOSIG RMK QFE754/1005,UASP,2017-04-29T15:30:00Z,52.2,77.07,14.0,2.0,230,14,,6.21,30.11811,,,,,,TRUE,,,,,FEW,1600,OVC,10000,,,,,VFR,,,,,,,,,,,,SPECI,125.0
UASK 291530Z 10002MPS 9999 FEW050 BKN130 09/05 Q1025 R12/210160 NOSIG RMK QFE743/0991,UASK,2017-04-29T15:30:00Z,50.03,82.5,9.0,5.0,100,4,,6.21,30.265747,,,,,,TRUE,,,,,FEW,5000,BKN,13000,,,,,VFR,,,,,,,,,,,,METAR,286.0
UAOO 291530Z 05002MPS CAVOK 15/04 Q1027 R05/CLRD70 NOSIG RMK QFE758/1011,UAOO,2017-04-29T15:30:00Z,44.7,65.6,15.0,4.0,50,4,,6.21,30.324802,,,,,,TRUE,,,,,CAVOK,,,,,,,,VFR,,,,,,,,,,,,SPECI,129.0
UAKK 291530Z 21007MPS 9999 SCT050CB 08/04 Q1025 R23/0///70 NOSIG RMK QFE722/0962,UAKK,2017-04-29T15:30:00Z,49.67,73.33,8.0,4.0,210,14,,6.21,30.265747,,,,,,TRUE,,,,,SCT,5000,,,,,,,VFR,,,,,,,,,,,,SPECI,538.0
UAII 291530Z 09002MPS 040V110 9999 SCT050CB BKN100 09/04 Q1029 R28/0///70 NOSIG RMK QFE734/0979,UAII,2017-04-29T15:30:00Z,42.37,69.48,9.0,4.0,90,4,,6.21,30.383858,,,,,,TRUE,,,,,SCT,5000,BKN,10000,,,,,VFR,,,,,,,,,,,,SPECI,422.0
UACC 291530Z 22009MPS 9999 -SHRA SCT030CB OVC083 11/02 Q1024 R22/0///70 NOSIG RMK QFE736/0982,UACC,2017-04-29T15:30:00Z,51.02,71.47,11.0,2.0,220,17,,6.21,30.236221,,,,,,TRUE,,,,-SHRA,SCT,3000,OVC,8300,,,,,VFR,,,,,,,,,,,,METAR,355.0
UADD 291530Z 26002MPS 210V290 9999 BKN050CB OVC100 06/04 Q1028 R13/290156 NOSIG RMK QFE713/0951,UADD,2017-04-29T15:30:00Z,42.85,71.3,6.0,4.0,260,4,,6.21,30.35433,,,,,,TRUE,,,,,BKN,5000,OVC,10000,,,,,VFR,,,,,,,,,,,,SPECI,665.0
UAAH 291530Z 25002MPS 9999 FEW030CB BKN200 09/M00 Q1027 R23/0///60 NOSIG RMK QFE731/0974,UAAH,2017-04-29T15:30:00Z,46.9,75.0,9.0,0.0,250,4,,6.21,30.324802,,,,,,TRUE,,,,,FEW,3000,BKN,20000,,,,,VFR,,,,,,,,,,,,SPECI,441.0
UAAA 291530Z 01003MPS 9999 SCT050CB BKN100 09/03 Q1026 R05L/CLRD65 R05R/1///60 NOSIG,UAAA,2017-04-29T15:30:00Z,43.35,77.03,9.0,3.0,10,6,,6.21,30.295275,,,,,,TRUE,,,,,SCT,5000,BKN,10000,,,,,VFR,,,,,,,,,,,,METAR,681.0
LPPD 291530Z 28019KT 9999 FEW018 17/13 Q1019,LPPD,2017-04-29T15:30:00Z,37.72,-25.68,17.0,13.0,280,19,,6.21,30.088583,,,,,,,,,,,FEW,1800,,,,,,,VFR,,,,,,,,,,,,METAR,72.0
LPHR 291530Z 28021KT 9999 SCT016 SCT025 18/14 Q1020,LPHR,2017-04-29T15:30:00Z,38.52,-28.72,18.0,14.0,280,21,,6.21,30.11811,,,,,,,,,,,SCT,1600,SCT,2500,,,,,VFR,,,,,,,,,,,,METAR,41.0
LPFL 291530Z VRB10G21KT 9999 BKN018 18/13 Q1021,LPFL,2017-04-29T15:30:00Z,39.45,-31.12,18.0,13.0,0,10,21,6.21,30.147638,,,,,,,,,,,BKN,1800,,,,,,,MVFR,,,,,,,,,,,,METAR,29.0
LPAZ 291530Z 29020KT 9999 FEW020 18/13 Q1020,LPAZ,2017-04-29T15:30:00Z,36.97,-25.17,18.0,13.0,290,20,,6.21,30.11811,,,,,,,,,,,FEW,2000,,,,,,,VFR,,,,,,,,,,,,METAR,100.0
LPPT 291530Z 30011KT 270V330 9999 FEW040 17/06 Q1012,LPPT,2017-04-29T15:30:00Z,38.77,-9.12,17.0,6.0,300,11,,6.21,29.88189,,,,,,,,,,,FEW,4000,,,,,,,VFR,,,,,,,,,,,,METAR,123.0
LPPS 291530Z 35016KT 9999 SCT015 BKN033 19/11 Q1017,LPPS,2017-04-29T15:30:00Z,33.07,-16.35,19.0,11.0,350,16,,6.21,30.029528,,,,,,,,,,,SCT,1500,BKN,3300,,,,,VFR,,,,,,,,,,,,METAR,82.0
LPPR 291530Z 24008KT 210V280 9999 SCT023 BKN030 15/07 Q1011,LPPR,2017-04-29T15:30:00Z,41.22,-8.67,15.0,7.0,240,8,,6.21,29.852362,,,,,,,,,,,SCT,2300,BKN,3000,,,,,MVFR,,,,,,,,,,,,METAR,73.0
LPMA 291530Z 36012KT 320V030 9999 SCT016 BKN033 18/12 Q1017,LPMA,2017-04-29T15:30:00Z,32.7,-16.77,18.0,12.0,360,12,,6.21,30.029528,,,,,,,,,,,SCT,1600,BKN,3300,,,,,VFR,,,,,,,,,,,,METAR,55.0
LPFR 291530Z 25017KT 9999 FEW018 19/14 Q1012,LPFR,2017-04-29T15:30:00Z,37.02,-7.97,19.0,14.0,250,17,,6.21,29.88189,,,,,,,,,,,FEW,1800,,,,,,,VFR,,,,,,,,,,,,METAR,4.0
LPCS 291530Z 30012KT 260V330 9999 FEW028 17/06 Q1013,LPCS,2017-04-29T15:30:00Z,38.73,-9.35,17.0,6.0,300,12,,6.21,29.911417,,,,,,,,,,,FEW,2800,,,,,,,VFR,,,,,,,,,,,,METAR,99.0
LESU 291530Z 21013KT 170V230 9999 SCT030 BKN090 14/01 Q1011,LESU,2017-04-29T15:30:00Z,42.33,1.4,14.0,1.0,210,13,,6.21,29.852362,,,,,,,,,,,SCT,3000,BKN,9000,,,,,VFR,,,,,,,,,,,,METAR,800.0
LECH 291530Z 22006KT 9999 FEW010 SCT020 OVC035 12/08 Q1014,LECH,2017-04-29T15:30:00Z,40.2,0.07,12.0,8.0,220,6,,6.21,29.940945,,,,,,,,,,,FEW,1000,SCT,2000,OVC,3500,,,VFR,,,,,,,,,,,,METAR,337.0
GEML 291530Z 07004KT 020V110 9999 FEW008 BKN012 18/15 Q1014,GEML,2017-04-29T15:30:00Z,35.27,-2.95,18.0,15.0,70,4,,6.21,29.940945,,,,,,,,,,,FEW,800,BKN,1200,,,,,MVFR,,,,,,,,,,,,METAR,55.0
LEHC 291530Z 09005KT 050V160 9999 OVC042 13/06 Q1012,LEHC,2017-04-29T15:30:00Z,42.08,-0.32,13.0,6.0,90,5,,6.21,29.88189,,,,,,,,,,,OVC,4200,,,,,,,VFR,,,,,,,,,,,,METAR,539.0
LEBG 291530Z 16013G23KT 130V200 9999 4000SE -SHRA SCT028TCU BKN045 12/06 Q1009,LEBG,2017-04-29T15:30:00Z,42.37,-3.62,12.0,6.0,160,13,23,6.21,29.793306,,,,,,,,,,-SHRA,SCT,2800,BKN,4500,,,,,VFR,,,,,,,,,,,,METAR,891.0
LEBA 291530Z AUTO 20010KT 170V230 9999 SCT028/// SCT039/// 19/16 Q1011,LEBA,2017-04-29T15:30:00Z,37.85,-4.82,19.0,16.0,200,10,,6.21,29.852362,,,TRUE,,,,,,,,SCT,2800,SCT,3900,,,,,VFR,,,,,,,,,,,,METAR,92.0
ZYTX 291530Z 36002MPS 320V040 CAVOK 16/03 Q1002 NOSIG,ZYTX,2017-04-29T15:30:00Z,41.63,123.48,16.0,3.0,360,4,,6.21,29.586615,,,,,,TRUE,,,,,CAVOK,,,,,,,,VFR,,,,,,,,,,,,METAR,35.0
ZYTL 291530Z 28008MPS CAVOK 26/05 Q1002 NOSIG,ZYTL,2017-04-29T15:30:00Z,38.97,121.53,26.0,5.0,280,16,,6.21,29.586615,,,,,,TRUE,,,,,CAVOK,,,,,,,,VFR,,,,,,,,,,,,METAR,97.0
ZWWW 291530Z 28003MPS CAVOK 18/06 Q1021 NOSIG,ZWWW,2017-04-29T15:30:00Z,43.88,87.47,18.0,6.0,280,6,,6.21,30.147638,,,,,,TRUE,,,,,CAVOK,,,,,,,,VFR,,,,,,,,,,,,METAR,654.0
ZSSS 291530Z 17005MPS CAVOK 20/09 Q1011 NOSIG,ZSSS,2017-04-29T15:30:00Z,31.2,121.33,20.0,9.0,170,10,,6.21,29.852362,,,,,,TRUE,,,,,CAVOK,,,,,,,,VFR,,,,,,,,,,,,METAR,7.0
ZSPD 291530Z 19006MPS CAVOK 19/08 Q1011 NOSIG,ZSPD,2017-04-29T15:30:00Z,31.15,121.8,19.0,8.0,190,12,,6.21,29.852362,,,,,,TRUE,,,,,CAVOK,,,,,,,,VFR,,,,,,,,,,,,METAR,4.0
ZSHC 291530Z 24001MPS CAVOK 20/09 Q1011 NOSIG,ZSHC,2017-04-29T15:30:00Z,30.22,120.43,20.0,9.0,240,2,,6.21,29.852362,,,,,,TRUE,,,,,CAVOK,,,,,,,,VFR,,,,,,,,,,,,METAR,43.0
ZGGG 291530Z 12002MPS 7000 FEW050 23/17 Q1013 NOSIG,ZGGG,2017-04-29T15:30:00Z,23.4,113.3,23.0,17.0,120,4,,4.35,29.911417,,,,,,TRUE,,,,,FEW,5000,,,,,,,MVFR,,,,,,,,,,,,METAR,15.0
ZBYN 291530Z 13002MPS 080V160 CAVOK 15/M02 Q1009 NOSIG,ZBYN,2017-04-29T15:30:00Z,37.77,112.63,15.0,-2.0,130,4,,6.21,29.793306,,,,,,TRUE,,,,,CAVOK,,,,,,,,VFR,,,,,,,,,,,,METAR,779.0
ZBTJ 291530Z 27005MPS 240V300 CAVOK 26/05 Q1002 NOSIG,ZBTJ,2017-04-29T15:30:00Z,39.12,117.35,26.0,5.0,270,10,,6.21,29.586615,,,,,,TRUE,,,,,CAVOK,,,,,,,,VFR,,,,,,,,,,,,METAR,3.0
ZBAA 291530Z 02002MPS CAVOK 17/08 Q1001 NOSIG,ZBAA,2017-04-29T15:30:00Z,40.07,116.58,17.0,8.0,20,4,,6.21,29.557087,,,,,,TRUE,,,,,CAVOK,,,,,,,,VFR,,,,,,,,,,,,METAR,30.0
DTTJ 291530Z 06011KT 8000 NSC 20/11 Q1012 NOSIG,DTTJ,2017-04-29T15:30:00Z,33.87,10.77,20.0,11.0,60,11,,4.97,29.88189,,,,,,TRUE,,,,,CLR,,,,,,,,MVFR,,,,,,,,,,,,METAR,4.0
DTTA 291530Z 02018KT 9999 FEW030 19/08 Q1013 NOSIG,DTTA,2017-04-29T15:30:00Z,36.85,10.22,19.0,8.0,20,18,,6.21,29.911417,,,,,,TRUE,,,,,FEW,3000,,,,,,,VFR,,,,,,,,,,,,METAR,4.0
DTNH 291530Z AUTO 01014KT CAVOK 21/10 Q1011,DTNH,2017-04-29T15:30:00Z,36.07,10.43,21.0,10.0,10,14,,6.21,29.852362,,,TRUE,,,,,,,,CAVOK,,,,,,,,VFR,,,,,,,,,,,,METAR,2.0
DTMB 291530Z 02013KT CAVOK 20/12 Q1012 NOSIG,DTMB,2017-04-29T15:30:00Z,35.77,10.75,20.0,12.0,20,13,,6.21,29.88189,,,,,,TRUE,,,,,CAVOK,,,,,,,,VFR,,,,,,,,,,,,METAR,2.0
RKSI 291530Z 18008KT 6000 FEW030 14/09 Q1006 NOSIG,RKSI,2017-04-29T15:30:00Z,37.47,126.45,14.0,9.0,180,8,,3.73,29.704725,,,,,,TRUE,,,,,FEW,3000,,,,,,,MVFR,,,,,,,,,,,,METAR,7.0
UMMS 291530Z 23006G09MPS 9999 BKN018 09/06 Q1014 R31/CLRD// NOSIG,UMMS,2017-04-29T15:30:00Z,53.88,28.03,9.0,6.0,230,12,17,6.21,29.940945,,,,,,TRUE,,,,,BKN,1800,,,,,,,MVFR,,,,,,,,,,,,SPECI,205.0
UMGG 291530Z 21003MPS CAVOK 21/09 Q1013 R10/CLRD// NOSIG,UMGG,2017-04-29T15:30:00Z,52.53,31.02,21.0,9.0,210,6,,6.21,29.911417,,,,,,TRUE,,,,,CAVOK,,,,,,,,VFR,,,,,,,,,,,,SPECI,144.0
LETL 291530Z AUTO 15013KT 9999 OVC013/// 07/06 Q1013,LETL,2017-04-29T15:30:00Z,40.42,-1.22,7.0,6.0,150,13,,6.21,29.911417,,,TRUE,,,,,,,,OVC,1300,,,,,,,MVFR,,,,,,,,,,,,METAR,1013.0
LEAG 291530Z AUTO 07010KT 9999 FEW021 16/14 Q1014,LEAG,2017-04-29T15:30:00Z,,,16.0,14.0,70,10,,6.21,29.940945,,,TRUE,,,,,,,,FEW,2100,,,,,,,VFR,,,,,,,,,,,,METAR,
LEXJ 291530Z 06007KT 9999 SCT080 19/08 Q1004,LEXJ,2017-04-29T15:30:00Z,43.42,-3.82,19.0,8.0,60,7,,6.21,29.64567,,,,,,,,,,,SCT,8000,,,,,,,VFR,,,,,,,,,,,,METAR,6.0
LEPP 291530Z 14013G23KT 100V170 9999 BKN045 15/05 Q1011,LEPP,2017-04-29T15:30:00Z,42.77,-1.65,15.0,5.0,140,13,23,6.21,29.852362,,,,,,,,,,,BKN,4500,,,,,,,VFR,,,,,,,,,,,,METAR,459.0
LELL 291530Z 20012KT 170V230 9999 SCT040 16/07 Q1014,LELL,2017-04-29T15:30:00Z,41.52,2.1,16.0,7.0,200,12,,6.21,29.940945,,,,,,,,,,,SCT,4000,,,,,,,VFR,,,,,,,,,,,,METAR,250.0
LEJR 291530Z 21012KT 170V240 9999 SCT032 21/13 Q1012,LEJR,2017-04-29T15:30:00Z,36.75,-6.07,21.0,13.0,210,12,,6.21,29.88189,,,,,,,,,,,SCT,3200,,,,,,,VFR,,,,,,,,,,,,METAR,30.0
LEZG 291530Z 10008KT 070V160 9999 BKN050 17/06 Q1011,LEZG,2017-04-29T15:30:00Z,41.67,-1.02,17.0,6.0,100,8,,6.21,29.852362,,,,,,,,,,,BKN,5000,,,,,,,VFR,,,,,,,,,,,,METAR,258.0
LEVT 291530Z 14008KT 100V200 9999 FEW040 SCT058 BKN075 17/06 Q1008,LEVT,2017-04-29T15:30:00Z,42.87,-2.72,17.0,6.0,140,8,,6.21,29.763779,,,,,,,,,,,FEW,4000,SCT,5800,BKN,7500,,,VFR,,,,,,,,,,,,METAR,509.0
LEST 291530Z 24015G25KT 200V290 9999 SCT030 12/06 Q1008 NOSIG,LEST,2017-04-29T15:30:00Z,42.88,-8.42,12.0,6.0,240,15,25,6.21,29.763779,,,,,,TRUE,,,,,SCT,3000,,,,,,,VFR,,,,,,,,,,,,METAR,367.0
LESO 291530Z 16011KT 120V190 CAVOK 19/05 Q1008,LESO,2017-04-29T15:30:00Z,43.35,-1.8,19.0,5.0,160,11,,6.21,29.763779,,,,,,,,,,,CAVOK,,,,,,,,VFR,,,,,,,,,,,,METAR,8.0
LERS 291530Z 19010KT 150V230 9999 FEW030 BKN040 14/07 Q1014,LERS,2017-04-29T15:30:00Z,41.13,1.17,14.0,7.0,190,10,,6.21,29.940945,,,,,,,,,,,FEW,3000,BKN,4000,,,,,VFR,,,,,,,,,,,,METAR,76.0
LEMH 291530Z 14005KT 070V200 9999 SCT036 16/07 Q1015,LEMH,2017-04-29T15:30:00Z,39.87,4.22,16.0,7.0,140,5,,6.21,29.970472,,,,,,,,,,,SCT,3600,,,,,,,VFR,,,,,,,,,,,,METAR,82.0
LEGR 291530Z 31003KT 260V010 9999 FEW020 BKN042 17/12 Q1013,LEGR,2017-04-29T15:30:00Z,37.17,-3.77,17.0,12.0,310,3,,6.21,29.911417,,,,,,,,,,,FEW,2000,BKN,4200,,,,,VFR,,,,,,,,,,,,METAR,559.0
LEGE 291530Z 21017KT 180V240 9999 FEW050 16/07 Q1012,LEGE,2017-04-29T15:30:00Z,41.88,2.77,16.0,7.0,210,17,,6.21,29.88189,,,,,,,,,,,FEW,5000,,,,,,,VFR,,,,,,,,,,,,METAR,129.0
LECO 291530Z 22016KT 190V260 9999 FEW030 BKN045 16/06 Q1007 NOSIG,LECO,2017-04-29T15:30:00Z,43.28,-8.37,16.0,6.0,220,16,,6.21,29.734253,,,,,,TRUE,,,,,FEW,3000,BKN,4500,,,,,VFR,,,,,,,,,,,,METAR,103.0
LEBB 291530Z 19007KT 120V280 9999 FEW040 SCT071 23/09 Q1006 NOSIG,LEBB,2017-04-29T15:30:00Z,43.28,-2.92,23.0,9.0,190,7,,6.21,29.704725,,,,,,TRUE,,,,,FEW,4000,SCT,7100,,,,,VFR,,,,,,,,,,,,METAR,34.0
LEAS 291530Z 07003KT 010V110 9999 SCT050 18/03 Q1005 NOSIG,LEAS,2017-04-29T15:30:00Z,43.53,-6.02,18.0,3.0,70,3,,6.21,29.675198,,,,,,TRUE,,,,,SCT,5000,,,,,,,VFR,,,,,,,,,,,,METAR,134.0
LEAM 291530Z 19003KT 150V250 9999 FEW012 BKN030 BKN040 17/13 Q1014,LEAM,2017-04-29T15:30:00Z,36.85,-2.37,17.0,13.0,190,3,,6.21,29.940945,,,,,,,,,,,FEW,1200,BKN,3000,BKN,4000,,,MVFR,,,,,,,,,,,,METAR,21.0
LEVS 291530Z VRB01KT 6000 -RA OVC004 11/11 Q1011,LEVS,2017-04-29T15:30:00Z,40.37,-3.77,11.0,11.0,0,1,,3.73,29.852362,,,,,,,,,,-RA,OVC,400,,,,,,,LIFR,,,,,,,,,,,,METAR,687.0
LEVD 291530Z 23013KT 190V270 9999 SCT049 17/04 Q1008,LEVD,2017-04-29T15:30:00Z,41.72,-4.83,17.0,4.0,230,13,,6.21,29.763779,,,,,,,,,,,SCT,4900,,,,,,,VFR,,,,,,,,,,,,METAR,854.0
LESA 291530Z 25017KT 220V280 9999 SCT049 18/04 Q1008,LESA,2017-04-29T15:30:00Z,40.95,-5.5,18.0,4.0,250,17,,6.21,29.763779,,,,,,,,,,,SCT,4900,,,,,,,VFR,,,,,,,,,,,,METAR,795.0
LEZL 291530Z 22015KT 9999 SCT034 20/13 Q1011 NOSIG,LEZL,2017-04-29T15:30:00Z,37.42,-5.9,20.0,13.0,220,15,,6.21,29.852362,,,,,,TRUE,,,,,SCT,3400,,,,,,,VFR,,,,,,,,,,,,METAR,31.0
LEVX 291530Z 25011KT 200V280 9999 SCT033 14/06 Q1009 NOSIG,LEVX,2017-04-29T15:30:00Z,42.22,-8.62,14.0,6.0,250,11,,6.21,29.793306,,,,,,TRUE,,,,,SCT,3300,,,,,,,VFR,,,,,,,,,,,,METAR,256.0
LEVC 291530Z 12003KT 080V150 9999 OVC030 16/09 Q1014 NOSIG,LEVC,2017-04-29T15:30:00Z,39.5,-0.47,16.0,9.0,120,3,,6.21,29.940945,,,,,,TRUE,,,,,OVC,3000,,,,,,,MVFR,,,,,,,,,,,,METAR,62.0
LEPA 291530Z 24012KT 9999 FEW018 SCT052 17/08 Q1015 NOSIG,LEPA,2017-04-29T15:30:00Z,39.53,2.72,17.0,8.0,240,12,,6.21,29.970472,,,,,,TRUE,,,,,FEW,1800,SCT,5200,,,,,VFR,,,,,,,,,,,,METAR,8.0
LEMG 291530Z 10006KT 3500 BR -RA BKN005 OVC012 14/14 Q1014 NOSIG,LEMG,2017-04-29T15:30:00Z,36.67,-4.5,14.0,14.0,100,6,,2.17,29.940945,,,,,,TRUE,,,,BR -RA,BKN,500,OVC,1200,,,,,IFR,,,,,,,,,,,,METAR,7.0
LEMD 291530Z 00000KT 9999 SCT006 OVC015 12/11 Q1011 TEMPO 4000 RA BR BKN009,LEMD,2017-04-29T15:30:00Z,40.48,-3.57,12.0,11.0,0,0,,6.21,29.852362,,,,,,,,,,,SCT,600,OVC,1500,,,,,MVFR,,,,,,,,,,,,SPECI,582.0
LEIB 291530Z 10008KT 060V150 9999 FEW030 17/08 Q1015 NOSIG,LEIB,2017-04-29T15:30:00Z,38.87,1.37,17.0,8.0,100,8,,6.21,29.970472,,,,,,TRUE,,,,,FEW,3000,,,,,,,VFR,,,,,,,,,,,,METAR,12.0
LEBL 291530Z 23014KT 9999 OVC039 15/07 Q1015 NOSIG,LEBL,2017-04-29T15:30:00Z,41.27,2.07,15.0,7.0,230,14,,6.21,29.970472,,,,,,TRUE,,,,,OVC,3900,,,,,,,VFR,,,,,,,,,,,,METAR,6.0
LEAL 291530Z 12006KT 060V190 9999 SCT028 OVC036 16/09 Q1015 NOSIG,LEAL,2017-04-29T15:30:00Z,38.27,-0.55,16.0,9.0,120,6,,6.21,29.970472,,,,,,TRUE,,,,,SCT,2800,OVC,3600,,,,,VFR,,,,,,,,,,,,METAR,31.0
GCHI 291530Z 16005KT 110V230 9999 FEW020 SCT030TCU 24/17 Q1015,GCHI,2017-04-29T15:30:00Z,27.82,-17.87,24.0,17.0,160,5,,6.21,29.970472,,,,,,,,,,,FEW,2000,SCT,3000,,,,,VFR,,,,,,,,,,,,METAR,30.0
GCGM 291530Z 21005KT 160V260 9999 FEW030TCU 22/17 Q1016 RMK R09/19003KT 110V230 ARP/20004KT 110V270,GCGM,2017-04-29T15:30:00Z,28.03,-17.22,22.0,17.0,210,5,,6.21,30.0,,,,,,,,,,,FEW,3000,,,,,,,VFR,,,,,,,,,,,,METAR,219.0
GCXO 291530Z 32013KT 290V360 9999 SCT010TCU 21/14 Q1017 NOSIG,GCXO,2017-04-29T15:30:00Z,28.48,-16.35,21.0,14.0,320,13,,6.21,30.029528,,,,,,TRUE,,,,,SCT,1000,,,,,,,VFR,,,,,,,,,,,,METAR,632.0
GCTS 291530Z 09015KT 9999 FEW015 FEW030TCU 23/17 Q1015 NOSIG,GCTS,2017-04-29T15:30:00Z,28.05,-16.57,23.0,17.0,90,15,,6.21,29.970472,,,,,,TRUE,,,,,FEW,1500,FEW,3000,,,,,VFR,,,,,,,,,,,,METAR,72.0
GCRR 291530Z 18011KT 9999 VCSH FEW035TCU SCT045 22/19 Q1014,GCRR,2017-04-29T15:30:00Z,28.93,-13.58,22.0,19.0,180,11,,6.21,29.940945,,,,,,,,,,VCSH,FEW,3500,SCT,4500,,,,,VFR,,,,,,,,,,,,METAR,40.0
GCLP 291530Z 03010KT 9999 SCT020 BKN035 22/17 Q1015 TEMPO 4500 RA,GCLP,2017-04-29T15:30:00Z,27.92,-15.37,22.0,17.0,30,10,,6.21,29.970472,,,,,,,,,,,SCT,2000,BKN,3500,,,,,VFR,,,,,,,,,,,,SPECI,25.0
GCLA 291530Z 02003KT 300V060 9999 -RA FEW020 FEW030TCU BKN050 20/18 Q1016 RERA,GCLA,2017-04-29T15:30:00Z,28.62,-17.75,20.0,18.0,20,3,,6.21,30.0,,,,,,,,,,-RA,FEW,2000,FEW,3000,BKN,5000,,,VFR,,,,,,,,,,,,METAR,31.0
GCFV 291530Z 14008KT 110V170 9999 FEW040 SCT048 22/20 Q1014,GCFV,2017-04-29T15:30:00Z,28.43,-13.87,22.0,20.0,140,8,,6.21,29.940945,,,,,,,,,,,FEW,4000,SCT,4800,,,,,VFR,,,,,,,,,,,,METAR,23.0
LFMY 291530Z AUTO 18011KT 140V250 CAVOK 17/03 Q1014,LFMY,2017-04-29T15:30:00Z,43.6,5.08,17.0,3.0,180,11,,6.21,29.940945,,,TRUE,,,,,,,,CAVOK,,,,,,,,VFR,,,,,,,,,,,,METAR,60.0
LFMO 291530Z AUTO 19010KT 160V220 CAVOK 20/01 Q1013 NOSIG,LFMO,2017-04-29T15:30:00Z,44.12,4.87,20.0,1.0,190,10,,6.21,29.911417,,,TRUE,,,TRUE,,,,,CAVOK,,,,,,,,VFR,,,,,,,,,,,,METAR,55.0
LFMC 291530Z AUTO 13009KT 100V160 9999 ////// 19/M02 Q1014,LFMC,2017-04-29T15:30:00Z,43.37,6.37,19.0,-2.0,130,9,,6.21,29.940945,,,TRUE,,,,,,,,,,,,,,,,,,,,,,,,,,,,METAR,78.0
LFKS 291530Z AUTO 06006KT 020V100 CAVOK 18/06 Q1014,LFKS,2017-04-29T15:30:00Z,41.92,9.4,18.0,6.0,60,6,,6.21,29.940945,,,TRUE,,,,,,,,CAVOK,,,,,,,,VFR,,,,,,,,,,,,METAR,22.0
LFBY 291530Z AUTO 13007KT 9999 // ////// 21/03 Q1008,LFBY,2017-04-29T15:30:00Z,43.67,-1.07,21.0,3.0,130,7,,6.21,29.763779,,,TRUE,,,,,,,,,,,,,,,,,,,,,,,,,,,,METAR,32.0
LFBM 291530Z AUTO VRB05KT CAVOK 21/M01 Q1008,LFBM,2017-04-29T15:30:00Z,43.92,-0.5,21.0,-1.0,0,5,,6.21,29.763779,,,TRUE,,,,,,,,CAVOK,,,,,,,,VFR,,,,,,,,,,,,METAR,63.0
LFBC 291530Z AUTO 25008KT 210V280 CAVOK 22/01 Q1007 NOSIG,LFBC,2017-04-29T15:30:00Z,44.52,-1.12,22.0,1.0,250,8,,6.21,29.734253,,,TRUE,,,TRUE,,,,,CAVOK,,,,,,,,VFR,,,,,,,,,,,,METAR,33.0
LFML 291530Z AUTO 17016KT CAVOK 18/M01 Q1014 BECMG 18020G30KT,LFML,2017-04-29T15:30:00Z,43.45,5.22,18.0,-1.0,170,16,,6.21,29.940945,,,TRUE,,,,,,,,CAVOK,,,,,,,,VFR,,,,,,,,,,,,SPECI,36.0
LFLX 291530Z AUTO 10013KT 060V120 CAVOK 17/02 Q1011 NOSIG,LFLX,2017-04-29T15:30:00Z,46.85,1.72,17.0,2.0,100,13,,6.21,29.852362,,,TRUE,,,TRUE,,,,,CAVOK,,,,,,,,VFR,,,,,,,,,,,,METAR,157.0
LFLB 291530Z AUTO 36007KT CAVOK 16/02 Q1013 NOSIG,LFLB,2017-04-29T15:30:00Z,45.63,5.87,16.0,2.0,360,7,,6.21,29.911417,,,TRUE,,,TRUE,,,,,CAVOK,,,,,,,,VFR,,,,,,,,,,,,METAR,239.0
LFCK 291530Z AUTO 12018KT CAVOK 18/M02 Q1011 TEMPO 14022G37KT,LFCK,2017-04-29T15:30:00Z,43.55,2.28,18.0,-2.0,120,18,,6.21,29.852362,,,TRUE,,,,,,,,CAVOK,,,,,,,,VFR,,,,,,,,,,,,METAR,240.0
LFBZ 291530Z AUTO 18011KT 130V250 CAVOK 19/04 Q1008 NOSIG,LFBZ,2017-04-29T15:30:00Z,43.47,-1.52,19.0,4.0,180,11,,6.21,29.763779,,,TRUE,,,TRUE,,,,,CAVOK,,,,,,,,VFR,,,,,,,,,,,,METAR,71.0
LFBT 291530Z AUTO 06007KT 010V110 9999 OVC100 18/00 Q1008 NOSIG,LFBT,2017-04-29T15:30:00Z,43.17,0.0,18.0,0.0,60,7,,6.21,29.763779,,,TRUE,,,TRUE,,,,,OVC,10000,,,,,,,VFR,,,,,,,,,,,,METAR,363.0
LFBP 291530Z AUTO 14004KT 070V210 CAVOK 20/01 Q1008 NOSIG,LFBP,2017-04-29T15:30:00Z,43.37,-0.42,20.0,1.0,140,4,,6.21,29.763779,,,TRUE,,,TRUE,,,,,CAVOK,,,,,,,,VFR,,,,,,,,,,,,METAR,185.0
LFBO 291530Z AUTO 12010KT CAVOK 18/M04 Q1010 NOSIG,LFBO,2017-04-29T15:30:00Z,43.62,1.37,18.0,-4.0,120,10,,6.21,29.822834,,,TRUE,,,TRUE,,,,,CAVOK,,,,,,,,VFR,,,,,,,,,,,,METAR,153.0
LFBL 291530Z AUTO 13010KT 100V170 CAVOK 17/M02 Q1010 NOSIG,LFBL,2017-04-29T15:30:00Z,45.87,1.17,17.0,-2.0,130,10,,6.21,29.822834,,,TRUE,,,TRUE,,,,,CAVOK,,,,,,,,VFR,,,,,,,,,,,,METAR,402.0
LFBI 291530Z AUTO 12008KT 070V180 CAVOK 19/01 Q1009 NOSIG,LFBI,2017-04-29T15:30:00Z,46.57,0.32,19.0,1.0,120,8,,6.21,29.793306,,,TRUE,,,TRUE,,,,,CAVOK,,,,,,,,VFR,,,,,,,,,,,,METAR,120.0
LFBH 291530Z AUTO 18009KT 140V200 CAVOK 19/01 Q1009 NOSIG,LFBH,2017-04-29T15:30:00Z,46.18,-1.2,19.0,1.0,180,9,,6.21,29.793306,,,TRUE,,,TRUE,,,,,CAVOK,,,,,,,,VFR,,,,,,,,,,,,METAR,10.0
LFBD 291530Z AUTO 11012KT CAVOK 20/00 Q1008 NOSIG,LFBD,2017-04-29T15:30:00Z,44.82,-0.7,20.0,0.0,110,12,,6.21,29.763779,,,TRUE,,,TRUE,,,,,CAVOK,,,,,,,,VFR,,,,,,,,,,,,METAR,61.0
LJPZ 291530Z 21006KT 170V250 9999 FEW060 SCT090 18/05 Q1015,LJPZ,2017-04-29T15:30:00Z,45.47,13.62,18.0,5.0,210,6,,6.21,29.970472,,,,,,,,,,,FEW,6000,SCT,9000,,,,,VFR,,,,,,,,,,,,METAR,2.0
LJMB 291530Z 33006KT 320V020 CAVOK 12/00 Q1017,LJMB,2017-04-29T15:30:00Z,46.47,15.67,12.0,0.0,330,6,,6.21,30.029528,,,,,,,,,,,CAVOK,,,,,,,,VFR,,,,,,,,,,,,METAR,265.0
LJLJ 291530Z 12006KT 090V150 9999 FEW060 BKN090 14/00 Q1016 NOSIG,LJLJ,2017-04-29T15:30:00Z,46.22,14.47,14.0,0.0,120,6,,6.21,30.0,,,,,,TRUE,,,,,FEW,6000,BKN,9000,,,,,VFR,,,,,,,,,,,,METAR,385.0
LFRS 291530Z AUTO 17011KT 120V210 CAVOK 19/01 Q1008 NOSIG,LFRS,2017-04-29T15:30:00Z,47.17,-1.6,19.0,1.0,170,11,,6.21,29.763779,,,TRUE,,,TRUE,,,,,CAVOK,,,,,,,,VFR,,,,,,,,,,,,METAR,27.0
LFRB 291530Z AUTO 16019G29KT 9999 NCD 16/02 Q1007 NOSIG,LFRB,2017-04-29T15:30:00Z,48.45,-4.42,16.0,2.0,160,19,29,6.21,29.734253,,,TRUE,,,TRUE,,,,,CLR,,,,,,,,VFR,,,,,,,,,,,,METAR,103.0
LFQQ 291530Z AUTO 13006KT 090V160 CAVOK 16/03 Q1015 NOSIG,LFQQ,2017-04-29T15:30:00Z,50.57,3.1,16.0,3.0,130,6,,6.21,29.970472,,,TRUE,,,TRUE,,,,,CAVOK,,,,,,,,VFR,,,,,,,,,,,,METAR,52.0
LFPO 291530Z 11009KT 070V140 CAVOK 16/02 Q1013 NOSIG,LFPO,2017-04-29T15:30:00Z,48.72,2.38,16.0,2.0,110,9,,6.21,29.911417,,,,,,TRUE,,,,,CAVOK,,,,,,,,VFR,,,,,,,,,,,,METAR,96.0
LFPG 291530Z 10010KT 070V130 CAVOK 16/02 Q1013 NOSIG,LFPG,2017-04-29T15:30:00Z,49.02,2.52,16.0,2.0,100,10,,6.21,29.911417,,,,,,TRUE,,,,,CAVOK,,,,,,,,VFR,,,,,,,,,,,,METAR,109.0
LFMN 291530Z 17004KT 140V200 9999 FEW033 17/05 Q1015 NOSIG,LFMN,2017-04-29T15:30:00Z,43.63,7.2,17.0,5.0,170,4,,6.21,29.970472,,,,,,TRUE,,,,,FEW,3300,,,,,,,VFR,,,,,,,,,,,,METAR,10.0
LFLL 291530Z 21007KT 160V240 CAVOK 18/M02 Q1013 NOSIG,LFLL,2017-04-29T15:30:00Z,45.72,5.07,18.0,-2.0,210,7,,6.21,29.911417,,,,,,TRUE,,,,,CAVOK,,,,,,,,VFR,,,,,,,,,,,,METAR,240.0
LJCE 291530Z AUTO 08005KT 9999 NSC 13/02 Q1017,LJCE,2017-04-29T15:30:00Z,45.9,15.52,13.0,2.0,80,5,,6.21,30.029528,,,TRUE,,,,,,,,CLR,,,,,,,,VFR,,,,,,,,,,,,METAR,155.0
LFRL 291530Z AUTO 15018KT 120V180 9999 NCD 14/02 Q1007,LFRL,2017-04-29T15:30:00Z,48.27,-4.42,14.0,2.0,150,18,,6.21,29.734253,,,TRUE,,,,,,,,CLR,,,,,,,,VFR,,,,,,,,,,,,METAR,82.0
LFRJ 291530Z AUTO 16016KT 130V200 9999 NCD 16/01 Q1007,LFRJ,2017-04-29T15:30:00Z,48.52,-4.15,16.0,1.0,160,16,,6.21,29.734253,,,TRUE,,,,,,,,CLR,,,,,,,,VFR,,,,,,,,,,,,METAR,115.0
LFOJ 291530Z AUTO 13010KT 090V160 CAVOK 16/02 Q1011 NOSIG,LFOJ,2017-04-29T15:30:00Z,47.97,1.75,16.0,2.0,130,10,,6.21,29.852362,,,TRUE,,,TRUE,,,,,CAVOK,,,,,,,,VFR,,,,,,,,,,,,METAR,125.0
LFOE 291530Z AUTO 12011KT CAVOK 16/03 Q1012,LFOE,2017-04-29T15:30:00Z,49.02,1.22,16.0,3.0,120,11,,6.21,29.88189,,,TRUE,,,,,,,,CAVOK,,,,,,,,VFR,,,,,,,,,,,,METAR,146.0
LFOC 291530Z AUTO 12012KT 040V150 CAVOK 18/01 Q1012,LFOC,2017-04-29T15:30:00Z,48.03,1.37,18.0,1.0,120,12,,6.21,29.88189,,,TRUE,,,,,,,,CAVOK,,,,,,,,VFR,,,,,,,,,,,,METAR,127.0
LRTC 291530Z 13007KT CAVOK 15/11 Q1013,LRTC,2017-04-29T15:30:00Z,45.07,28.72,15.0,11.0,130,7,,6.21,29.911417,,,,,,,,,,,CAVOK,,,,,,,,VFR,,,,,,,,,,,,METAR,6.0
LRSV 291530Z 34020KT 9000 -SHRA SCT027CB SCT031 09/08 Q1014,LRSV,2017-04-29T15:30:00Z,47.68,26.35,9.0,8.0,340,20,,5.59,29.940945,,,,,,,,,,-SHRA,SCT,2700,SCT,3100,,,,,VFR,,,,,,,,,,,,METAR,351.0
LRIA 291530Z 31004KT CAVOK 18/13 Q1012,LRIA,2017-04-29T15:30:00Z,47.17,27.62,18.0,13.0,310,4,,6.21,29.88189,,,,,,,,,,,CAVOK,,,,,,,,VFR,,,,,,,,,,,,METAR,104.0
LRCV 291530Z 19003KT 9999 FEW043 19/13 Q1011,LRCV,2017-04-29T15:30:00Z,44.32,23.88,19.0,13.0,190,3,,6.21,29.852362,,,,,,,,,,,FEW,4300,,,,,,,VFR,,,,,,,,,,,,METAR,191.0
LRBC 291530Z 07003KT 010V120 9999 FEW042CB SCT065 20/14 Q1011,LRBC,2017-04-29T15:30:00Z,46.52,26.92,20.0,14.0,70,3,,6.21,29.852362,,,,,,,,,,,FEW,4200,SCT,6500,,,,,VFR,,,,,,,,,,,,METAR,185.0
LFSN 291530Z AUTO 10005KT 020V190 CAVOK 15/01 Q1015,LFSN,2017-04-29T15:30:00Z,48.67,6.22,15.0,1.0,100,5,,6.21,29.970472,,,TRUE,,,,,,,,CAVOK,,,,,,,,VFR,,,,,,,,,,,,METAR,217.0
LFQB 291530Z AUTO 07007KT 040V110 CAVOK 15/03 Q1014,LFQB,2017-04-29T15:30:00Z,48.32,4.02,15.0,3.0,70,7,,6.21,29.940945,,,TRUE,,,,,,,,CAVOK,,,,,,,,VFR,,,,,,,,,,,,METAR,118.0
LFQA 291530Z AUTO 10005KT 050V170 CAVOK 16/01 Q1014,LFQA,2017-04-29T15:30:00Z,49.2,4.15,16.0,1.0,100,5,,6.21,29.940945,,,TRUE,,,,,,,,CAVOK,,,,,,,,VFR,,,,,,,,,,,,METAR,95.0
LFPB 291530Z AUTO 11009KT 040V200 CAVOK 17/03 Q1013 NOSIG,LFPB,2017-04-29T15:30:00Z,48.97,2.45,17.0,3.0,110,9,,6.21,29.911417,,,TRUE,,,TRUE,,,,,CAVOK,,,,,,,,VFR,,,,,,,,,,,,METAR,65.0
LFOP 291530Z AUTO 12010KT 090V160 CAVOK 15/02 Q1012 NOSIG,LFOP,2017-04-29T15:30:00Z,49.37,1.17,15.0,2.0,120,10,,6.21,29.88189,,,TRUE,,,TRUE,,,,,CAVOK,,,,,,,,VFR,,,,,,,,,,,,METAR,157.0
LFOK 291530Z AUTO 05007KT 020V090 CAVOK 15/02 Q1014 NOSIG,LFOK,2017-04-29T15:30:00Z,48.78,4.18,15.0,2.0,50,7,,6.21,29.940945,,,TRUE,,,TRUE,,,,,CAVOK,,,,,,,,VFR,,,,,,,,,,,,METAR,162.0
LFOH 291530Z AUTO 13011KT 090V160 CAVOK 16/03 Q1011 NOSIG,LFOH,2017-04-29T15:30:00Z,49.52,0.07,16.0,3.0,130,11,,6.21,29.852362,,,TRUE,,,TRUE,,,,,CAVOK,,,,,,,,VFR,,,,,,,,,,,,METAR,103.0
LFOB 291530Z AUTO 14007KT CAVOK 15/04 Q1013 NOSIG,LFOB,2017-04-29T15:30:00Z,49.47,2.12,15.0,4.0,140,7,,6.21,29.911417,,,TRUE,,,TRUE,,,,,CAVOK,,,,,,,,VFR,,,,,,,,,,,,METAR,111.0
LFMU 291530Z AUTO 14010KT 100V170 CAVOK 15/05 Q1014 NOSIG,LFMU,2017-04-29T15:30:00Z,43.32,3.35,15.0,5.0,140,10,,6.21,29.940945,,,TRUE,,,TRUE,,,,,CAVOK,,,,,,,,VFR,,,,,,,,,,,,METAR,17.0
LFMT 291530Z AUTO 15010KT CAVOK 15/05 Q1014 NOSIG,LFMT,2017-04-29T15:30:00Z,43.57,3.97,15.0,5.0,150,10,,6.21,29.940945,,,TRUE,,,TRUE,,,,,CAVOK,,,,,,,,VFR,,,,,,,,,,,,METAR,6.0
LFLY 291530Z AUTO 15004KT 070V240 CAVOK 18/00 Q1012 NOSIG,LFLY,2017-04-29T15:30:00Z,45.72,4.95,18.0,0.0,150,4,,6.21,29.88189,,,TRUE,,,TRUE,,,,,CAVOK,,,,,,,,VFR,,,,,,,,,,,,METAR,201.0
LFLU 291530Z AUTO 21011KT 180V260 CAVOK 19/01 Q1012,LFLU,2017-04-29T15:30:00Z,44.92,4.98,19.0,1.0,210,11,,6.21,29.88189,,,TRUE,,,,,,,,CAVOK,,,,,,,,VFR,,,,,,,,,,,,METAR,160.0
LFLS 291530Z AUTO 24007KT 180V310 CAVOK 17/M01 Q1013 NOSIG,LFLS,2017-04-29T15:30:00Z,45.37,5.32,17.0,-1.0,240,7,,6.21,29.911417,,,TRUE,,,TRUE,,,,,CAVOK,,,,,,,,VFR,,,,,,,,,,,,METAR,386.0
LFLP 291530Z AUTO VRB03KT CAVOK 16/M01 Q1014 NOSIG,LFLP,2017-04-29T15:30:00Z,45.92,6.08,16.0,-1.0,0,3,,6.21,29.940945,,,TRUE,,,TRUE,,,,,CAVOK,,,,,,,,VFR,,,,,,,,,,,,METAR,463.0
LFJL 291530Z AUTO VRB02KT CAVOK 15/01 Q1015 NOSIG,LFJL,2017-04-29T15:30:00Z,48.97,6.25,15.0,1.0,0,2,,6.21,29.970472,,,TRUE,,,TRUE,,,,,CAVOK,,,,,,,,VFR,,,,,,,,,,,,METAR,264.0
LFCR 291530Z AUTO 16014KT CAVOK 16/M03 Q1011 NOSIG,LFCR,2017-04-29T15:30:00Z,44.38,2.47,16.0,-3.0,160,14,,6.21,29.852362,,,TRUE,,,TRUE,,,,,CAVOK,,,,,,,,VFR,,,,,,,,,,,,METAR,580.0
LFTW 291530Z AUTO 18013KT 150V210 CAVOK 17/05 Q1014 NOSIG,LFTW,2017-04-29T15:30:00Z,43.75,4.42,17.0,5.0,180,13,,6.21,29.940945,,,TRUE,,,TRUE,,,,,CAVOK,,,,,,,,VFR,,,,,,,,,,,,METAR,96.0
LFSD 291530Z AUTO 10006KT 010V140 CAVOK 16/01 Q1014,LFSD,2017-04-29T15:30:00Z,47.27,5.07,16.0,1.0,100,6,,6.21,29.940945,,,TRUE,,,,,,,,CAVOK,,,,,,,,VFR,,,,,,,,,,,,METAR,227.0
LFRT 291530Z AUTO 16010KT 140V200 9999 NCD 15/03 Q1008,LFRT,2017-04-29T15:30:00Z,48.52,-2.85,15.0,3.0,160,10,,6.21,29.763779,,,TRUE,,,,,,,,CLR,,,,,,,,VFR,,,,,,,,,,,,METAR,136.0
LFRQ 291530Z AUTO 15018G29KT 110V170 9999 FEW038/// 14/03 Q1008 NOSIG,LFRQ,2017-04-29T15:30:00Z,47.97,-4.17,14.0,3.0,150,18,29,6.21,29.763779,,,TRUE,,,TRUE,,,,,FEW,3800,,,,,,,VFR,,,,,,,,,,,,METAR,94.0
LFRH 291530Z AUTO 15014KT 9999 NCD 15/05 Q1008 TEMPO 15015G25KT,LFRH,2017-04-29T15:30:00Z,47.77,-3.45,15.0,5.0,150,14,,6.21,29.763779,,,TRUE,,,,,,,,CLR,,,,,,,,VFR,,,,,,,,,,,,METAR,44.0
LFPT 291530Z AUTO 14008KT 070V180 CAVOK 16/02 Q1013,LFPT,2017-04-29T15:30:00Z,49.1,2.03,16.0,2.0,140,8,,6.21,29.911417,,,TRUE,,,,,,,,CAVOK,,,,,,,,VFR,,,,,,,,,,,,METAR,99.0
LFPM 291530Z AUTO 10010KT 060V120 CAVOK 16/04 Q1013,LFPM,2017-04-29T15:30:00Z,48.62,2.67,16.0,4.0,100,10,,6.21,29.911417,,,TRUE,,,,,,,,CAVOK,,,,,,,,VFR,,,,,,,,,,,,METAR,92.0
LFLN 291530Z AUTO 09006KT 050V130 CAVOK 17/M01 Q1012 NOSIG,LFLN,2017-04-29T15:30:00Z,46.42,4.02,17.0,-1.0,90,6,,6.21,29.88189,,,TRUE,,,TRUE,,,,,CAVOK,,,,,,,,VFR,,,,,,,,,,,,METAR,244.0
LFGA 291530Z AUTO 04004KT 010V090 CAVOK 16/M02 Q1015,LFGA,2017-04-29T15:30:00Z,48.1,7.35,16.0,-2.0,40,4,,6.21,29.970472,,,TRUE,,,,,,,,CAVOK,,,,,,,,VFR,,,,,,,,,,,,METAR,191.0
LFBU 291530Z AUTO 19008KT 140V250 CAVOK 19/M02 Q1009 NOSIG,LFBU,2017-04-29T15:30:00Z,45.72,0.22,19.0,-2.0,190,8,,6.21,29.793306,,,TRUE,,,TRUE,,,,,CAVOK,,,,,,,,VFR,,,,,,,,,,,,METAR,133.0
LFAT 291530Z AUTO 11010KT 080V140 CAVOK 15/02 Q1014 NOSIG,LFAT,2017-04-29T15:30:00Z,50.52,1.62,15.0,2.0,110,10,,6.21,29.940945,,,TRUE,,,TRUE,,,,,CAVOK,,,,,,,,VFR,,,,,,,,,,,,METAR,14.0
LFAQ 291530Z AUTO 09008KT CAVOK 15/01 Q1014 NOSIG,LFAQ,2017-04-29T15:30:00Z,49.97,2.7,15.0,1.0,90,8,,6.21,29.940945,,,TRUE,,,TRUE,,,,,CAVOK,,,,,,,,VFR,,,,,,,,,,,,METAR,111.0
LFTH 291530Z AUTO 12009KT CAVOK 17/08 Q1015 NOSIG,LFTH,2017-04-29T15:30:00Z,43.1,6.15,17.0,8.0,120,9,,6.21,29.970472,,,TRUE,,,TRUE,,,,,CAVOK,,,,,,,,VFR,,,,,,,,,,,,METAR,4.0
LFST 291530Z AUTO 22003KT 140V300 CAVOK 16/M00 Q1015 NOSIG,LFST,2017-04-29T15:30:00Z,48.53,7.62,16.0,0.0,220,3,,6.21,29.970472,,,TRUE,,,TRUE,,,,,CAVOK,,,,,,,,VFR,,,,,,,,,,,,METAR,154.0
LFSG 291530Z AUTO 03003KT 350V080 CAVOK 15/01 Q1015,LFSG,2017-04-29T15:30:00Z,48.33,6.07,15.0,1.0,30,3,,6.21,29.970472,,,TRUE,,,,,,,,CAVOK,,,,,,,,VFR,,,,,,,,,,,,METAR,330.0
LFSB 291530Z 07005KT 010V140 CAVOK 16/M03 Q1015 NOSIG,LFSB,2017-04-29T15:30:00Z,47.6,7.52,16.0,-3.0,70,5,,6.21,29.970472,,,,,,TRUE,,,,,CAVOK,,,,,,,,VFR,,,,,,,,,,,,METAR,271.0
LFRZ 291530Z AUTO 22007KT 190V290 CAVOK 18/05 Q1008 NOSIG,LFRZ,2017-04-29T15:30:00Z,47.32,-2.17,18.0,5.0,220,7,,6.21,29.763779,,,TRUE,,,TRUE,,,,,CAVOK,,,,,,,,VFR,,,,,,,,,,,,METAR,4.0
LFRV 291530Z AUTO 18008KT 150V220 CAVOK 16/04 Q1008,LFRV,2017-04-29T15:30:00Z,47.72,-2.72,16.0,4.0,180,8,,6.21,29.763779,,,TRUE,,,,,,,,CAVOK,,,,,,,,VFR,,,,,,,,,,,,METAR,133.0
LFRO 291530Z AUTO 12010KT 090V170 9999 NCD 16/04 Q1008 NOSIG,LFRO,2017-04-29T15:30:00Z,48.75,-3.47,16.0,4.0,120,10,,6.21,29.763779,,,TRUE,,,TRUE,,,,,CLR,,,,,,,,VFR,,,,,,,,,,,,METAR,89.0
LFRN 291530Z AUTO 15014KT CAVOK 16/01 Q1009 NOSIG,LFRN,2017-04-29T15:30:00Z,48.07,-1.72,16.0,1.0,150,14,,6.21,29.793306,,,TRUE,,,TRUE,,,,,CAVOK,,,,,,,,VFR,,,,,,,,,,,,METAR,37.0
LFRM 291530Z AUTO 12010KT 070V180 CAVOK 19/01 Q1010 NOSIG,LFRM,2017-04-29T15:30:00Z,47.95,0.2,19.0,1.0,120,10,,6.21,29.822834,,,TRUE,,,TRUE,,,,,CAVOK,,,,,,,,VFR,,,,,,,,,,,,METAR,52.0
LFRI 291530Z AUTO 15012KT 110V170 9999 FEW008 18/01 Q1009 NOSIG,LFRI,2017-04-29T15:30:00Z,46.7,-1.37,18.0,1.0,150,12,,6.21,29.793306,,,TRUE,,,TRUE,,,,,FEW,800,,,,,,,VFR,,,,,,,,,,,,METAR,91.0
LFRD 291530Z AUTO 15010KT CAVOK 16/04 Q1009 NOSIG,LFRD,2017-04-29T15:30:00Z,48.58,-2.07,16.0,4.0,150,10,,6.21,29.793306,,,TRUE,,,TRUE,,,,,CAVOK,,,,,,,,VFR,,,,,,,,,,,,METAR,59.0
LFOV 291530Z AUTO 14012KT CAVOK 17/02 Q1010,LFOV,2017-04-29T15:30:00Z,48.03,-0.75,17.0,2.0,140,12,,6.21,29.822834,,,TRUE,,,,,,,,CAVOK,,,,,,,,VFR,,,,,,,,,,,,METAR,101.0
LFMK 291530Z AUTO 09019KT CAVOK 17/03 Q1011 NOSIG,LFMK,2017-04-29T15:30:00Z,43.22,2.32,17.0,3.0,90,19,,6.21,29.852362,,,TRUE,,,TRUE,,,,,CAVOK,,,,,,,,VFR,,,,,,,,,,,,METAR,130.0
LFMI 291530Z AUTO 17013KT CAVOK 17/10 Q1014 NOSIG,LFMI,2017-04-29T15:30:00Z,43.52,4.92,17.0,10.0,170,13,,6.21,29.940945,,,TRUE,,,TRUE,,,,,CAVOK,,,,,,,,VFR,,,,,,,,,,,,METAR,24.0
LRTM 291530Z 33012KT 9999 -SHRA FEW037 SCT043CB 15/08 Q1012,LRTM,2017-04-29T15:30:00Z,46.47,24.42,15.0,8.0,330,12,,6.21,29.88189,,,,,,,,,,-SHRA,FEW,3700,SCT,4300,,,,,VFR,,,,,,,,,,,,METAR,309.0
LRSM 291530Z AUTO 01002KT 300V040 9999 RA FEW040/// BKN075/// 09/08 Q1015,LRSM,2017-04-29T15:30:00Z,47.7,22.88,9.0,8.0,10,2,,6.21,29.970472,,,TRUE,,,,,,,RA,FEW,4000,BKN,7500,,,,,VFR,,,,,,,,,,,,METAR,124.0
LROD 291530Z 09003KT 050V120 9999 -RA SCT018 09/07 Q1016 R01/29//95,LROD,2017-04-29T15:30:00Z,47.03,21.92,9.0,7.0,90,3,,6.21,30.0,,,,,,,,,,-RA,SCT,1800,,,,,,,VFR,,,,,,,,,,,,METAR,140.0
LRCL 291530Z 27008KT 230V290 9999 FEW018 FEW040CB 11/06 Q1014,LRCL,2017-04-29T15:30:00Z,46.78,23.68,11.0,6.0,270,8,,6.21,29.940945,,,,,,,,,,,FEW,1800,FEW,4000,,,,,VFR,,,,,,,,,,,,METAR,413.0
LRBM 291530Z 28006KT 250V310 9999 -RA FEW016 BKN047 10/08 Q1015,LRBM,2017-04-29T15:30:00Z,47.67,23.47,10.0,8.0,280,6,,6.21,29.970472,,,,,,,,,,-RA,FEW,1600,BKN,4700,,,,,VFR,,,,,,,,,,,,METAR,185.0
LRAR 291530Z 36002KT 7000 SHRA SCT040CB BKN048 09/07 Q1016 R09/29//95,LRAR,2017-04-29T15:30:00Z,46.18,21.27,9.0,7.0,360,2,,4.35,30.0,,,,,,,,,,SHRA,SCT,4000,BKN,4800,,,,,MVFR,,,,,,,,,,,,SPECI,118.0
LFRU 291530Z AUTO 17012KT 130V200 9999 NCD 16/01 Q1007,LFRU,2017-04-29T15:30:00Z,48.6,-3.82,16.0,1.0,170,12,,6.21,29.734253,,,TRUE,,,,,,,,CLR,,,,,,,,VFR,,,,,,,,,,,,METAR,86.0
LFRK 291530Z AUTO 14011KT CAVOK 16/04 Q1011 NOSIG,LFRK,2017-04-29T15:30:00Z,49.17,-0.45,16.0,4.0,140,11,,6.21,29.852362,,,TRUE,,,TRUE,,,,,CAVOK,,,,,,,,VFR,,,,,,,,,,,,METAR,67.0
LFRG 291530Z AUTO 17009KT 110V230 CAVOK 16/03 Q1012 NOSIG,LFRG,2017-04-29T15:30:00Z,49.37,0.15,16.0,3.0,170,9,,6.21,29.88189,,,TRUE,,,TRUE,,,,,CAVOK,,,,,,,,VFR,,,,,,,,,,,,METAR,146.0
LFRC 291530Z AUTO 08012KT 050V110 CAVOK 13/07 Q1010 NOSIG,LFRC,2017-04-29T15:30:00Z,49.63,-1.47,13.0,7.0,80,12,,6.21,29.822834,,,TRUE,,,TRUE,,,,,CAVOK,,,,,,,,VFR,,,,,,,,,,,,METAR,138.0
LFPN 291530Z AUTO 13009KT 090V160 CAVOK 16/03 Q1013 NOSIG,LFPN,2017-04-29T15:30:00Z,48.75,2.12,16.0,3.0,130,9,,6.21,29.911417,,,TRUE,,,TRUE,,,,,CAVOK,,,,,,,,VFR,,,,,,,,,,,,METAR,164.0
LFOT 291530Z AUTO 12011KT 070V150 CAVOK 18/02 Q1010 NOSIG,LFOT,2017-04-29T15:30:00Z,47.43,0.72,18.0,2.0,120,11,,6.21,29.822834,,,TRUE,,,TRUE,,,,,CAVOK,,,,,,,,VFR,,,,,,,,,,,,METAR,108.0
LFMH 291530Z AUTO 04006KT 360V070 CAVOK 16/02 Q1012 NOSIG,LFMH,2017-04-29T15:30:00Z,45.52,4.28,16.0,2.0,40,6,,6.21,29.88189,,,TRUE,,,TRUE,,,,,CAVOK,,,,,,,,VFR,,,,,,,,,,,,METAR,402.0
LFMD 291530Z AUTO 19003KT 110V270 CAVOK 17/05 Q1015 NOSIG,LFMD,2017-04-29T15:30:00Z,43.53,6.95,17.0,5.0,190,3,,6.21,29.970472,,,TRUE,,,TRUE,,,,,CAVOK,,,,,,,,VFR,,,,,,,,,,,,METAR,9.0
LFJR 291530Z AUTO 11014KT CAVOK 19/01 Q1010 NOSIG,LFJR,2017-04-29T15:30:00Z,47.57,-0.3,19.0,1.0,110,14,,6.21,29.822834,,,TRUE,,,TRUE,,,,,CAVOK,,,,,,,,VFR,,,,,,,,,,,,METAR,60.0
LFGJ 291530Z AUTO 02005KT 320V050 CAVOK 17/03 Q1013 NOSIG,LFGJ,2017-04-29T15:30:00Z,47.05,5.43,17.0,3.0,20,5,,6.21,29.911417,,,TRUE,,,TRUE,,,,,CAVOK,,,,,,,,VFR,,,,,,,,,,,,METAR,196.0
LFBE 291530Z AUTO 15006KT 090V190 CAVOK 20/M01 Q1009 NOSIG,LFBE,2017-04-29T15:30:00Z,44.82,0.52,20.0,-1.0,150,6,,6.21,29.793306,,,TRUE,,,TRUE,,,,,CAVOK,,,,,,,,VFR,,,,,,,,,,,,METAR,52.0
LFBA 291530Z AUTO 11009KT 090V160 CAVOK 19/M00 Q1009 NOSIG,LFBA,2017-04-29T15:30:00Z,44.17,0.6,19.0,0.0,110,9,,6.21,29.793306,,,TRUE,,,TRUE,,,,,CAVOK,,,,,,,,VFR,,,,,,,,,,,,METAR,60.0
LRTR 291530Z VRB01KT 3000 RA BR NSC 08/07 Q1016 R11/290095,LRTR,2017-04-29T15:30:00Z,45.82,21.33,8.0,7.0,0,1,,1.86,30.0,,,,,,,,,,RA BR,CLR,,,,,,,,IFR,,,,,,,,,,,,SPECI,88.0
LRSB 291530Z 28004KT 9999 FEW043CB SCT075 16/09 Q1013,LRSB,2017-04-29T15:30:00Z,45.78,24.08,16.0,9.0,280,4,,6.21,29.911417,,,,,,,,,,,FEW,4300,SCT,7500,,,,,VFR,,,,,,,,,,,,METAR,444.0
LROP 291530Z 10002KT CAVOK 24/13 Q1011 NOSIG,LROP,2017-04-29T15:30:00Z,44.57,26.1,24.0,13.0,100,2,,6.21,29.852362,,,,,,TRUE,,,,,CAVOK,,,,,,,,VFR,,,,,,,,,,,,METAR,95.0
LRCK 291530Z 10008KT CAVOK 13/12 Q1013 NOSIG,LRCK,2017-04-29T15:30:00Z,44.37,28.48,13.0,12.0,100,8,,6.21,29.911417,,,,,,TRUE,,,,,CAVOK,,,,,,,,VFR,,,,,,,,,,,,METAR,108.0
LRBS 291530Z 04002KT CAVOK 24/13 Q1011 NOSIG,LRBS,2017-04-29T15:30:00Z,44.5,26.08,24.0,13.0,40,2,,6.21,29.852362,,,,,,TRUE,,,,,CAVOK,,,,,,,,VFR,,,,,,,,,,,,METAR,91.0
LFSL 291530Z AUTO 15009KT 110V190 CAVOK 19/M05 Q1010 NOSIG,LFSL,2017-04-29T15:30:00Z,45.03,1.48,19.0,-5.0,150,9,,6.21,29.822834,,,TRUE,,,TRUE,,,,,CAVOK,,,,,,,,VFR,,,,,,,,,,,,METAR,310.0
LFMV 291530Z AUTO 18011KT 150V210 CAVOK 19/03 Q1013 NOSIG,LFMV,2017-04-29T15:30:00Z,43.9,4.9,19.0,3.0,180,11,,6.21,29.911417,,,TRUE,,,TRUE,,,,,CAVOK,,,,,,,,VFR,,,,,,,,,,,,METAR,38.0
LFMP 291530Z AUTO 11014KT 9999 NCD 15/07 Q1013 NOSIG,LFMP,2017-04-29T15:30:00Z,42.72,2.87,15.0,7.0,110,14,,6.21,29.911417,,,TRUE,,,TRUE,,,,,CLR,,,,,,,,VFR,,,,,,,,,,,,METAR,48.0
LFLC 291530Z AUTO VRB02KT CAVOK 18/M01 Q1011 NOSIG,LFLC,2017-04-29T15:30:00Z,45.77,3.17,18.0,-1.0,0,2,,6.21,29.852362,,,TRUE,,,TRUE,,,,,CAVOK,,,,,,,,VFR,,,,,,,,,,,,METAR,330.0
LFKJ 291530Z 27006KT 230V320 9999 FEW040 19/05 Q1014 NOSIG,LFKJ,2017-04-29T15:30:00Z,41.92,8.8,19.0,5.0,270,6,,6.21,29.940945,,,,,,TRUE,,,,,FEW,4000,,,,,,,VFR,,,,,,,,,,,,METAR,9.0
LFKF 291530Z AUTO 08008KT 040V130 9999 SCT054 18/06 Q1014 NOSIG,LFKF,2017-04-29T15:30:00Z,41.5,9.08,18.0,6.0,80,8,,6.21,29.940945,,,TRUE,,,TRUE,,,,,SCT,5400,,,,,,,VFR,,,,,,,,,,,,METAR,23.0
LFKB 291530Z 01007KT 350V050 9999 FEW033 18/05 Q1014 NOSIG,LFKB,2017-04-29T15:30:00Z,42.53,9.47,18.0,5.0,10,7,,6.21,29.940945,,,,,,TRUE,,,,,FEW,3300,,,,,,,VFR,,,,,,,,,,,,METAR,12.0
LFYR 291530Z AUTO 11014KT 080V140 CAVOK 18/01 Q1011,LFYR,2017-04-29T15:30:00Z,47.32,1.67,18.0,1.0,110,14,,6.21,29.852362,,,TRUE,,,,,,,,CAVOK,,,,,,,,VFR,,,,,,,,,,,,METAR,86.0
LFSX 291530Z AUTO 17005KT 120V240 9999 ////// 16/M02 Q1014,LFSX,2017-04-29T15:30:00Z,47.77,6.33,16.0,-2.0,170,5,,6.21,29.940945,,,TRUE,,,,,,,,,,,,,,,,,,,,,,,,,,,,SPECI,273.0
LFSO 291530Z AUTO 12005KT 050V160 CAVOK 15/M00 Q1015,LFSO,2017-04-29T15:30:00Z,48.57,5.97,15.0,0.0,120,5,,6.21,29.970472,,,TRUE,,,,,,,,CAVOK,,,,,,,,VFR,,,,,,,,,,,,METAR,350.0
LFSI 291530Z AUTO 10006KT 060V140 CAVOK 16/M01 Q1014,LFSI,2017-04-29T15:30:00Z,48.62,4.9,16.0,-1.0,100,6,,6.21,29.940945,,,TRUE,,,,,,,,CAVOK,,,,,,,,VFR,,,,,,,,,,,,METAR,140.0
VIJP 291530Z 00000KT 4000 HZ SCT035 32/08 Q1008 NOSIG,VIJP,2017-04-29T15:30:00Z,26.82,75.78,32.0,8.0,0,0,,2.49,29.763779,,,,,,TRUE,,,,HZ,SCT,3500,,,,,,,IFR,,,,,,,,,,,,METAR,390.0
OIYY 291530Z 25006KT 5000 SHRA SCT025CB SCT030 OVC180 20/13 Q1023,OIYY,2017-04-29T15:30:00Z,31.9,54.28,20.0,13.0,250,6,,3.11,30.206694,,,,,,,,,,SHRA,SCT,2500,SCT,3000,OVC,18000,,,MVFR,,,,,,,,,,,,METAR,1236.0
OITR 291530Z 23010KT 9999 FEW035CB FEW040 21/M04 Q1014,OITR,2017-04-29T15:30:00Z,37.67,45.07,21.0,-4.0,230,10,,6.21,29.940945,,,,,,,,,,,FEW,3500,FEW,4000,,,,,VFR,,,,,,,,,,,,METAR,1312.0
OIGG 291530Z 00000KT 9999 FEW015CB SCT020 OVC080 17/11 Q1018,OIGG,2017-04-29T15:30:00Z,37.33,49.6,17.0,11.0,0,0,,6.21,30.059055,,,,,,,,,,,FEW,1500,SCT,2000,OVC,8000,,,VFR,,,,,,,,,,,,METAR,-13.0
OICC 291530Z 12006KT 8000 -TS FEW035 SCT040CB 21/08 Q1015 A2999,OICC,2017-04-29T15:30:00Z,34.35,47.17,21.0,8.0,120,6,,4.97,29.970472,,,,,,,,,,-TS,FEW,3500,SCT,4000,,,,,MVFR,,,,,,,,,,,,METAR,1322.0
LFPV 291530Z AUTO 09010KT 060V120 CAVOK 15/01 Q1013 NOSIG,LFPV,2017-04-29T15:30:00Z,48.77,2.2,15.0,1.0,90,10,,6.21,29.911417,,,TRUE,,,TRUE,,,,,CAVOK,,,,,,,,VFR,,,,,,,,,,,,METAR,179.0
LFOA 291530Z AUTO 13009KT 100V160 8000 3300 NSC 17/01 Q1012,LFOA,2017-04-29T15:30:00Z,47.03,2.63,17.0,1.0,130,9,,4.97,29.88189,,,TRUE,,,,,,,,CLR,,,,,,,,MVFR,,,,,,,,,,,,SPECI,179.0
OIBP 291530Z 33004KT 6000 NSC 30/23 Q1006 A2973,OIBP,2017-04-29T15:30:00Z,27.38,52.73,30.0,23.0,330,4,,3.73,29.704725,,,,,,,,,,,CLR,,,,,,,,MVFR,,,,,,,,,,,,METAR,9.0
OIFS 291530Z 31006KT 9999 FEW035CB BKN040 16/07 Q1024,OIFS,2017-04-29T15:30:00Z,32.32,50.85,16.0,7.0,310,6,,6.21,30.236221,,,,,,,,,,,FEW,3500,BKN,4000,,,,,VFR,,,,,,,,,,,,METAR,2078.0
LFBG 291530Z AUTO 11007KT 050V160 CAVOK 20/M03 Q1009,LFBG,2017-04-29T15:30:00Z,45.67,-0.32,20.0,-3.0,110,7,,6.21,29.793306,,,TRUE,,,,,,,,CAVOK,,,,,,,,VFR,,,,,,,,,,,,METAR,31.0
CMGB 291530Z AUTO 25011G17KT 18/07 RMK AO1 SLP118 T01800067 58008,CMGB,2017-04-29T15:30:00Z,45.37,-72.77,18.0,6.7,250,11,17,,,1011.8,,TRUE,TRUE,,,,,,,,,,,,,,,,-0.8,,,,,,,,,,,SPECI,86.0
OISS 291530Z 30004KT 8000 NSC 25/01 Q1020 A3014,OISS,2017-04-29T15:30:00Z,29.52,52.57,25.0,1.0,300,4,,4.97,30.11811,,,,,,,,,,,CLR,,,,,,,,MVFR,,,,,,,,,,,,METAR,1491.0
OIII 291530Z 36004KT 9999 SCT035CB SCT040 OVC090 20/03 Q1022 A3019 TEMPO 5000 SHRA,OIII,2017-04-29T15:30:00Z,35.68,51.3,20.0,3.0,360,4,,6.21,30.177166,,,,,,,,,,,SCT,3500,SCT,4000,OVC,9000,,,VFR,,,,,,,,,,,,METAR,1191.0
OIFM 291530Z 01006KT 9999 SCT040 BKN200 16/09 Q1023 A3021,OIFM,2017-04-29T15:30:00Z,32.75,51.87,16.0,9.0,10,6,,6.21,30.206694,,,,,,,,,,,SCT,4000,BKN,20000,,,,,VFR,,,,,,,,,,,,METAR,1542.0
OIAW 291530Z 20008KT 3500 DU NSC 35/07 Q1006,OIAW,2017-04-29T15:30:00Z,31.32,48.77,35.0,7.0,200,8,,2.17,29.704725,,,,,,,,,,DU,CLR,,,,,,,,IFR,,,,,,,,,,,,METAR,22.0
UKOH 291530Z 25004MPS CAVOK 23/08 Q1015 R03/CLRD// NOSIG,UKOH,2017-04-29T15:30:00Z,46.67,32.5,23.0,8.0,250,8,,6.21,29.970472,,,,,,TRUE,,,,,CAVOK,,,,,,,,VFR,,,,,,,,,,,,METAR,45.0
UKLN 291530Z 32006MPS 280V360 9999 BKN012 BKN026CB 09/07 Q1016 R33/09//70 TEMPO VRB10G15MPS 1000 TSRA BKN004 BKN020CB,UKLN,2017-04-29T15:30:00Z,48.27,25.98,9.0,7.0,320,12,,6.21,30.0,,,,,,,,,,,BKN,1200,BKN,2600,,,,,MVFR,,,,,,,,,,,,METAR,252.0
UKKM 291530Z AUTO 14002MPS 110V180 9999 NCD 25/07 Q1011,UKKM,2017-04-29T15:30:00Z,50.6,30.2,25.0,7.0,140,4,,6.21,29.852362,,,TRUE,,,,,,,,CLR,,,,,,,,VFR,,,,,,,,,,,,METAR,157.0
UKKK 291530Z 33002MPS 300V040 CAVOK 25/08 Q1012 R08/70D NOSIG,UKKK,2017-04-29T15:30:00Z,50.4,30.45,25.0,8.0,330,4,,6.21,29.88189,,,,,,TRUE,,,,,CAVOK,,,,,,,,VFR,,,,,,,,,,,,METAR,179.0
UKLI 291530Z 28003MPS 260V320 9999 FEW030CB BKN033 07/05 Q1017 R28/290065 NOSIG,UKLI,2017-04-29T15:30:00Z,48.88,24.68,7.0,5.0,280,6,,6.21,30.029528,,,,,,TRUE,,,,,FEW,3000,BKN,3300,,,,,VFR,,,,,,,,,,,,METAR,280.0
EIWF 291530Z 16017KT 9999 SCT022 11/07 Q1005,EIWF,2017-04-29T15:30:00Z,52.18,-7.08,11.0,7.0,160,17,,6.21,29.675198,,,,,,,,,,,SCT,2200,,,,,,,VFR,,,,,,,,,,,,METAR,36.0
EIKY 291530Z 17014KT 9999 SCT024 BKN038 12/07 Q0999,EIKY,2017-04-29T15:30:00Z,52.18,-9.52,12.0,7.0,170,14,,6.21,29.498032,,,,,,,,,,,SCT,2400,BKN,3800,,,,,VFR,,,,,,,,,,,,METAR,34.0
EIDL 291530Z 16025KT 9999 FEW043 13/06 Q1001,EIDL,2017-04-29T15:30:00Z,55.05,-8.33,13.0,6.0,160,25,,6.21,29.557087,,,,,,,,,,,FEW,4300,,,,,,,VFR,,,,,,,,,,,,METAR,9.0
LFQG 291530Z AUTO 13012KT 100V160 CAVOK 18/02 Q1012,LFQG,2017-04-29T15:30:00Z,47.0,3.1,18.0,2.0,130,12,,6.21,29.88189,,,TRUE,,,,,,,,CAVOK,,,,,,,,VFR,,,,,,,,,,,,METAR,181.0
LFLW 291530Z AUTO 15012KT 120V180 CAVOK 16/M02 Q1011 NOSIG,LFLW,2017-04-29T15:30:00Z,44.88,2.42,16.0,-2.0,150,12,,6.21,29.852362,,,TRUE,,,TRUE,,,,,CAVOK,,,,,,,,VFR,,,,,,,,,,,,METAR,639.0
VOTR 291530Z 16006KT 6000 FW016 33/21 Q1008 NOSIG,VOTR,2017-04-29T15:30:00Z,10.77,78.72,33.0,21.0,160,6,,3.73,29.763779,,,,,,TRUE,,,,,,,,,,,,,,,,,,,,,,,,,METAR,88.0
VOHS 291530Z 17003KT 6000 NSC 31/18 Q1012 NOSIG,VOHS,2017-04-29T15:30:00Z,17.23,78.43,31.0,18.0,170,3,,3.73,29.88189,,,,,,TRUE,,,,,CLR,,,,,,,,MVFR,,,,,,,,,,,,METAR,1.0
VABB 291530Z 30007KT 4000 HZ FEW020 29/24 Q1010 NOSIG,VABB,2017-04-29T15:30:00Z,19.1,72.87,29.0,24.0,300,7,,2.49,29.822834,,,,,,TRUE,,,,HZ,FEW,2000,,,,,,,IFR,,,,,,,,,,,,METAR,8.0
VANP 291530Z 31005KT 4000 HZ FEW020 FEW030 CB (OH) 35/05 Q1009 TEMPO 2000 TSRA,VANP,2017-04-29T15:30:00Z,21.08,79.05,35.0,5.0,310,5,,2.49,29.793306,,,,,,,,,,HZ,FEW,2000,FEW,3000,,,,,IFR,,,,,,,,,,,,METAR,310.0
VOTV 291530Z 32005KT 4000 HZ FEW015 SCT090 30/24 Q1009 NOSIG,VOTV,2017-04-29T15:30:00Z,8.47,76.95,30.0,24.0,320,5,,2.49,29.793306,,,,,,TRUE,,,,HZ,FEW,1500,SCT,9000,,,,,IFR,,,,,,,,,,,,METAR,8.0
VIAR 291530Z 33009KT 4500 DU NSC 28/10 Q1006 NOSIG,VIAR,2017-04-29T15:30:00Z,31.7,74.8,28.0,10.0,330,9,,2.8,29.704725,,,,,,TRUE,,,,DU,CLR,,,,,,,,IFR,,,,,,,,,,,,METAR,234.0
LFKC 291530Z 33005KT 260V010 9999 FEW043 BKN076 17/08 Q1014 NOSIG,LFKC,2017-04-29T15:30:00Z,42.52,8.8,17.0,8.0,330,5,,6.21,29.940945,,,,,,TRUE,,,,,FEW,4300,BKN,7600,,,,,VFR,,,,,,,,,,,,METAR,58.0
K1V6 291530Z AUTO 12008KT 1 1/2SM -SN BKN005 OVC015 00/00 A3009 RMK AO2 P0001,K1V6,2017-04-29T15:30:00Z,38.43,-105.1,0.0,0.0,120,8,,1.5,30.088583,,,TRUE,TRUE,,,,,,-SN,BKN,500,OVC,1500,,,,,IFR,,,,,,0.01,,,,,,METAR,1658.0
VOCI 291530Z 06004KT 4000 HZ FEW015 FEW025CB SCT090 25/21 Q1010 NOSIG,VOCI,2017-04-29T15:30:00Z,10.15,76.4,25.0,21.0,60,4,,2.49,29.822834,,,,,,TRUE,,,,HZ,FEW,1500,FEW,2500,SCT,9000,,,IFR,,,,,,,,,,,,METAR,8.0
UKWW 291530Z 19006MPS 9999 BKN033CB OVC100 24/09 Q1012 TEMPO 2100 -TSRA,UKWW,2017-04-29T15:30:00Z,49.25,28.6,24.0,9.0,190,12,,6.21,29.88189,,,,,,,,,,,BKN,3300,OVC,10000,,,,,VFR,,,,,,,,,,,,METAR,293.0
KCDD 291530Z AUTO 21004KT 10SM CLR 07/M12 A3038 RMK AO2,KCDD,2017-04-29T15:30:00Z,48.27,-92.48,7.0,-12.0,210,4,,10.0,30.380905,,,TRUE,TRUE,,,,,,,CLR,,,,,,,,VFR,,,,,,,,,,,,METAR,341.0
LCPH 291530Z 20002KT CAVOK 24/13 Q1011,LCPH,2017-04-29T15:30:00Z,34.72,32.47,24.0,13.0,200,2,,6.21,29.852362,,,,,,,,,,,CAVOK,,,,,,,,VFR,,,,,,,,,,,,METAR,8.0
LCLK 291530Z 21007KT CAVOK 24/10 Q1011 NOSIG,LCLK,2017-04-29T15:30:00Z,34.87,33.62,24.0,10.0,210,7,,6.21,29.852362,,,,,,TRUE,,,,,CAVOK,,,,,,,,VFR,,,,,,,,,,,,METAR,2.0
BIKF 291530Z 12020KT 9999 VCSH FEW025 SCT031CB 07/02 Q0999,BIKF,2017-04-29T15:30:00Z,63.98,-22.6,7.0,2.0,120,20,,6.21,29.498032,,,,,,,,,,VCSH,FEW,2500,SCT,3100,,,,,VFR,,,,,,,,,,,,METAR,54.0
FMCZ 291530Z AUTO 15010KT 9999 NCD 28/22 Q1014 NOSIG,FMCZ,2017-04-29T15:30:00Z,-12.8,45.27,28.0,22.0,150,10,,6.21,29.940945,,,TRUE,,,TRUE,,,,,CLR,,,,,,,,VFR,,,,,,,,,,,,METAR,7.0
UBBB 291530Z 18007KT CAVOK 14/10 Q1019 R88/D NOSIG,UBBB,2017-04-29T15:30:00Z,40.45,50.07,14.0,10.0,180,7,,6.21,30.088583,,,,,,TRUE,,,,,CAVOK,,,,,,,,VFR,,,,,,,,,,,,METAR,-6.0
VOCB 291530Z 19004KT 6000 SCT015 BKN080 29/20 Q1012 NOSIG,VOCB,2017-04-29T15:30:00Z,11.02,77.03,29.0,20.0,190,4,,3.73,29.88189,,,,,,TRUE,,,,,SCT,1500,BKN,8000,,,,,MVFR,,,,,,,,,,,,METAR,399.0
VAAH 291530Z 23011KT 4000 HZ NSC 32/21 Q1008 NOSIG,VAAH,2017-04-29T15:30:00Z,23.07,72.62,32.0,21.0,230,11,,2.49,29.763779,,,,,,TRUE,,,,HZ,CLR,,,,,,,,IFR,,,,,,,,,,,,METAR,55.0
VOCL 291530Z 35003KT 6000 SCT012 FEW025CB 30/25 Q1011 NOSIG,VOCL,2017-04-29T15:30:00Z,11.13,75.95,30.0,25.0,350,3,,3.73,29.852362,,,,,,TRUE,,,,,SCT,1200,FEW,2500,,,,,MVFR,,,,,,,,,,,,METAR,104.0
VOBZ 291530Z 09008KT 2500 HZ FEW020 31/21 Q1009 NOSIG,VOBZ,2017-04-29T15:30:00Z,16.52,80.78,31.0,21.0,90,8,,1.55,29.793306,,,,,,TRUE,,,,HZ,FEW,2000,,,,,,,IFR,,,,,,,,,,,,METAR,24.0
VOMM 291530Z 16006KT 6000 FEW020 31/26 Q1009 NOSIG,VOMM,2017-04-29T15:30:00Z,13.0,80.17,31.0,26.0,160,6,,3.73,29.793306,,,,,,TRUE,,,,,FEW,2000,,,,,,,MVFR,,,,,,,,,,,,METAR,16.0
LZPP 291530Z 02007KT 340V060 CAVOK 12/01 Q1016,LZPP,2017-04-29T15:30:00Z,48.62,17.83,12.0,1.0,20,7,,6.21,30.0,,,,,,,,,,,CAVOK,,,,,,,,VFR,,,,,,,,,,,,METAR,161.0
LZSL 291530Z 10005KT 070V150 9999 FEW043 BKN058 10/02 Q1016,LZSL,2017-04-29T15:30:00Z,48.63,19.13,10.0,2.0,100,5,,6.21,30.0,,,,,,,,,,,FEW,4300,BKN,5800,,,,,VFR,,,,,,,,,,,,METAR,313.0
LZZI 291530Z VRB02KT 9999 FEW040 SCT078 11/00 Q1016,LZZI,2017-04-29T15:30:00Z,49.23,18.62,11.0,0.0,0,2,,6.21,30.0,,,,,,,,,,,FEW,4000,SCT,7800,,,,,VFR,,,,,,,,,,,,METAR,311.0
LQBK 291530Z 19006KT 9999 FEW033 11/05 Q1018 NOSIG,LQBK,2017-04-29T15:30:00Z,44.93,17.3,11.0,5.0,190,6,,6.21,30.059055,,,,,,TRUE,,,,,FEW,3300,,,,,,,VFR,,,,,,,,,,,,METAR,122.0
LQSA 291530Z VRB02KT 6000 BKN006 OVC014 03/02 Q1017 NOSIG,LQSA,2017-04-29T15:30:00Z,43.82,18.32,3.0,2.0,0,2,,3.73,30.029528,,,,,,TRUE,,,,,BKN,600,OVC,1400,,,,,IFR,,,,,,,,,,,,METAR,511.0
LQTZ 291530Z VRB02KT 9999 -RA BKN006 OVC012 03/02 Q1019,LQTZ,2017-04-29T15:30:00Z,44.47,18.73,3.0,2.0,0,2,,6.21,30.088583,,,,,,,,,,-RA,BKN,600,OVC,1200,,,,,IFR,,,,,,,,,,,,METAR,306.0
LKKV 291530Z 27008KT 230V310 9999 FEW033 08/M01 Q1016,LKKV,2017-04-29T15:30:00Z,50.2,12.92,8.0,-1.0,270,8,,6.21,30.0,,,,,,,,,,,FEW,3300,,,,,,,VFR,,,,,,,,,,,,METAR,604.0
LKMT 291530Z 30003KT 230V030 CAVOK 12/M01 Q1016 NOSIG,LKMT,2017-04-29T15:30:00Z,49.67,18.12,12.0,-1.0,300,3,,6.21,30.0,,,,,,TRUE,,,,,CAVOK,,,,,,,,VFR,,,,,,,,,,,,METAR,256.0
LKPR 291530Z 24004KT 210V290 9999 FEW040 09/03 Q1016 NOSIG,LKPR,2017-04-29T15:30:00Z,50.1,14.27,9.0,3.0,240,4,,6.21,30.0,,,,,,TRUE,,,,,FEW,4000,,,,,,,VFR,,,,,,,,,,,,METAR,365.0
LKTB 291530Z 25003KT 200V280 CAVOK 12/01 Q1017 NOSIG,LKTB,2017-04-29T15:30:00Z,49.13,16.68,12.0,1.0,250,3,,6.21,30.029528,,,,,,TRUE,,,,,CAVOK,,,,,,,,VFR,,,,,,,,,,,,METAR,246.0
EIDW 291530Z 16015KT 140V210 9999 FEW025 SCT030 BKN040 11/04 Q1006 NOSIG,EIDW,2017-04-29T15:30:00Z,53.42,-6.25,11.0,4.0,160,15,,6.21,29.704725,,,,,,TRUE,,,,,FEW,2500,SCT,3000,BKN,4000,,,VFR,,,,,,,,,,,,METAR,85.0
EINN 291530Z 15015KT 9999 -RA FEW018 SCT027 BKN045 10/07 Q1002 NOSIG,EINN,2017-04-29T15:30:00Z,52.7,-8.92,10.0,7.0,150,15,,6.21,29.586615,,,,,,TRUE,,,,-RA,FEW,1800,SCT,2700,BKN,4500,,,VFR,,,,,,,,,,,,METAR,20.0
EICK 291530Z 16022G34KT 9999 BKN012 BKN036 09/07 Q1002 NOSIG,EICK,2017-04-29T15:30:00Z,51.85,-8.47,9.0,7.0,160,22,34,6.21,29.586615,,,,,,TRUE,,,,,BKN,1200,BKN,3600,,,,,MVFR,,,,,,,,,,,,METAR,162.0
EIKN 291530Z 15013KT 120V190 9999 -SHRA FEW016 BKN028 BKN045 10/05 Q1001 NOSIG,EIKN,2017-04-29T15:30:00Z,53.92,-8.82,10.0,5.0,150,13,,6.21,29.557087,,,,,,TRUE,,,,-SHRA,FEW,1600,BKN,2800,BKN,4500,,,MVFR,,,,,,,,,,,,METAR,64.0
KHFJ 291530Z AUTO 07012KT 10SM VCTS BKN009 OVC014 16/15 A2964 RMK AO2 LTG DSNT ALQS,KHFJ,2017-04-29T15:30:00Z,36.9,-94.02,16.0,15.0,70,12,,10.0,29.639763,,,TRUE,TRUE,,,,,,VCTS,BKN,900,OVC,1400,,,,,IFR,,,,,,,,,,,,SPECI,401.0
KGLW 291530Z AUTO 00000KT 10SM SCT028 BKN038 BKN046 27/19 A3006 RMK AO2 T02670189,KGLW,2017-04-29T15:30:00Z,37.03,-85.95,26.7,18.9,0,0,,10.0,30.059055,,,TRUE,TRUE,,,,,,,SCT,2800,BKN,3800,BKN,4600,,,VFR,,,,,,,,,,,,SPECI,218.0
VIDP 291530Z 00000KT 3500 HZ FEW040 SCT100 31/11 Q1006 NOSIG,VIDP,2017-04-29T15:30:00Z,28.57,77.12,31.0,11.0,0,0,,2.17,29.704725,,,,,,TRUE,,,,HZ,FEW,4000,SCT,10000,,,,,IFR,,,,,,,,,,,,METAR,233.0
VEBN 291530Z 00000KT 3500 HZ NSC 33/18 Q1005,VEBN,2017-04-29T15:30:00Z,25.45,82.85,33.0,18.0,0,0,,2.17,29.675198,,,,,,,,,,HZ,CLR,,,,,,,,IFR,,,,,,,,,,,,METAR,83.0
KVVG 291530Z AUTO 13013KT 10SM 30/21 A3007 RMK A01,KVVG,2017-04-29T15:30:00Z,28.95,-81.97,30.0,21.0,130,13,,10.0,30.070866,,,TRUE,TRUE,,,,,,,,,,,,,,,,,,,,,,,,,,,SPECI,27.0
KTMA 291530Z AUTO 16010G17KT 10SM SCT065 29/20 A3016 RMK AO2 T02890197,KTMA,2017-04-29T15:30:00Z,31.43,-83.48,28.9,19.7,160,10,17,10.0,30.159449,,,TRUE,TRUE,,,,,,,SCT,6500,,,,,,,VFR,,,,,,,,,,,,SPECI,109.0
KT82 291530Z AUTO 18011G18KT 7SM OVC023 26/18 A2961 RMK AO2 T02590184,KT82,2017-04-29T15:30:00Z,30.25,-98.92,25.9,18.4,180,11,18,7.0,29.610237,,,TRUE,TRUE,,,,,,,OVC,2300,,,,,,,MVFR,,,,,,,,,,,,SPECI,517.0
KRZN 291530Z AUTO 09008KT 10SM CLR 08/M06 A3033 RMK AO2 T00781062,KRZN,2017-04-29T15:30:00Z,45.82,-92.37,7.8,-6.2,90,8,,10.0,30.33071,,,TRUE,TRUE,,,,,,,CLR,,,,,,,,VFR,,,,,,,,,,,,SPECI,301.0
KLNP 291530Z AUTO 17012G19KT 10SM CLR 26/13 A3022 RMK AO2,KLNP,2017-04-29T15:30:00Z,36.97,-82.52,26.0,13.0,170,12,19,10.0,30.221457,,,TRUE,TRUE,,,,,,,CLR,,,,,,,,VFR,,,,,,,,,,,,SPECI,817.0
LWSK 291530Z 13013KT 9999 SCT050 OVC100 23/06 Q1010 NOSIG,LWSK,2017-04-29T15:30:00Z,41.97,21.63,23.0,6.0,130,13,,6.21,29.822834,,,,,,TRUE,,,,,SCT,5000,OVC,10000,,,,,VFR,,,,,,,,,,,,METAR,239.0
LWOH 291530Z 14008KT 9999 BKN040 BKN090 18/03 Q1012,LWOH,2017-04-29T15:30:00Z,41.18,20.75,18.0,3.0,140,8,,6.21,29.88189,,,,,,,,,,,BKN,4000,BKN,9000,,,,,VFR,,,,,,,,,,,,METAR,761.0
BKPR 291530Z 36011KT 9999 SCT050 BKN100 15/09 Q1012 NOSIG,BKPR,2017-04-29T15:30:00Z,42.58,21.03,15.0,9.0,360,11,,6.21,29.88189,,,,,,TRUE,,,,,SCT,5000,BKN,10000,,,,,VFR,,,,,,,,,,,,METAR,576.0
WMKK 291530Z 02003KT 9999 FEW017CB SCT140 BKN280 26/24 Q1012 NOSIG,WMKK,2017-04-29T15:30:00Z,2.75,101.72,26.0,24.0,20,3,,6.21,29.88189,,,,,,TRUE,,,,,FEW,1700,SCT,14000,BKN,28000,,,VFR,,,,,,,,,,,,METAR,22.0
WBSB 291530Z 23003KT 9999 FEW015 BKN300 25/24 Q1013 NOSIG,WBSB,2017-04-29T15:30:00Z,4.92,114.92,25.0,24.0,230,3,,6.21,29.911417,,,,,,TRUE,,,,,FEW,1500,BKN,30000,,,,,VFR,,,,,,,,,,,,METAR,15.0
WBKK 291530Z 08004KT 9999 FEW014 BKN280 28/24 Q1012 NOSIG,WBKK,2017-04-29T15:30:00Z,5.92,116.03,28.0,24.0,80,4,,6.21,29.88189,,,,,,TRUE,,,,,FEW,1400,BKN,28000,,,,,VFR,,,,,,,,,,,,METAR,3.0
WBGG 291530Z 11003KT 9999 FEW005 SCT020 BKN150 24/24 Q1012 NOSIG,WBGG,2017-04-29T15:30:00Z,1.47,110.35,24.0,24.0,110,3,,6.21,29.88189,,,,,,TRUE,,,,,FEW,500,SCT,2000,BKN,15000,,,VFR,,,,,,,,,,,,METAR,27.0
USSS 291530Z 28007MPS CAVOK 09/M03 Q1027 R26R/010060 NOSIG RMK QFE750/1000,USSS,2017-04-29T15:30:00Z,56.75,60.82,9.0,-3.0,280,14,,6.21,30.324802,,,,,,TRUE,,,,,CAVOK,,,,,,,,VFR,,,,,,,,,,,,METAR,233.0
USRR 291530Z 32006MPS 7000 SCT028CB 01/M04 Q1018 R25/290055 NOSIG RMK QFE758,USRR,2017-04-29T15:30:00Z,61.33,73.42,1.0,-4.0,320,12,,4.35,30.059055,,,,,,TRUE,,,,,SCT,2800,,,,,,,MVFR,,,,,,,,,,,,METAR,44.0
USNN 291530Z 29002MPS 9999 BKN044 02/00 Q1015 R21/0///65 NOSIG RMK QFE756,USNN,2017-04-29T15:30:00Z,60.95,76.48,2.0,0.0,290,4,,6.21,29.970472,,,,,,TRUE,,,,,BKN,4400,,,,,,,VFR,,,,,,,,,,,,METAR,54.0
KRHP 291530Z AUTO 20009G17KT 170V240 10SM CLR 28/18 A3018 RMK AO2 T02780177,KRHP,2017-04-29T15:30:00Z,35.18,-83.85,27.8,17.7,200,9,17,10.0,30.180119,,,TRUE,TRUE,,,,,,,CLR,,,,,,,,VFR,,,,,,,,,,,,METAR,518.0
USCC 291530Z 32005MPS CAVOK 12/M05 Q1026 R27/000060 NOSIG RMK QFE749,USCC,2017-04-29T15:30:00Z,55.3,61.5,12.0,-5.0,320,10,,6.21,30.295275,,,,,,TRUE,,,,,CAVOK,,,,,,,,VFR,,,,,,,,,,,,METAR,234.0
KCBK 291530Z AUTO 02014G22KT 1 1/4SM -SN OVC005 01/01 A3005 RMK AO2,KCBK,2017-04-29T15:30:00Z,39.43,-101.05,1.0,1.0,20,14,22,1.25,30.050198,,,TRUE,TRUE,,,,,,-SN,OVC,500,,,,,,,IFR,,,,,,,,,,,,SPECI,971.0
FQPB 291530Z 16011KT 9999 FEW020 27/22 Q1016,FQPB,2017-04-29T15:30:00Z,-12.97,40.5,27.0,22.0,160,11,,6.21,30.0,,,,,,,,,,,FEW,2000,,,,,,,VFR,,,,,,,,,,,,METAR,50.0
UTTT 291530Z 08008KT 9999 SCT066CB 12/05 Q1028 R08R/CLRD70 NOSIG,UTTT,2017-04-29T15:30:00Z,41.27,69.27,12.0,5.0,80,8,,6.21,30.35433,,,,,,TRUE,,,,,SCT,6600,,,,,,,VFR,,,,,,,,,,,,METAR,489.0
UTST 291530Z 20004KT CAVOK 16/04 Q1024 R88/CLRD70 NOSIG,UTST,2017-04-29T15:30:00Z,37.28,67.32,16.0,4.0,200,4,,6.21,30.236221,,,,,,TRUE,,,,,CAVOK,,,,,,,,VFR,,,,,,,,,,,,SPECI,302.0
UTSS 291530Z 09010KT 6000 NSC 13/00 Q1028 R09/70D NOSIG,UTSS,2017-04-29T15:30:00Z,39.7,66.98,13.0,0.0,90,10,,3.73,30.35433,,,,,,TRUE,,,,,CLR,,,,,,,,MVFR,,,,,,,,,,,,METAR,724.0
UTSK 291530Z 36006KT CAVOK 17/M02 Q1025 R16/CLRD70,UTSK,2017-04-29T15:30:00Z,38.83,65.77,17.0,-2.0,360,6,,6.21,30.265747,,,,,,,,,,,CAVOK,,,,,,,,VFR,,,,,,,,,,,,SPECI,1365.0
UTSB 291530Z 01004KT CAVOK 17/02 Q1026 R01/CLRD70 NOSIG,UTSB,2017-04-29T15:30:00Z,39.77,64.48,17.0,2.0,10,4,,6.21,30.295275,,,,,,TRUE,,,,,CAVOK,,,,,,,,VFR,,,,,,,,,,,,SPECI,226.0
UTSA 291530Z 36006KT 9999 NSC 17/01 Q1027 R07/CLRD70 NOSIG,UTSA,2017-04-29T15:30:00Z,40.12,65.17,17.0,1.0,360,6,,6.21,30.324802,,,,,,TRUE,,,,,CLR,,,,,,,,VFR,,,,,,,,,,,,SPECI,346.0
UTNU 291530Z 36002KT CAVOK 18/01 Q1027 R31/CLRD70 NOSIG,UTNU,2017-04-29T15:30:00Z,41.58,60.63,18.0,1.0,360,2,,6.21,30.324802,,,,,,TRUE,,,,,CAVOK,,,,,,,,VFR,,,,,,,,,,,,SPECI,98.0
UTNN 291530Z 35006KT CAVOK 18/M00 Q1027 R33/CLRD60 NOSIG,UTNN,2017-04-29T15:30:00Z,42.48,59.63,18.0,0.0,350,6,,6.21,30.324802,,,,,,TRUE,,,,,CAVOK,,,,,,,,VFR,,,,,,,,,,,,SPECI,67.0
HRYR 291530Z VRB02KT 9999 FEW023CB SCT025 24/15 Q1019 NOSIG,HRYR,2017-04-29T15:30:00Z,-1.97,30.12,24.0,15.0,0,2,,6.21,30.088583,,,,,,TRUE,,,,,FEW,2300,SCT,2500,,,,,VFR,,,,,,,,,,,,METAR,1497.0
HKJK 291530Z 11008KT 9999 FEW024CB SCT025 BKN260 23/14 Q1020,HKJK,2017-04-29T15:30:00Z,-1.32,36.92,23.0,14.0,110,8,,6.21,30.11811,,,,,,,,,,,FEW,2400,SCT,2500,BKN,26000,,,VFR,,,,,,,,,,,,METAR,1624.0
RJGG 291530Z 30007KT 9999 FEW030 14/10 Q1010 NOSIG,RJGG,2017-04-29T15:30:00Z,34.87,136.8,14.0,10.0,300,7,,6.21,29.822834,,,,,,TRUE,,,,,FEW,3000,,,,,,,VFR,,,,,,,,,,,,METAR,5.0
RJBB 291530Z AUTO VRB01KT 9999 NCD 14/11 Q1010 NOSIG,RJBB,2017-04-29T15:30:00Z,34.42,135.25,14.0,11.0,0,1,,6.21,29.822834,,,TRUE,,,TRUE,,,,,CLR,,,,,,,,VFR,,,,,,,,,,,,METAR,8.0
YGLA 291530Z AUTO 21004KT 9999 // NCD 18/15 Q1017 RF00.0/000.0,YGLA,2017-04-29T15:30:00Z,-23.87,151.22,18.0,15.0,210,4,,6.21,30.029528,,,TRUE,,,,,,,,CLR,,,,,,,,VFR,,,,,,,,,,,,METAR,52.0
YGEL 291530Z AUTO 13005KT 9999 // NCD 13/12 Q1020,YGEL,2017-04-29T15:30:00Z,-28.8,114.7,13.0,12.0,130,5,,6.21,30.11811,,,TRUE,,,,,,,,CLR,,,,,,,,VFR,,,,,,,,,,,,METAR,37.0
YSTW 291530Z AUTO 13005KT 9999 // NCD 07/05 Q1020 RF00.0/000.0,YSTW,2017-04-29T15:30:00Z,-31.07,150.85,7.0,5.0,130,5,,6.21,30.11811,,,TRUE,,,,,,,,CLR,,,,,,,,VFR,,,,,,,,,,,,SPECI,410.0
YHID 291530Z AUTO 12012KT 9999 // SCT021 26/14 Q1012,YHID,2017-04-29T15:30:00Z,-10.58,142.3,26.0,14.0,120,12,,6.21,29.88189,,,TRUE,,,,,,,,SCT,2100,,,,,,,VFR,,,,,,,,,,,,METAR,13.0
YPJT 291530Z AUTO 19004KT 9999 // NCD 11/09 Q1022 RF00.0/000.0,YPJT,2017-04-29T15:30:00Z,-32.1,115.88,11.0,9.0,190,4,,6.21,30.177166,,,TRUE,,,,,,,,CLR,,,,,,,,VFR,,,,,,,,,,,,METAR,30.0
YSRI 291530Z AUTO 00000KT 9999 // OVC059 12/11 Q1021 RF00.0/000.0 PRESENT WEATHER SENSOR US,YSRI,2017-04-29T15:30:00Z,-33.6,150.77,12.0,11.0,0,0,,6.21,30.147638,,,TRUE,,,,,,,,OVC,5900,,,,,,,VFR,,,,,,,,,,,,SPECI,21.0
YPEA 291530Z AUTO 17003KT 9999 // NCD 10/06 Q1021,YPEA,2017-04-29T15:30:00Z,-31.67,116.02,10.0,6.0,170,3,,6.21,30.147638,,,TRUE,,,,,,,,CLR,,,,,,,,VFR,,,,,,,,,,,,SPECI,49.0
YPWR 291530Z AUTO 11006KT 9999 // NCD 12/09 Q1023,YPWR,2017-04-29T15:30:00Z,-31.12,136.82,12.0,9.0,110,6,,6.21,30.206694,,,TRUE,,,,,,,,CLR,,,,,,,,VFR,,,,,,,,,,,,METAR,167.0
YSDU 291530Z AUTO 18007KT 9999 // NCD 09/07 Q1021 RF00.0/000.0,YSDU,2017-04-29T15:30:00Z,-32.22,148.57,9.0,7.0,180,7,,6.21,30.147638,,,TRUE,,,,,,,,CLR,,,,,,,,VFR,,,,,,,,,,,,SPECI,275.0
WIBB 291530Z 23005KT 7000 FEW015 28/25 Q1011,WIBB,2017-04-29T15:30:00Z,0.47,101.45,28.0,25.0,230,5,,4.35,29.852362,,,,,,,,,,,FEW,1500,,,,,,,MVFR,,,,,,,,,,,,METAR,31.0
WALL 291530Z 31004KT 8000 FEW020 25/25 Q1012 NOSIG,WALL,2017-04-29T15:30:00Z,-1.27,116.9,25.0,25.0,310,4,,4.97,29.88189,,,,,,TRUE,,,,,FEW,2000,,,,,,,MVFR,,,,,,,,,,,,METAR,3.0
WAOO 291530Z AUTO 07006KT 9999 BKN021 OVC026 27/25 Q1012,WAOO,2017-04-29T15:30:00Z,-3.45,114.77,27.0,25.0,70,6,,6.21,29.88189,,,TRUE,,,,,,,,BKN,2100,OVC,2600,,,,,MVFR,,,,,,,,,,,,METAR,20.0
WIEE 291530Z 06002KT 9999 BKN020 26/25 Q1012 NOSIG,WIEE,2017-04-29T15:30:00Z,-0.78,100.28,26.0,25.0,60,2,,6.21,29.88189,,,,,,TRUE,,,,,BKN,2000,,,,,,,MVFR,,,,,,,,,,,,METAR,5.0
WAPP 291530Z 35006KT 9999 SCT018 26/24 Q1011 NOSIG,WAPP,2017-04-29T15:30:00Z,-3.7,128.07,26.0,24.0,350,6,,6.21,29.852362,,,,,,TRUE,,,,,SCT,1800,,,,,,,VFR,,,,,,,,,,,,METAR,12.0
VAUD 291530Z 23010KT 4000 HZ SCT025 SCT030 FEW035CB 32/10 Q1011 NOSIG,VAUD,2017-04-29T15:30:00Z,24.6,73.9,32.0,10.0,230,10,,2.49,29.852362,,,,,,TRUE,,,,HZ,SCT,2500,SCT,3000,FEW,3500,,,IFR,,,,,,,,,,,,METAR,514.0
VEPT 291530Z 09014KT 3500 HZ NSC 31/23 Q1005 NOSIG,VEPT,2017-04-29T15:30:00Z,25.6,85.08,31.0,23.0,90,14,,2.17,29.675198,,,,,,TRUE,,,,HZ,CLR,,,,,,,,IFR,,,,,,,,,,,,METAR,60.0
VICG 291530Z 10004KT 4000 TSRADU SCT030 FEW030CB BKN090 32/09 Q1007 TEMPO 32030G40KT,VICG,2017-04-29T15:30:00Z,30.67,76.78,32.0,9.0,100,4,,2.49,29.734253,,,,,,,,,,TSRA DU,SCT,3000,FEW,3000,BKN,9000,,,IFR,,,,,,,,,,,,METAR,308.0
YPGV 291530Z AUTO 15005KT 9999 // NCD 24/22 Q1012,YPGV,2017-04-29T15:30:00Z,-12.27,136.82,24.0,22.0,150,5,,6.21,29.88189,,,TRUE,,,,,,,,CLR,,,,,,,,VFR,,,,,,,,,,,,SPECI,55.0
YPKU 291530Z AUTO 13002KT 9999 // SCT115 21/14 Q1014 RF00.0/000.0,YPKU,2017-04-29T15:30:00Z,-15.77,128.68,21.0,14.0,130,2,,6.21,29.940945,,,TRUE,,,,,,,,SCT,11500,,,,,,,VFR,,,,,,,,,,,,SPECI,45.0
YFRT 291530Z AUTO 08007KT //// // ////// 10/07 Q1022,YFRT,2017-04-29T15:30:00Z,-30.83,128.12,10.0,7.0,80,7,,,30.177166,,,TRUE,,,,,,,,,,,,,,,,,,,,,,,,,,,,SPECI,156.0
YCIN 291530Z AUTO 11006KT 9999 // OVC110 26/10 Q1012 RF00.0/000.0,YCIN,2017-04-29T15:30:00Z,-17.58,123.83,26.0,10.0,110,6,,6.21,29.88189,,,TRUE,,,,,,,,OVC,11000,,,,,,,VFR,,,,,,,,,,,,SPECI,91.0
YLHI 291530Z AUTO 23011KT 9999 // SCT022 BKN086 21/16 Q1015,YLHI,2017-04-29T15:30:00Z,-31.53,159.07,21.0,16.0,230,11,,6.21,29.970472,,,TRUE,,,,,,,,SCT,2200,BKN,8600,,,,,VFR,,,,,,,,,,,,METAR,2.0
YCFS 291530Z AUTO 24005KT 9999 // NCD 16/14 Q1020 RF00.0/000.0,YCFS,2017-04-29T15:30:00Z,-30.32,153.12,16.0,14.0,240,5,,6.21,30.11811,,,TRUE,,,,,,,,CLR,,,,,,,,VFR,,,,,,,,,,,,METAR,5.0
YWLM 291530Z AUTO 24006KT 9999 // NCD 11/11 Q1021,YWLM,2017-04-29T15:30:00Z,-32.8,151.83,11.0,11.0,240,6,,6.21,30.147638,,,TRUE,,,,,,,,CLR,,,,,,,,VFR,,,,,,,,,,,,SPECI,9.0
YBRK 291530Z AUTO 22003KT 9999 // NCD 18/17 Q1017 RF00.0/000.0,YBRK,2017-04-29T15:30:00Z,-23.37,150.47,18.0,17.0,220,3,,6.21,30.029528,,,TRUE,,,,,,,,CLR,,,,,,,,VFR,,,,,,,,,,,,SPECI,14.0
YPPD 291530Z AUTO 14004KT //// // NCD 22/15 Q1015,YPPD,2017-04-29T15:30:00Z,-20.37,118.62,22.0,15.0,140,4,,,29.970472,,,TRUE,,,,,,,,CLR,,,,,,,,,,,,,,,,,,,,SPECI,6.0
YMLT 291530Z AUTO 16004KT 9999 // OVC040 08/07 Q1021 RF00.0/000.0,YMLT,2017-04-29T15:30:00Z,-41.52,147.18,8.0,7.0,160,4,,6.21,30.147638,,,TRUE,,,,,,,,OVC,4000,,,,,,,VFR,,,,,,,,,,,,SPECI,178.0
YMHB 291530Z 33007KT 9999 FEW015 SCT027 11/09 Q1021 RF00.0/000.0,YMHB,2017-04-29T15:30:00Z,-42.82,147.52,11.0,9.0,330,7,,6.21,30.147638,,,,,,,,,,,FEW,1500,SCT,2700,,,,,VFR,,,,,,,,,,,,SPECI,27.0
YPCC 291530Z AUTO 13013KT 9999 // NCD 27/24 Q1013,YPCC,2017-04-29T15:30:00Z,-12.17,96.82,27.0,24.0,130,13,,6.21,29.911417,,,TRUE,,,,,,,,CLR,,,,,,,,VFR,,,,,,,,,,,,SPECI,3.0
YBRM 291530Z AUTO 13008KT 9999 // SCT120 27/14 Q1013,YBRM,2017-04-29T15:30:00Z,-17.93,122.22,27.0,14.0,130,8,,6.21,29.911417,,,TRUE,,,,,,,,SCT,12000,,,,,,,VFR,,,,,,,,,,,,SPECI,9.0
YBTL 291530Z AUTO 31004KT 230V310 9999 // SCT035 15/12 Q1016,YBTL,2017-04-29T15:30:00Z,-19.25,146.75,15.0,12.0,310,4,,6.21,30.0,,,TRUE,,,,,,,,SCT,3500,,,,,,,VFR,,,,,,,,,,,,SPECI,6.0
YPTN 291530Z AUTO 14005KT 9999 // NCD 18/11 Q1014,YPTN,2017-04-29T15:30:00Z,-14.52,132.38,18.0,11.0,140,5,,6.21,29.940945,,,TRUE,,,,,,,,CLR,,,,,,,,VFR,,,,,,,,,,,,SPECI,109.0
YPKG 291530Z AUTO 02004KT 9999 // NCD 12/03 Q1022,YPKG,2017-04-29T15:30:00Z,-30.77,121.45,12.0,3.0,20,4,,6.21,30.177166,,,TRUE,,,,,,,,CLR,,,,,,,,VFR,,,,,,,,,,,,SPECI,360.0
YBCG 291530Z AUTO 22004KT 9999 // NCD 15/13 Q1018 RF00.0/000.0,YBCG,2017-04-29T15:30:00Z,-28.17,153.5,15.0,13.0,220,4,,6.21,30.059055,,,TRUE,,,,,,,,CLR,,,,,,,,VFR,,,,,,,,,,,,SPECI,6.0
YSCB 291530Z AUTO 29001KT 9999 // OVC045 04/04 Q1023,YSCB,2017-04-29T15:30:00Z,-35.28,149.17,4.0,4.0,290,1,,6.21,30.206694,,,TRUE,,,,,,,,OVC,4500,,,,,,,VFR,,,,,,,,,,,,SPECI,577.0
YBCS 291530Z 14011KT CAVOK 18/13 Q1015 NOSIG,YBCS,2017-04-29T15:30:00Z,-16.87,145.75,18.0,13.0,140,11,,6.21,29.970472,,,,,,TRUE,,,,,CAVOK,,,,,,,,VFR,,,,,,,,,,,,METAR,7.0
YMAV 291530Z AUTO 29004KT 9999 // OVC029 12/12 Q1023 RF00.0/000.0,YMAV,2017-04-29T15:30:00Z,-38.03,144.48,12.0,12.0,290,4,,6.21,30.206694,,,TRUE,,,,,,,,OVC,2900,,,,,,,MVFR,,,,,,,,,,,,SPECI,8.0
YBAS 291530Z AUTO 00000KT 9999 // NCD 12/00 Q1021 RF00.0/000.0,YBAS,2017-04-29T15:30:00Z,-23.8,133.9,12.0,0.0,0,0,,6.21,30.147638,,,TRUE,,,,,,,,CLR,,,,,,,,VFR,,,,,,,,,,,,SPECI,541.0
YSSY 291530Z 33007KT CAVOK 15/12 Q1021 NOSIG,YSSY,2017-04-29T15:30:00Z,-33.95,151.17,15.0,12.0,330,7,,6.21,30.147638,,,,,,TRUE,,,,,CAVOK,,,,,,,,VFR,,,,,,,,,,,,METAR,3.0
YPPH 291530Z 01005KT CAVOK 10/08 Q1021 NOSIG,YPPH,2017-04-29T15:30:00Z,-31.93,115.98,10.0,8.0,10,5,,6.21,30.147638,,,,,,TRUE,,,,,CAVOK,,,,,,,,VFR,,,,,,,,,,,,METAR,13.0
YMML 291530Z 26004KT 9999 FEW018 BKN030 13/11 Q1023 NOSIG,YMML,2017-04-29T15:30:00Z,-37.67,144.82,13.0,11.0,260,4,,6.21,30.206694,,,,,,TRUE,,,,,FEW,1800,BKN,3000,,,,,MVFR,,,,,,,,,,,,METAR,141.0
YPDN 291530Z 14004KT CAVOK 24/19 Q1012,YPDN,2017-04-29T15:30:00Z,-12.42,130.9,24.0,19.0,140,4,,6.21,29.88189,,,,,,,,,,,CAVOK,,,,,,,,VFR,,,,,,,,,,,,METAR,30.0
YBBN 291530Z 21005KT CAVOK 16/13 Q1018 NOSIG,YBBN,2017-04-29T15:30:00Z,-27.38,153.13,16.0,13.0,210,5,,6.21,30.059055,,,,,,TRUE,,,,,CAVOK,,,,,,,,VFR,,,,,,,,,,,,METAR,5.0
YPAD 291530Z 04004KT 9999 OVC035 16/12 Q1023 NOSIG,YPAD,2017-04-29T15:30:00Z,-34.95,138.52,16.0,12.0,40,4,,6.21,30.206694,,,,,,TRUE,,,,,OVC,3500,,,,,,,VFR,,,,,,,,,,,,METAR,4.0
YBMA 291530Z AUTO 18007KT 9999 // NCD 16/M01 Q1017,YBMA,2017-04-29T15:30:00Z,-20.67,139.47,16.0,-1.0,180,7,,6.21,30.029528,,,TRUE,,,,,,,,CLR,,,,,,,,VFR,,,,,,,,,,,,SPECI,344.0
YBHM 291530Z AUTO 16015KT 9999 // SCT030 BKN048 OVC063 22/18 Q1016,YBHM,2017-04-29T15:30:00Z,-20.35,148.95,22.0,18.0,160,15,,6.21,30.0,,,TRUE,,,,,,,,SCT,3000,BKN,4800,OVC,6300,,,VFR,,,,,,,,,,,,SPECI,5.0
VMMC 291530Z 16006KT CAVOK 22/19 Q1014 NOSIG,VMMC,2017-04-29T15:30:00Z,22.15,113.58,22.0,19.0,160,6,,6.21,29.940945,,,,,,TRUE,,,,,CAVOK,,,,,,,,VFR,,,,,,,,,,,,METAR,6.0
RCSS 291530Z 11003KT 9999 FEW025 BKN060 19/13 Q1013 NOSIG RMK A2994,RCSS,2017-04-29T15:30:00Z,25.07,121.53,19.0,13.0,110,3,,6.21,29.911417,,,,,,TRUE,,,,,FEW,2500,BKN,6000,,,,,VFR,,,,,,,,,,,,SPECI,6.0
RCKH 291530Z 08004KT 9999 FEW018 SCT120 22/16 Q1014 NOSIG RMK A2997,RCKH,2017-04-29T15:30:00Z,22.57,120.33,22.0,16.0,80,4,,6.21,29.940945,,,,,,TRUE,,,,,FEW,1800,SCT,12000,,,,,VFR,,,,,,,,,,,,SPECI,9.0
RCTP 291530Z 15008KT 9999 FEW025 BKN055 21/14 Q1013 NOSIG RMK A2993,RCTP,2017-04-29T15:30:00Z,25.07,121.22,21.0,14.0,150,8,,6.21,29.911417,,,,,,TRUE,,,,,FEW,2500,BKN,5500,,,,,VFR,,,,,,,,,,,,SPECI,33.0
UMKK 291530Z 27005MPS 230V310 9999 BKN014 06/02 Q1014 R24/19//60 NOSIG RMK QFE759/1012,UMKK,2017-04-29T15:30:00Z,54.88,20.6,6.0,2.0,270,10,,6.21,29.940945,,,,,,TRUE,,,,,BKN,1400,,,,,,,MVFR,,,,,,,,,,,,METAR,21.0
UUYY 291530Z 03002MPS 9000 NSC 07/M11 Q1033 R01/09//61 NOSIG RMK QFE765/1021,UUYY,2017-04-29T15:30:00Z,61.65,50.82,7.0,-11.0,30,4,,5.59,30.501968,,,,,,TRUE,,,,,CLR,,,,,,,,VFR,,,,,,,,,,,,METAR,119.0
UUOO 291530Z 15003MPS CAVOK 20/03 Q1019 R12/090057 NOSIG RMK QFE750,UUOO,2017-04-29T15:30:00Z,51.82,39.23,20.0,3.0,150,6,,6.21,30.088583,,,,,,TRUE,,,,,CAVOK,,,,,,,,VFR,,,,,,,,,,,,METAR,157.0
ULMM 291530Z 35002MPS CAVOK 05/M10 Q1032 R31/090070 NOSIG RMK QFE767,ULMM,2017-04-29T15:30:00Z,68.78,32.75,5.0,-10.0,350,4,,6.21,30.47244,,,,,,TRUE,,,,,CAVOK,,,,,,,,VFR,,,,,,,,,,,,METAR,51.0
ULAA 291530Z 30002MPS 270V330 CAVOK 05/M04 Q1033 R26/CLRD70 NOSIG RMK QFE774/1032,ULAA,2017-04-29T15:30:00Z,64.6,40.72,5.0,-4.0,300,4,,6.21,30.501968,,,,,,TRUE,,,,,CAVOK,,,,,,,,VFR,,,,,,,,,,,,METAR,19.0
KAFP 291530Z AUTO 21006KT 10SM CLR 28/20 A3020 RMK AO2 T02750198,KAFP,2017-04-29T15:30:00Z,35.02,-80.08,27.5,19.8,210,6,,10.0,30.200787,,,TRUE,TRUE,,,,,,,CLR,,,,,,,,VFR,,,,,,,,,,,,SPECI,92.0
K1A5 291530Z AUTO 13003KT 10SM CLR 27/17 A3021 RMK AO2 T02700170,K1A5,2017-04-29T15:30:00Z,35.22,-83.42,27.0,17.0,130,3,,10.0,30.209646,,,TRUE,TRUE,,,,,,,CLR,,,,,,,,VFR,,,,,,,,,,,,SPECI,616.0
KTDF 291530Z AUTO 22006KT 10SM OVC019 25/20 A3022 RMK AO2,KTDF,2017-04-29T15:30:00Z,36.28,-78.98,25.0,20.0,220,6,,10.0,30.221457,,,TRUE,TRUE,,,,,,,OVC,1900,,,,,,,MVFR,,,,,,,,,,,,SPECI,186.0
KSCR 291530Z AUTO 19007KT 10SM CLR 27/20 A3021 RMK AO2 T02660201,KSCR,2017-04-29T15:30:00Z,35.7,-79.5,26.6,20.1,190,7,,10.0,30.209646,,,TRUE,TRUE,,,,,,,CLR,,,,,,,,VFR,,,,,,,,,,,,SPECI,188.0
KRUQ 291530Z AUTO 18003KT 10SM BKN018 26/21 A3020 RMK AO2 T02560210,KRUQ,2017-04-29T15:30:00Z,35.65,-80.52,25.6,21.0,180,3,,10.0,30.200787,,,TRUE,TRUE,,,,,,,BKN,1800,,,,,,,MVFR,,,,,,,,,,,,SPECI,236.0
KMRN 291530Z AUTO 00000KT 10SM SCT021 25/19 A3025 RMK AO2 T02510194,KMRN,2017-04-29T15:30:00Z,35.82,-81.62,25.1,19.4,0,0,,10.0,30.250984,,,TRUE,TRUE,,,,,,,SCT,2100,,,,,,,VFR,,,,,,,,,,,,SPECI,387.0
KFQD 291530Z AUTO 18006G14KT 7SM SCT014 24/22 A3022 RMK AO2 T02430218,KFQD,2017-04-29T15:30:00Z,35.42,-81.93,24.3,21.8,180,6,14,7.0,30.221457,,,TRUE,TRUE,,,,,,,SCT,1400,,,,,,,VFR,,,,,,,,,,,,SPECI,329.0
WADD 291530Z 10003KT 070V130 6000 -RA BKN013 27/25 Q1012 NOSIG,WADD,2017-04-29T15:30:00Z,-8.73,115.17,27.0,25.0,100,3,,3.73,29.88189,,,,,,TRUE,,,,-RA,BKN,1300,,,,,,,MVFR,,,,,,,,,,,,METAR,216.0
WAAA 291530Z 13003KT 8000 FEW020 27/23 Q1012 NOSIG,WAAA,2017-04-29T15:30:00Z,-5.07,119.53,27.0,23.0,130,3,,4.97,29.88189,,,,,,TRUE,,,,,FEW,2000,,,,,,,MVFR,,,,,,,,,,,,METAR,14.0
WIDD 291530Z VRB02KT 7000 FEW015 26/25 Q1013,WIDD,2017-04-29T15:30:00Z,1.12,104.12,26.0,25.0,0,2,,4.35,29.911417,,,,,,,,,,,FEW,1500,,,,,,,MVFR,,,,,,,,,,,,METAR,38.0
WARR 291530Z 26006KT 8000 SCT020CB 26/24 Q1012 NOSIG,WARR,2017-04-29T15:30:00Z,-7.37,112.78,26.0,24.0,260,6,,4.97,29.88189,,,,,,TRUE,,,,,SCT,2000,,,,,,,MVFR,,,,,,,,,,,,METAR,2.0
WIMM 291530Z 23003KT 3000 HZ SCT018 27/25 Q1012,WIMM,2017-04-29T15:30:00Z,3.57,98.67,27.0,25.0,230,3,,1.86,29.88189,,,,,,,,,,HZ,SCT,1800,,,,,,,IFR,,,,,,,,,,,,METAR,25.0
EISG 291530Z 14013G23KT 100V180 9999 FEW038 SCT055 13/05 Q1001,EISG,2017-04-29T15:30:00Z,54.28,-8.6,13.0,5.0,140,13,23,6.21,29.557087,,,,,,,,,,,FEW,3800,SCT,5500,,,,,VFR,,,,,,,,,,,,METAR,3.0
URFF 291530Z 27005MPS CAVOK 17/05 Q1015 R01/010095 NOSIG,URFF,2017-04-29T15:30:00Z,45.03,33.98,17.0,5.0,270,10,,6.21,29.970472,,,,,,TRUE,,,,,CAVOK,,,,,,,,VFR,,,,,,,,,,,,METAR,188.0
GQNO 291530Z 32016KT CAVOK 29/16 Q1012 NOSIG,GQNO,2017-04-29T15:30:00Z,18.3,-15.97,29.0,16.0,320,16,,6.21,29.88189,,,,,,TRUE,,,,,CAVOK,,,,,,,,VFR,,,,,,,,,,,,METAR,4.0
GABS 291530Z 24006KT 9999 FEW030 39/12 Q1010 NOSIG,GABS,2017-04-29T15:30:00Z,12.52,-7.95,39.0,12.0,240,6,,6.21,29.822834,,,,,,TRUE,,,,,FEW,3000,,,,,,,VFR,,,,,,,,,,,,METAR,381.0
KUKF 291530Z AUTO 17004KT 10SM OVC010 22/20 A3027 RMK AO2,KUKF,2017-04-29T15:30:00Z,36.22,-81.1,22.0,20.0,170,4,,10.0,30.268702,,,TRUE,TRUE,,,,,,,OVC,1000,,,,,,,MVFR,,,,,,,,,,,,METAR,396.0
KSVH 291530Z AUTO 23003KT 10SM OVC014 24/24 A3021 RMK AO2 T02360235,KSVH,2017-04-29T15:30:00Z,35.75,-80.95,23.6,23.5,230,3,,10.0,30.209646,,,TRUE,TRUE,,,,,,,OVC,1400,,,,,,,MVFR,,,,,,,,,,,,METAR,294.0
KLHZ 291530Z AUTO 19006KT 10SM SCT026 27/21 A3023 RMK AO2,KLHZ,2017-04-29T15:30:00Z,36.02,-78.33,27.0,21.0,190,6,,10.0,30.230314,,,TRUE,TRUE,,,,,,,SCT,2600,,,,,,,VFR,,,,,,,,,,,,METAR,113.0
LYBT 291530Z 25004KT 210V300 8000 -RA SCT013 BKN040 09/06 Q1017 NOSIG,LYBT,2017-04-29T15:30:00Z,44.93,20.25,9.0,6.0,250,4,,4.97,30.029528,,,,,,TRUE,,,,-RA,SCT,1300,BKN,4000,,,,,MVFR,,,,,,,,,,,,METAR,80.0
LYNI 291530Z 32021KT 290V350 9999 SCT033 12/05 Q1014 NOSIG,LYNI,2017-04-29T15:30:00Z,43.32,21.88,12.0,5.0,320,21,,6.21,29.940945,,,,,,TRUE,,,,,SCT,3300,,,,,,,VFR,,,,,,,,,,,,METAR,202.0
LYKV 291530Z 29008KT 260V320 8000 RA SCT010 BKN027 07/06 Q1018 NOSIG,LYKV,2017-04-29T15:30:00Z,43.82,20.58,7.0,6.0,290,8,,4.97,30.059055,,,,,,TRUE,,,,RA,SCT,1000,BKN,2700,,,,,MVFR,,,,,,,,,,,,METAR,209.0
LYPG 291530Z 33016KT 9999 -RA SCT033 OVC080 14/08 Q1013 NOSIG,LYPG,2017-04-29T15:30:00Z,42.37,19.25,14.0,8.0,330,16,,6.21,29.911417,,,,,,TRUE,,,,-RA,SCT,3300,OVC,8000,,,,,VFR,,,,,,,,,,,,METAR,43.0
LYUZ 291530Z 30004KT 270V330 2000 -RASN BR BKN003 00/00 Q1016,LYUZ,2017-04-29T15:30:00Z,43.9,19.7,0.0,0.0,300,4,,1.24,30.0,,,,,,,,,,-RA -SN BR,BKN,300,,,,,,,LIFR,,,,,,,,,,,,METAR,904.0
LYTV 291530Z VRB03KT 9999 -RA BKN050 OVC080 12/09 Q1014 NOSIG,LYTV,2017-04-29T15:30:00Z,42.38,18.72,12.0,9.0,0,3,,6.21,29.940945,,,,,,TRUE,,,,-RA,BKN,5000,OVC,8000,,,,,VFR,,,,,,,,,,,,METAR,5.0
LYVR 291530Z 34005KT 8000 -RA BKN023 09/07 Q1016 NOSIG,LYVR,2017-04-29T15:30:00Z,45.13,21.32,9.0,7.0,340,5,,4.97,30.0,,,,,,TRUE,,,,-RA,BKN,2300,,,,,,,MVFR,,,,,,,,,,,,METAR,85.0
VTUI 291530Z AUTO 00000KT CAVOK 25/23 Q1013 A2991,VTUI,2017-04-29T15:30:00Z,17.2,104.12,25.0,23.0,0,0,,6.21,29.911417,,,TRUE,,,,,,,,CAVOK,,,,,,,,VFR,,,,,,,,,,,,METAR,172.0
LYBE 291530Z 27007KT 8000 -RA FEW010 BKN040 09/07 Q1018 NOSIG,LYBE,2017-04-29T15:30:00Z,44.82,20.28,9.0,7.0,270,7,,4.97,30.059055,,,,,,TRUE,,,,-RA,FEW,1000,BKN,4000,,,,,MVFR,,,,,,,,,,,,METAR,99.0
EPSY 291530Z 28007KT 240V340 9999 BKN035 08/03 Q1015,EPSY,2017-04-29T15:30:00Z,53.47,20.93,8.0,3.0,280,7,,6.21,29.970472,,,,,,,,,,,BKN,3500,,,,,,,VFR,,,,,,,,,,,,METAR,141.0
EPSC 291530Z 34009KT 9999 FEW026CB BKN047 07/03 Q1017,EPSC,2017-04-29T15:30:00Z,53.58,14.9,7.0,3.0,340,9,,6.21,30.029528,,,,,,,,,,,FEW,2600,BKN,4700,,,,,VFR,,,,,,,,,,,,METAR,47.0
EPRA 291530Z VRB02KT CAVOK 12/03 Q1016,EPRA,2017-04-29T15:30:00Z,51.38,21.22,12.0,3.0,0,2,,6.21,30.0,,,,,,,,,,,CAVOK,,,,,,,,VFR,,,,,,,,,,,,METAR,178.0
EPMO 291530Z 28004KT 220V320 9999 SCT040 11/02 Q1015,EPMO,2017-04-29T15:30:00Z,52.45,20.65,11.0,2.0,280,4,,6.21,29.970472,,,,,,,,,,,SCT,4000,,,,,,,VFR,,,,,,,,,,,,METAR,104.0
EPLB 291530Z 36006KT 290V040 9999 BKN044 11/04 Q1016,EPLB,2017-04-29T15:30:00Z,51.23,22.72,11.0,4.0,360,6,,6.21,30.0,,,,,,,,,,,BKN,4400,,,,,,,VFR,,,,,,,,,,,,METAR,206.0
EPKT 291530Z 30011KT 9999 -SHRA SCT047TCU BKN049 09/02 Q1016,EPKT,2017-04-29T15:30:00Z,50.47,19.08,9.0,2.0,300,11,,6.21,30.0,,,,,,,,,,-SHRA,SCT,4700,BKN,4900,,,,,VFR,,,,,,,,,,,,METAR,284.0
EPBY 291530Z 29005KT 9999 -SHRA FEW014 SCT033CB 08/05 Q1015,EPBY,2017-04-29T15:30:00Z,53.1,18.0,8.0,5.0,290,5,,6.21,29.970472,,,,,,,,,,-SHRA,FEW,1400,SCT,3300,,,,,VFR,,,,,,,,,,,,METAR,71.0
GMMX 291530Z 24009KT 210V270 9999 BKN023 FEW030CB 24/09 Q1013 TEMPO 30016KT 5000 TSSHRA,GMMX,2017-04-29T15:30:00Z,31.62,-8.02,24.0,9.0,240,9,,6.21,29.911417,,,,,,,,,,,BKN,2300,FEW,3000,,,,,MVFR,,,,,,,,,,,,SPECI,466.0
GMME 291530Z 30007KT 260V350 9999 SCT016 SCT200 21/14 Q1014 NOSIG,GMME,2017-04-29T15:30:00Z,34.03,-6.77,21.0,14.0,300,7,,6.21,29.940945,,,,,,TRUE,,,,,SCT,1600,SCT,20000,,,,,VFR,,,,,,,,,,,,METAR,75.0
GMAD 291530Z 26015KT 9999 FEW040 24/14 Q1013 NOSIG,GMAD,2017-04-29T15:30:00Z,30.32,-9.42,24.0,14.0,260,15,,6.21,29.911417,,,,,,TRUE,,,,,FEW,4000,,,,,,,VFR,,,,,,,,,,,,METAR,74.0
VOBL 291530Z 02004KT 290V100 6000 SCT015 SCT020 FEW025CB BKN080 24/15 Q1017 NOSIG RMK CB E S SW NW,VOBL,2017-04-29T15:30:00Z,13.2,77.7,24.0,15.0,20,4,,3.73,30.029528,,,,,,TRUE,,,,,SCT,1500,SCT,2000,FEW,2500,BKN,8000,MVFR,,,,,,,,,,,,METAR,915.0
EPWA 291530Z VRB03KT 9999 FEW040 13/02 Q1015 NOSIG,EPWA,2017-04-29T15:30:00Z,52.17,20.97,13.0,2.0,0,3,,6.21,29.970472,,,,,,TRUE,,,,,FEW,4000,,,,,,,VFR,,,,,,,,,,,,METAR,107.0
EPRZ 291530Z 22004KT 160V250 9999 FEW030 10/03 Q1017,EPRZ,2017-04-29T15:30:00Z,50.1,22.05,10.0,3.0,220,4,,6.21,30.029528,,,,,,,,,,,FEW,3000,,,,,,,VFR,,,,,,,,,,,,METAR,202.0
EPPO 291530Z 22007KT 9999 BKN036CB 08/01 Q1016,EPPO,2017-04-29T15:30:00Z,52.42,16.82,8.0,1.0,220,7,,6.21,30.0,,,,,,,,,,,BKN,3600,,,,,,,VFR,,,,,,,,,,,,METAR,92.0
EPLL 291530Z VRB02KT 9999 FEW043 10/03 Q1015,EPLL,2017-04-29T15:30:00Z,51.72,19.4,10.0,3.0,0,2,,6.21,29.970472,,,,,,,,,,,FEW,4300,,,,,,,VFR,,,,,,,,,,,,METAR,184.0
EPKK 291530Z 16004KT 090V230 9999 FEW048 SCT060 10/01 Q1016,EPKK,2017-04-29T15:30:00Z,50.07,19.8,10.0,1.0,160,4,,6.21,30.0,,,,,,,,,,,FEW,4800,SCT,6000,,,,,VFR,,,,,,,,,,,,METAR,237.0
EPGD 291530Z 33011KT 9999 FEW021 BKN032 06/02 Q1015,EPGD,2017-04-29T15:30:00Z,54.37,18.47,6.0,2.0,330,11,,6.21,29.970472,,,,,,,,,,,FEW,2100,BKN,3200,,,,,VFR,,,,,,,,,,,,METAR,138.0
CWVF 291530Z AUTO 12015KT 09/ RMK AO1 PK WND 12017/1525 T0086,CWVF,2017-04-29T15:30:00Z,49.1,-123.3,8.6,,120,15,,,,,,TRUE,TRUE,,,,,,,,,,,,,,,,,,,,,,,,,,,METAR,1.0
CWPF 291530Z AUTO 35001KT 07/04 RMK AO1 T00720043,CWPF,2017-04-29T15:30:00Z,48.43,-123.43,7.2,4.3,350,1,,,,,,TRUE,TRUE,,,,,,,,,,,,,,,,,,,,,,,,,,,METAR,12.0
DIAP 291530Z 21009KT 9999 SCT012 FEW020CB 30/26 Q1010 NOSIG,DIAP,2017-04-29T15:30:00Z,5.25,-3.92,30.0,26.0,210,9,,6.21,29.822834,,,,,,TRUE,,,,,SCT,1200,FEW,2000,,,,,VFR,,,,,,,,,,,,SPECI,8.0
HECA 291530Z 36017KT CAVOK 30/04 Q1010 NOSIG,HECA,2017-04-29T15:30:00Z,30.12,31.38,30.0,4.0,360,17,,6.21,29.822834,,,,,,TRUE,,,,,CAVOK,,,,,,,,VFR,,,,,,,,,,,,METAR,74.0
LDZD 291530Z 09006KT 040V120 9999 SCT055 16/01 Q1015 NOSIG,LDZD,2017-04-29T15:30:00Z,44.1,15.37,16.0,1.0,90,6,,6.21,29.970472,,,,,,TRUE,,,,,SCT,5500,,,,,,,VFR,,,,,,,,,,,,METAR,84.0
LDZA 291530Z 06003KT 330V120 CAVOK 14/02 Q1017 NOSIG,LDZA,2017-04-29T15:30:00Z,45.72,16.07,14.0,2.0,60,3,,6.21,30.029528,,,,,,TRUE,,,,,CAVOK,,,,,,,,VFR,,,,,,,,,,,,METAR,107.0
LDSP 291530Z 34001KT 9999 FEW040 SCT055 16/06 Q1014 NOSIG,LDSP,2017-04-29T15:30:00Z,43.52,16.3,16.0,6.0,340,1,,6.21,29.940945,,,,,,TRUE,,,,,FEW,4000,SCT,5500,,,,,VFR,,,,,,,,,,,,METAR,21.0
LDRI 291530Z 11008KT 040V160 9999 FEW050 17/00 Q1015,LDRI,2017-04-29T15:30:00Z,45.22,14.57,17.0,0.0,110,8,,6.21,29.970472,,,,,,,,,,,FEW,5000,,,,,,,VFR,,,,,,,,,,,,METAR,85.0
LDPL 291530Z 08005KT 020V130 9999 SCT055 15/02 Q1016 NOSIG,LDPL,2017-04-29T15:30:00Z,44.88,13.92,15.0,2.0,80,5,,6.21,30.0,,,,,,TRUE,,,,,SCT,5500,,,,,,,VFR,,,,,,,,,,,,METAR,63.0
LDOS 291530Z 29004KT 230V010 9999 SCT030 10/06 Q1017,LDOS,2017-04-29T15:30:00Z,45.47,18.82,10.0,6.0,290,4,,6.21,30.029528,,,,,,,,,,,SCT,3000,,,,,,,VFR,,,,,,,,,,,,METAR,89.0
LDDU 291530Z 01004KT 310V110 9999 -RA SCT055 12/08 Q1013 NOSIG,LDDU,2017-04-29T15:30:00Z,42.57,18.27,12.0,8.0,10,4,,6.21,29.911417,,,,,,TRUE,,,,-RA,SCT,5500,,,,,,,VFR,,,,,,,,,,,,METAR,165.0
VHHH 291530Z 18005KT 160V220 CAVOK 23/16 Q1014 NOSIG,VHHH,2017-04-29T15:30:00Z,22.32,113.92,23.0,16.0,180,5,,6.21,29.940945,,,,,,TRUE,,,,,CAVOK,,,,,,,,VFR,,,,,,,,,,,,METAR,9.0
WSSS 291530Z 35002KT 9000 FEW016 BKN300 27/26 Q1012 NOSIG,WSSS,2017-04-29T15:30:00Z,1.37,103.97,27.0,26.0,350,2,,5.59,29.88189,,,,,,TRUE,,,,,FEW,1600,BKN,30000,,,,,VFR,,,,,,,,,,,,METAR,16.0
VGHS 291530Z 16006KT 2500 TSRA BKN008 FEW025CB OVC080 23/22 Q1010 NOSIG,VGHS,2017-04-29T15:30:00Z,23.85,90.4,23.0,22.0,160,6,,1.55,29.822834,,,,,,TRUE,,,,TSRA,BKN,800,FEW,2500,OVC,8000,,,IFR,,,,,,,,,,,,METAR,10.0
UKDR 291530Z 14005MPS CAVOK 24/04 Q1015 R18/09//70 NOSIG,UKDR,2017-04-29T15:30:00Z,48.05,33.22,24.0,4.0,140,10,,6.21,29.970472,,,,,,TRUE,,,,,CAVOK,,,,,,,,VFR,,,,,,,,,,,,SPECI,124.0
UKLL 291530Z 31002MPS 9999 -SHRA SCT022CB BKN022 07/03 Q1017 R31/CLRD// NOSIG,UKLL,2017-04-29T15:30:00Z,49.82,23.93,7.0,3.0,310,4,,6.21,30.029528,,,,,,TRUE,,,,-SHRA,SCT,2200,BKN,2200,,,,,MVFR,,,,,,,,,,,,SPECI,325.0
UKDD 291530Z 14002MPS CAVOK 22/06 Q1016 R26/090070 NOSIG,UKDD,2017-04-29T15:30:00Z,48.37,35.1,22.0,6.0,140,4,,6.21,30.0,,,,,,TRUE,,,,,CAVOK,,,,,,,,VFR,,,,,,,,,,,,SPECI,149.0
UKDE 291530Z 20001MPS CAVOK 23/05 Q1016 R20/////// NOSIG,UKDE,2017-04-29T15:30:00Z,47.87,35.32,23.0,5.0,200,2,,6.21,30.0,,,,,,TRUE,,,,,CAVOK,,,,,,,,VFR,,,,,,,,,,,,SPECI,113.0
UKOO 291530Z 17004MPS CAVOK 15/04 Q1015 R16/090060 NOSIG,UKOO,2017-04-29T15:30:00Z,46.42,30.68,15.0,4.0,170,8,,6.21,29.970472,,,,,,TRUE,,,,,CAVOK,,,,,,,,VFR,,,,,,,,,,,,SPECI,35.0
UKHH 291530Z 16002MPS CAVOK 23/04 Q1016 R07/0///67 NOSIG,UKHH,2017-04-29T15:30:00Z,49.92,36.28,23.0,4.0,160,4,,6.21,30.0,,,,,,TRUE,,,,,CAVOK,,,,,,,,VFR,,,,,,,,,,,,SPECI,155.0
UKBB 291530Z 19004MPS CAVOK 24/07 Q1012 R88/CLRD// NOSIG,UKBB,2017-04-29T15:30:00Z,50.33,30.9,24.0,7.0,190,8,,6.21,29.88189,,,,,,TRUE,,,,,CAVOK,,,,,,,,VFR,,,,,,,,,,,,SPECI,119.0
UBBG 291530Z 10010KT 9999 FEW040CB BKN083 17/10 Q1018 R12/CLRD// NOSIG,UBBG,2017-04-29T15:30:00Z,40.73,46.32,17.0,10.0,100,10,,6.21,30.059055,,,,,,TRUE,,,,,FEW,4000,BKN,8300,,,,,VFR,,,,,,,,,,,,SPECI,330.0
NWWW 291530Z AUTO VRB01KT 9999 SCT047 19/19 Q1011 BECMG 1800 BR,NWWW,2017-04-29T15:30:00Z,-22.02,166.22,19.0,19.0,0,1,,6.21,29.852362,,,TRUE,,,,,,,,SCT,4700,,,,,,,VFR,,,,,,,,,,,,METAR,16.0
TFFR 291530Z AUTO 12010KT 7000 BKN028/// BKN039/// BKN048/// ///TCU 27/23 Q1017 TEMPO 3000 SHRA FEW015CB,TFFR,2017-04-29T15:30:00Z,16.27,-61.53,27.0,23.0,120,10,,4.35,30.029528,,,TRUE,,,,,,,,BKN,2800,BKN,3900,BKN,4800,,,MVFR,,,,,,,,,,,,METAR,11.0
LHBP 291530Z 32007KT 9999 BKN043 12/04 Q1016 NOSIG,LHBP,2017-04-29T15:30:00Z,47.42,19.27,12.0,4.0,320,7,,6.21,30.0,,,,,,TRUE,,,,,BKN,4300,,,,,,,VFR,,,,,,,,,,,,METAR,185.0
LBGO 291530Z AUTO 26007KT 9999 NCD 24/15 Q1009 NOSIG,LBGO,2017-04-29T15:30:00Z,43.15,25.72,24.0,15.0,260,7,,6.21,29.793306,,,TRUE,,,TRUE,,,,,CLR,,,,,,,,VFR,,,,,,,,,,,,METAR,86.0
LBPD 291530Z AUTO 29008KT 9999 SHRA FEW048/// SCT074/// OVC099/// 20/15 Q1011 TEMPO 5000 TSRA SCT030CB,LBPD,2017-04-29T15:30:00Z,42.13,24.8,20.0,15.0,290,8,,6.21,29.852362,,,TRUE,,,,,,,SHRA,FEW,4800,SCT,7400,OVC,9900,,,VFR,,,,,,,,,,,,SPECI,185.0
LBBG 291530Z 07010KT 9999 FEW004 13/10 Q1011 NOSIG,LBBG,2017-04-29T15:30:00Z,42.57,27.52,13.0,10.0,70,10,,6.21,29.852362,,,,,,TRUE,,,,,FEW,400,,,,,,,VFR,,,,,,,,,,,,METAR,28.0
LBWN 291530Z 13007KT CAVOK 14/10 Q1011 NOSIG,LBWN,2017-04-29T15:30:00Z,43.22,27.82,14.0,10.0,130,7,,6.21,29.852362,,,,,,TRUE,,,,,CAVOK,,,,,,,,VFR,,,,,,,,,,,,METAR,43.0
LBSF 291530Z 10011KT 9999 FEW064 21/11 Q1011 NOSIG,LBSF,2017-04-29T15:30:00Z,42.7,23.42,21.0,11.0,100,11,,6.21,29.852362,,,,,,TRUE,,,,,FEW,6400,,,,,,,VFR,,,,,,,,,,,,METAR,530.0
SOCA 291530Z AUTO 06011KT 9999 BKN023/// BKN030/// BKN056/// ///CB 29/25 Q1013 BECMG BKN015 BKN035,SOCA,2017-04-29T15:30:00Z,4.82,-52.37,29.0,25.0,60,11,,6.21,29.911417,,,TRUE,,,,,,,,BKN,2300,BKN,3000,BKN,5600,,,MVFR,,,,,,,,,,,,METAR,9.0
NTAA 291530Z AUTO 10003KT 070V130 9999 NCD 25/22 Q1011,NTAA,2017-04-29T15:30:00Z,-17.55,-149.62,25.0,22.0,100,3,,6.21,29.852362,,,TRUE,,,,,,,,CLR,,,,,,,,VFR,,,,,,,,,,,,METAR,2.0
LZTT 291530Z 34003KT 9999 BKN030 06/02 Q1016 NOSIG,LZTT,2017-04-29T15:30:00Z,49.07,20.25,6.0,2.0,340,3,,6.21,30.0,,,,,,TRUE,,,,,BKN,3000,,,,,,,MVFR,,,,,,,,,,,,METAR,707.0
LZKZ 291530Z 01014KT CAVOK 09/02 Q1016 NOSIG,LZKZ,2017-04-29T15:30:00Z,48.67,21.23,9.0,2.0,10,14,,6.21,30.0,,,,,,TRUE,,,,,CAVOK,,,,,,,,VFR,,,,,,,,,,,,METAR,232.0
LZIB 291530Z 33008KT 9999 FEW040 SCT055 BKN076 12/01 Q1017 NOSIG,LZIB,2017-04-29T15:30:00Z,48.17,17.22,12.0,1.0,330,8,,6.21,30.029528,,,,,,TRUE,,,,,FEW,4000,SCT,5500,BKN,7600,,,VFR,,,,,,,,,,,,METAR,134.0
UGSB 291530Z 36005KT CAVOK 15/07 Q1017 R13/70D NOSIG,UGSB,2017-04-29T15:30:00Z,41.62,41.6,15.0,7.0,360,5,,6.21,30.029528,,,,,,TRUE,,,,,CAVOK,,,,,,,,VFR,,,,,,,,,,,,METAR,32.0
UGKO 291530Z 25005KT 9999 BKN045CB 19/11 Q1015 R25/09//70 NOSIG,UGKO,2017-04-29T15:30:00Z,42.18,42.48,19.0,11.0,250,5,,6.21,29.970472,,,,,,TRUE,,,,,BKN,4500,,,,,,,VFR,,,,,,,,,,,,METAR,68.0
UGTB 291530Z 14008KT 9999 -SHRA BKN057CB 16/10 Q1020 R13R/CLRD70 NOSIG,UGTB,2017-04-29T15:30:00Z,41.67,44.95,16.0,10.0,140,8,,6.21,30.11811,,,,,,TRUE,,,,-SHRA,BKN,5700,,,,,,,VFR,,,,,,,,,,,,METAR,495.0
TFFF 291530Z AUTO 12014KT 090V150 9999 BKN030 BKN041 BKN058 31/22 Q1017 NOSIG,TFFF,2017-04-29T15:30:00Z,14.6,-61.0,31.0,22.0,120,14,,6.21,30.029528,,,TRUE,,,TRUE,,,,,BKN,3000,BKN,4100,BKN,5800,,,MVFR,,,,,,,,,,,,METAR,5.0
YLIS 291530Z AUTO 36004KT 0700 // ////// 11/11 Q1019,YLIS,2017-04-29T15:30:00Z,-28.83,153.27,11.0,11.0,360,4,,0.43,30.088583,,,TRUE,,,,,,,,,,,,,,,,,,,,,,,,,,,,SPECI,11.0
YAMB 291530Z AUTO 00000KT 2800 // NCD 10/10 Q1018,YAMB,2017-04-29T15:30:00Z,-27.63,152.72,10.0,10.0,0,0,,1.74,30.059055,,,TRUE,,,,,,,,CLR,,,,,,,,IFR,,,,,,,,,,,,SPECI,28.0
YSWG 291530Z AUTO 00000KT 0450 // ////// 09/08 Q1022,YSWG,2017-04-29T15:30:00Z,-35.13,147.47,9.0,8.0,0,0,,0.28,30.177166,,,TRUE,,,,,,,,,,,,,,,,,,,,,,,,,,,,SPECI,213.0
YPXM 291530Z AUTO 08008KT 9999 // BKN012 BKN016 26/23 Q1015,YPXM,2017-04-29T15:30:00Z,-10.45,105.67,26.0,23.0,80,8,,6.21,29.970472,,,TRUE,,,,,,,,BKN,1200,BKN,1600,,,,,MVFR,,,,,,,,,,,,SPECI,259.0
LUKK 291530Z 15012KT 9999 FEW049 21/06 Q1013 R08/D NOSIG,LUKK,2017-04-29T15:30:00Z,46.93,28.93,21.0,6.0,150,12,,6.21,29.911417,,,,,,TRUE,,,,,FEW,4900,,,,,,,VFR,,,,,,,,,,,,METAR,122.0
UBBN 291530Z 35006KT 9999 SCT050CB BKN100 16/10 Q1014 R14R/CLRD// NOSIG RMK MT OP QFE686,UBBN,2017-04-29T15:30:00Z,39.18,45.45,16.0,10.0,350,6,,6.21,29.940945,,,,,,TRUE,,,,,SCT,5000,BKN,10000,,,,,VFR,,,,,,,,,,,,SPECI,873.0
SPZO 291530Z 33002KT 9000 -RA SCT036 BKN080 13/06 Q1035 NOSIG RMK BIRD HAZARD RWY 28 PP000,SPZO,2017-04-29T15:30:00Z,-13.55,-71.97,13.0,6.0,330,2,,5.59,30.561024,,,,,,TRUE,,,,-RA,SCT,3600,BKN,8000,,,,,VFR,,,,,,,,,,,,SPECI,3249.0
VECC 291530Z 19007KT 3200 HZ FEW020 SCT100 30/25 Q1007 NOSIG,VECC,2017-04-29T15:30:00Z,22.65,88.43,30.0,25.0,190,7,,1.99,29.734253,,,,,,TRUE,,,,HZ,FEW,2000,SCT,10000,,,,,IFR,,,,,,,,,,,,METAR,6.0
VOHY 291530Z 00000KT 6000 FEW020 29/13 Q1012 NOSIG,VOHY,2017-04-29T15:30:00Z,17.45,78.45,29.0,13.0,0,0,,3.73,29.88189,,,,,,TRUE,,,,,FEW,2000,,,,,,,MVFR,,,,,,,,,,,,METAR,545.0
"VERC 291530Z 11005KT 5000 HZ SCT020 FEW030CB 32/15 Q1010 NOSIG RMK CB TO N,NE",VERC,2017-04-29T15:30:00Z,23.32,85.32,32.0,15.0,110,5,,3.11,29.822834,,,,,,TRUE,,,,HZ,SCT,2000,FEW,3000,,,,,MVFR,,,,,,,,,,,,METAR,652.0
VOTP 291530Z 23012KT 6000 FEW020 SCT100 34/21 Q1008,VOTP,2017-04-29T15:30:00Z,13.63,79.55,34.0,21.0,230,12,,3.73,29.763779,,,,,,,,,,,FEW,2000,SCT,10000,,,,,MVFR,,,,,,,,,,,,METAR,107.0
HSSS 291530Z 32007KT 9999 FEW050 40/04 Q1007 NOSIG,HSSS,2017-04-29T15:30:00Z,15.58,32.53,40.0,4.0,320,7,,6.21,29.734253,,,,,,TRUE,,,,,FEW,5000,,,,,,,VFR,,,,,,,,,,,,METAR,380.0
WAMM 291530Z 07003KT 030V120 8000 RA FEW019CB SCT020 24/23 Q1012 RETS TEMPO RA,WAMM,2017-04-29T15:30:00Z,1.55,124.92,24.0,23.0,70,3,,4.97,29.88189,,,,,,,,,,RA,FEW,1900,SCT,2000,,,,,MVFR,,,,,,,,,,,,METAR,80.0
VOML 291530Z 34006KT 6000 SCT015 29/25 Q1011 NOSIG,VOML,2017-04-29T15:30:00Z,12.97,74.88,29.0,25.0,340,6,,3.73,29.852362,,,,,,TRUE,,,,,SCT,1500,,,,,,,MVFR,,,,,,,,,,,,METAR,103.0
GOOY 291530Z 01017KT CAVOK 25/19 Q1013 NOSIG,GOOY,2017-04-29T15:30:00Z,14.72,-17.5,25.0,19.0,10,17,,6.21,29.911417,,,,,,TRUE,,,,,CAVOK,,,,,,,,VFR,,,,,,,,,,,,METAR,24.0
FMMI 291530Z 15010KT 130V190 9999 FEW017 BKN020 17/17 Q1024 NOSIG,FMMI,2017-04-29T15:30:00Z,-18.8,47.47,17.0,17.0,150,10,,6.21,30.236221,,,,,,TRUE,,,,,FEW,1700,BKN,2000,,,,,MVFR,,,,,,,,,,,,METAR,1276.0
SPJR 291530Z VRB02KT 9999 SCT027 BKN040 17/11 Q1030,SPJR,2017-04-29T15:30:00Z,-7.12,-78.47,17.0,11.0,0,2,,6.21,30.413385,,,,,,,,,,,SCT,2700,BKN,4000,,,,,VFR,,,,,,,,,,,,SPECI,2622.0
GLRB 291530Z 20007KT 9999 SCT022 FEW028CB 31/24 Q1010 RMK CB-E/SE,GLRB,2017-04-29T15:30:00Z,6.25,-10.33,31.0,24.0,200,7,,6.21,29.822834,,,,,,,,,,,SCT,2200,FEW,2800,,,,,VFR,,,,,,,,,,,,METAR,18.0
ZMUB 291530Z VRB01MPS CAVOK 08/M04 Q1013 NOSIG RMK QFE652.9 42,ZMUB,2017-04-29T15:30:00Z,47.83,106.78,8.0,-4.0,0,2,,6.21,29.911417,,,,,,TRUE,,,,,CAVOK,,,,,,,,VFR,,,,,,,,,,,,SPECI,1330.0
OBBI 291530Z 11007KT 9000 NSC 31/19 Q1008 NOSIG,OBBI,2017-04-29T15:30:00Z,26.27,50.63,31.0,19.0,110,7,,5.59,29.763779,,,,,,TRUE,,,,,CLR,,,,,,,,VFR,,,,,,,,,,,,METAR,2.0
OPPS 291530Z 36006KT 4000 HZ FEW100 SCT200 26/12 Q1009,OPPS,2017-04-29T15:30:00Z,34.02,71.52,26.0,12.0,360,6,,2.49,29.793306,,,,,,,,,,HZ,FEW,10000,SCT,20000,,,,,IFR,,,,,,,,,,,,METAR,360.0
WADL 291530Z 12002KT 8000 FEW016 25/24 Q1013 NOSIG,WADL,2017-04-29T15:30:00Z,-8.75,116.28,25.0,24.0,120,2,,4.97,29.911417,,,,,,TRUE,,,,,FEW,1600,,,,,,,MVFR,,,,,,,,,,,,METAR,97.0
ORBI 291530Z 34006KT 9999 FEW040 34/05 Q1008,ORBI,2017-04-29T15:30:00Z,33.27,44.23,34.0,5.0,340,6,,6.21,29.763779,,,,,,,,,,,FEW,4000,,,,,,,VFR,,,,,,,,,,,,METAR,35.0
EPWR 291530Z 29008KT 240V330 9999 FEW026CB SCT033 BKN038 10/05 Q1017,EPWR,2017-04-29T15:30:00Z,51.1,16.87,10.0,5.0,290,8,,6.21,30.029528,,,,,,,,,,,FEW,2600,SCT,3300,BKN,3800,,,VFR,,,,,,,,,,,,METAR,121.0
KALS 291530Z AUTO 22005G15KT 10SM BKN034 OVC044 M02/M06 A2991 RMK AO2 SNB00E21 P0000 T10221061,KALS,2017-04-29T15:30:00Z,37.43,-105.87,-2.2,-6.1,220,5,15,10.0,29.911417,,,TRUE,TRUE,,,,,,,BKN,3400,OVC,4400,,,,,VFR,,,,,,0.005,,,,,,SPECI,2299.0
KWYS 291530Z AUTO 07003KT 10SM CLR 00/M06 A3022 RMK AO2,KWYS,2017-04-29T15:30:00Z,44.67,-111.12,0.0,-6.0,70,3,,10.0,30.221457,,,TRUE,TRUE,,,,,,,CLR,,,,,,,,VFR,,,,,,,,,,,,METAR,2025.0
KSTK 291530Z AUTO 05012G19KT 10SM SCT025 SCT029 BKN080 03/M02 A3017 RMK AO2,KSTK,2017-04-29T15:30:00Z,40.62,-103.27,3.0,-2.0,50,12,19,10.0,30.171259,,,TRUE,TRUE,,,,,,,SCT,2500,SCT,2900,BKN,8000,,,VFR,,,,,,,,,,,,METAR,1231.0
K6I2 291530Z AUTO 21007KT 9SM FEW031 FEW050 26/20 A3009 RMK AO2,K6I2,2017-04-29T15:30:00Z,37.63,-85.25,26.0,20.0,210,7,,9.0,30.088583,,,TRUE,TRUE,,,,,,,FEW,3100,FEW,5000,,,,,VFR,,,,,,,,,,,,METAR,264.0
DAON 291530Z 35010KT 320V030 9999 SCT026 FEW030TCU 21/13 Q1013,DAON,2017-04-29T15:30:00Z,35.02,-1.47,21.0,13.0,350,10,,6.21,29.911417,,,,,,,,,,,SCT,2600,FEW,3000,,,,,VFR,,,,,,,,,,,,METAR,247.0
DAUH 291530Z 24010KT 6000 NSC 36/05 Q1009,DAUH,2017-04-29T15:30:00Z,31.67,6.15,36.0,5.0,240,10,,3.73,29.793306,,,,,,,,,,,CLR,,,,,,,,MVFR,,,,,,,,,,,,METAR,142.0
DAOO 291530Z 35012KT 9999 SCT030 20/13 Q1012,DAOO,2017-04-29T15:30:00Z,35.62,-0.6,20.0,13.0,350,12,,6.21,29.88189,,,,,,,,,,,SCT,3000,,,,,,,VFR,,,,,,,,,,,,METAR,90.0
DABC 291530Z 34010KT 310V020 9999 FEW026 19/10 Q1013,DABC,2017-04-29T15:30:00Z,36.27,6.62,19.0,10.0,340,10,,6.21,29.911417,,,,,,,,,,,FEW,2600,,,,,,,VFR,,,,,,,,,,,,METAR,694.0
DABB 291530Z 04009KT 9999 FEW023 17/09 Q1014,DABB,2017-04-29T15:30:00Z,36.82,7.82,17.0,9.0,40,9,,6.21,29.940945,,,,,,,,,,,FEW,2300,,,,,,,VFR,,,,,,,,,,,,METAR,4.0
DAAT 291530Z 18003KT 9000 NSC 35/// Q1019,DAAT,2017-04-29T15:30:00Z,22.82,5.47,,,180,3,,5.59,30.088583,,,,,,,,,,,CLR,,,,,,,,VFR,,,,,,,,,,,,SPECI,1377.0
DAAG 291530Z 04010KT 010V070 9999 FEW026 FEW030TCU 20/12 Q1013,DAAG,2017-04-29T15:30:00Z,36.72,3.22,20.0,12.0,40,10,,6.21,29.911417,,,,,,,,,,,FEW,2600,FEW,3000,,,,,VFR,,,,,,,,,,,,METAR,25.0
WMKP 291530Z 35003KT 8000 -TSRA FEW012 FEW017CB SCT024 BKN260 26/24 Q1011 NOSIG,WMKP,2017-04-29T15:30:00Z,5.28,100.27,26.0,24.0,350,3,,4.97,29.852362,,,,,,TRUE,,,,-TSRA,FEW,1200,FEW,1700,SCT,2400,BKN,26000,MVFR,,,,,,,,,,,,METAR,4.0
WIII 291530Z 26008KT 8000 FEW022 27/24 Q1012 NOSIG,WIII,2017-04-29T15:30:00Z,-6.13,106.67,27.0,24.0,260,8,,4.97,29.88189,,,,,,TRUE,,,,,FEW,2200,,,,,,,MVFR,,,,,,,,,,,,METAR,8.0
VTSS 291530Z 23003KT 9999 FEW020 27/26 Q1012 NOSIG,VTSS,2017-04-29T15:30:00Z,6.92,100.38,27.0,26.0,230,3,,6.21,29.88189,,,,,,TRUE,,,,,FEW,2000,,,,,,,VFR,,,,,,,,,,,,METAR,35.0
VTSP 291530Z VRB01KT 8000 FEW018 SCT100 28/24 Q1013 NOSIG,VTSP,2017-04-29T15:30:00Z,8.12,98.32,28.0,24.0,0,1,,4.97,29.911417,,,,,,TRUE,,,,,FEW,1800,SCT,10000,,,,,MVFR,,,,,,,,,,,,METAR,10.0
VTCC 291530Z 03014KT 9999 FEW025CB BKN035 25/20 Q1015 A2998 NOSIG,VTCC,2017-04-29T15:30:00Z,18.77,98.97,25.0,20.0,30,14,,6.21,29.970472,,,,,,TRUE,,,,,FEW,2500,BKN,3500,,,,,VFR,,,,,,,,,,,,METAR,314.0
VTBU 291530Z 32004KT 7000 FEW020 27/23 Q1011 NOSIG,VTBU,2017-04-29T15:30:00Z,12.68,101.0,27.0,23.0,320,4,,4.35,29.852362,,,,,,TRUE,,,,,FEW,2000,,,,,,,MVFR,,,,,,,,,,,,METAR,5.0
VTBS 291530Z 12005KT 010V170 9999 FEW020 30/24 Q1012 NOSIG,VTBS,2017-04-29T15:30:00Z,13.68,100.75,30.0,24.0,120,5,,6.21,29.88189,,,,,,TRUE,,,,,FEW,2000,,,,,,,VFR,,,,,,,,,,,,METAR,2.0
VTBD 291530Z 11006KT 9999 FEW020 29/26 Q1011 NOSIG,VTBD,2017-04-29T15:30:00Z,13.92,100.6,29.0,26.0,110,6,,6.21,29.852362,,,,,,TRUE,,,,,FEW,2000,,,,,,,VFR,,,,,,,,,,,,METAR,3.0
VYYY 291530Z 26004KT 7000 SCT018 SCT110 30/24 Q1010,VYYY,2017-04-29T15:30:00Z,16.9,96.13,30.0,24.0,260,4,,4.35,29.822834,,,,,,,,,,,SCT,1800,SCT,11000,,,,,MVFR,,,,,,,,,,,,METAR,33.0
VLVT 291530Z 34002KT 4000 BR FEW040 26/22 Q1012 NOSIG,VLVT,2017-04-29T15:30:00Z,17.98,102.57,26.0,22.0,340,2,,2.49,29.88189,,,,,,TRUE,,,,BR,FEW,4000,,,,,,,IFR,,,,,,,,,,,,METAR,171.0
VDPP 291530Z 04002KT 9000 FEW017 29/25 Q1011,VDPP,2017-04-29T15:30:00Z,11.55,104.83,29.0,25.0,40,2,,5.59,29.852362,,,,,,,,,,,FEW,1700,,,,,,,VFR,,,,,,,,,,,,METAR,10.0
VVTS 291530Z 08005KT 9999 SCT017 SCT040 28/24 Q1012 NOSIG,VVTS,2017-04-29T15:30:00Z,10.82,106.67,28.0,24.0,80,5,,6.21,29.88189,,,,,,TRUE,,,,,SCT,1700,SCT,4000,,,,,VFR,,,,,,,,,,,,METAR,19.0
VVPQ 291530Z 10004KT 9999 SCT015 25/24 Q1012 NOSIG,VVPQ,2017-04-29T15:30:00Z,10.23,103.97,25.0,24.0,100,4,,6.21,29.88189,,,,,,TRUE,,,,,SCT,1500,,,,,,,VFR,,,,,,,,,,,,METAR,4.0
VVPB 291530Z VRB02KT 5000 BR SCT015 BKN040 24/24 Q1014 NOSIG,VVPB,2017-04-29T15:30:00Z,16.38,107.7,24.0,24.0,0,2,,3.11,29.940945,,,,,,TRUE,,,,BR,SCT,1500,BKN,4000,,,,,MVFR,,,,,,,,,,,,METAR,17.0
VVNB 291530Z 12009KT CAVOK 24/23 Q1012 NOSIG,VVNB,2017-04-29T15:30:00Z,21.22,105.8,24.0,23.0,120,9,,6.21,29.88189,,,,,,TRUE,,,,,CAVOK,,,,,,,,VFR,,,,,,,,,,,,METAR,12.0
VVDN 291530Z 31002KT 8000 SCT013 BKN050 25/22 Q1014 NOSIG,VVDN,2017-04-29T15:30:00Z,16.02,108.2,25.0,22.0,310,2,,4.97,29.940945,,,,,,TRUE,,,,,SCT,1300,BKN,5000,,,,,MVFR,,,,,,,,,,,,METAR,7.0
VVCR 291530Z 05008KT 9999 FEW012 28/24 Q1014 NOSIG,VVCR,2017-04-29T15:30:00Z,12.0,109.22,28.0,24.0,50,8,,6.21,29.940945,,,,,,TRUE,,,,,FEW,1200,,,,,,,VFR,,,,,,,,,,,,METAR,12.0
NZCH 291530Z AUTO 04001KT 9999 NCD 03/02 Q0996 TEMPO 2000 BR,NZCH,2017-04-29T15:30:00Z,-43.47,172.55,3.0,2.0,40,1,,6.21,29.409449,,,TRUE,,,,,,,,CLR,,,,,,,,VFR,,,,,,,,,,,,METAR,34.0
NZWN 291530Z AUTO 02010KT 9999 -RA FEW012/// BKN019/// BKN100/// 16/15 Q0997 REDZ TEMPO 5000 RA BKN012,NZWN,2017-04-29T15:30:00Z,-41.32,174.8,16.0,15.0,20,10,,6.21,29.438976,,,TRUE,,,,,,,-RA,FEW,1200,BKN,1900,BKN,10000,,,MVFR,,,,,,,,,,,,METAR,7.0
NZAA 291530Z AUTO 33004KT 9999 VCSH SCT023/// SCT029/// OVC037/// 18/18 Q1001 TEMPO 4000 RA BKN010,NZAA,2017-04-29T15:30:00Z,-37.02,174.8,18.0,18.0,330,4,,6.21,29.557087,,,TRUE,,,,,,,VCSH,SCT,2300,SCT,2900,OVC,3700,,,VFR,,,,,,,,,,,,METAR,6.0
UUEE 291530Z 15005MPS CAVOK 22/04 Q1016 R06L/CLRD62 R06R/CLRD62 NOSIG,UUEE,2017-04-29T15:30:00Z,55.97,37.42,22.0,4.0,150,10,,6.21,30.0,,,,,,TRUE,,,,,CAVOK,,,,,,,,VFR,,,,,,,,,,,,METAR,190.0
UUDL 291530Z 08006MPS CAVOK 17/07 Q1020 R23/010060 NOSIG RMK QFE757,UUDL,2017-04-29T15:30:00Z,57.57,40.17,17.0,7.0,80,12,,6.21,30.11811,,,,,,TRUE,,,,,CAVOK,,,,,,,,VFR,,,,,,,,,,,,METAR,88.0
UUDD 291530Z 16008MPS CAVOK 21/01 Q1017 R88/010095 NOSIG,UUDD,2017-04-29T15:30:00Z,55.4,37.9,21.0,1.0,160,16,,6.21,30.029528,,,,,,TRUE,,,,,CAVOK,,,,,,,,VFR,,,,,,,,,,,,METAR,168.0
UUBW 291530Z 12006MPS CAVOK 21/04 Q1017 R30/010060 NOSIG,UUBW,2017-04-29T15:30:00Z,55.55,38.15,21.0,4.0,120,12,,6.21,30.029528,,,,,,TRUE,,,,,CAVOK,,,,,,,,VFR,,,,,,,,,,,,METAR,115.0
ULLI 291530Z 08009MPS 9999 SCT008 BKN018CB 04/02 Q1012 R88/290050 NOSIG,ULLI,2017-04-29T15:30:00Z,59.8,30.27,4.0,2.0,80,17,,6.21,29.88189,,,,,,TRUE,,,,,SCT,800,BKN,1800,,,,,MVFR,,,,,,,,,,,,METAR,4.0
ROAH 291530Z 05003KT CAVOK 20/09 Q1015 RMK A2999,ROAH,2017-04-29T15:30:00Z,26.17,127.65,20.0,9.0,50,3,,6.21,29.970472,,,,,,,,,,,CAVOK,,,,,,,,VFR,,,,,,,,,,,,METAR,8.0
RJTT 291530Z VRB02KT CAVOK 15/09 Q1008 NOSIG RMK A2978,RJTT,2017-04-29T15:30:00Z,35.53,139.77,15.0,9.0,0,2,,6.21,29.763779,,,,,,TRUE,,,,,CAVOK,,,,,,,,VFR,,,,,,,,,,,,METAR,8.0
RJFF 291530Z AUTO 15015KT 9999 NCD 18/10 Q1010 RMK A2985,RJFF,2017-04-29T15:30:00Z,33.57,130.43,18.0,10.0,150,15,,6.21,29.822834,,,TRUE,,,,,,,,CLR,,,,,,,,VFR,,,,,,,,,,,,METAR,12.0
RJCC 291530Z 18006KT 9999 FEW025 BKN180 BKN/// 05/05 Q1005,RJCC,2017-04-29T15:30:00Z,42.77,141.67,5.0,5.0,180,6,,6.21,29.675198,,,,,,,,,,,FEW,2500,BKN,18000,,,,,VFR,,,,,,,,,,,,SPECI,30.0
RJAA 291530Z 26003KT 9999 MIFG FEW030 09/08 Q1008 NOSIG RMK 1CU030 A2977,RJAA,2017-04-29T15:30:00Z,35.77,140.37,9.0,8.0,260,3,,6.21,29.763779,,,,,,TRUE,,,,MIFG,FEW,3000,,,,,,,VFR,,,,,,,,,,,,METAR,44.0
USHH 291530Z 30003MPS 9999 SCT042CB 01/M06 Q1022 R24/010060 TEMPO 3000 -SHSNRA BKN007CB RMK QFE763,USHH,2017-04-29T15:30:00Z,61.03,69.08,1.0,-6.0,300,6,,6.21,30.177166,,,,,,,,,,,SCT,4200,,,,,,,VFR,,,,,,,,,,,,METAR,23.0
USTR 291530Z 32006MPS 9999 SCT043CB 10/M05 Q1024 R30/CLRD65 TEMPO 30014MPS RMK QFE758/1011,USTR,2017-04-29T15:30:00Z,57.17,65.32,10.0,-5.0,320,12,,6.21,30.236221,,,,,,,,,,,SCT,4300,,,,,,,VFR,,,,,,,,,,,,METAR,115.0
UNOO 291530Z 35003MPS CAVOK 11/M07 Q1021 R25/CLRD60 NOSIG RMK QFE757,UNOO,2017-04-29T15:30:00Z,54.97,73.32,11.0,-7.0,350,6,,6.21,30.147638,,,,,,TRUE,,,,,CAVOK,,,,,,,,VFR,,,,,,,,,,,,METAR,95.0
UNNT 291530Z 36004MPS 9999 -SHRA BKN019CB 06/03 Q1018 R25/190065 R16/090070 NOSIG RMK QFE754/1005,UNNT,2017-04-29T15:30:00Z,55.02,82.63,6.0,3.0,360,8,,6.21,30.059055,,,,,,TRUE,,,,-SHRA,BKN,1900,,,,,,,MVFR,,,,,,,,,,,,METAR,111.0
UNKL 291530Z 24006MPS CAVOK 14/M01 Q1008 R29/CLRD65 NOSIG RMK QFE731,UNKL,2017-04-29T15:30:00Z,56.17,92.48,14.0,-1.0,240,12,,6.21,29.763779,,,,,,TRUE,,,,,CAVOK,,,,,,,,VFR,,,,,,,,,,,,METAR,276.0
UNEE 291530Z 33008MPS 9999 SCT020CB 08/03 Q1015 R23/CLRD60 NOSIG RMK QFE738,UNEE,2017-04-29T15:30:00Z,55.27,86.08,8.0,3.0,330,16,,6.21,29.970472,,,,,,TRUE,,,,,SCT,2000,,,,,,,VFR,,,,,,,,,,,,METAR,260.0
UNBB 291530Z 23007MPS 9999 FEW040 12/01 Q1018 R24/CLRD66 NOSIG RMK QFE741,UNBB,2017-04-29T15:30:00Z,53.37,83.53,12.0,1.0,230,14,,6.21,30.059055,,,,,,TRUE,,,,,FEW,4000,,,,,,,VFR,,,,,,,,,,,,METAR,255.0
UNAA 291530Z 25007MPS CAVOK 14/03 Q1015 R20/090065 NOSIG RMK QFE739,UNAA,2017-04-29T15:30:00Z,53.75,91.4,14.0,3.0,250,14,,6.21,29.970472,,,,,,TRUE,,,,,CAVOK,,,,,,,,VFR,,,,,,,,,,,,METAR,245.0
UHWW 291530Z 29001MPS 9999 -SHRA BKN030CB 10/07 Q0994 R25L/290160 NOSIG RMK QFE744,UHWW,2017-04-29T15:30:00Z,43.4,132.15,10.0,7.0,290,2,,6.21,29.350393,,,,,,TRUE,,,,-SHRA,BKN,3000,,,,,,,MVFR,,,,,,,,,,,,METAR,14.0
UHHH 291530Z 07004MPS 9999 SCT030CB 07/06 Q0994 R23L/290045 NOSIG RMK QFE739/0986,UHHH,2017-04-29T15:30:00Z,48.52,135.18,7.0,6.0,70,8,,6.21,29.350393,,,,,,TRUE,,,,,SCT,3000,,,,,,,VFR,,,,,,,,,,,,METAR,72.0
FMEP 291530Z AUTO 10013KT 9999 SCT036 BKN044 23/18 Q1019,FMEP,2017-04-29T15:30:00Z,-21.32,55.42,23.0,18.0,100,13,,6.21,30.088583,,,TRUE,,,,,,,,SCT,3600,BKN,4400,,,,,VFR,,,,,,,,,,,,METAR,18.0
FMEE 291530Z AUTO 13017KT 9999 OVC060 24/18 Q1018 TEMPO 11025G35KT,FMEE,2017-04-29T15:30:00Z,-20.87,55.52,24.0,18.0,130,17,,6.21,30.059055,,,TRUE,,,,,,,,OVC,6000,,,,,,,VFR,,-2.5,,,,,,,,,,METAR,25.0
VEBS 291530Z 20014KT 3000 HZ SCT018 29/26 Q1008 NOSIG,VEBS,2017-04-29T15:30:00Z,20.25,85.82,29.0,26.0,200,14,,1.86,29.763779,,,,,,TRUE,,,,HZ,SCT,1800,,,,,,,IFR,,,,,,,,,,,,METAR,46.0
KEDJ 291530Z AUTO 00000KT 2SM BKN002 15/ A3011 RMK AO1 P0007,KEDJ,2017-04-29T15:30:00Z,40.37,-83.82,15.0,,0,0,,2.0,30.109253,,,TRUE,TRUE,,,,,,,BKN,200,,,,,,,LIFR,,,,,,0.07,,,,,,SPECI,342.0
UWUU 291530Z 36004MPS CAVOK 18/06 Q1027 R32L/0///60 NOSIG RMK QFE757/1010,UWUU,2017-04-29T15:30:00Z,54.57,55.87,18.0,6.0,360,8,,6.21,30.324802,,,,,,TRUE,,,,,CAVOK,,,,,,,,VFR,,,,,,,,,,,,METAR,137.0
USCM 291530Z 28006MPS 9999 NSC 16/M00 Q1027 R01/090060 NOSIG RMK QFE731,USCM,2017-04-29T15:30:00Z,53.4,58.75,16.0,0.0,280,12,,6.21,30.324802,,,,,,TRUE,,,,,CLR,,,,,,,,VFR,,,,,,,,,,,,METAR,435.0
UWWW 291530Z 21003MPS CAVOK 20/00 Q1027 R23/CLRD60 NOSIG RMK QFE759/1012,UWWW,2017-04-29T15:30:00Z,53.5,50.17,20.0,0.0,210,6,,6.21,30.324802,,,,,,TRUE,,,,,CAVOK,,,,,,,,VFR,,,,,,,,,,,,METAR,146.0
UWSS 291530Z 17006MPS CAVOK 22/04 Q1024 R12/010095 NOSIG RMK QFE757,UWSS,2017-04-29T15:30:00Z,51.57,46.07,22.0,4.0,170,12,,6.21,30.236221,,,,,,TRUE,,,,,CAVOK,,,,,,,,VFR,,,,,,,,,,,,METAR,166.0
UWOO 291530Z 29004MPS CAVOK 16/02 Q1029 R26/CLRD65 NOSIG RMK QFE761/1015,UWOO,2017-04-29T15:30:00Z,51.8,55.47,16.0,2.0,290,8,,6.21,30.383858,,,,,,TRUE,,,,,CAVOK,,,,,,,,VFR,,,,,,,,,,,,METAR,109.0
UWKS 291530Z 10007MPS CAVOK 18/07 Q1025 R06/010060 NOSIG RMK QFE753,UWKS,2017-04-29T15:30:00Z,56.08,47.35,18.0,7.0,100,14,,6.21,30.265747,,,,,,TRUE,,,,,CAVOK,,,,,,,,VFR,,,,,,,,,,,,METAR,170.0
UWKE 291530Z 03009MPS CAVOK 16/04 Q1027 R03/090070 NOSIG RMK QFE753/1004,UWKE,2017-04-29T15:30:00Z,55.57,52.08,16.0,4.0,30,17,,6.21,30.324802,,,,,,TRUE,,,,,CAVOK,,,,,,,,VFR,,,,,,,,,,,,METAR,196.0
UWKD 291530Z 17004MPS CAVOK 19/01 Q1025 R11/70D NOSIG RMK QFE758/1011,UWKD,2017-04-29T15:30:00Z,55.62,49.28,19.0,1.0,170,8,,6.21,30.265747,,,,,,TRUE,,,,,CAVOK,,,,,,,,VFR,,,,,,,,,,,,METAR,126.0
USPP 291530Z 28004MPS CAVOK 07/M01 Q1031 R21/090060 TEMPO 30009MPS RMK QFE762,USPP,2017-04-29T15:30:00Z,57.92,56.02,7.0,-1.0,280,8,,6.21,30.442913,,,,,,,,,,,CAVOK,,,,,,,,VFR,,,,,,,,,,,,METAR,123.0
URWW 291530Z 13008MPS CAVOK 19/M00 Q1021 R06/010070 NOSIG,URWW,2017-04-29T15:30:00Z,48.78,44.33,19.0,0.0,130,16,,6.21,30.147638,,,,,,TRUE,,,,,CAVOK,,,,,,,,VFR,,,,,,,,,,,,METAR,147.0
URWI 291530Z AUTO 11007MPS 9999 // ///130/// 17/03 Q1019,URWI,2017-04-29T15:30:00Z,46.37,44.33,17.0,3.0,110,14,,6.21,30.088583,,,TRUE,,,,,,,,,,,,,,,,,,,,,,,,,,,,METAR,150.0
URWA 291530Z 12006MPS CAVOK 19/04 Q1023 R09/010070 NOSIG RMK QFE769/1026,URWA,2017-04-29T15:30:00Z,46.28,48.02,19.0,4.0,120,12,,6.21,30.206694,,,,,,TRUE,,,,,CAVOK,,,,,,,,VFR,,,,,,,,,,,,METAR,-20.0
URSS 291530Z 29002MPS 9999 NSC 19/07 Q1014 R02/090070 R06/090070 NOSIG RMK R06/29003MPS QFE759,URSS,2017-04-29T15:30:00Z,43.45,39.95,19.0,7.0,290,4,,6.21,29.940945,,,,,,TRUE,,,,,CLR,,,,,,,,VFR,,,,,,,,,,,,METAR,16.0
URRR 291530Z 09002MPS CAVOK 21/08 Q1017 R04/CLRD70 NOSIG RMK QFE756/1008,URRR,2017-04-29T15:30:00Z,47.25,39.82,21.0,8.0,90,4,,6.21,30.029528,,,,,,TRUE,,,,,CAVOK,,,,,,,,VFR,,,,,,,,,,,,METAR,77.0
URMT 291530Z 10006MPS CAVOK 19/08 Q1017 R07/010070 NOSIG RMK QFE723,URMT,2017-04-29T15:30:00Z,45.12,42.12,19.0,8.0,100,12,,6.21,30.029528,,,,,,TRUE,,,,,CAVOK,,,,,,,,VFR,,,,,,,,,,,,METAR,453.0
URMO 291530Z 05004MPS 9999 SCT043 19/03 Q1017 R09/010070 NOSIG RMK QFE719/0958,URMO,2017-04-29T15:30:00Z,43.2,44.6,19.0,3.0,50,8,,6.21,30.029528,,,,,,TRUE,,,,,SCT,4300,,,,,,,VFR,,,,,,,,,,,,METAR,510.0
URMN 291530Z 05002MPS 9999 SCT/// 18/07 Q1016 R24/010070 NOSIG RMK QFE725,URMN,2017-04-29T15:30:00Z,43.52,43.63,18.0,7.0,50,4,,6.21,30.0,,,,,,TRUE,,,,,,,,,,,,,,,,,,,,,,,,,METAR,445.0
URMM 291530Z 06003MPS 9999 NSC 19/09 Q1017 R12/000070 NOSIG RMK QFE734/0979,URMM,2017-04-29T15:30:00Z,44.22,43.1,19.0,9.0,60,6,,6.21,30.029528,,,,,,TRUE,,,,,CLR,,,,,,,,VFR,,,,,,,,,,,,METAR,314.0
URML 291530Z 16005MPS 9999 NSC 11/08 Q1018 R14/150065 NOSIG RMK QFE763/1018,URML,2017-04-29T15:30:00Z,42.82,47.65,11.0,8.0,160,10,,6.21,30.059055,,,,,,TRUE,,,,,CLR,,,,,,,,VFR,,,,,,,,,,,,METAR,4.0
URMG 291530Z 10005MPS 9999 BKN038 16/10 Q1016 R08/000070 NOSIG RMK QFE747/0997,URMG,2017-04-29T15:30:00Z,43.37,45.7,16.0,10.0,100,10,,6.21,30.0,,,,,,TRUE,,,,,BKN,3800,,,,,,,VFR,,,,,,,,,,,,METAR,263.0
URKK 291530Z 04004MPS CAVOK 23/09 Q1015 R05C/CLRD60 NOSIG RMK QFE758,URKK,2017-04-29T15:30:00Z,45.03,39.15,23.0,9.0,40,8,,6.21,29.970472,,,,,,TRUE,,,,,CAVOK,,,,,,,,VFR,,,,,,,,,,,,METAR,34.0
URKA 291530Z 23001MPS CAVOK 19/12 Q1015 R04/010070 NOSIG RMK QFE757/1009,URKA,2017-04-29T15:30:00Z,45.0,37.35,19.0,12.0,230,2,,6.21,29.970472,,,,,,TRUE,,,,,CAVOK,,,,,,,,VFR,,,,,,,,,,,,METAR,53.0
UWGG 291530Z 17003MPS CAVOK 21/00 Q1022 R18R/090060 NOSIG RMK QFE759,UWGG,2017-04-29T15:30:00Z,56.23,43.78,21.0,0.0,170,6,,6.21,30.177166,,,,,,TRUE,,,,,CAVOK,,,,,,,,VFR,,,,,,,,,,,,METAR,73.0
UUOB 291530Z 15003MPS CAVOK 22/05 Q1017 R11/090060 NOSIG,UUOB,2017-04-29T15:30:00Z,50.65,36.58,22.0,5.0,150,6,,6.21,30.029528,,,,,,TRUE,,,,,CAVOK,,,,,,,,VFR,,,,,,,,,,,,METAR,224.0
UUBC 291530Z 15006MPS CAVOK 23/06 Q1015 R13/CLRD60 NOSIG RMK QFE743/0991,UUBC,2017-04-29T15:30:00Z,54.55,36.37,23.0,6.0,150,12,,6.21,29.970472,,,,,,TRUE,,,,,CAVOK,,,,,,,,VFR,,,,,,,,,,,,METAR,199.0
ULWC 291530Z 04003G08MPS 9999 SCT010 05/03 Q1021 R03/290252 NOSIG RMK QFE756/1008,ULWC,2017-04-29T15:30:00Z,59.28,38.02,5.0,3.0,40,6,16,6.21,30.147638,,,,,,TRUE,,,,,SCT,1000,,,,,,,VFR,,,,,,,,,,,,METAR,115.0
UIUU 291530Z 17002MPS 9999 -SHRA BKN040CB 10/07 Q1013 R26/290160 NOSIG RMK QFE715/0954,UIUU,2017-04-29T15:30:00Z,51.8,107.45,10.0,7.0,170,4,,6.21,29.911417,,,,,,TRUE,,,,-SHRA,BKN,4000,,,,,,,VFR,,,,,,,,,,,,METAR,515.0
UIII 291530Z 17003MPS 3400 FU BR FEW050CB 09/09 Q1013 R30/190055 NOSIG RMK QFE715/0953,UIII,2017-04-29T15:30:00Z,52.27,104.4,9.0,9.0,170,6,,2.11,29.911417,,,,,,TRUE,,,,FU BR,FEW,5000,,,,,,,IFR,,,,,,,,,,,,METAR,513.0
UIBB 291530Z 21004MPS 180V240 3800 FU NSC 07/05 Q1007 R30/CLRD60 NOSIG RMK QFE713/0950,UIBB,2017-04-29T15:30:00Z,56.37,101.7,7.0,5.0,210,8,,2.36,29.734253,,,,,,TRUE,,,,FU,CLR,,,,,,,,IFR,,,,,,,,,,,,METAR,490.0
UEEE 291530Z 34004MPS 9999 FEW050CB 02/M04 Q1006 R23L/09//60 NOSIG RMK QFE746,UEEE,2017-04-29T15:30:00Z,62.08,129.77,2.0,-4.0,340,8,,6.21,29.704725,,,,,,TRUE,,,,,FEW,5000,,,,,,,VFR,,,,,,,,,,,,METAR,103.0
UUMO 291530Z 16006MPS CAVOK 23/04 Q1016 R26/090060 NOSIG RMK QFE747/0996,UUMO,2017-04-29T15:30:00Z,55.52,37.5,23.0,4.0,160,12,,6.21,30.0,,,,,,TRUE,,,,,CAVOK,,,,,,,,VFR,,,,,,,,,,,,METAR,174.0
UUWW 291530Z 15003MPS CAVOK 22/04 Q1016 R24/000070 NOSIG,UUWW,2017-04-29T15:30:00Z,55.6,37.27,22.0,4.0,150,6,,6.21,30.0,,,,,,TRUE,,,,,CAVOK,,,,,,,,VFR,,,,,,,,,,,,METAR,203.0
K2V6 291529Z AUTO 01018G24KT 10SM SCT016 OVC023 00/M02 A3013 RMK AO2,K2V6,2017-04-29T15:29:00Z,40.1,-102.72,0.0,-2.0,10,18,24,10.0,30.129921,,,TRUE,TRUE,,,,,,,SCT,1600,OVC,2300,,,,,MVFR,,,,,,,,,,,,METAR,1261.0
KZZV 291529Z AUTO 29005G24KT 1 3/4SM +TSRA BR SCT007 SCT028 OVC065 17/16 A3014 RMK AO2 LTG DSNT ALQDS TSB22 P0016 T01720161,KZZV,2017-04-29T15:29:00Z,39.95,-81.9,17.2,16.1,290,5,24,1.75,30.138779,,,TRUE,TRUE,,,,,,+TSRA BR,SCT,700,SCT,2800,OVC,6500,,,IFR,,,,,,0.16,,,,,,SPECI,268.0
KTCL 291529Z 17015G20KT 10SM SCT026 27/21 A3003 RMK AO2 T02720206,KTCL,2017-04-29T15:29:00Z,33.22,-87.62,27.2,20.6,170,15,20,10.0,30.029528,,,,TRUE,,,,,,,SCT,2600,,,,,,,VFR,,,,,,,,,,,,SPECI,49.0
KSGF 291529Z 36007KT 4SM TSRA BR OVC013 16/15 A2970 RMK AO2 WSHFT 1439 LTG DSNT ALQDS TSE14B23 P0023 T01610150,KSGF,2017-04-29T15:29:00Z,37.23,-93.38,16.1,15.0,360,7,,4.0,29.698818,,,,TRUE,,,,,,TSRA BR,OVC,1300,,,,,,,MVFR,,,,,,0.23,,,,,,SPECI,390.0
KPSP 291529Z 33012G17KT 10SM CLR 22/M09 A3007 RMK AO2 T02221089,KPSP,2017-04-29T15:29:00Z,33.82,-116.5,22.2,-8.9,330,12,17,10.0,30.070866,,,,TRUE,,,,,,,CLR,,,,,,,,VFR,,,,,,,,,,,,SPECI,135.0
KPMP 291529Z 10016KT 10SM SCT021 SCT029 29/22 A3016 RMK AO2 T02890217,KPMP,2017-04-29T15:29:00Z,26.25,-80.12,28.9,21.7,100,16,,10.0,30.159449,,,,TRUE,,,,,,,SCT,2100,SCT,2900,,,,,VFR,,,,,,,,,,,,SPECI,6.0
KMKO 291529Z AUTO 01014G17KT 3/4SM +TSRA BR SCT006 BKN009 OVC026 14/14 A2961 RMK AO2 PK WND 35029/1456 LTG DSNT ALQDS P0037 T01440144 $,KMKO,2017-04-29T15:29:00Z,35.65,-95.37,14.4,14.4,10,14,17,0.75,29.610237,,,TRUE,TRUE,TRUE,,,,,+TSRA BR,SCT,600,BKN,900,OVC,2600,,,LIFR,,,,,,0.37,,,,,,SPECI,185.0
KGKJ 291529Z AUTO 31006KT 2 1/2SM -RA BR BKN004 OVC009 13/12 A3013 RMK AO2 RAB11 P0001 T01280122 TSNO,KGKJ,2017-04-29T15:29:00Z,41.63,-80.22,12.8,12.2,310,6,,2.5,30.129921,,,TRUE,TRUE,,,TRUE,,,-RA BR,BKN,400,OVC,900,,,,,LIFR,,,,,,0.01,,,,,,SPECI,428.0
KFWA 291529Z 08007KT 7SM -RA BKN011 BKN026 OVC090 12/11 A3014 RMK AO2 RAB21 CIG 008V013 PRESRR P0000 T01220106,KFWA,2017-04-29T15:29:00Z,40.98,-85.18,12.2,10.6,80,7,,7.0,30.138779,,,,TRUE,,,,,,-RA,BKN,1100,BKN,2600,OVC,9000,,,MVFR,,,,,,0.005,,,,,,SPECI,248.0
KDKK 291529Z AUTO 03007KT 10SM SCT011 OVC031 10/07 A3011 RMK AO2 T01000072 $,KDKK,2017-04-29T15:29:00Z,42.5,-79.28,10.0,7.2,30,7,,10.0,30.109253,,,TRUE,TRUE,TRUE,,,,,,SCT,1100,OVC,3100,,,,,VFR,,,,,,,,,,,,SPECI,202.0
PAMB 291529Z AUTO 07009KT 040V120 10SM SCT003 BKN022 OVC033 00/M01 A2992 RMK AO2 FZRANO $,PAMB,2017-04-29T15:29:00Z,58.98,-159.05,0.0,-1.0,70,9,,10.0,29.920275,,,TRUE,TRUE,TRUE,,,TRUE,,,SCT,300,BKN,2200,OVC,3300,,,MVFR,,,,,,,,,,,,SPECI,16.0
CYQX 291529Z CCA 25013G18KT 20SM -SHRA FEW005 SCT029 SCT040 BKN058 BKN084 09/08 A2956 RMK SF1SC2SC1SC1AC2 CVCTV CLD EMBD PRESFR SLP016,CYQX,2017-04-29T15:29:00Z,48.95,-54.58,9.0,8.0,250,13,18,20.0,29.56004,1001.6,,,,,,,,,-SHRA,FEW,500,SCT,2900,SCT,4000,BKN,5800,VFR,,,,,,,,,,,,SPECI,151.0
CYXR 291529Z AUTO 29017G25KT 9SM OVC038 01/M05 A3010 RMK SLP205,CYXR,2017-04-29T15:29:00Z,47.7,-79.83,1.0,-5.0,290,17,25,9.0,30.100393,1020.5,,TRUE,,,,,,,,OVC,3800,,,,,,,VFR,,,,,,,,,,,,SPECI,243.0
KCWN 291528Z AUTO 35019G24KT 3/4SM -SN OVC016 M04/M05 A2999 RMK AO2 VIS 3/4V1 5/8 CIG 016V022 SLPNO,KCWN,2017-04-29T15:28:00Z,38.75,-104.85,-4.0,-5.0,350,19,24,0.75,29.991142,,,TRUE,TRUE,,,,,,-SN,OVC,1600,,,,,,,LIFR,,,,,,,,,,,,SPECI,2040.0
KAFF 291528Z AUTO 35013KT 2 1/2SM -SN BR OVC029 M03/M05 A3010 RMK AO2 VIS 2 1/2V3 CIG 029V034 SLP220,KAFF,2017-04-29T15:28:00Z,38.97,-104.82,-3.0,-5.0,350,13,,2.5,30.100393,1022.0,,TRUE,TRUE,,,,,,-SN BR,OVC,2900,,,,,,,IFR,,,,,,,,,,,,SPECI,2003.0
KEHA 291528Z AUTO 33012KT M01/M01 RMK AO1 /PK WND 18 M T10061005,KEHA,2017-04-29T15:28:00Z,37.0,-101.9,-0.6,-0.5,330,12,,,,,,TRUE,TRUE,,,,,,,,,,,,,,,,,,,,,,,,,,,SPECI,1099.0
KSTJ 291528Z 02013KT 3SM RA BR BKN009 OVC013 07/07 A2998 RMK AO2 P0011 T00720072,KSTJ,2017-04-29T15:28:00Z,39.77,-94.92,7.2,7.2,20,13,,3.0,29.97933,,,,TRUE,,,,,,RA BR,BKN,900,OVC,1300,,,,,IFR,,,,,,0.11,,,,,,SPECI,247.0
KMTJ 291528Z AUTO 00000KT 3SM BR BKN002 01/01 A3000 RMK AO2 T00060006,KMTJ,2017-04-29T15:28:00Z,38.5,-107.9,0.6,0.6,0,0,,3.0,30.0,,,TRUE,TRUE,,,,,,BR,BKN,200,,,,,,,LIFR,,,,,,,,,,,,SPECI,1750.0
KLAF 291528Z 10013KT 3SM -RA BR BKN009 OVC100 11/11 A3004 RMK AO2 CIG 005V013 P0004 T01110111,KLAF,2017-04-29T15:28:00Z,40.42,-86.93,11.1,11.1,100,13,,3.0,30.041338,,,,TRUE,,,,,,-RA BR,BKN,900,OVC,10000,,,,,IFR,,,,,,0.04,,,,,,SPECI,182.0
KGAG 291528Z AUTO 01016G26KT 1 3/4SM RA BR OVC007 06/04 A2980 RMK AO2 PK WND 02026/1519 RAB16 P0001 T00560044,KGAG,2017-04-29T15:28:00Z,36.3,-99.77,5.6,4.4,10,16,26,1.75,29.799213,,,TRUE,TRUE,,,,,,RA BR,OVC,700,,,,,,,IFR,,,,,,0.01,,,,,,SPECI,668.0
CYAS 291528Z 34028G34KT 1SM -SN BLSN BKN026 BKN090 M06/M08 A2942 RMK SN1SC4AC2 SLP975,CYAS,2017-04-29T15:28:00Z,60.02,-70.0,-6.0,-8.0,340,28,34,1.0,29.421259,997.5,,,,,,,,,-SN BLSN,BKN,2600,BKN,9000,,,,,IFR,,,,,,,,,,,,SPECI,117.0
KFAM 291528Z AUTO 10007KT 10SM -RA SCT010 OVC031 18/17 A2990 RMK AO2 LTG DSNT W AND NW RAB20 P0000,KFAM,2017-04-29T15:28:00Z,37.77,-90.42,18.0,17.0,100,7,,10.0,29.899607,,,TRUE,TRUE,,,,,,-RA,SCT,1000,OVC,3100,,,,,VFR,,,,,,0.005,,,,,,SPECI,288.0
CYVL 291528Z AUTO VRB02KT 9SM BKN019 OVC034 M07/M09 A3011 RMK SLP222,CYVL,2017-04-29T15:28:00Z,67.02,-126.13,-7.0,-9.0,0,2,,9.0,30.109253,1022.2,,TRUE,,,,,,,,BKN,1900,OVC,3400,,,,,MVFR,,,,,,,,,,,,SPECI,259.0
KCVS 291528Z AUTO 02025G36KT 10SM -RA FEW010 BKN045 OVC055 02/02 A2986 RMK AO2 SLP102,KCVS,2017-04-29T15:28:00Z,34.37,-103.32,2.0,2.0,20,25,36,10.0,29.861221,1010.2,,TRUE,TRUE,,,,,,-RA,FEW,1000,BKN,4500,OVC,5500,,,VFR,,,,,,,,,,,,SPECI,1309.0
KMYP 291527Z AUTO 06038G43KT OVC002 M12/M15 A2996 RMK AO2 PWINO,KMYP,2017-04-29T15:27:00Z,38.48,-106.32,-12.0,-15.0,60,38,43,,29.958662,,,TRUE,TRUE,,,,,TRUE,,OVC,200,,,,,,,,,,,,,,,,,,,METAR,3667.0
KUIN 291527Z AUTO 07018G25KT 2 1/2SM RA BR BKN010 BKN050 OVC075 09/08 A2997 RMK AO2 PK WND 08026/1501 PRESRR P0009 T00940083,KUIN,2017-04-29T15:27:00Z,39.95,-91.2,9.4,8.3,70,18,25,2.5,29.970472,,,TRUE,TRUE,,,,,,RA BR,BKN,1000,BKN,5000,OVC,7500,,,IFR,,,,,,0.09,,,,,,SPECI,234.0
KRIC 291527Z 22014KT 8SM SCT020 BKN300 27/22 A3014 RMK AO2 T02720222,KRIC,2017-04-29T15:27:00Z,37.52,-77.32,27.2,22.2,220,14,,8.0,30.138779,,,,TRUE,,,,,,,SCT,2000,BKN,30000,,,,,VFR,,,,,,,,,,,,SPECI,50.0
KPUB 291527Z 02014KT 1/2SM R08R/3500V4500FT SN FG VV009 00/M02 A3012 RMK AO2 P0002 T00001017 $,KPUB,2017-04-29T15:27:00Z,38.28,-104.5,0.0,-1.7,20,14,,0.5,30.121063,,,,TRUE,TRUE,,,,,SN FG,OVX,0,,,,,,,LIFR,,,,,,0.02,,,,,900,SPECI,1420.0
KMLI 291527Z 05014G23KT 10SM -RA BKN031 BKN055 OVC100 08/02 A3009 RMK AO2 PK WND 06032/1457 RAB16 P0000 T00780022,KMLI,2017-04-29T15:27:00Z,41.45,-90.52,7.8,2.2,50,14,23,10.0,30.088583,,,,TRUE,,,,,,-RA,BKN,3100,BKN,5500,OVC,10000,,,VFR,,,,,,0.005,,,,,,SPECI,184.0
KMKL 291527Z 18007G17KT 10SM SCT028 BKN036 27/21 A2995 RMK AO2 T02670211,KMKL,2017-04-29T15:27:00Z,35.6,-88.92,26.7,21.1,180,7,17,10.0,29.949802,,,,TRUE,,,,,,,SCT,2800,BKN,3600,,,,,VFR,,,,,,,,,,,,SPECI,128.0
KMEM 291527Z 18014G21KT 10SM BKN029 BKN037 27/22 A2990 RMK AO2 T02670217,KMEM,2017-04-29T15:27:00Z,35.07,-89.98,26.7,21.7,180,14,21,10.0,29.899607,,,,TRUE,,,,,,,BKN,2900,BKN,3700,,,,,MVFR,,,,,,,,,,,,SPECI,86.0
KLWC 291527Z AUTO 36004KT 2 1/2SM -RA BR SCT012 BKN065 OVC085 08/08 A2993 RMK AO2 P0015 T00830078,KLWC,2017-04-29T15:27:00Z,39.02,-95.22,8.3,7.8,360,4,,2.5,29.929134,,,TRUE,TRUE,,,,,,-RA BR,SCT,1200,BKN,6500,OVC,8500,,,IFR,,,,,,0.15,,,,,,SPECI,253.0
KILN 291527Z AUTO 9SM -RA FEW055 SCT075 OVC095 16/16 A3012 RMK AO2 LTG DSNT N-SE TSE12 P0008 T01610161 $,KILN,2017-04-29T15:27:00Z,39.43,-83.8,16.1,16.1,,,,9.0,30.121063,,,TRUE,TRUE,TRUE,,,,,-RA,FEW,5500,SCT,7500,OVC,9500,,,VFR,,,,,,0.08,,,,,,SPECI,322.0
KHRO 291527Z AUTO 16019G28KT 7SM SCT025 OVC031 23/19 A2968 RMK AO2 PK WND 16028/1519 T02280194 $,KHRO,2017-04-29T15:27:00Z,36.27,-93.15,22.8,19.4,160,19,28,7.0,29.681103,,,TRUE,TRUE,TRUE,,,,,,SCT,2500,OVC,3100,,,,,VFR,,,,,,,,,,,,SPECI,417.0
KELZ 291527Z AUTO 02009KT 10SM BKN002 OVC009 14/13 A3007 RMK AO2 CIG 002V007 T01440128 $,KELZ,2017-04-29T15:27:00Z,42.1,-77.98,14.4,12.8,20,9,,10.0,30.070866,,,TRUE,TRUE,TRUE,,,,,,BKN,200,OVC,900,,,,,LIFR,,,,,,,,,,,,SPECI,646.0
KDTO 291527Z 20020G29KT 7SM SCT029 SCT036 BKN046 27/22 A2957 RMK AO2 PK WND 19029/1526 T02720217,KDTO,2017-04-29T15:27:00Z,33.2,-97.2,27.2,21.7,200,20,29,7.0,29.568897,,,,TRUE,,,,,,,SCT,2900,SCT,3600,BKN,4600,,,VFR,,,,,,,,,,,,SPECI,196.0
KDRO 291527Z AUTO 08005KT 4SM -SN BKN025 OVC033 01/M03 A2990 RMK AO2 SNB1456 P0000 T00061028,KDRO,2017-04-29T15:27:00Z,37.15,-107.77,0.6,-2.8,80,5,,4.0,29.899607,,,TRUE,TRUE,,,,,,-SN,BKN,2500,OVC,3300,,,,,MVFR,,,,,,0.005,,,,,,SPECI,2035.0
KCFV 291527Z AUTO 04015G30KT 10SM -RA FEW075 SCT090 BKN110 11/10 A2969 RMK AO2 PK WND 03030/1518 WSHFT 1439 LTG DSNT E AND SE TSE1458 P0003 T01110100 $,KCFV,2017-04-29T15:27:00Z,37.08,-95.57,11.1,10.0,40,15,30,10.0,29.68996,,,TRUE,TRUE,TRUE,,,,,-RA,FEW,7500,SCT,9000,BKN,11000,,,VFR,,,,,,0.03,,,,,,SPECI,225.0
PACD 291527Z AUTO 14019G28KT 10SM -RA FEW015 FEW024 OVC033 03/01 A2966 RMK AO2 PK WND 13031/1517 P0000 T00280011 TSNO,PACD,2017-04-29T15:27:00Z,55.2,-162.72,2.8,1.1,140,19,28,10.0,29.660433,,,TRUE,TRUE,,,TRUE,,,-RA,FEW,1500,FEW,2400,OVC,3300,,,VFR,,,,,,0.005,,,,,,SPECI,30.0
KPPF 291527Z AUTO 03009G27KT 010V090 10SM -RA FEW090 BKN110 11/09 A2967 RMK AO2 PK WND 04027/1518 WSHFT 1452 LTG DSNT N-SE TSE14 P0009 T01060094,KPPF,2017-04-29T15:27:00Z,37.33,-95.5,10.6,9.4,30,9,27,10.0,29.66929,,,TRUE,TRUE,,,,,,-RA,FEW,9000,BKN,11000,,,,,VFR,,,,,,0.09,,,,,,SPECI,274.0
PADQ 291526Z 31004KT 10SM -RA BKN009 OVC013 03/03 A2998 RMK AO2 CIG 007V011 P0000 T00330028,PADQ,2017-04-29T15:26:00Z,57.75,-152.5,3.3,2.8,310,4,,10.0,29.97933,,,,TRUE,,,,,,-RA,BKN,900,OVC,1300,,,,,IFR,,,,,,0.005,,,,,,SPECI,34.0
KVLD 291526Z 18011KT 140V200 10SM SCT031 29/21 A3017 RMK AO2 T02940206,KVLD,2017-04-29T15:26:00Z,30.78,-83.27,29.4,20.6,180,11,,10.0,30.171259,,,,TRUE,,,,,,,SCT,3100,,,,,,,VFR,,,,,,,,,,,,SPECI,62.0
KUZA 291526Z AUTO 22007KT 9SM SCT018 27/21 A3021 RMK AO2 T02670211,KUZA,2017-04-29T15:26:00Z,34.98,-81.05,26.7,21.1,220,7,,9.0,30.209646,,,TRUE,TRUE,,,,,,,SCT,1800,,,,,,,VFR,,,,,,,,,,,,SPECI,202.0
KTOP 291526Z 04012KT 2 1/2SM RA BR BKN010 OVC033 08/07 A2992 RMK AO2 P0009 T00780072,KTOP,2017-04-29T15:26:00Z,39.07,-95.63,7.8,7.2,40,12,,2.5,29.920275,,,,TRUE,,,,,,RA BR,BKN,1000,OVC,3300,,,,,IFR,,,,,,0.09,,,,,,SPECI,268.0
KDHT 291526Z AUTO 36022G33KT 1SM -SN BR SCT007 OVC011 01/01 A2996 RMK AO2 PK WND 36033/1518 P0001 T00110006 $,KDHT,2017-04-29T15:26:00Z,36.02,-102.55,1.1,0.6,360,22,33,1.0,29.958662,,,TRUE,TRUE,TRUE,,,,,-SN BR,SCT,700,OVC,1100,,,,,IFR,,,,,,0.01,,,,,,SPECI,1217.0
KOZR 291526Z AUTO 16010KT 10SM SCT022 BKN200 28/22 A3011 RMK AO2 SLP196,KOZR,2017-04-29T15:26:00Z,31.28,-85.72,28.0,22.0,160,10,,10.0,30.109253,1019.6,,TRUE,TRUE,,,,,,,SCT,2200,BKN,20000,,,,,VFR,,,,,,,,,,,,SPECI,93.0
EBDT 291525Z AUTO 07005KT 9999 FEW055/// 12/01 Q1017 BLU,EBDT,2017-04-29T15:25:00Z,51.02,5.07,12.0,1.0,70,5,,6.21,30.029528,,,TRUE,,,,,,,,FEW,5500,,,,,,,VFR,,,,,,,,,,,,METAR,54.0
EBLB 291525Z AUTO 05008KT //// /// 11/M01 Q////,EBLB,2017-04-29T15:25:00Z,50.47,6.17,11.0,-1.0,50,8,,,,,,TRUE,,,,,,,,,,,,,,,,,,,,,,,,,,,,METAR,570.0
EBFS 291525Z 05005KT 9999 FEW050 13/00 Q1016 BLU,EBFS,2017-04-29T15:25:00Z,50.22,4.65,13.0,0.0,50,5,,6.21,30.0,,,,,,,,,,,FEW,5000,,,,,,,VFR,,,,,,,,,,,,SPECI,299.0
EBFN 291525Z 14008KT 9999 FEW039 BKN060 14/01 Q1015 BLU,EBFN,2017-04-29T15:25:00Z,51.07,2.63,14.0,1.0,140,8,,6.21,29.970472,,,,,,,,,,,FEW,3900,BKN,6000,,,,,VFR,,,,,,,,,,,,SPECI,9.0
EBCV 291525Z AUTO 11006KT 9999 BKN058/// 14/02 Q1016 BLU,EBCV,2017-04-29T15:25:00Z,50.57,3.82,14.0,2.0,110,6,,6.21,30.0,,,TRUE,,,,,,,,BKN,5800,,,,,,,VFR,,,,,,,,,,,,SPECI,63.0
EBBL 291525Z AUTO 04006KT 9999 OVC049/// 13/00 Q1017 BLU,EBBL,2017-04-29T15:25:00Z,51.17,5.47,13.0,0.0,40,6,,6.21,30.029528,,,TRUE,,,,,,,,OVC,4900,,,,,,,VFR,,,,,,,,,,,,SPECI,64.0
EBBE 291525Z AUTO 05005KT 9999 BKN048/// 12/00 Q1016 BLU,EBBE,2017-04-29T15:25:00Z,50.75,4.77,12.0,0.0,50,5,,6.21,30.0,,,TRUE,,,,,,,,BKN,4800,,,,,,,VFR,,,,,,,,,,,,SPECI,127.0
EHQE 291525Z AUTO ///06KT 9999 NSC 09/02 Q1017,EHQE,2017-04-29T15:25:00Z,52.92,4.15,9.0,2.0,,,,6.21,30.029528,,,TRUE,,,,,,,,CLR,,,,,,,,VFR,,,,,,,,,,,,METAR,50.0
EHPG 291525Z AUTO 11010KT 9999 NCD 10/07 Q1016,EHPG,2017-04-29T15:25:00Z,52.37,3.35,10.0,7.0,110,10,,6.21,30.0,,,TRUE,,,,,,,,CLR,,,,,,,,VFR,,,,,,,,,,,,METAR,50.0
EHMG 291525Z AUTO 08004KT 9999 NCD 10/03 Q1018,EHMG,2017-04-29T15:25:00Z,53.62,4.97,10.0,3.0,80,4,,6.21,30.059055,,,TRUE,,,,,,,,CLR,,,,,,,,VFR,,,,,,,,,,,,METAR,50.0
EHMA 291525Z AUTO 02007KT 340V060 9999 NCD 08/01 Q1018,EHMA,2017-04-29T15:25:00Z,53.5,5.95,8.0,1.0,20,7,,6.21,30.059055,,,TRUE,,,,,,,,CLR,,,,,,,,VFR,,,,,,,,,,,,METAR,50.0
EHKV 291525Z AUTO 13013KT 9999 NSC 10/04 Q1017,EHKV,2017-04-29T15:25:00Z,53.27,3.63,10.0,4.0,130,13,,6.21,30.029528,,,TRUE,,,,,,,,CLR,,,,,,,,VFR,,,,,,,,,,,,METAR,50.0
EHJA 291525Z AUTO 12017KT 9999 NSC 09/05 Q1017,EHJA,2017-04-29T15:25:00Z,53.82,2.95,9.0,5.0,120,17,,6.21,30.029528,,,TRUE,,,,,,,,CLR,,,,,,,,VFR,,,,,,,,,,,,METAR,50.0
EHHW 291525Z AUTO 36005KT 330V040 9999 FEW019/// 08/03 Q1018,EHHW,2017-04-29T15:25:00Z,,,8.0,3.0,360,5,,6.21,30.059055,,,TRUE,,,,,,,,FEW,1900,,,,,,,VFR,,,,,,,,,,,,METAR,
EHFZ 291525Z AUTO 13008KT 9999 NSC 07/03 Q1018,EHFZ,2017-04-29T15:25:00Z,54.12,4.02,7.0,3.0,130,8,,6.21,30.059055,,,TRUE,,,,,,,,CLR,,,,,,,,VFR,,,,,,,,,,,,METAR,50.0
EHFD 291525Z AUTO 09007KT 9999 NCD 07/03 Q1018,EHFD,2017-04-29T15:25:00Z,54.85,4.7,7.0,3.0,90,7,,6.21,30.059055,,,TRUE,,,,,,,,CLR,,,,,,,,VFR,,,,,,,,,,,,METAR,50.0
EHDV 291525Z AUTO 12018KT 9999 NSC 08/05 Q1017,EHDV,2017-04-29T15:25:00Z,54.32,2.93,8.0,5.0,120,18,,6.21,30.029528,,,TRUE,,,,,,,,CLR,,,,,,,,VFR,,,,,,,,,,,,METAR,50.0
EHAK 291525Z AUTO VRB05KT 9999 NCD 08/03 Q1018,EHAK,2017-04-29T15:25:00Z,55.42,3.82,8.0,3.0,0,5,,6.21,30.059055,,,TRUE,,,,,,,,CLR,,,,,,,,VFR,,,,,,,,,,,,METAR,50.0
SETU 291525Z 09010KT 9999 OVC020,SETU,2017-04-29T15:25:00Z,0.82,-77.7,,,90,10,,6.21,,,,,,,,,,,,OVC,2000,,,,,,,MVFR,,,,,,,,,,,,SPECI,2940.0
OERK 291525Z 30017KT 3000 BLDU SCT040 BKN080 32/04 Q1013,OERK,2017-04-29T15:25:00Z,24.95,46.72,32.0,4.0,300,17,,1.86,29.911417,,,,,,,,,,BLDU,SCT,4000,BKN,8000,,,,,IFR,,,,,,,,,,,,SPECI,612.0
KFRI 291525Z AUTO 06018KT 6SM -RA BR OVC009 07/05 A2985 RMK AO2 RAE02DZB02E05RAB15 PRESFR SLP110,KFRI,2017-04-29T15:25:00Z,39.03,-96.77,7.0,5.0,60,18,,6.0,29.84941,1011.0,,TRUE,TRUE,,,,,,-RA BR,OVC,900,,,,,,,IFR,,,,,,,,,,,,SPECI,325.0
EHWO 291525Z AUTO 08007KT 050V140 9999 OVC060 13/02 Q1017 BLU,EHWO,2017-04-29T15:25:00Z,51.45,4.32,13.0,2.0,80,7,,6.21,30.029528,,,TRUE,,,,,,,,OVC,6000,,,,,,,VFR,,,,,,,,,,,,METAR,17.0
EHVL 291525Z AUTO 03007KT 360V060 9999 FEW031 10/02 Q1018 BLU,EHVL,2017-04-29T15:25:00Z,53.23,4.92,10.0,2.0,30,7,,6.21,30.059055,,,TRUE,,,,,,,,FEW,3100,,,,,,,VFR,,,,,,,,,,,,METAR,5.0
EHVK 291525Z AUTO 06005KT 340V080 9999 BKN055 BKN110 13/01 Q1017 BLU,EHVK,2017-04-29T15:25:00Z,51.63,5.7,13.0,1.0,60,5,,6.21,30.029528,,,TRUE,,,,,,,,BKN,5500,BKN,11000,,,,,VFR,,,,,,,,,,,,METAR,21.0
EHLW 291525Z AUTO 03007KT 320V050 9999 NCD 10/02 Q1018 BLU,EHLW,2017-04-29T15:25:00Z,53.22,5.75,10.0,2.0,30,7,,6.21,30.059055,,,TRUE,,,,,,,,CLR,,,,,,,,VFR,,,,,,,,,,,,METAR,2.0
EHGR 291525Z AUTO 07004KT 350V120 9999 BKN045 OVC050 13/02 Q1017 BLU,EHGR,2017-04-29T15:25:00Z,51.57,4.92,13.0,2.0,70,4,,6.21,30.029528,,,TRUE,,,,,,,,BKN,4500,OVC,5000,,,,,VFR,,,,,,,,,,,,METAR,13.0
EHEH 291525Z AUTO 01004KT 320V120 9999 OVC055 13/01 Q1017 BLU VRB03KT 9999 SCT040,EHEH,2017-04-29T15:25:00Z,51.45,5.38,13.0,1.0,10,4,,6.21,30.029528,,,TRUE,,,,,,,,OVC,5500,SCT,4000,,,,,VFR,,,,,,,,,,,,METAR,22.0
EHDL 291525Z AUTO 04006KT 350V090 9999 OVC055 12/01 Q1017 BLU,EHDL,2017-04-29T15:25:00Z,52.07,5.87,12.0,1.0,40,6,,6.21,30.029528,,,TRUE,,,,,,,,OVC,5500,,,,,,,VFR,,,,,,,,,,,,METAR,52.0
EHRD 291525Z AUTO VRB06KT 9999 NSC 13/05 Q1017 NOSIG,EHRD,2017-04-29T15:25:00Z,51.95,4.45,13.0,5.0,0,6,,6.21,30.029528,,,TRUE,,,TRUE,,,,,CLR,,,,,,,,VFR,,,,,,,,,,,,METAR,-5.0
EHGG 291525Z AUTO 04010KT 350V070 9999 SCT046 11/03 Q1018 NOSIG,EHGG,2017-04-29T15:25:00Z,53.12,6.57,11.0,3.0,40,10,,6.21,30.059055,,,TRUE,,,TRUE,,,,,SCT,4600,,,,,,,VFR,,,,,,,,,,,,METAR,4.0
EHBK 291525Z AUTO VRB03KT 9999 BKN048 13/02 Q1017 NOSIG,EHBK,2017-04-29T15:25:00Z,50.92,5.77,13.0,2.0,0,3,,6.21,30.029528,,,TRUE,,,TRUE,,,,,BKN,4800,,,,,,,VFR,,,,,,,,,,,,METAR,116.0
EHAM 291525Z 12004KT 9999 FEW040 12/03 Q1017 NOSIG,EHAM,2017-04-29T15:25:00Z,52.32,4.78,12.0,3.0,120,4,,6.21,30.029528,,,,,,TRUE,,,,,FEW,4000,,,,,,,VFR,,,,,,,,,,,,METAR,9.0
KVIH 291525Z AUTO 09015G21KT 10SM OVC006 16/ A2982 RMK AO2 LTG DSNT SW-N RAE17 P0000 T0156 $,KVIH,2017-04-29T15:25:00Z,38.13,-91.77,15.6,,90,15,21,10.0,29.819881,,,TRUE,TRUE,TRUE,,,,,,OVC,600,,,,,,,IFR,,,,,,0.005,,,,,,SPECI,333.0
KPKB 291525Z 00000KT 10SM SCT047 SCT060 BKN080 19/17 A3014 RMK AO2 LTG DSNT NW T01940167,KPKB,2017-04-29T15:25:00Z,39.35,-81.42,19.4,16.7,0,0,,10.0,30.138779,,,,TRUE,,,,,,,SCT,4700,SCT,6000,BKN,8000,,,VFR,,,,,,,,,,,,SPECI,262.0
CYRV 291525Z AUTO VRB02KT 9SM FEW041 BKN085 05/02 A3021 RMK SLP243,CYRV,2017-04-29T15:25:00Z,50.97,-118.17,5.0,2.0,0,2,,9.0,30.209646,1024.3,,TRUE,,,,,,,,FEW,4100,BKN,8500,,,,,VFR,,,,,,,,,,,,SPECI,443.0
CYAY 291525Z AUTO 24020G27KT 9SM SCT006 02/01 A2948 RMK SLP987,CYAY,2017-04-29T15:25:00Z,51.38,-56.07,2.0,1.0,240,20,27,9.0,29.480314,998.7,,TRUE,,,,,,,,SCT,600,,,,,,,VFR,,,,,,,,,,,,SPECI,28.0
EHKD 291525Z AUTO 05007KT 360V090 9999 FEW360 11/05 Q1018 BLU 06006KT CAVOK,EHKD,2017-04-29T15:25:00Z,52.92,4.77,11.0,5.0,50,7,,6.21,30.059055,,,TRUE,,,,,,,,FEW,36000,,,,,,,VFR,,,,,,,,,,,,METAR,14.0
EHFS 291525Z AUTO 11006KT 080V140 9999 NSC 13/05 Q1016,EHFS,2017-04-29T15:25:00Z,51.45,3.6,13.0,5.0,110,6,,6.21,30.0,,,TRUE,,,,,,,,CLR,,,,,,,,VFR,,,,,,,,,,,,METAR,32.0
KFFO 291524Z 20005KT 6SM -RA BR BKN004 OVC014 18/18 A3011 RMK AO2A LTG DSNT E SLP198,KFFO,2017-04-29T15:24:00Z,39.82,-84.03,18.0,18.0,200,5,,6.0,30.109253,1019.8,,,TRUE,,,,,,-RA BR,BKN,400,OVC,1400,,,,,LIFR,,,,,,,,,,,,SPECI,251.0
PAJN 291524Z COR 04003KT 5SM R08/2600VP6000FT BR SCT000 BKN200 03/03 A3002 RMK AO2 VIS NE-SE 1 1/2 NW-N 8 BR SCT000 T00330033,PAJN,2017-04-29T15:24:00Z,58.35,-134.58,3.3,3.3,40,3,,5.0,30.02067,,TRUE,,TRUE,,,,,,BR,SCT,0,BKN,20000,,,,,MVFR,,,,,,,,,,,,SPECI,5.0
MMMY 291524Z 18003KT 6SM SKC 29/16 A2956 RMK HZ,MMMY,2017-04-29T15:24:00Z,25.77,-100.08,29.0,16.0,180,3,,6.0,29.56004,,,,,,,,,,,SKC,,,,,,,,VFR,,,,,,,,,,,,SPECI,387.0
KTEW 291524Z AUTO 04010KT 10SM OVC020 09/05 A3017 RMK AO2 T00900046,KTEW,2017-04-29T15:24:00Z,42.57,-84.42,9.0,4.6,40,10,,10.0,30.171259,,,TRUE,TRUE,,,,,,,OVC,2000,,,,,,,MVFR,,,,,,,,,,,,SPECI,280.0
KMIE 291524Z 06008KT 5SM RA BR BKN005 BKN009 OVC100 14/13 A3009 RMK AO2 P0011 T01390128,KMIE,2017-04-29T15:24:00Z,40.23,-85.4,13.9,12.8,60,8,,5.0,30.088583,,,,TRUE,,,,,,RA BR,BKN,500,BKN,900,OVC,10000,,,IFR,,,,,,0.11,,,,,,SPECI,285.0
KBRO 291524Z 15024G35KT 10SM SCT021 31/24 A2958 RMK AO2 PK WND 16035/1516 T03110244,KBRO,2017-04-29T15:24:00Z,25.92,-97.42,31.1,24.4,150,24,35,10.0,29.58071,,,,TRUE,,,,,,,SCT,2100,,,,,,,VFR,,,,,,,,,,,,SPECI,7.0
LETO 291523Z VRB01KT 6000 SCT004 BKN015 12/11 Q1011 TEMPO RA,LETO,2017-04-29T15:23:00Z,40.47,-3.47,12.0,11.0,0,1,,3.73,29.852362,,,,,,,,,,,SCT,400,BKN,1500,,,,,MVFR,,,,,,,,,,,,SPECI,608.0
KHLR 291523Z AUTO 18014G27KT 10SM BKN026 BKN032 26/21 A2956 RMK AO2 CIG 026V032 BKN026 V SCT SLP998,KHLR,2017-04-29T15:23:00Z,31.13,-97.72,26.0,21.0,180,14,27,10.0,29.56004,999.8,,TRUE,TRUE,,,,,,,BKN,2600,BKN,3200,,,,,MVFR,,,,,,,,,,,,SPECI,283.0
KLXT 291523Z AUTO 02010KT 4SM +RA BR OVC007 09/09 A2992 RMK AO2 PK WND 06027/1459 LTG DSNT E AND SE P0008 T00890089,KLXT,2017-04-29T15:23:00Z,38.97,-94.37,8.9,8.9,20,10,,4.0,29.920275,,,TRUE,TRUE,,,,,,+RA BR,OVC,700,,,,,,,IFR,,,,,,0.08,,,,,,SPECI,306.0
KGLH 291523Z 17019G30KT 10SM BKN032 OVC040 28/21 A2985 RMK AO2 PK WND 17030/1516 T02780211,KGLH,2017-04-29T15:23:00Z,33.5,-90.98,27.8,21.1,170,19,30,10.0,29.84941,,,,TRUE,,,,,,,BKN,3200,OVC,4000,,,,,VFR,,,,,,,,,,,,SPECI,45.0
KFHR 291523Z AUTO 17003KT 10SM SCT013 BKN120 09/07 A3030 RMK AO2 T00890067 TSNO,KFHR,2017-04-29T15:23:00Z,48.52,-123.03,8.9,6.7,170,3,,10.0,30.301182,,,TRUE,TRUE,,,TRUE,,,,SCT,1300,BKN,12000,,,,,VFR,,,,,,,,,,,,SPECI,32.0
KELD 291523Z AUTO 13011G17KT 6SM HZ BKN026 OVC034 26/22 A2977 RMK AO2 T02610217 TSNO,KELD,2017-04-29T15:23:00Z,33.22,-92.82,26.1,21.7,130,11,17,6.0,29.769686,,,TRUE,TRUE,,,TRUE,,,HZ,BKN,2600,OVC,3400,,,,,MVFR,,,,,,,,,,,,SPECI,81.0
KCEU 291523Z AUTO 00000KT 8SM BKN017 26/21 A3020 RMK AO2 T02610206,KCEU,2017-04-29T15:23:00Z,34.67,-82.88,26.1,20.6,0,0,,8.0,30.200787,,,TRUE,TRUE,,,,,,,BKN,1700,,,,,,,MVFR,,,,,,,,,,,,SPECI,268.0
KLHW 291523Z AUTO 13009KT 10SM SCT029 BKN036 29/20 A3018 RMK AO2 SLP223,KLHW,2017-04-29T15:23:00Z,31.87,-81.57,29.0,20.0,130,9,,10.0,30.180119,1022.3,,TRUE,TRUE,,,,,,,SCT,2900,BKN,3600,,,,,VFR,,,,,,,,,,,,SPECI,14.0
PADG 291522Z 04007KT 15SM BKN050 01/M01 A2997,PADG,2017-04-29T15:22:00Z,68.03,-162.9,1.0,-1.0,40,7,,15.0,29.970472,,,,,,,,,,,BKN,5000,,,,,,,VFR,,,,,,,,,,,,SPECI,297.0
KDVP 291522Z AUTO 06014G18KT 10SM CLR 06/M01 A3027 RMK AO2 T00561013,KDVP,2017-04-29T15:22:00Z,43.98,-95.78,5.6,-1.3,60,14,18,10.0,30.268702,,,TRUE,TRUE,,,,,,,CLR,,,,,,,,VFR,,,,,,,,,,,,SPECI,495.0
PATC 291522Z AUTO 03011KT 10SM -SN OVC033 00/M01 A2992 RMK AO2 SLP138,PATC,2017-04-29T15:22:00Z,65.57,-167.92,0.0,-1.0,30,11,,10.0,29.920275,1013.8,,TRUE,TRUE,,,,,,-SN,OVC,3300,,,,,,,VFR,,,,,,,,,,,,SPECI,83.0
KCBE 291522Z AUTO 16006KT 10SM CLR 22/18 A3012 RMK AO1,KCBE,2017-04-29T15:22:00Z,39.62,-78.77,22.0,18.0,160,6,,10.0,30.121063,,,TRUE,TRUE,,,,,,,CLR,,,,,,,,VFR,,,,,,,,,,,,SPECI,236.0
KLXV 291522Z AUTO 19013KT 1/2SM -SN FZFG BKN018 BKN028 OVC035 M09/M11 A2998 RMK AO2 P0000 T10941111,KLXV,2017-04-29T15:22:00Z,39.23,-106.32,-9.4,-11.1,190,13,,0.5,29.97933,,,TRUE,TRUE,,,,,,-SN FZFG,BKN,1800,BKN,2800,OVC,3500,,,LIFR,,,,,,0.005,,,,,,SPECI,3028.0
KGEZ 291522Z AUTO 13006KT 10SM -RA OVC004 18/16 A3005 RMK AO2 T01830161 PNO $,KGEZ,2017-04-29T15:22:00Z,39.58,-85.8,18.3,16.1,130,6,,10.0,30.050198,,,TRUE,TRUE,TRUE,,,,,-RA,OVC,400,,,,,,,LIFR,,,,,,,,,,,,SPECI,245.0
KFFT 291522Z AUTO VRB04KT 10SM SCT032 BKN039 BKN047 21/16 A3010 RMK AO2 RAE04 TSB01E16 P0000 T02060161,KFFT,2017-04-29T15:22:00Z,38.18,-84.9,20.6,16.1,0,4,,10.0,30.100393,,,TRUE,TRUE,,,,,,,SCT,3200,BKN,3900,BKN,4700,,,VFR,,,,,,0.005,,,,,,SPECI,236.0
KDAL 291522Z 19015G25KT 6SM HZ SCT029 BKN036 BKN047 28/21 A2957 RMK AO2 PK WND 19032/1504 T02830211,KDAL,2017-04-29T15:22:00Z,32.85,-96.85,28.3,21.1,190,15,25,6.0,29.568897,,,,TRUE,,,,,,HZ,SCT,2900,BKN,3600,BKN,4700,,,VFR,,,,,,,,,,,,SPECI,158.0
KSPB 291521Z AUTO 00000KT 10SM FEW008 08/05 A3031 RMK AO2 T00780050,KSPB,2017-04-29T15:21:00Z,45.77,-122.87,7.8,5.0,0,0,,10.0,30.31004,,,TRUE,TRUE,,,,,,,FEW,800,,,,,,,VFR,,,,,,,,,,,,SPECI,14.0
KMCI 291521Z 04008G16KT 2SM +RA BR OVC007 08/07 A2994 RMK AO2 P0015 T00780072,KMCI,2017-04-29T15:21:00Z,39.3,-94.73,7.8,7.2,40,8,16,2.0,29.940945,,,,TRUE,,,,,,+RA BR,OVC,700,,,,,,,IFR,,,,,,0.15,,,,,,SPECI,320.0
KGUY 291521Z AUTO 33019G25KT 1 1/4SM -SN BR SCT008 OVC012 01/01 A2996 RMK AO2 P0002 T00110006,KGUY,2017-04-29T15:21:00Z,36.68,-101.5,1.1,0.6,330,19,25,1.25,29.958662,,,TRUE,TRUE,,,,,,-SN BR,SCT,800,OVC,1200,,,,,IFR,,,,,,0.02,,,,,,SPECI,948.0
KNKT 291521Z 21015KT 10SM FEW024 28/22 A3023 RMK AO2 T02830217,KNKT,2017-04-29T15:21:00Z,34.9,-76.88,28.3,21.7,210,15,,10.0,30.230314,,,,TRUE,,,,,,,FEW,2400,,,,,,,VFR,,,,,,,,,,,,METAR,9.0
KFME 291521Z AUTO 25008KT 10SM CLR 26/18 A3010 RMK AO1,KFME,2017-04-29T15:21:00Z,39.08,-76.77,26.0,18.0,250,8,,10.0,30.100393,,,TRUE,TRUE,,,,,,,CLR,,,,,,,,VFR,,,,,,,,,,,,SPECI,46.0
KCGS 291521Z AUTO 22003KT 10SM CLR 26/17 A3007 RMK AO1 T02610166,KCGS,2017-04-29T15:21:00Z,38.98,-76.92,26.1,16.6,220,3,,10.0,30.070866,,,TRUE,TRUE,,,,,,,CLR,,,,,,,,VFR,,,,,,,,,,,,SPECI,15.0
K2W6 291521Z AUTO 23008KT 10SM CLR 26/20 A3014 RMK AO1,K2W6,2017-04-29T15:21:00Z,38.32,-76.55,26.0,20.0,230,8,,10.0,30.138779,,,TRUE,TRUE,,,,,,,CLR,,,,,,,,VFR,,,,,,,,,,,,SPECI,44.0
KBLV 291521Z 08006KT 10SM OVC004 16/16 A2992 RMK AO2A RAE02DZB02E04RAB04E21 TSE18 PRESFR SLP134,KBLV,2017-04-29T15:21:00Z,38.53,-89.83,16.0,16.0,80,6,,10.0,29.920275,1013.4,,,TRUE,,,,,,,OVC,400,,,,,,,LIFR,,,,,,,,,,,,SPECI,138.0
PABR 291521Z 10013KT 1/2SM R07/2000V3500FT FZFG BLSN OVC003 M17/M19 A3012 RMK AO2 T11721194,PABR,2017-04-29T15:21:00Z,71.28,-156.77,-17.2,-19.4,100,13,,0.5,30.121063,,,,TRUE,,,,,,FZFG BLSN,OVC,300,,,,,,,LIFR,,,,,,,,,,,,SPECI,7.0
SBTT 291520Z 16007KT 9999 BKN017 ///// Q1017,SBTT,2017-04-29T15:20:00Z,-4.25,-69.93,,,160,7,,6.21,30.029528,,,,,,,,,,,BKN,1700,,,,,,,MVFR,,,,,,,,,,,,SPECI,85.0
LATI 291520Z 30005KT 9999 SCT160 21/05 Q1011 NOSIG,LATI,2017-04-29T15:20:00Z,41.42,19.72,21.0,5.0,300,5,,6.21,29.852362,,,,,,TRUE,,,,,SCT,16000,,,,,,,VFR,,,,,,,,,,,,METAR,90.0
LTFC 291520Z 25003KT 200V280 9999 FEW035 SCT200 26/02 Q1013 RMK RWY23 14003KT 080V250,LTFC,2017-04-29T15:20:00Z,37.87,30.38,26.0,2.0,250,3,,6.21,29.911417,,,,,,,,,,,FEW,3500,SCT,20000,,,,,VFR,,,,,,,,,,,,SPECI,864.0
LTAU 291520Z 00000KT 9999 SCT040 24/M10 Q1015 NOSIG RMK RWY07 29006KT 250V320,LTAU,2017-04-29T15:20:00Z,38.77,35.47,24.0,-10.0,0,0,,6.21,29.970472,,,,,,TRUE,,,,,SCT,4000,,,,,,,VFR,,,,,,,,,,,,SPECI,1054.0
EGPU 291520Z AUTO VRB22KT 9999 OVC045/// 10/07 Q1005,EGPU,2017-04-29T15:20:00Z,56.5,-6.87,10.0,7.0,0,22,,6.21,29.675198,,,TRUE,,,,,,,,OVC,4500,,,,,,,VFR,,,,,,,,,,,,METAR,12.0
EGPI 291520Z AUTO 14025KT 110V170 9999 NCD 10/07 Q1006,EGPI,2017-04-29T15:20:00Z,55.68,-6.25,10.0,7.0,140,25,,6.21,29.704725,,,TRUE,,,,,,,,CLR,,,,,,,,VFR,,,,,,,,,,,,METAR,18.0
CYQM 291520Z 24012KT 15SM FEW075 OVC110 16/09 A2980 RMK AC1AC7 VIRGA SE-W SLP093 DENSITY ALT 500FT,CYQM,2017-04-29T15:20:00Z,46.12,-64.67,16.0,9.0,240,12,,15.0,29.799213,1009.3,,,,,,,,,,FEW,7500,OVC,11000,,,,,VFR,,,,,,,,,,,,SPECI,71.0
LLBG 291520Z 33007KT CAVOK 24/12 Q1011 NOSIG,LLBG,2017-04-29T15:20:00Z,32.0,34.88,24.0,12.0,330,7,,6.21,29.852362,,,,,,TRUE,,,,,CAVOK,,,,,,,,VFR,,,,,,,,,,,,METAR,49.0
LSZC 291520Z AUTO 09005KT 040V140 CAVOK 12/01 Q1016,LSZC,2017-04-29T15:20:00Z,46.97,8.38,12.0,1.0,90,5,,6.21,30.0,,,TRUE,,,,,,,,CAVOK,,,,,,,,VFR,,,,,,,,,,,,METAR,450.0
LSZS 291520Z 24005KT CAVOK 04/M08 Q1014 RMK T,LSZS,2017-04-29T15:20:00Z,46.53,9.88,4.0,-8.0,240,5,,6.21,29.940945,,,,,,,,,,,CAVOK,,,,,,,,VFR,,,,,,,,,,,,METAR,1706.0
LSZR 291520Z 02005KT 340V060 9999 FEW045 12/M00 Q1016 NOSIG RMK L,LSZR,2017-04-29T15:20:00Z,47.48,9.57,12.0,0.0,20,5,,6.21,30.0,,,,,,TRUE,,,,,FEW,4500,,,,,,,VFR,,,,,,,,,,,,METAR,398.0
LSZG 291520Z 07006KT 9999 FEW050 14/01 Q1015 NOSIG,LSZG,2017-04-29T15:20:00Z,47.17,7.42,14.0,1.0,70,6,,6.21,29.970472,,,,,,TRUE,,,,,FEW,5000,,,,,,,VFR,,,,,,,,,,,,METAR,430.0
LSGS 291520Z AUTO 25006KT 180V300 9000 NCD 17/M05 Q1013,LSGS,2017-04-29T15:20:00Z,46.22,7.32,17.0,-5.0,250,6,,5.59,29.911417,,,TRUE,,,,,,,,CLR,,,,,,,,VFR,,,,,,,,,,,,METAR,481.0
LSGC 291520Z 11005KT 040V150 CAVOK 10/M03 Q1015,LSGC,2017-04-29T15:20:00Z,47.08,6.8,10.0,-3.0,110,5,,6.21,29.970472,,,,,,,,,,,CAVOK,,,,,,,,VFR,,,,,,,,,,,,METAR,1027.0
LSZA 291520Z 20005KT 140V210 9999 FEW085 18/M00 Q1014 NOSIG,LSZA,2017-04-29T15:20:00Z,46.0,8.92,18.0,0.0,200,5,,6.21,29.940945,,,,,,TRUE,,,,,FEW,8500,,,,,,,VFR,,,,,,,,,,,,METAR,276.0
LSZB 291520Z VRB02KT CAVOK 15/01 Q1015 NOSIG,LSZB,2017-04-29T15:20:00Z,46.92,7.5,15.0,1.0,0,2,,6.21,29.970472,,,,,,TRUE,,,,,CAVOK,,,,,,,,VFR,,,,,,,,,,,,METAR,505.0
LSGG 291520Z 03004KT 350V090 9999 FEW050 14/M01 Q1015 NOSIG,LSGG,2017-04-29T15:20:00Z,46.25,6.12,14.0,-1.0,30,4,,6.21,29.970472,,,,,,TRUE,,,,,FEW,5000,,,,,,,VFR,,,,,,,,,,,,METAR,416.0
LSZH 291520Z 10006KT 050V160 9999 FEW060 13/M00 Q1016 NOSIG,LSZH,2017-04-29T15:20:00Z,47.48,8.53,13.0,0.0,100,6,,6.21,30.0,,,,,,TRUE,,,,,FEW,6000,,,,,,,VFR,,,,,,,,,,,,METAR,432.0
KFDR 291520Z AUTO 34008KT 10SM BKN009 OVC021 10/09 A2964 RMK AO2 WSHFT 1457 RAE00 T01000094 PNO $,KFDR,2017-04-29T15:20:00Z,34.35,-98.98,10.0,9.4,340,8,,10.0,29.639763,,,TRUE,TRUE,TRUE,,,,,,BKN,900,OVC,2100,,,,,IFR,,,,,,,,,,,,SPECI,386.0
PAGM 291520Z AUTO 07012KT 10SM SCT004 OVC090 M02/M02 A2986 RMK AO2 SNE02 P0000 FZRANO,PAGM,2017-04-29T15:20:00Z,63.77,-171.73,-2.0,-2.0,70,12,,10.0,29.861221,,,TRUE,TRUE,,,,TRUE,,,SCT,400,OVC,9000,,,,,VFR,,,,,,0.005,,,,,,METAR,8.0
EYPA 291520Z 29005KT 240V340 9999 BKN010 05/03 Q1011,EYPA,2017-04-29T15:20:00Z,55.97,21.08,5.0,3.0,290,5,,6.21,29.852362,,,,,,,,,,,BKN,1000,,,,,,,MVFR,,,,,,,,,,,,METAR,10.0
EFIV 291520Z 04006KT 350V060 CAVOK 06/M07 Q1031,EFIV,2017-04-29T15:20:00Z,68.62,27.42,6.0,-7.0,40,6,,6.21,30.442913,,,,,,,,,,,CAVOK,,,,,,,,VFR,,,,,,,,,,,,METAR,148.0
EFMA 291520Z AUTO 01013KT CAVOK 06/M01 Q1017,EFMA,2017-04-29T15:20:00Z,60.12,19.88,6.0,-1.0,10,13,,6.21,30.029528,,,TRUE,,,,,,,,CAVOK,,,,,,,,VFR,,,,,,,,,,,,METAR,6.0
EFRO 291520Z AUTO 06010KT CAVOK 05/M09 Q1029,EFRO,2017-04-29T15:20:00Z,66.57,25.82,5.0,-9.0,60,10,,6.21,30.383858,,,TRUE,,,,,,,,CAVOK,,,,,,,,VFR,,,,,,,,,,,,METAR,201.0
EFOU 291520Z AUTO 08009KT 030V100 CAVOK 06/M10 Q1027 R12/19//95,EFOU,2017-04-29T15:20:00Z,64.92,25.37,6.0,-10.0,80,9,,6.21,30.324802,,,TRUE,,,,,,,,CAVOK,,,,,,,,VFR,,,,,,,,,,,,SPECI,15.0
EFVA 291520Z AUTO 06011KT CAVOK 05/M06 Q1023,EFVA,2017-04-29T15:20:00Z,63.03,21.77,5.0,-6.0,60,11,,6.21,30.206694,,,TRUE,,,,,,,,CAVOK,,,,,,,,VFR,,,,,,,,,,,,METAR,4.0
EFTU 291520Z AUTO 02011KT 1700 -SN OVC005/// 01/M00 Q1016,EFTU,2017-04-29T15:20:00Z,60.52,22.27,1.0,0.0,20,11,,1.06,30.0,,,TRUE,,,,,,,-SN,OVC,500,,,,,,,IFR,,,,,,,,,,,,METAR,59.0
EFTP 291520Z AUTO 02013KT 9000 -SHSN FEW016 SCT024 BKN028 BKN033 02/M02 Q1019,EFTP,2017-04-29T15:20:00Z,61.42,23.62,2.0,-2.0,20,13,,5.59,30.088583,,,TRUE,,,,,,,-SHSN,FEW,1600,SCT,2400,BKN,2800,BKN,3300,MVFR,,,,,,,,,,,,METAR,112.0
EFHK 291520Z 02015KT 0900 R04R/1300D R15/1300D R22L/1300D R04L/1100VP1500U SN BKN004 00/M01 Q1013 NOSIG,EFHK,2017-04-29T15:20:00Z,60.32,24.97,0.0,-1.0,20,15,,0.56,29.911417,,,,,,TRUE,,,,SN,BKN,400,,,,,,,LIFR,,,,,,,,,,,,SPECI,56.0
CYPX 291520Z AUTO 32027G33KT 1SM -SN M09/M11 A2985 RMK VIS VRB 3/4-1 3/4 CLD MISG SLP112,CYPX,2017-04-29T15:20:00Z,60.03,-77.27,-9.0,-11.0,320,27,33,1.0,29.84941,1011.2,,TRUE,,,,,,,-SN,,,,,,,,,,,,,,,,,,,,,SPECI,23.0
EYVI 291520Z 21011KT 9999 OVC025 07/03 Q1012 NOSIG,EYVI,2017-04-29T15:20:00Z,54.63,25.28,7.0,3.0,210,11,,6.21,29.88189,,,,,,TRUE,,,,,OVC,2500,,,,,,,MVFR,,,,,,,,,,,,METAR,197.0
EYSA 291520Z 23012KT 9999 FEW013 BKN015 BKN021 06/03 Q1009 WHT TEMPO BKN013 BKN040 GRN,EYSA,2017-04-29T15:20:00Z,55.9,23.4,6.0,3.0,230,12,,6.21,29.793306,,,,,,,,,,,FEW,1300,BKN,1500,BKN,2100,,,MVFR,,,,,,,,,,,,METAR,135.0
CYPR 291520Z AUTO 00000KT 9SM -RA BKN055 OVC095 06/03 A2990 RMK SLP127,CYPR,2017-04-29T15:20:00Z,54.28,-130.42,6.0,3.0,0,0,,9.0,29.899607,1012.7,,TRUE,,,,,,,-RA,BKN,5500,OVC,9500,,,,,VFR,,,,,,,,,,,,SPECI,34.0
EETN 291520Z 05014G24KT 1300 R08/1400N +SN OVC004 00/00 Q1009 R08/690295 TEMPO 2000 SN,EETN,2017-04-29T15:20:00Z,59.4,24.82,0.0,0.0,50,14,24,0.81,29.793306,,,,,,,,,,+SN,OVC,400,,,,,,,LIFR,,,,,,,,,,,,SPECI,40.0
EYKA 291520Z 25013KT 9999 SCT022CB OVC031 07/02 Q1012,EYKA,2017-04-29T15:20:00Z,54.97,24.08,7.0,2.0,250,13,,6.21,29.88189,,,,,,,,,,,SCT,2200,OVC,3100,,,,,VFR,,,,,,,,,,,,METAR,77.0
EVRA 291520Z 21009KT 9999 FEW010 BKN012 OVC018 05/04 Q1007 NOSIG,EVRA,2017-04-29T15:20:00Z,56.92,23.97,5.0,4.0,210,9,,6.21,29.734253,,,,,,TRUE,,,,,FEW,1000,BKN,1200,OVC,1800,,,MVFR,,,,,,,,,,,,METAR,10.0
EKVG 291520Z AUTO 13018KT 9999NDV BKN014/// 08/06 Q1010 RMK BKN013/// BKN037/// WIND 850FT 13029KT,EKVG,2017-04-29T15:20:00Z,62.07,-7.3,8.0,6.0,130,18,,,29.822834,,,TRUE,,,,,,,,BKN,1400,,,,,,,,,,,,,,,,,,,SPECI,85.0
KMHV 291520Z AUTO 03021G28KT 10SM CLR 15/M11 A3013 RMK A01,KMHV,2017-04-29T15:20:00Z,35.07,-118.15,15.0,-11.0,30,21,28,10.0,30.129921,,,TRUE,TRUE,,,,,,,CLR,,,,,,,,VFR,,,,,,,,,,,,METAR,849.0
KJSL 291520Z AUTO 14019G28KT 2 1/2SM HZ CLR 28/24 A2985 RMK A01,KJSL,2017-04-29T15:20:00Z,,,28.0,24.0,140,19,28,2.5,29.84941,,,TRUE,TRUE,,,,,,HZ,CLR,,,,,,,,IFR,,,,,,,,,,,,METAR,
EKCH 291520Z 33002KT 9999 FEW022CB BKN056 08/02 Q1019 TEMPO SHRA,EKCH,2017-04-29T15:20:00Z,55.62,12.67,8.0,2.0,330,2,,6.21,30.088583,,,,,,,,,,,FEW,2200,BKN,5600,,,,,VFR,,,,,,,,,,,,METAR,5.0
EVLA 291520Z AUTO 31008KT 290V350 9999 FEW010/// BKN014/// BKN016/// 04/02 Q1009,EVLA,2017-04-29T15:20:00Z,56.52,21.1,4.0,2.0,310,8,,6.21,29.793306,,,TRUE,,,,,,,,FEW,1000,BKN,1400,BKN,1600,,,MVFR,,,,,,,,,,,,METAR,4.0
EVVA 291520Z AUTO 01011KT 9999 OVC014 03/03 Q1009,EVVA,2017-04-29T15:20:00Z,57.35,21.55,3.0,3.0,10,11,,6.21,29.793306,,,TRUE,,,,,,,,OVC,1400,,,,,,,MVFR,,,,,,,,,,,,METAR,6.0
ESUD 291520Z AUTO 10007KT 060V150 9999 BKN057/// 05/M07 Q1026,ESUD,2017-04-29T15:20:00Z,64.97,17.7,5.0,-7.0,100,7,,6.21,30.295275,,,TRUE,,,,,,,,BKN,5700,,,,,,,VFR,,,,,,,,,,,,METAR,279.0
ESUT 291520Z AUTO 12009KT 9999 OVC051/// 02/M09 Q1026,ESUT,2017-04-29T15:20:00Z,65.8,15.08,2.0,-9.0,120,9,,6.21,30.295275,,,TRUE,,,,,,,,OVC,5100,,,,,,,VFR,,,,,,,,,,,,METAR,463.0
ESNX 291520Z AUTO 10008KT 050V140 9999 NCD 03/M10 Q1027,ESNX,2017-04-29T15:20:00Z,65.58,19.28,3.0,-10.0,100,8,,6.21,30.324802,,,TRUE,,,,,,,,CLR,,,,,,,,VFR,,,,,,,,,,,,METAR,379.0
ESNL 291520Z AUTO 06008KT 360V090 9999 SCT045/// 04/M08 Q1026,ESNL,2017-04-29T15:20:00Z,64.55,18.72,4.0,-8.0,60,8,,6.21,30.295275,,,TRUE,,,,,,,,SCT,4500,,,,,,,VFR,,,,,,,,,,,,METAR,214.0
PHOG 291520Z AUTO 23003KT 10SM SCT015 BKN070 OVC080 21/20 A2985 RMK AO2 RAE07 P0000 T02110200 TSNO,PHOG,2017-04-29T15:20:00Z,20.9,-156.43,21.1,20.0,230,3,,10.0,29.84941,,,TRUE,TRUE,,,TRUE,,,,SCT,1500,BKN,7000,OVC,8000,,,VFR,,,,,,0.005,,,,,,SPECI,12.0
EKSP 291520Z 05007KT 360V080 9999 SCT035 SCT045 08/02 Q1018,EKSP,2017-04-29T15:20:00Z,55.22,9.27,8.0,2.0,50,7,,6.21,30.059055,,,,,,,,,,,SCT,3500,SCT,4500,,,,,VFR,,,,,,,,,,,,METAR,40.0
EKKA 291520Z AUTO 08005KT 030V180 9999NDV SCT038/// SCT059/// 10/01 Q1019,EKKA,2017-04-29T15:20:00Z,56.3,9.12,10.0,1.0,80,5,,,30.088583,,,TRUE,,,,,,,,SCT,3800,SCT,5900,,,,,,,,,,,,,,,,,SPECI,52.0
VNKT 291520Z 00000KT 8000 FEW015 SCT030 15/13 Q1020 NOSIG,VNKT,2017-04-29T15:20:00Z,27.68,85.37,15.0,13.0,0,0,,4.97,30.11811,,,,,,TRUE,,,,,FEW,1500,SCT,3000,,,,,MVFR,,,,,,,,,,,,METAR,1337.0
EKBI 291520Z 08010KT 050V120 9999 SCT029 09/02 Q1018,EKBI,2017-04-29T15:20:00Z,55.72,9.15,9.0,2.0,80,10,,6.21,30.059055,,,,,,,,,,,SCT,2900,,,,,,,VFR,,,,,,,,,,,,METAR,66.0
EKRN 291520Z AUTO 06013KT 9999NDV SCT028/// SCT059/// 08/02 Q1018,EKRN,2017-04-29T15:20:00Z,55.07,14.75,8.0,2.0,60,13,,,30.059055,,,TRUE,,,,,,,,SCT,2800,SCT,5900,,,,,,,,,,,,,,,,,METAR,16.0
EKEB 291520Z AUTO 08011KT 9999NDV BKN035/// 10/02 Q1018,EKEB,2017-04-29T15:20:00Z,55.52,8.55,10.0,2.0,80,11,,,30.059055,,,TRUE,,,,,,,,BKN,3500,,,,,,,,,,,,,,,,,,,METAR,29.0
EKAH 291520Z AUTO 03007KT 350V060 9999NDV FEW026/// 09/01 Q1019,EKAH,2017-04-29T15:20:00Z,56.28,10.62,9.0,1.0,30,7,,,30.088583,,,TRUE,,,,,,,,FEW,2600,,,,,,,,,,,,,,,,,,,METAR,25.0
EKRK 291520Z AUTO 17002KT 9999NDV FEW047/// BKN100/// 08/03 Q1018,EKRK,2017-04-29T15:20:00Z,55.57,12.12,8.0,3.0,170,2,,,30.059055,,,TRUE,,,,,,,,FEW,4700,BKN,10000,,,,,,,,,,,,,,,,,METAR,44.0
EDDC 291520Z 30003KT 260V340 9999 SCT035 BKN048 09/03 Q1017 NOSIG,EDDC,2017-04-29T15:20:00Z,51.13,13.75,9.0,3.0,300,3,,6.21,30.029528,,,,,,TRUE,,,,,SCT,3500,BKN,4800,,,,,VFR,,,,,,,,,,,,METAR,226.0
EDDB 291520Z 34014KT 9999 VCSH BKN056CB SCT072 09/01 Q1017 NOSIG,EDDB,2017-04-29T15:20:00Z,52.38,13.53,9.0,1.0,340,14,,6.21,30.029528,,,,,,TRUE,,,,VCSH,BKN,5600,SCT,7200,,,,,VFR,,,,,,,,,,,,METAR,48.0
EDDG 291520Z VRB02KT CAVOK 12/00 Q1018 NOSIG,EDDG,2017-04-29T15:20:00Z,52.13,7.7,12.0,0.0,0,2,,6.21,30.059055,,,,,,TRUE,,,,,CAVOK,,,,,,,,VFR,,,,,,,,,,,,METAR,52.0
EDDE 291520Z 35011KT 310V030 CAVOK 11/00 Q1017 NOSIG,EDDE,2017-04-29T15:20:00Z,50.98,10.97,11.0,0.0,350,11,,6.21,30.029528,,,,,,TRUE,,,,,CAVOK,,,,,,,,VFR,,,,,,,,,,,,METAR,323.0
EDDP 291520Z 32010KT 290V350 9999 FEW045 BKN070 11/M02 Q1017 NOSIG,EDDP,2017-04-29T15:20:00Z,51.43,12.23,11.0,-2.0,320,10,,6.21,30.029528,,,,,,TRUE,,,,,FEW,4500,BKN,7000,,,,,VFR,,,,,,,,,,,,METAR,149.0
EDDR 291520Z 10004KT 020V180 CAVOK 14/00 Q1015 NOSIG,EDDR,2017-04-29T15:20:00Z,49.22,7.1,14.0,0.0,100,4,,6.21,29.970472,,,,,,TRUE,,,,,CAVOK,,,,,,,,VFR,,,,,,,,,,,,METAR,320.0
EDGS 291520Z VRB04KT 9999 FEW042 09/M02 Q1016,EDGS,2017-04-29T15:20:00Z,50.7,8.08,9.0,-2.0,0,4,,6.21,30.0,,,,,,,,,,,FEW,4200,,,,,,,VFR,,,,,,,,,,,,METAR,602.0
LTFJ 291520Z VRB02KT CAVOK 25/09 Q1011 NOSIG RMK RWY24 VRB01KT,LTFJ,2017-04-29T15:20:00Z,40.9,29.3,25.0,9.0,0,2,,6.21,29.852362,,,,,,TRUE,,,,,CAVOK,,,,,,,,VFR,,,,,,,,,,,,SPECI,98.0
LTFE 291520Z 26008KT CAVOK 26/04 Q1012 NOSIG RMK RWY10 25010KT,LTFE,2017-04-29T15:20:00Z,37.25,27.67,26.0,4.0,260,8,,6.21,29.88189,,,,,,TRUE,,,,,CAVOK,,,,,,,,VFR,,,,,,,,,,,,SPECI,6.0
LTCS 291520Z 34004KT CAVOK 23/02 Q1015 RMK RWY22 34005KT,LTCS,2017-04-29T15:20:00Z,37.45,38.9,23.0,2.0,340,4,,6.21,29.970472,,,,,,,,,,,CAVOK,,,,,,,,VFR,,,,,,,,,,,,METAR,825.0
LTCG 291520Z 10004KT CAVOK 16/07 Q1014 NOSIG RMK RWY29 10005KT,LTCG,2017-04-29T15:20:00Z,41.0,39.8,16.0,7.0,100,4,,6.21,29.940945,,,,,,TRUE,,,,,CAVOK,,,,,,,,VFR,,0.5,,,,,,,,,,SPECI,30.0
LTBS 291520Z 22007KT CAVOK 22/12 Q1013 NOSIG RMK RWY19 20007KT,LTBS,2017-04-29T15:20:00Z,36.7,28.77,22.0,12.0,220,7,,6.21,29.911417,,,,,,TRUE,,,,,CAVOK,,,,,,,,VFR,,,0.7,,,,,,,,,SPECI,2.0
LTBR 291520Z 32010KT CAVOK 25/09 Q1011 NOSIG RMK RWY07 33009KT,LTBR,2017-04-29T15:20:00Z,40.25,29.57,25.0,9.0,320,10,,6.21,29.852362,,,,,,TRUE,,,,,CAVOK,,,,,,,,VFR,,,,,,,,,,,,SPECI,232.0
LTBJ 291520Z 24009KT CAVOK 27/03 Q1011 NOSIG RMK RWY16 23009KT,LTBJ,2017-04-29T15:20:00Z,38.28,27.15,27.0,3.0,240,9,,6.21,29.852362,,,,,,TRUE,,,,,CAVOK,,,,,,,,VFR,,,,,,,,,,,,SPECI,120.0
LTBA 291520Z 25004KT CAVOK 24/04 Q1011 NOSIG RMK RWY17L 20005KT RWY05 24005KT RWY23 25005KT,LTBA,2017-04-29T15:20:00Z,40.97,28.82,24.0,4.0,250,4,,6.21,29.852362,,,,,,TRUE,,,,,CAVOK,,,,,,,,VFR,,,0.5,,,,,,,,,SPECI,37.0
LTAZ 291520Z 28008KT 9999 FEW040 24/M01 Q1015 RMK RWY29 08007KT 050V110,LTAZ,2017-04-29T15:20:00Z,38.77,34.55,24.0,-1.0,280,8,,6.21,29.970472,,,,,,,,,,,FEW,4000,,,,,,,VFR,,,,,,,,,,,,SPECI,945.0
LTAJ 291520Z 27006KT 250V310 CAVOK 26/M00 Q1013 NOSIG RMK RWY10 28007KT,LTAJ,2017-04-29T15:20:00Z,36.95,37.48,26.0,0.0,270,6,,6.21,29.911417,,,,,,TRUE,,,,,CAVOK,,,,,,,,VFR,,,,,,,,,,,,SPECI,855.0
LTAI 291520Z 11007KT 9999 FEW030 23/12 Q1011 NOSIG RMK RWY18C 11007KT 060V130 RWY36R 11007KT 080V140 RWY18L 11006KT,LTAI,2017-04-29T15:20:00Z,36.9,30.8,23.0,12.0,110,7,,6.21,29.852362,,,,,,TRUE,,,,,FEW,3000,,,,,,,VFR,,-0.7,,,,,,,,,,SPECI,54.0
LTAF 291520Z 22006KT CAVOK 26/11 Q1010 NOSIG RMK RWY23 24007KT,LTAF,2017-04-29T15:20:00Z,36.97,35.28,26.0,11.0,220,6,,6.21,29.822834,,,,,,TRUE,,,,,CAVOK,,,,,,,,VFR,,,,,,,,,,,,SPECI,20.0
LTAC 291520Z 24007KT CAVOK 24/M06 Q1014 NOSIG RMK RWY21L 22008KT RWY03L 22006KT 190V250 RWY21R 23007KT 190V250,LTAC,2017-04-29T15:20:00Z,40.12,32.97,24.0,-6.0,240,7,,6.21,29.940945,,,,,,TRUE,,,,,CAVOK,,,,,,,,VFR,,,,,,,,,,,,SPECI,949.0
LTCJ 291520Z 34011KT 9999 FEW030CB SCT040 21/06 Q1013 RMK RWY20 35013KT,LTCJ,2017-04-29T15:20:00Z,37.93,41.12,21.0,6.0,340,11,,6.21,29.911417,,,,,,,,,,,FEW,3000,SCT,4000,,,,,VFR,,,,,,,,,,,,SPECI,540.0
LTCE 291520Z 16002KT 9999 -SHRA FEW020CB BKN025 06/05 Q1022 NOSIG RMK RWY08R 09006KT 070V130 RWY26R 16005KT RWY08L 12006KT 070V160,LTCE,2017-04-29T15:20:00Z,39.95,41.17,6.0,5.0,160,2,,6.21,30.177166,,,,,,TRUE,,,,-SHRA,FEW,2000,BKN,2500,,,,,MVFR,,,,,,,,,,,,SPECI,1758.0
LTBU 291520Z 12006KT CAVOK 24/13 Q1011 RMK RWY23 13005KT 080V170,LTBU,2017-04-29T15:20:00Z,41.12,27.92,24.0,13.0,120,6,,6.21,29.852362,,,,,,,,,,,CAVOK,,,,,,,,VFR,,,,,,,,,,,,SPECI,173.0
LTAT 291520Z 03009KT 9999 FEW030CB SCT035 21/03 Q1014 NOSIG RMK RWY03 05008KT 030V090,LTAT,2017-04-29T15:20:00Z,38.42,38.07,21.0,3.0,30,9,,6.21,29.940945,,,,,,TRUE,,,,,FEW,3000,SCT,3500,,,,,VFR,,,,,,,,,,,,SPECI,849.0
LTAP 291520Z 03012KT CAVOK 23/05 Q1012 NOSIG RMK RWY23 05013KT,LTAP,2017-04-29T15:20:00Z,40.83,35.52,23.0,5.0,30,12,,6.21,29.88189,,,,,,TRUE,,,,,CAVOK,,,,,,,,VFR,,,,,,,,,,,,SPECI,535.0
LTAG 291520Z 22007KT CAVOK 27/11 Q1010 NOSIG,LTAG,2017-04-29T15:20:00Z,37.0,35.42,27.0,11.0,220,7,,6.21,29.822834,,,,,,TRUE,,,,,CAVOK,,,,,,,,VFR,,,,,,,,,,,,METAR,66.0
LCEN 291520Z 15009KT CAVOK 28/08 Q1011 NOSIG RMK RWY11 15009KT,LCEN,2017-04-29T15:20:00Z,35.13,33.5,28.0,8.0,150,9,,6.21,29.852362,,,,,,TRUE,,,,,CAVOK,,,,,,,,VFR,,,,,,,,,,,,SPECI,91.0
EGEO 291520Z 16018KT 9999 FEW025 SCT042 12/04 Q1008,EGEO,2017-04-29T15:20:00Z,56.47,-5.4,12.0,4.0,160,18,,6.21,29.763779,,,,,,,,,,,FEW,2500,SCT,4200,,,,,VFR,,,,,,,,,,,,METAR,6.0
EDQM 291520Z 24008KT 9999 FEW045 BKN072 09/M01 Q1016,EDQM,2017-04-29T15:20:00Z,50.3,11.85,9.0,-1.0,240,8,,6.21,30.0,,,,,,,,,,,FEW,4500,BKN,7200,,,,,VFR,,,,,,,,,,,,METAR,568.0
LGIR 291520Z VRB03KT CAVOK 22/13 Q1012 NOSIG,LGIR,2017-04-29T15:20:00Z,35.32,25.17,22.0,13.0,0,3,,6.21,29.88189,,,,,,TRUE,,,,,CAVOK,,,,,,,,VFR,,,,,,,,,,,,METAR,39.0
ETSN 291520Z 10001KT 9999 FEW040 BKN075 11/03 Q1017 BLU,ETSN,2017-04-29T15:20:00Z,48.72,11.22,11.0,3.0,100,1,,6.21,30.029528,,,,,,,,,,,FEW,4000,BKN,7500,,,,,VFR,,,,,,,,,,,,METAR,387.0
LIEO 291520Z 05009KT 020V080 9999 FEW040 17/06 Q1014,LIEO,2017-04-29T15:20:00Z,40.88,9.52,17.0,6.0,50,9,,6.21,29.940945,,,,,,,,,,,FEW,4000,,,,,,,VFR,,,,,,,,,,,,METAR,13.0
LGKL 291520Z 00000KT 9999 BKN080 22/06 Q1010,LGKL,2017-04-29T15:20:00Z,37.07,22.02,22.0,6.0,0,0,,6.21,29.822834,,,,,,,,,,,BKN,8000,,,,,,,VFR,,,,,,,,,,,,METAR,8.0
ETSL 291520Z AUTO 31004KT 9999 // ////// 11/M02 Q1016 ///,ETSL,2017-04-29T15:20:00Z,48.17,10.87,11.0,-2.0,310,4,,6.21,30.0,,,TRUE,,,,,,,,,,,,,,,,,,,,,,,,,,,,SPECI,562.0
ETSI 291520Z AUTO 26007KT 9000 // ////// 11/01 Q1017 ///,ETSI,2017-04-29T15:20:00Z,48.72,11.52,11.0,1.0,260,7,,5.59,30.029528,,,TRUE,,,,,,,,,,,,,,,,,,,,,,,,,,,,METAR,370.0
ETSB 291520Z AUTO 10008KT 9999 // ////// 12/M02 Q1016 ///,ETSB,2017-04-29T15:20:00Z,50.17,7.07,12.0,-2.0,100,8,,6.21,30.0,,,TRUE,,,,,,,,,,,,,,,,,,,,,,,,,,,,SPECI,486.0
ETSA 291520Z AUTO VRB02KT 3500 // ////// 10/M03 Q1016 ///,ETSA,2017-04-29T15:20:00Z,48.07,10.9,10.0,-3.0,0,2,,2.17,30.0,,,TRUE,,,,,,,,,,,,,,,,,,,,,,,,,,,,SPECI,628.0
ETNN 291520Z 03004KT 9999 FEW050 12/M01 Q1017 BLU+,ETNN,2017-04-29T15:20:00Z,50.82,6.67,12.0,-1.0,30,4,,6.21,30.029528,,,,,,,,,,,FEW,5000,,,,,,,VFR,,,,,,,,,,,,METAR,135.0
ETHN 291520Z 26002KT 9999 FEW045 SCT066 11/M01 Q1016 BLU+,ETHN,2017-04-29T15:20:00Z,49.38,9.97,11.0,-1.0,260,2,,6.21,30.0,,,,,,,,,,,FEW,4500,SCT,6600,,,,,VFR,,,,,,,,,,,,METAR,473.0
ETHL 291520Z 08004KT 9999 FEW040 BKN050 11/M02 Q1016 BLU,ETHL,2017-04-29T15:20:00Z,48.22,9.92,11.0,-2.0,80,4,,6.21,30.0,,,,,,,,,,,FEW,4000,BKN,5000,,,,,VFR,,,,,,,,,,,,METAR,549.0
ETHA 291520Z AUTO 09009KT //// // ////// 09/M03 Q1016 ///,ETHA,2017-04-29T15:20:00Z,47.82,10.87,9.0,-3.0,90,9,,,30.0,,,TRUE,,,,,,,,,,,,,,,,,,,,,,,,,,,,SPECI,760.0
ETWM 291520Z AUTO 33003KT 9999 // ////// 12/M01 Q1018 ///,ETWM,2017-04-29T15:20:00Z,52.72,7.33,12.0,-1.0,330,3,,6.21,30.059055,,,TRUE,,,,,,,,,,,,,,,,,,,,,,,,,,,,SPECI,21.0
ETSH 291520Z 29008KT 9999 FEW050TCU BKN060 11/M03 Q1017 BLU,ETSH,2017-04-29T15:20:00Z,51.77,13.17,11.0,-3.0,290,8,,6.21,30.029528,,,,,,,,,,,FEW,5000,BKN,6000,,,,,VFR,,,,,,,,,,,,METAR,79.0
ETNW 291520Z AUTO 29008KT //// // ////// 11/M02 Q1018 ///,ETNW,2017-04-29T15:20:00Z,52.45,9.42,11.0,-2.0,290,8,,,30.059055,,,TRUE,,,,,,,,,,,,,,,,,,,,,,,,,,,,SPECI,70.0
ETNT 291520Z 34009KT 9999 SCT030 09/02 Q1018 BLU+,ETNT,2017-04-29T15:20:00Z,53.53,7.67,9.0,2.0,340,9,,6.21,30.059055,,,,,,,,,,,SCT,3000,,,,,,,VFR,,,,,,,,,,,,METAR,12.0
ETNS 291520Z AUTO 07007KT //// // ////// 09/02 Q1018 ///,ETNS,2017-04-29T15:20:00Z,54.47,9.52,9.0,2.0,70,7,,,30.059055,,,TRUE,,,,,,,,,,,,,,,,,,,,,,,,,,,,SPECI,25.0
ETNL 291520Z 36008KT 9999 SCT044 SCT060 10/00 Q1017 BLU+,ETNL,2017-04-29T15:20:00Z,53.92,12.27,10.0,0.0,360,8,,6.21,30.029528,,,,,,,,,,,SCT,4400,SCT,6000,,,,,VFR,,,,,,,,,,,,METAR,40.0
ETNH 291520Z 36008KT 9999 FEW033 10/00 Q1018 BLU+,ETNH,2017-04-29T15:20:00Z,54.32,9.55,10.0,0.0,360,8,,6.21,30.059055,,,,,,,,,,,FEW,3300,,,,,,,VFR,,,,,,,,,,,,METAR,17.0
ETMN 291520Z 30008KT 9999 FEW024 10/02 Q1018 BLU+,ETMN,2017-04-29T15:20:00Z,53.77,8.67,10.0,2.0,300,8,,6.21,30.059055,,,,,,,,,,,FEW,2400,,,,,,,VFR,,,,,,,,,,,,METAR,31.0
ETML 291520Z AUTO 08005KT //// // ////// 09/04 Q1017 ///,ETML,2017-04-29T15:20:00Z,,,9.0,4.0,80,5,,,30.029528,,,TRUE,,,,,,,,,,,,,,,,,,,,,,,,,,,,METAR,
ETHS 291520Z 32010KT 9999 FEW045 SCT060 BKN080 10/00 Q1017 BLU,ETHS,2017-04-29T15:20:00Z,52.92,10.18,10.0,0.0,320,10,,6.21,30.029528,,,,,,,,,,,FEW,4500,SCT,6000,BKN,8000,,,VFR,,,,,,,,,,,,METAR,88.0
ETHF 291520Z 02007KT 9999 FEW055 BKN065 11/M03 Q1017 BLU,ETHF,2017-04-29T15:20:00Z,51.12,9.27,11.0,-3.0,20,7,,6.21,30.029528,,,,,,,,,,,FEW,5500,BKN,6500,,,,,VFR,,,,,,,,,,,,METAR,181.0
ETHE 291520Z AUTO 36003KT //// // ////// 11/M01 Q1017 ///,ETHE,2017-04-29T15:20:00Z,52.28,7.37,11.0,-1.0,360,3,,,30.029528,,,TRUE,,,,,,,,,,,,,,,,,,,,,,,,,,,,SPECI,49.0
ETHC 291520Z AUTO 28007KT 6000 // ////// 10/M01 Q1018 ///,ETHC,2017-04-29T15:20:00Z,52.6,10.02,10.0,-1.0,280,7,,3.73,30.059055,,,TRUE,,,,,,,,,,,,,,,,,,,,,,,,,,,,SPECI,52.0
ETHB 291520Z AUTO 27007KT 9000 // ////// 12/M02 Q1017 ///,ETHB,2017-04-29T15:20:00Z,52.27,9.07,12.0,-2.0,270,7,,5.59,30.029528,,,TRUE,,,,,,,,,,,,,,,,,,,,,,,,,,,,SPECI,78.0
ETGG 291520Z 06006KT 9999 FEW030 10/02 Q1018 BLU+,ETGG,2017-04-29T15:20:00Z,54.83,9.5,10.0,2.0,60,6,,6.21,30.059055,,,,,,,,,,,FEW,3000,,,,,,,VFR,,,,,,,,,,,,METAR,33.0
KW29 291520Z AUTO 23006KT 7SM CLR 27/19 A3009 RMK AO2 TSNO,KW29,2017-04-29T15:20:00Z,38.98,-76.33,27.0,19.0,230,6,,7.0,30.088583,,,TRUE,TRUE,,,TRUE,,,,CLR,,,,,,,,VFR,,,,,,,,,,,,SPECI,15.0
KDMW 291520Z AUTO 23009KT 10SM CLR 23/17 A3006 RMK AO2,KDMW,2017-04-29T15:20:00Z,39.6,-77.0,23.0,17.0,230,9,,10.0,30.059055,,,TRUE,TRUE,,,,,,,CLR,,,,,,,,VFR,,,,,,,,,,,,SPECI,241.0
KCGE 291520Z AUTO 26010KT 230V300 10SM CLR 28/20 A3011 RMK A01,KCGE,2017-04-29T15:20:00Z,38.53,-76.03,28.0,20.0,260,10,,10.0,30.109253,,,TRUE,TRUE,,,,,,,CLR,,,,,,,,VFR,,,,,,,,,,,,SPECI,6.0
K2G4 291520Z AUTO 21008KT 10SM SCT090 SCT110 18/14 A3018 RMK AO1,K2G4,2017-04-29T15:20:00Z,39.58,-79.33,18.0,14.0,210,8,,10.0,30.180119,,,TRUE,TRUE,,,,,,,SCT,9000,SCT,11000,,,,,VFR,,,,,,,,,,,,SPECI,894.0
ENSF 291520Z AUTO 16029KT 9999NDV BKN018/// BKN071/// 09/03 Q1019 W///S4,ENSF,2017-04-29T15:20:00Z,61.25,1.85,9.0,3.0,160,29,,,30.088583,,,TRUE,,,,,,,,BKN,1800,BKN,7100,,,,,,,,,,,,,,,,,METAR,10.0
ENFB 291520Z AUTO 15028KT 9999NDV BKN018/// 08/04 Q1019 W///S4,ENFB,2017-04-29T15:20:00Z,61.2,1.83,8.0,4.0,150,28,,,30.088583,,,TRUE,,,,,,,,BKN,1800,,,,,,,,,,,,,,,,,,,SPECI,10.0
ENSL 291520Z 15022KT 9999 SCT018 07/03 Q1017 W06/S3,ENSL,2017-04-29T15:20:00Z,58.37,1.9,7.0,3.0,150,22,,6.21,30.029528,,,,,,,,,,,SCT,1800,,,,,,,VFR,,,,,,,,,,,,METAR,50.0
ENOA 291520Z 16027KT 9999 FEW020 07/03 Q1019 W///S4,ENOA,2017-04-29T15:20:00Z,60.5,2.83,7.0,3.0,160,27,,6.21,30.088583,,,,,,,,,,,FEW,2000,,,,,,,VFR,,,,,,,,,,,,SPECI,5.0
ENHE 291520Z 12019KT 9999 FEW035 07/M01 Q1023 W///S4,ENHE,2017-04-29T15:20:00Z,65.33,2.33,7.0,-1.0,120,19,,6.21,30.206694,,,,,,,,,,,FEW,3500,,,,,,,VFR,,,,,,,,,,,,SPECI,1.0
ENEK 291520Z 11018KT 9999 FEW020 08/02 Q1018 W08/S3,ENEK,2017-04-29T15:20:00Z,56.53,3.25,8.0,2.0,110,18,,6.21,30.059055,,,,,,,,,,,FEW,2000,,,,,,,VFR,,,,,,,,,,,,SPECI,3.0
ENHF 291520Z AUTO VRB02KT 9999 NCD 04/M03 Q1032 RMK WIND 1254FT 09003KT,ENHF,2017-04-29T15:20:00Z,70.67,23.67,4.0,-3.0,0,2,,6.21,30.47244,,,TRUE,,,,,,,,CLR,,,,,,,,VFR,,,,,,,,,,,,SPECI,81.0
ENBN 291520Z AUTO 11013KT 090V150 //// R22///// NCD 07/M04 Q1026,ENBN,2017-04-29T15:20:00Z,65.47,12.22,7.0,-4.0,110,13,,,30.295275,,,TRUE,,,,,,,,CLR,,,,,,,,,,,,,,,,,,,,SPECI,9.0
EDXW 291520Z 01007KT 320V060 9999 SCT047 09/03 Q1018,EDXW,2017-04-29T15:20:00Z,54.92,8.33,9.0,3.0,10,7,,6.21,30.059055,,,,,,,,,,,SCT,4700,,,,,,,VFR,,,,,,,,,,,,METAR,20.0
EDTY 291520Z VRB02KT CAVOK 13/01 Q1016,EDTY,2017-04-29T15:20:00Z,49.12,9.78,13.0,1.0,0,2,,6.21,30.0,,,,,,,,,,,CAVOK,,,,,,,,VFR,,,,,,,,,,,,METAR,400.0
EDTL 291520Z VRB02KT CAVOK 16/00 Q1016,EDTL,2017-04-29T15:20:00Z,48.37,7.83,16.0,0.0,0,2,,6.21,30.0,,,,,,,,,,,CAVOK,,,,,,,,VFR,,,,,,,,,,,,METAR,156.0
EDOP 291520Z 34007KT 290V360 9999 FEW025 SCT120 10/02 Q1017,EDOP,2017-04-29T15:20:00Z,53.43,11.78,10.0,2.0,340,7,,6.21,30.029528,,,,,,,,,,,FEW,2500,SCT,12000,,,,,VFR,,,,,,,,,,,,METAR,51.0
EDMO 291520Z 06004KT CAVOK 10/M01 Q1016,EDMO,2017-04-29T15:20:00Z,48.07,11.27,10.0,-1.0,60,4,,6.21,30.0,,,,,,,,,,,CAVOK,,,,,,,,VFR,,,,,,,,,,,,METAR,600.0
EDJA 291520Z VRB04KT CAVOK 11/M04 Q1016,EDJA,2017-04-29T15:20:00Z,47.98,10.23,11.0,-4.0,0,4,,6.21,30.0,,,,,,,,,,,CAVOK,,,,,,,,VFR,,,,,,,,,,,,METAR,633.0
EDHK 291520Z 05007KT 010V080 9999 SCT023 07/02 Q1018,EDHK,2017-04-29T15:20:00Z,54.38,10.15,7.0,2.0,50,7,,6.21,30.059055,,,,,,,,,,,SCT,2300,,,,,,,VFR,,,,,,,,,,,,METAR,31.0
EDAH 291520Z VRB04KT 9999 BKN024 07/02 Q1017,EDAH,2017-04-29T15:20:00Z,53.87,14.15,7.0,2.0,0,4,,6.21,30.029528,,,,,,,,,,,BKN,2400,,,,,,,MVFR,,,,,,,,,,,,METAR,28.0
LGRP 291520Z 25005KT CAVOK 21/13 Q1012 NOSIG,LGRP,2017-04-29T15:20:00Z,36.4,28.08,21.0,13.0,250,5,,6.21,29.88189,,,,,,TRUE,,,,,CAVOK,,,,,,,,VFR,,,,,,,,,,,,METAR,5.0
LGKR 291520Z 22002KT 9999 FEW035 BKN080 21/13 Q1008 NOSIG,LGKR,2017-04-29T15:20:00Z,39.62,19.92,21.0,13.0,220,2,,6.21,29.763779,,,,,,TRUE,,,,,FEW,3500,BKN,8000,,,,,VFR,,,,,,,,,,,,METAR,2.0
LGAV 291520Z 22009KT CAVOK 24/02 Q1011 NOSIG,LGAV,2017-04-29T15:20:00Z,37.93,23.95,24.0,2.0,220,9,,6.21,29.852362,,,,,,TRUE,,,,,CAVOK,,,,,,,,VFR,,,,,,,,,,,,METAR,94.0
LGMK 291520Z 22004KT CAVOK 22/08 Q1012,LGMK,2017-04-29T15:20:00Z,37.43,25.35,22.0,8.0,220,4,,6.21,29.88189,,,,,,,,,,,CAVOK,,,,,,,,VFR,,,,,,,,,,,,METAR,123.0
LGKP 291520Z 25008KT CAVOK 21/16 Q1013,LGKP,2017-04-29T15:20:00Z,35.42,27.15,21.0,16.0,250,8,,6.21,29.911417,,,,,,,,,,,CAVOK,,,,,,,,VFR,,,,,,,,,,,,METAR,20.0
LGBL 291520Z 05009KT CAVOK 21/13 Q1010,LGBL,2017-04-29T15:20:00Z,39.22,22.8,21.0,13.0,50,9,,6.21,29.822834,,,,,,,,,,,CAVOK,,,,,,,,VFR,,,,,,,,,,,,METAR,26.0
EDSB 291520Z VRB02KT CAVOK 16/M01 Q1016,EDSB,2017-04-29T15:20:00Z,48.78,8.08,16.0,-1.0,0,2,,6.21,30.0,,,,,,,,,,,CAVOK,,,,,,,,VFR,,,,,,,,,,,,METAR,124.0
EDNY 291520Z VRB05KT CAVOK 12/M01 Q1016,EDNY,2017-04-29T15:20:00Z,47.67,9.52,12.0,-1.0,0,5,,6.21,30.0,,,,,,,,,,,CAVOK,,,,,,,,VFR,,,,,,,,,,,,METAR,424.0
EDMA 291520Z VRB01KT CAVOK 12/M01 Q1017,EDMA,2017-04-29T15:20:00Z,48.42,10.92,12.0,-1.0,0,1,,6.21,30.029528,,,,,,,,,,,CAVOK,,,,,,,,VFR,,,,,,,,,,,,METAR,463.0
EDLW 291520Z 32004KT 230V030 CAVOK 11/M02 Q1017,EDLW,2017-04-29T15:20:00Z,51.52,7.62,11.0,-2.0,320,4,,6.21,30.029528,,,,,,,,,,,CAVOK,,,,,,,,VFR,,,,,,,,,,,,METAR,127.0
EDLP 291520Z 26006KT 210V300 9999 SCT048 09/M03 Q1018,EDLP,2017-04-29T15:20:00Z,51.62,8.62,9.0,-3.0,260,6,,6.21,30.059055,,,,,,,,,,,SCT,4800,,,,,,,VFR,,,,,,,,,,,,METAR,213.0
EDLN 291520Z 08004KT 030V150 CAVOK 12/M01 Q1017,EDLN,2017-04-29T15:20:00Z,51.23,6.5,12.0,-1.0,80,4,,6.21,30.029528,,,,,,,,,,,CAVOK,,,,,,,,VFR,,,,,,,,,,,,METAR,38.0
EDHL 291520Z VRB04KT 9999 SCT027 10/03 Q1017,EDHL,2017-04-29T15:20:00Z,53.8,10.72,10.0,3.0,0,4,,6.21,30.029528,,,,,,,,,,,SCT,2700,,,,,,,VFR,,,,,,,,,,,,METAR,16.0
LGSR 291520Z 13006KT CAVOK 23/14 Q1012,LGSR,2017-04-29T15:20:00Z,36.4,25.48,23.0,14.0,130,6,,6.21,29.88189,,,,,,,,,,,CAVOK,,,,,,,,VFR,,,,,,,,,,,,METAR,40.0
LGRX 291520Z 00000KT 9999 BKN090 22/10 Q1009,LGRX,2017-04-29T15:20:00Z,38.17,21.42,22.0,10.0,0,0,,6.21,29.793306,,,,,,,,,,,BKN,9000,,,,,,,VFR,,,,,,,,,,,,METAR,15.0
LGPZ 291520Z 15009KT 9999 FEW030 24/M00 Q1009,LGPZ,2017-04-29T15:20:00Z,38.92,20.77,24.0,0.0,150,9,,6.21,29.793306,,,,,,,,,,,FEW,3000,,,,,,,VFR,,,,,,,,,,,,METAR,4.0
LGMT 291520Z 23005KT CAVOK 28/05 Q1012,LGMT,2017-04-29T15:20:00Z,39.05,26.6,28.0,5.0,230,5,,6.21,29.88189,,,,,,,,,,,CAVOK,,,,,,,,VFR,,,,,,,,,,,,METAR,17.0
LGKV 291520Z 00000KT CAVOK 20/10 Q1011,LGKV,2017-04-29T15:20:00Z,40.92,24.62,20.0,10.0,0,0,,6.21,29.852362,,,,,,,,,,,CAVOK,,,,,,,,VFR,,,,,,,,,,,,METAR,5.0
LGIO 291520Z /////KT 9999 SCT080 OVC160 21/07 Q1013,LGIO,2017-04-29T15:20:00Z,39.7,20.82,21.0,7.0,,,,6.21,29.911417,,,,,,,,,,,SCT,8000,OVC,16000,,,,,VFR,,,,,,,,,,,,METAR,476.0
LGEL 291520Z 00000KT CAVOK 24/09 Q1011,LGEL,2017-04-29T15:20:00Z,38.07,23.55,24.0,9.0,0,0,,6.21,29.852362,,,,,,,,,,,CAVOK,,,,,,,,VFR,,,,,,,,,,,,METAR,31.0
LGAL 291520Z 22007KT CAVOK 22/07 Q1011,LGAL,2017-04-29T15:20:00Z,40.85,25.95,22.0,7.0,220,7,,6.21,29.852362,,,,,,,,,,,CAVOK,,,,,,,,VFR,,,,,,,,,,,,METAR,3.0
EDVK 291520Z 31005KT 9999 SCT044 BKN061 09/M02 Q1018,EDVK,2017-04-29T15:20:00Z,51.38,9.37,9.0,-2.0,310,5,,6.21,30.059055,,,,,,,,,,,SCT,4400,BKN,6100,,,,,VFR,,,,,,,,,,,,METAR,285.0
EDLV 291520Z VRB03KT CAVOK 12/M00 Q1017,EDLV,2017-04-29T15:20:00Z,51.6,6.15,12.0,0.0,0,3,,6.21,30.029528,,,,,,,,,,,CAVOK,,,,,,,,VFR,,,,,,,,,,,,METAR,32.0
EDFM 291520Z VRB04KT CAVOK 15/M01 Q1016,EDFM,2017-04-29T15:20:00Z,49.47,8.52,15.0,-1.0,0,4,,6.21,30.0,,,,,,,,,,,CAVOK,,,,,,,,VFR,,,,,,,,,,,,METAR,100.0
EDFH 291520Z VRB05KT CAVOK 12/M03 Q1015,EDFH,2017-04-29T15:20:00Z,49.95,7.27,12.0,-3.0,0,5,,6.21,29.970472,,,,,,,,,,,CAVOK,,,,,,,,VFR,,,,,,,,,,,,METAR,498.0
ENZV 291520Z 23005KT 200V310 9999 SCT060 10/01 Q1020 NOSIG,ENZV,2017-04-29T15:20:00Z,58.87,5.62,10.0,1.0,230,5,,6.21,30.11811,,,,,,TRUE,,,,,SCT,6000,,,,,,,VFR,,,,,,,,,,,,METAR,9.0
ENVA 291520Z 14011KT CAVOK 10/M05 Q1023 RMK WIND 670FT 16015KT,ENVA,2017-04-29T15:20:00Z,63.47,10.92,10.0,-5.0,140,11,,6.21,30.206694,,,,,,,,,,,CAVOK,,,,,,,,VFR,,,,,,,,,,,,SPECI,17.0
ENOL 291520Z 11012KT 9999 FEW040 BKN200 10/M05 Q1022 NOSIG,ENOL,2017-04-29T15:20:00Z,63.7,9.58,10.0,-5.0,110,12,,6.21,30.177166,,,,,,TRUE,,,,,FEW,4000,BKN,20000,,,,,VFR,,,,,,,,,,,,METAR,7.0
ENGM 291520Z VRB03KT CAVOK 10/M09 Q1021 NOSIG,ENGM,2017-04-29T15:20:00Z,60.2,11.1,10.0,-9.0,0,3,,6.21,30.147638,,,,,,TRUE,,,,,CAVOK,,,,,,,,VFR,,,,,,,,,,,,METAR,204.0
ENDU 291520Z AUTO 10007KT 9999 NCD 07/M08 Q1030 RMK WIND 1100FT 15006KT WIND 2200FT 09010KT,ENDU,2017-04-29T15:20:00Z,69.03,18.55,7.0,-8.0,100,7,,6.21,30.413385,,,TRUE,,,,,,,,CLR,,,,,,,,VFR,,,,,,,,,,,,SPECI,79.0
ENBO 291520Z 12013KT CAVOK 06/M07 Q1028,ENBO,2017-04-29T15:20:00Z,67.27,14.37,6.0,-7.0,120,13,,6.21,30.35433,,,,,,,,,,,CAVOK,,,,,,,,VFR,,,,,,,,,,,,METAR,13.0
ENBR 291520Z 18012KT 9999 FEW050 SCT070 11/M03 Q1020 NOSIG RMK WIND 1200FT 15013KT,ENBR,2017-04-29T15:20:00Z,60.28,5.22,11.0,-3.0,180,12,,6.21,30.11811,,,,,,TRUE,,,,,FEW,5000,SCT,7000,,,,,VFR,,,,,,,,,,,,SPECI,50.0
ENAN 291520Z AUTO 06007KT 9999 NCD 05/M05 Q1030,ENAN,2017-04-29T15:20:00Z,69.28,16.13,5.0,-5.0,60,7,,6.21,30.413385,,,TRUE,,,,,,,,CLR,,,,,,,,VFR,,,,,,,,,,,,METAR,14.0
ENWV 291520Z AUTO 13017KT 9999NDV FEW018/// 07/04 Q1018 W///S3,ENWV,2017-04-29T15:20:00Z,,,7.0,4.0,130,17,,,30.059055,,,TRUE,,,,,,,,FEW,1800,,,,,,,,,,,,,,,,,,,METAR,
ENUG 291520Z AUTO 29009KT 9999NDV OVC050/// 06/01 Q1031 W06/S3,ENUG,2017-04-29T15:20:00Z,,,6.0,1.0,290,9,,,30.442913,,,TRUE,,,,,,,,OVC,5000,,,,,,,,,,,,,,,,,,,METAR,
ENLA 291520Z AUTO 14023KT 9999NDV BKN020/// 07/03 Q1017 W///S3,ENLA,2017-04-29T15:20:00Z,59.1,2.83,7.0,3.0,140,23,,,30.029528,,,TRUE,,,,,,,,BKN,2000,,,,,,,,,,,,,,,,,,,METAR,4.0
ENHM 291520Z 14034KT 9999 VCSH FEW015 BKN025 06/04 Q1018 W08/S4,ENHM,2017-04-29T15:20:00Z,59.57,2.23,6.0,4.0,140,34,,6.21,30.059055,,,,,,,,,,VCSH,FEW,1500,BKN,2500,,,,,MVFR,,,,,,,,,,,,METAR,10.0
ENQA 291520Z AUTO 17011KT 9999NDV BKN063/// 08/03 Q1021 W05/S3,ENQA,2017-04-29T15:20:00Z,60.65,3.72,8.0,3.0,170,11,,,30.147638,,,TRUE,,,,,,,,BKN,6300,,,,,,,,,,,,,,,,,,,METAR,20.0
ENQC 291520Z AUTO 14010KT 9999NDV BKN057/// 07/04 Q1020 W///S3,ENQC,2017-04-29T15:20:00Z,60.88,3.62,7.0,4.0,140,10,,,30.11811,,,TRUE,,,,,,,,BKN,5700,,,,,,,,,,,,,,,,,,,METAR,20.0
ENSE 291520Z AUTO 18030KT 9999NDV FEW019/// BKN076/// 08/03 Q1019 W///S4,ENSE,2017-04-29T15:20:00Z,61.45,2.15,8.0,3.0,180,30,,,30.088583,,,TRUE,,,,,,,,FEW,1900,BKN,7600,,,,,,,,,,,,,,,,,METAR,10.0
ENQR 291520Z AUTO 16027KT 9999NDV SCT031/// BKN065/// 08/04 Q1019 W///S4,ENQR,2017-04-29T15:20:00Z,61.35,2.22,8.0,4.0,160,27,,,30.088583,,,TRUE,,,,,,,,SCT,3100,BKN,6500,,,,,,,,,,,,,,,,,METAR,10.0
ENNE 291520Z 09019KT 9999 FEW030 05/M02 Q1025 W///S4,ENNE,2017-04-29T15:20:00Z,66.03,8.08,5.0,-2.0,90,19,,6.21,30.265747,,,,,,,,,,,FEW,3000,,,,,,,VFR,,,,,,,,,,,,METAR,10.0
LGAD 291520Z 00000KT 9999 FEW020 23/08 Q1009,LGAD,2017-04-29T15:20:00Z,37.92,21.27,23.0,8.0,0,0,,6.21,29.793306,,,,,,,,,,,FEW,2000,,,,,,,VFR,,,,,,,,,,,,METAR,12.0
LGTS 291520Z 22005KT 9999 FEW035 21/06 Q1011 NOSIG,LGTS,2017-04-29T15:20:00Z,40.52,22.97,21.0,6.0,220,5,,6.21,29.852362,,,,,,TRUE,,,,,FEW,3500,,,,,,,VFR,,,,,,,,,,,,METAR,7.0
LGSM 291520Z 10004KT CAVOK 24/14 Q1011,LGSM,2017-04-29T15:20:00Z,37.68,26.92,24.0,14.0,100,4,,6.21,29.852362,,,,,,,,,,,CAVOK,,,,,,,,VFR,,,,,,,,,,,,METAR,6.0
LGSA 291520Z 00000KT CAVOK 24/14 Q1012,LGSA,2017-04-29T15:20:00Z,35.53,24.13,24.0,14.0,0,0,,6.21,29.88189,,,,,,,,,,,CAVOK,,,,,,,,VFR,,,,,,,,,,,,METAR,135.0
LGLM 291520Z 17005KT CAVOK 20/14 Q1011,LGLM,2017-04-29T15:20:00Z,39.92,25.23,20.0,14.0,170,5,,6.21,29.852362,,,,,,,,,,,CAVOK,,,,,,,,VFR,,,,,,,,,,,,METAR,5.0
LGKO 291520Z VRB03KT CAVOK 24/08 Q1012,LGKO,2017-04-29T15:20:00Z,36.8,27.08,24.0,8.0,0,3,,6.21,29.88189,,,,,,,,,,,CAVOK,,,,,,,,VFR,,,,,,,,,,,,METAR,125.0
ENTO 291520Z 03008KT 360V060 CAVOK 10/M02 Q1021,ENTO,2017-04-29T15:20:00Z,59.2,10.27,10.0,-2.0,30,8,,6.21,30.147638,,,,,,,,,,,CAVOK,,,,,,,,VFR,,,,,,,,,,,,METAR,88.0
ENTC 291520Z 01009KT CAVOK 04/M04 Q1031 NOSIG RMK WIND 2600FT 12005KT,ENTC,2017-04-29T15:20:00Z,69.68,18.92,4.0,-4.0,10,9,,6.21,30.442913,,,,,,TRUE,,,,,CAVOK,,,,,,,,VFR,,,,,,,,,,,,SPECI,10.0
ENRY 291520Z 05006KT CAVOK 10/M03 Q1022,ENRY,2017-04-29T15:20:00Z,59.37,10.77,10.0,-3.0,50,6,,6.21,30.177166,,,,,,,,,,,CAVOK,,,,,,,,VFR,,,,,,,,,,,,METAR,53.0
ENRO 291520Z AUTO 14009KT 120V180 9999NDV NCD 04/M07 Q1021,ENRO,2017-04-29T15:20:00Z,62.57,11.33,4.0,-7.0,140,9,,,30.147638,,,TRUE,,,,,,,,CLR,,,,,,,,,,,,,,,,,,,,SPECI,626.0
ENHD 291520Z 11015KT CAVOK 10/M04 Q1021,ENHD,2017-04-29T15:20:00Z,59.35,5.22,10.0,-4.0,110,15,,6.21,30.147638,,,,,,,,,,,CAVOK,,,,,,,,VFR,,,,,,,,,,,,METAR,24.0
ENCN 291520Z 09015KT 9999 FEW045 SCT060 09/M02 Q1021,ENCN,2017-04-29T15:20:00Z,58.2,8.07,9.0,-2.0,90,15,,6.21,30.147638,,,,,,,,,,,FEW,4500,SCT,6000,,,,,VFR,,,,,,,,,,,,METAR,17.0
ENAL 291520Z 31005KT CAVOK 09/02 Q1022,ENAL,2017-04-29T15:20:00Z,62.57,6.12,9.0,2.0,310,5,,6.21,30.177166,,,,,,,,,,,CAVOK,,,,,,,,VFR,,,,,,,,,,,,METAR,22.0
ENNA 291520Z AUTO 35003KT 9999 NCD 06/M07 Q1033 RMK WIND 1800FT VRB03KT,ENNA,2017-04-29T15:20:00Z,70.07,24.97,6.0,-7.0,350,3,,6.21,30.501968,,,TRUE,,,,,,,,CLR,,,,,,,,VFR,,,,,,,,,,,,SPECI,8.0
ENML 291520Z 30006KT 240V010 CAVOK 12/M04 Q1021,ENML,2017-04-29T15:20:00Z,62.75,7.27,12.0,-4.0,300,6,,6.21,30.147638,,,,,,,,,,,CAVOK,,,,,,,,VFR,,,,,,,,,,,,METAR,3.0
ENKR 291520Z AUTO VRB03KT 9999 NCD 05/M05 Q1033 RMK WIND 731FT 26007KT,ENKR,2017-04-29T15:20:00Z,69.72,29.88,5.0,-5.0,0,3,,6.21,30.501968,,,TRUE,,,,,,,,CLR,,,,,,,,VFR,,,,,,,,,,,,SPECI,91.0
ENKB 291520Z 34007KT CAVOK 10/M05 Q1021 RMK WIND 745FT 33008KT,ENKB,2017-04-29T15:20:00Z,63.12,7.82,10.0,-5.0,340,7,,6.21,30.147638,,,,,,,,,,,CAVOK,,,,,,,,VFR,,,,,,,,,,,,SPECI,62.0
ENFL 291520Z VRB03KT 9999 SCT060 10/M01 Q1021,ENFL,2017-04-29T15:20:00Z,61.57,5.02,10.0,-1.0,0,3,,6.21,30.147638,,,,,,,,,,,SCT,6000,,,,,,,VFR,,,,,,,,,,,,METAR,9.0
ENEV 291520Z AUTO 14007KT 100V170 9999 NCD 07/M08 Q1030 RMK WIND 1400FT 14008KT,ENEV,2017-04-29T15:20:00Z,68.52,16.67,7.0,-8.0,140,7,,6.21,30.413385,,,TRUE,,,,,,,,CLR,,,,,,,,VFR,,,,,,,,,,,,SPECI,26.0
LIPZ 291520Z 18005KT 130V210 9999 FEW025 16/00 Q1016 NOSIG,LIPZ,2017-04-29T15:20:00Z,45.5,12.35,16.0,0.0,180,5,,6.21,30.0,,,,,,TRUE,,,,,FEW,2500,,,,,,,VFR,,,,,,,,,,,,METAR,6.0
LIPX 291520Z 10005KT 070V130 9999 SCT050 16/03 Q1016,LIPX,2017-04-29T15:20:00Z,45.38,10.87,16.0,3.0,100,5,,6.21,30.0,,,,,,,,,,,SCT,5000,,,,,,,VFR,,,,,,,,,,,,METAR,68.0
LIPQ 291520Z VRB03KT 9999 FEW040 18/01 Q1015,LIPQ,2017-04-29T15:20:00Z,45.82,13.47,18.0,1.0,0,3,,6.21,29.970472,,,,,,,,,,,FEW,4000,,,,,,,VFR,,,,,,,,,,,,METAR,12.0
LIPE 291520Z 09007KT 050V130 9999 FEW040 17/05 Q1016,LIPE,2017-04-29T15:20:00Z,44.52,11.3,17.0,5.0,90,7,,6.21,30.0,,,,,,,,,,,FEW,4000,,,,,,,VFR,,,,,,,,,,,,METAR,42.0
LICJ 291520Z 01012KT 9999 FEW030 17/10 Q1012,LICJ,2017-04-29T15:20:00Z,38.17,13.08,17.0,10.0,10,12,,6.21,29.88189,,,,,,,,,,,FEW,3000,,,,,,,VFR,,,,,,,,,,,,METAR,34.0
LICC 291520Z 06017KT 8000 FEW060 19/11 Q1006,LICC,2017-04-29T15:20:00Z,37.47,15.05,19.0,11.0,60,17,,4.97,29.704725,,,,,,,,,,,FEW,6000,,,,,,,MVFR,,,,,,,,,,,,METAR,17.0
LIBD 291520Z 02007KT 350V060 9999 FEW010 SCT030 13/11 Q1014,LIBD,2017-04-29T15:20:00Z,41.12,16.77,13.0,11.0,20,7,,6.21,29.940945,,,,,,,,,,,FEW,1000,SCT,3000,,,,,VFR,,,,,,,,,,,,METAR,44.0
LIRQ 291520Z 02010KT 330V060 9999 FEW045 18/05 Q1014,LIRQ,2017-04-29T15:20:00Z,43.78,11.18,18.0,5.0,20,10,,6.21,29.940945,,,,,,,,,,,FEW,4500,,,,,,,VFR,,,,,,,,,,,,METAR,38.0
LIRN 291520Z 05011KT 020V100 9999 FEW040 21/06 Q1010 NOSIG,LIRN,2017-04-29T15:20:00Z,40.88,14.3,21.0,6.0,50,11,,6.21,29.822834,,,,,,TRUE,,,,,FEW,4000,,,,,,,VFR,,,,,,,,,,,,METAR,72.0
LIRF 291520Z 29016KT CAVOK 18/10 Q1011 NOSIG,LIRF,2017-04-29T15:20:00Z,41.78,12.22,18.0,10.0,290,16,,6.21,29.852362,,,,,,TRUE,,,,,CAVOK,,,,,,,,VFR,,,,,,,,,,,,METAR,3.0
LIRA 291520Z 25009KT 190V310 CAVOK 20/08 Q1011,LIRA,2017-04-29T15:20:00Z,41.8,12.58,20.0,8.0,250,9,,6.21,29.852362,,,,,,,,,,,CAVOK,,,,,,,,VFR,,,,,,,,,,,,METAR,101.0
LIML 291520Z 11004KT 050V180 9999 FEW050 18/M02 Q1015 NOSIG,LIML,2017-04-29T15:20:00Z,45.47,9.27,18.0,-2.0,110,4,,6.21,29.970472,,,,,,TRUE,,,,,FEW,5000,,,,,,,VFR,,,,,,,,,,,,METAR,103.0
LIMJ 291520Z 22005KT 180V240 CAVOK 18/07 Q1014,LIMJ,2017-04-29T15:20:00Z,44.42,8.83,18.0,7.0,220,5,,6.21,29.940945,,,,,,,,,,,CAVOK,,,,,,,,VFR,,,,,,,,,,,,METAR,3.0
LIMF 291520Z 03004KT 290V080 CAVOK 16/M03 Q1015,LIMF,2017-04-29T15:20:00Z,45.22,7.65,16.0,-3.0,30,4,,6.21,29.970472,,,,,,,,,,,CAVOK,,,,,,,,VFR,,,,,,,,,,,,METAR,287.0
LIME 291520Z 15005KT 090V190 CAVOK 17/M02 Q1015 NOSIG,LIME,2017-04-29T15:20:00Z,45.67,9.68,17.0,-2.0,150,5,,6.21,29.970472,,,,,,TRUE,,,,,CAVOK,,,,,,,,VFR,,,,,,,,,,,,METAR,237.0
LIMC 291520Z 23004KT 160V290 CAVOK 17/M02 Q1016 NOSIG,LIMC,2017-04-29T15:20:00Z,45.62,8.72,17.0,-2.0,230,4,,6.21,30.0,,,,,,TRUE,,,,,CAVOK,,,,,,,,VFR,,,,,,,,,,,,METAR,211.0
LIEE 291520Z 15012KT 9999 FEW025 18/09 Q1014,LIEE,2017-04-29T15:20:00Z,39.25,9.07,18.0,9.0,150,12,,6.21,29.940945,,,,,,,,,,,FEW,2500,,,,,,,VFR,,,,,,,,,,,,METAR,4.0
LIEA 291520Z 29007KT 250V330 CAVOK 17/06 Q1015,LIEA,2017-04-29T15:20:00Z,40.62,8.27,17.0,6.0,290,7,,6.21,29.970472,,,,,,,,,,,CAVOK,,,,,,,,VFR,,,,,,,,,,,,METAR,23.0
ELLX 291520Z 06005KT 350V130 CAVOK 14/M02 Q1015 NOSIG,ELLX,2017-04-29T15:20:00Z,49.63,6.2,14.0,-2.0,60,5,,6.21,29.970472,,,,,,TRUE,,,,,CAVOK,,,,,,,,VFR,,,,,,,,,,,,METAR,379.0
EBOS 291520Z 08009KT 060V120 9999 FEW028 14/03 Q1016 NOSIG,EBOS,2017-04-29T15:20:00Z,51.2,2.87,14.0,3.0,80,9,,6.21,30.0,,,,,,TRUE,,,,,FEW,2800,,,,,,,VFR,,,,,,,,,,,,METAR,5.0
EBLG 291520Z 05007KT 360V100 9999 FEW048 12/00 Q1016 NOSIG,EBLG,2017-04-29T15:20:00Z,50.63,5.45,12.0,0.0,50,7,,6.21,30.0,,,,,,TRUE,,,,,FEW,4800,,,,,,,VFR,,,,,,,,,,,,METAR,178.0
EBCI 291520Z 05008KT 020V080 CAVOK 13/M00 Q1016 NOSIG,EBCI,2017-04-29T15:20:00Z,50.47,4.45,13.0,0.0,50,8,,6.21,30.0,,,,,,TRUE,,,,,CAVOK,,,,,,,,VFR,,,,,,,,,,,,METAR,192.0
EBBR 291520Z 11005KT 070V130 CAVOK 13/04 Q1017 NOSIG,EBBR,2017-04-29T15:20:00Z,50.9,4.5,13.0,4.0,110,5,,6.21,30.029528,,,,,,TRUE,,,,,CAVOK,,,,,,,,VFR,,,,,,,,,,,,METAR,58.0
EBAW 291520Z 06007KT 030V110 9999 FEW040 13/02 Q1017 NOSIG,EBAW,2017-04-29T15:20:00Z,51.2,4.47,13.0,2.0,60,7,,6.21,30.029528,,,,,,TRUE,,,,,FEW,4000,,,,,,,VFR,,,,,,,,,,,,METAR,14.0
LOWK 291520Z 04005KT 010V070 9999 FEW050 SCT090 12/M01 Q1017 NOSIG,LOWK,2017-04-29T15:20:00Z,46.65,14.32,12.0,-1.0,40,5,,6.21,30.029528,,,,,,TRUE,,,,,FEW,5000,SCT,9000,,,,,VFR,,,,,,,,,,,,METAR,441.0
LOWG 291520Z VRB02KT 9999 FEW045 BKN085 12/M02 Q1017 NOSIG,LOWG,2017-04-29T15:20:00Z,47.0,15.42,12.0,-2.0,0,2,,6.21,30.029528,,,,,,TRUE,,,,,FEW,4500,BKN,8500,,,,,VFR,,,,,,,,,,,,METAR,347.0
LOWS 291520Z VRB02KT 9999 FEW050 SCT080 11/M01 Q1017 NOSIG,LOWS,2017-04-29T15:20:00Z,47.78,13.02,11.0,-1.0,0,2,,6.21,30.029528,,,,,,TRUE,,,,,FEW,5000,SCT,8000,,,,,VFR,,,,,,,,,,,,METAR,430.0
LOWL 291520Z 29005KT 9999 FEW035 SCT060 BKN080 10/04 Q1018 NOSIG,LOWL,2017-04-29T15:20:00Z,48.22,14.18,10.0,4.0,290,5,,6.21,30.059055,,,,,,TRUE,,,,,FEW,3500,SCT,6000,BKN,8000,,,VFR,,,,,,,,,,,,METAR,313.0
LOWW 291520Z 36006KT 320V020 9999 SCT050 BKN090 12/03 Q1017 NOSIG,LOWW,2017-04-29T15:20:00Z,48.12,16.57,12.0,3.0,360,6,,6.21,30.029528,,,,,,TRUE,,,,,SCT,5000,BKN,9000,,,,,VFR,,,,,,,,,,,,METAR,190.0
ESND 291520Z AUTO 07007KT 040V100 9999 OVC043/// 03/M06 Q1023,ESND,2017-04-29T15:20:00Z,62.05,14.42,3.0,-6.0,70,7,,6.21,30.206694,,,TRUE,,,,,,,,OVC,4300,,,,,,,VFR,,,,,,,,,,,,METAR,359.0
ESUP 291520Z AUTO 10007KT 9999 NCD 05/M08 Q1030,ESUP,2017-04-29T15:20:00Z,67.25,23.07,5.0,-8.0,100,7,,6.21,30.413385,,,TRUE,,,,,,,,CLR,,,,,,,,VFR,,,,,,,,,,,,METAR,165.0
ESST 291520Z AUTO 01008KT 9999 SCT061/// 10/M04 Q1022,ESST,2017-04-29T15:20:00Z,60.15,12.98,10.0,-4.0,10,8,,6.21,30.177166,,,TRUE,,,,,,,,SCT,6100,,,,,,,VFR,,,,,,,,,,,,METAR,120.0
ESNV 291520Z AUTO 11008KT 070V130 9999 FEW039/// SCT059/// 03/01 Q1026,ESNV,2017-04-29T15:20:00Z,64.58,16.83,3.0,1.0,110,8,,6.21,30.295275,,,TRUE,,,,,,,,FEW,3900,SCT,5900,,,,,VFR,,,,,,,,,,,,METAR,348.0
ESKM 291520Z AUTO 04008KT 9999 BKN045/// 05/M06 Q1023,ESKM,2017-04-29T15:20:00Z,60.97,14.52,5.0,-6.0,40,8,,6.21,30.206694,,,TRUE,,,,,,,,BKN,4500,,,,,,,VFR,,,,,,,,,,,,METAR,193.0
ESGR 291520Z AUTO 02012KT 9999 OVC078/// 10/M06 Q1019,ESGR,2017-04-29T15:20:00Z,58.45,13.97,10.0,-6.0,20,12,,6.21,30.088583,,,TRUE,,,,,,,,OVC,7800,,,,,,,VFR,,,,,,,,,,,,METAR,105.0
ESNZ 291520Z 11004KT 060V140 9999 SCT035 OVC055 03/M07 Q1024,ESNZ,2017-04-29T15:20:00Z,63.17,14.5,3.0,-7.0,110,4,,6.21,30.236221,,,,,,,,,,,SCT,3500,OVC,5500,,,,,VFR,,,,,,,,,,,,METAR,370.0
ESNU 291520Z 05014KT CAVOK 04/M07 Q1026 R14/11//60,ESNU,2017-04-29T15:20:00Z,63.78,20.27,4.0,-7.0,50,14,,6.21,30.295275,,,,,,,,,,,CAVOK,,,,,,,,VFR,,,,,,,,,,,,SPECI,14.0
ESNS 291520Z AUTO 03011KT 360V070 9999 NCD 03/M07 Q1028,ESNS,2017-04-29T15:20:00Z,64.62,21.07,3.0,-7.0,30,11,,6.21,30.35433,,,TRUE,,,,,,,,CLR,,,,,,,,VFR,,,,,,,,,,,,METAR,49.0
ESNQ 291520Z AUTO 10005KT 9999 NCD 04/M10 Q1028,ESNQ,2017-04-29T15:20:00Z,67.82,20.32,4.0,-10.0,100,5,,6.21,30.35433,,,TRUE,,,,,,,,CLR,,,,,,,,VFR,,,,,,,,,,,,METAR,452.0
ESNO 291520Z AUTO 05010KT 010V090 9999 SCT053/// 05/M07 Q1025,ESNO,2017-04-29T15:20:00Z,63.38,18.97,5.0,-7.0,50,10,,6.21,30.265747,,,TRUE,,,,,,,,SCT,5300,,,,,,,VFR,,,,,,,,,,,,METAR,103.0
ESNN 291520Z AUTO 04010KT 9999 BKN045/// 05/M05 Q1025,ESNN,2017-04-29T15:20:00Z,62.52,17.43,5.0,-5.0,40,10,,6.21,30.265747,,,TRUE,,,,,,,,BKN,4500,,,,,,,VFR,,,,,,,,,,,,METAR,10.0
ESNK 291520Z AUTO 07009KT 040V120 9999 OVC055/// 06/M05 Q1025,ESNK,2017-04-29T15:20:00Z,63.03,17.77,6.0,-5.0,70,9,,6.21,30.265747,,,TRUE,,,,,,,,OVC,5500,,,,,,,VFR,,,,,,,,,,,,METAR,19.0
ESNG 291520Z AUTO 12008KT 080V170 9999 NCD 05/M10 Q1029,ESNG,2017-04-29T15:20:00Z,67.13,20.82,5.0,-10.0,120,8,,6.21,30.383858,,,TRUE,,,,,,,,CLR,,,,,,,,VFR,,,,,,,,,,,,METAR,310.0
ESSV 291520Z 02015KT CAVOK 05/01 Q1016,ESSV,2017-04-29T15:20:00Z,57.67,18.35,5.0,1.0,20,15,,6.21,30.0,,,,,,,,,,,CAVOK,,,,,,,,VFR,,,,,,,,,,,,METAR,47.0
ESSP 291520Z AUTO 02011KT 9999 FEW076/// 09/M04 Q1018,ESSP,2017-04-29T15:20:00Z,58.57,16.25,9.0,-4.0,20,11,,6.21,30.059055,,,TRUE,,,,,,,,FEW,7600,,,,,,,VFR,,,,,,,,,,,,METAR,8.0
ESSD 291520Z AUTO 02010KT 9999 BKN057/// 07/M05 Q1021,ESSD,2017-04-29T15:20:00Z,60.42,15.5,7.0,-5.0,20,10,,6.21,30.147638,,,TRUE,,,,,,,,BKN,5700,,,,,,,VFR,,,,,,,,,,,,METAR,161.0
ESSB 291520Z AUTO 01014G25KT 350V060 9999 FEW048/// BKN130/// 07/M04 Q1018,ESSB,2017-04-29T15:20:00Z,59.35,17.93,7.0,-4.0,10,14,25,6.21,30.059055,,,TRUE,,,,,,,,FEW,4800,BKN,13000,,,,,VFR,,,,,,,,,,,,METAR,11.0
ESSA 291520Z 01018KT CAVOK 07/M02 Q1019 R01L/15//95 R08/15//95 R01R/15//95 NOSIG,ESSA,2017-04-29T15:20:00Z,59.63,17.93,7.0,-2.0,10,18,,6.21,30.088583,,,,,,TRUE,,,,,CAVOK,,,,,,,,VFR,,,,,,,,,,,,SPECI,61.0
ESOW 291520Z 02017KT 9999 FEW045 08/M03 Q1020,ESOW,2017-04-29T15:20:00Z,59.57,16.62,8.0,-3.0,20,17,,6.21,30.11811,,,,,,,,,,,FEW,4500,,,,,,,VFR,,,,,,,,,,,,METAR,31.0
ESOK 291520Z AUTO 04007KT 9999 FEW048/// SCT071/// 10/M04 Q1020,ESOK,2017-04-29T15:20:00Z,59.45,13.33,10.0,-4.0,40,7,,6.21,30.11811,,,TRUE,,,,,,,,FEW,4800,SCT,7100,,,,,VFR,,,,,,,,,,,,METAR,107.0
ESOE 291520Z AUTO 01013KT 9999 SCT073/// 10/M02 Q1020,ESOE,2017-04-29T15:20:00Z,59.22,15.05,10.0,-2.0,10,13,,6.21,30.11811,,,TRUE,,,,,,,,SCT,7300,,,,,,,VFR,,,,,,,,,,,,METAR,57.0
ESKN 291520Z 01016KT CAVOK 09/M05 Q1018,ESKN,2017-04-29T15:20:00Z,58.78,16.9,9.0,-5.0,10,16,,6.21,30.059055,,,,,,,,,,,CAVOK,,,,,,,,VFR,,,,,,,,,,,,METAR,43.0
ESSL 291520Z 04012KT CAVOK 11/M03 Q1018,ESSL,2017-04-29T15:20:00Z,58.38,15.67,11.0,-3.0,40,12,,6.21,30.059055,,,,,,,,,,,CAVOK,,,,,,,,VFR,,,,,,,,,,,,METAR,52.0
ESPE 291520Z AUTO 12008KT 090V150 9999 NCD 05/M09 Q1028,ESPE,2017-04-29T15:20:00Z,65.88,20.15,5.0,-9.0,120,8,,6.21,30.35433,,,TRUE,,,,,,,,CLR,,,,,,,,VFR,,,,,,,,,,,,METAR,182.0
ESPA 291520Z 11005KT 080V140 CAVOK 05/M08 Q1029,ESPA,2017-04-29T15:20:00Z,65.53,22.12,5.0,-8.0,110,5,,6.21,30.383858,,,,,,,,,,,CAVOK,,,,,,,,VFR,,,,,,,,,,,,METAR,34.0
ESIB 291520Z AUTO 03012KT 9999 FEW074/// 10/M00 Q1020,ESIB,2017-04-29T15:20:00Z,58.42,12.68,10.0,0.0,30,12,,6.21,30.11811,,,TRUE,,,,,,,,FEW,7400,,,,,,,VFR,,,,,,,,,,,,METAR,74.0
ESDF 291520Z AUTO 06004KT 9999 FEW033/// OVC058/// 06/03 Q1018,ESDF,2017-04-29T15:20:00Z,56.27,15.27,6.0,3.0,60,4,,6.21,30.059055,,,TRUE,,,,,,,,FEW,3300,OVC,5800,,,,,VFR,,,,,,,,,,,,METAR,74.0
ESCF 291520Z AUTO 03013KT 9999 SCT078/// 10/M03 Q1018,ESCF,2017-04-29T15:20:00Z,58.38,15.52,10.0,-3.0,30,13,,6.21,30.059055,,,TRUE,,,,,,,,SCT,7800,,,,,,,VFR,,,,,,,,,,,,METAR,117.0
EGSH 291520Z 15011KT 9999 FEW038 14/04 Q1014 NOSIG,EGSH,2017-04-29T15:20:00Z,52.68,1.28,14.0,4.0,150,11,,6.21,29.940945,,,,,,TRUE,,,,,FEW,3800,,,,,,,VFR,,,,,,,,,,,,METAR,36.0
EGSC 291520Z 15008KT 9999 SCT045 14/05 Q1013,EGSC,2017-04-29T15:20:00Z,52.2,0.17,14.0,5.0,150,8,,6.21,29.911417,,,,,,,,,,,SCT,4500,,,,,,,VFR,,,,,,,,,,,,METAR,15.0
EGMW 291520Z 16013KT 6000 NSC 11/09 Q1015,EGMW,2017-04-29T15:20:00Z,,,11.0,9.0,160,13,,3.73,29.970472,,,,,,,,,,,CLR,,,,,,,,MVFR,,,,,,,,,,,,METAR,
EGCN 291520Z 17010KT 9999 BKN047 13/03 Q1013,EGCN,2017-04-29T15:20:00Z,53.48,-1.0,13.0,3.0,170,10,,6.21,29.911417,,,,,,,,,,,BKN,4700,,,,,,,VFR,,,,,,,,,,,,METAR,17.0
EGBJ 291520Z 17010KT 9999 FEW030 SCT040 13/05 Q1011,EGBJ,2017-04-29T15:20:00Z,51.9,-2.17,13.0,5.0,170,10,,6.21,29.852362,,,,,,,,,,,FEW,3000,SCT,4000,,,,,VFR,,,,,,,,,,,,METAR,29.0
EGBE 291520Z 15010KT 9999 FEW035 BKN045 13/06 Q1012,EGBE,2017-04-29T15:20:00Z,52.37,-1.47,13.0,6.0,150,10,,6.21,29.88189,,,,,,,,,,,FEW,3500,BKN,4500,,,,,VFR,,,,,,,,,,,,METAR,82.0
EGTE 291520Z 14015KT 9999 FEW025 12/06 Q1010,EGTE,2017-04-29T15:20:00Z,50.72,-3.42,12.0,6.0,140,15,,6.21,29.822834,,,,,,,,,,,FEW,2500,,,,,,,VFR,,,,,,,,,,,,METAR,30.0
EGJJ 291520Z 13014KT 9999 FEW018 15/05 Q1010 NOSIG,EGJJ,2017-04-29T15:20:00Z,49.22,-2.2,15.0,5.0,130,14,,6.21,29.822834,,,,,,TRUE,,,,,FEW,1800,,,,,,,VFR,,,,,,,,,,,,METAR,84.0
EGJB 291520Z 12010KT 9999 FEW020 14/05 Q1010,EGJB,2017-04-29T15:20:00Z,49.42,-2.6,14.0,5.0,120,10,,6.21,29.822834,,,,,,,,,,,FEW,2000,,,,,,,VFR,,,,,,,,,,,,METAR,102.0
EGJA 291520Z 08009KT 9999 FEW039 12/08 Q1010,EGJA,2017-04-29T15:20:00Z,49.72,-2.2,12.0,8.0,80,9,,6.21,29.822834,,,,,,,,,,,FEW,3900,,,,,,,VFR,,,,,,,,,,,,METAR,71.0
EGHQ 291520Z 13021KT 9999 FEW026 13/06 Q1007,EGHQ,2017-04-29T15:20:00Z,50.43,-5.0,13.0,6.0,130,21,,6.21,29.734253,,,,,,,,,,,FEW,2600,,,,,,,VFR,,,,,,,,,,,,METAR,119.0
EGHE 291520Z 16024KT 9999 FEW012 FEW018CB 13/08 Q1006,EGHE,2017-04-29T15:20:00Z,49.92,-6.28,13.0,8.0,160,24,,6.21,29.704725,,,,,,,,,,,FEW,1200,FEW,1800,,,,,VFR,,,,,,,,,,,,METAR,31.0
EGHC 291520Z 14020KT 9999 FEW009 SCT014 11/08 Q1006,EGHC,2017-04-29T15:20:00Z,50.1,-5.67,11.0,8.0,140,20,,6.21,29.704725,,,,,,,,,,,FEW,900,SCT,1400,,,,,VFR,,,,,,,,,,,,METAR,122.0
EGPB 291520Z 14015KT 9999 SCT021 BKN040 08/02 Q1015,EGPB,2017-04-29T15:20:00Z,59.87,-1.3,8.0,2.0,140,15,,6.21,29.970472,,,,,,,,,,,SCT,2100,BKN,4000,,,,,VFR,,,,,,,,,,,,METAR,5.0
EGNV 291520Z 16010KT 140V200 9999 FEW030 SCT048 12/06 Q1012,EGNV,2017-04-29T15:20:00Z,54.52,-1.42,12.0,6.0,160,10,,6.21,29.88189,,,,,,,,,,,FEW,3000,SCT,4800,,,,,VFR,,,,,,,,,,,,METAR,37.0
EGNT 291520Z 12006KT 070V180 9999 FEW035 11/06 Q1011,EGNT,2017-04-29T15:20:00Z,55.02,-1.7,11.0,6.0,120,6,,6.21,29.852362,,,,,,,,,,,FEW,3500,,,,,,,VFR,,,,,,,,,,,,METAR,81.0
EGNS 291520Z 12011KT 9999 FEW025 SCT048 11/07 Q1009 NOSIG,EGNS,2017-04-29T15:20:00Z,54.08,-4.63,11.0,7.0,120,11,,6.21,29.793306,,,,,,TRUE,,,,,FEW,2500,SCT,4800,,,,,VFR,,,,,,,,,,,,METAR,17.0
EGHI 291520Z 11009KT 070V150 9999 FEW036 13/05 Q1012,EGHI,2017-04-29T15:20:00Z,50.95,-1.35,13.0,5.0,110,9,,6.21,29.88189,,,,,,,,,,,FEW,3600,,,,,,,VFR,,,,,,,,,,,,METAR,14.0
EGGP 291520Z 15011KT 9999 FEW035 SCT040 13/04 Q1011,EGGP,2017-04-29T15:20:00Z,53.32,-2.85,13.0,4.0,150,11,,6.21,29.852362,,,,,,,,,,,FEW,3500,SCT,4000,,,,,VFR,,,,,,,,,,,,METAR,26.0
EGGD 291520Z AUTO 15010KT 110V170 9999 SCT032 SCT039 OVC046 12/04 Q1011,EGGD,2017-04-29T15:20:00Z,51.37,-2.72,12.0,4.0,150,10,,6.21,29.852362,,,TRUE,,,,,,,,SCT,3200,SCT,3900,OVC,4600,,,VFR,,,,,,,,,,,,METAR,189.0
EGPE 291520Z 19014G26KT 9999 SCT047 12/04 Q1010,EGPE,2017-04-29T15:20:00Z,57.52,-4.03,12.0,4.0,190,14,26,6.21,29.822834,,,,,,,,,,,SCT,4700,,,,,,,VFR,,,,,,,,,,,,METAR,9.0
EGNR 291520Z 16011KT 9999 FEW020 BKN049 13/04 Q1011,EGNR,2017-04-29T15:20:00Z,53.17,-2.97,13.0,4.0,160,11,,6.21,29.852362,,,,,,,,,,,FEW,2000,BKN,4900,,,,,VFR,,,,,,,,,,,,METAR,10.0
EGNJ 291520Z 17011KT 9999 BKN040 14/04 Q1013,EGNJ,2017-04-29T15:20:00Z,53.57,-0.35,14.0,4.0,170,11,,6.21,29.911417,,,,,,,,,,,BKN,4000,,,,,,,VFR,,,,,,,,,,,,METAR,31.0
EGNH 291520Z 16014KT 130V190 9999 FEW049 13/03 Q1011,EGNH,2017-04-29T15:20:00Z,53.77,-3.02,13.0,3.0,160,14,,6.21,29.852362,,,,,,,,,,,FEW,4900,,,,,,,VFR,,,,,,,,,,,,METAR,10.0
EGAE 291520Z 15013KT 110V190 9999 FEW028 SCT044 13/07 Q1004,EGAE,2017-04-29T15:20:00Z,55.03,-7.15,13.0,7.0,150,13,,6.21,29.64567,,,,,,,,,,,FEW,2800,SCT,4400,,,,,VFR,,,,,,,,,,,,METAR,9.0
EGPO 291520Z AUTO 16017KT 9999 NCD 13/04 Q1007,EGPO,2017-04-29T15:20:00Z,58.22,-6.32,13.0,4.0,160,17,,6.21,29.734253,,,TRUE,,,,,,,,CLR,,,,,,,,VFR,,,,,,,,,,,,METAR,13.0
EGPM 291520Z AUTO 14019KT 9999 NCD 09/02 Q1015,EGPM,2017-04-29T15:20:00Z,60.42,-1.3,9.0,2.0,140,19,,6.21,29.970472,,,TRUE,,,,,,,,CLR,,,,,,,,VFR,,,,,,,,,,,,METAR,22.0
EGPL 291520Z AUTO 15023KT 9999 NCD 12/06 Q1005,EGPL,2017-04-29T15:20:00Z,57.47,-7.37,12.0,6.0,150,23,,6.21,29.675198,,,TRUE,,,,,,,,CLR,,,,,,,,VFR,,,,,,,,,,,,METAR,6.0
EGPC 291520Z AUTO 13018KT 9999 NCD 09/06 Q1011,EGPC,2017-04-29T15:20:00Z,58.45,-3.07,9.0,6.0,130,18,,6.21,29.852362,,,TRUE,,,,,,,,CLR,,,,,,,,VFR,,,,,,,,,,,,METAR,39.0
EGPA 291520Z 14018KT 9999 SCT010 BKN013 09/07 Q1012,EGPA,2017-04-29T15:20:00Z,58.95,-2.88,9.0,7.0,140,18,,6.21,29.88189,,,,,,,,,,,SCT,1000,BKN,1300,,,,,MVFR,,,,,,,,,,,,METAR,21.0
EGTK 291520Z 15012KT 9999 SCT042 13/04 Q1012,EGTK,2017-04-29T15:20:00Z,51.83,-1.32,13.0,4.0,150,12,,6.21,29.88189,,,,,,,,,,,SCT,4200,,,,,,,VFR,,,,,,,,,,,,METAR,82.0
EGMD 291520Z 11008KT 080V150 9999 FEW025 15/05 Q1014,EGMD,2017-04-29T15:20:00Z,50.95,0.92,15.0,5.0,110,8,,6.21,29.940945,,,,,,,,,,,FEW,2500,,,,,,,VFR,,,,,,,,,,,,METAR,3.0
EGMC 291520Z 12008KT 9999 FEW040 14/04 Q1014,EGMC,2017-04-29T15:20:00Z,51.57,0.7,14.0,4.0,120,8,,6.21,29.940945,,,,,,,,,,,FEW,4000,,,,,,,VFR,,,,,,,,,,,,METAR,15.0
EGLF 291520Z 15009KT 110V200 9999 FEW040 14/06 Q1012,EGLF,2017-04-29T15:20:00Z,51.28,-0.77,14.0,6.0,150,9,,6.21,29.88189,,,,,,,,,,,FEW,4000,,,,,,,VFR,,,,,,,,,,,,METAR,65.0
EGKB 291520Z 14010KT 9999 SCT040 14/05 Q1013,EGKB,2017-04-29T15:20:00Z,51.32,0.02,14.0,5.0,140,10,,6.21,29.911417,,,,,,,,,,,SCT,4000,,,,,,,VFR,,,,,,,,,,,,METAR,183.0
EGKA 291520Z 12010KT 9999 FEW035 13/06 Q1013,EGKA,2017-04-29T15:20:00Z,50.83,-0.3,13.0,6.0,120,10,,6.21,29.911417,,,,,,,,,,,FEW,3500,,,,,,,VFR,,,,,,,,,,,,METAR,2.0
EGHH 291520Z 15014KT 9999 FEW020 14/04 Q1011,EGHH,2017-04-29T15:20:00Z,50.78,-1.83,14.0,4.0,150,14,,6.21,29.852362,,,,,,,,,,,FEW,2000,,,,,,,VFR,,,,,,,,,,,,METAR,11.0
EGPD 291520Z AUTO 16017KT 9999 BKN011 BKN040 09/06 Q1012,EGPD,2017-04-29T15:20:00Z,57.2,-2.22,9.0,6.0,160,17,,6.21,29.88189,,,TRUE,,,,,,,,BKN,1100,BKN,4000,,,,,MVFR,,,,,,,,,,,,METAR,65.0
EGNM 291520Z 15009KT 130V200 9999 SCT042 BKN048 11/02 Q1011,EGNM,2017-04-29T15:20:00Z,53.87,-1.63,11.0,2.0,150,9,,6.21,29.852362,,,,,,,,,,,SCT,4200,BKN,4800,,,,,VFR,,,,,,,,,,,,METAR,208.0
EGLC 291520Z AUTO 14010KT 9999 BKN048 15/03 Q1013,EGLC,2017-04-29T15:20:00Z,51.5,0.05,15.0,3.0,140,10,,6.21,29.911417,,,TRUE,,,,,,,,BKN,4800,,,,,,,VFR,,,,,,,,,,,,METAR,5.0
EGGW 291520Z AUTO 15007KT 110V200 9999 OVC036 13/04 Q1013,EGGW,2017-04-29T15:20:00Z,51.87,-0.37,13.0,4.0,150,7,,6.21,29.911417,,,TRUE,,,,,,,,OVC,3600,,,,,,,VFR,,,,,,,,,,,,METAR,160.0
EGFF 291520Z AUTO 15010KT 9999 OVC047 13/05 Q1010,EGFF,2017-04-29T15:20:00Z,51.38,-3.35,13.0,5.0,150,10,,6.21,29.822834,,,TRUE,,,,,,,,OVC,4700,,,,,,,VFR,,,,,,,,,,,,METAR,67.0
EGAC 291520Z 16020KT 9999 FEW020 SCT026 12/05 Q1007,EGAC,2017-04-29T15:20:00Z,54.62,-5.87,12.0,5.0,160,20,,6.21,29.734253,,,,,,,,,,,FEW,2000,SCT,2600,,,,,VFR,,,,,,,,,,,,METAR,5.0
EGAA 291520Z 17021KT 9999 FEW030 12/04 Q1006,EGAA,2017-04-29T15:20:00Z,54.63,-6.22,12.0,4.0,170,21,,6.21,29.704725,,,,,,,,,,,FEW,3000,,,,,,,VFR,,,,,,,,,,,,METAR,81.0
KSJS 291520Z AUTO 15003KT 10SM CLR 27/19 A3013 RMK AO2 T02650188,KSJS,2017-04-29T15:20:00Z,37.75,-82.63,26.5,18.8,150,3,,10.0,30.129921,,,TRUE,TRUE,,,,,,,CLR,,,,,,,,VFR,,,,,,,,,,,,METAR,372.0
EGCC 291520Z AUTO 18007KT 120V220 9999 OVC048 12/02 Q1011 NOSIG,EGCC,2017-04-29T15:20:00Z,53.35,-2.27,12.0,2.0,180,7,,6.21,29.852362,,,TRUE,,,TRUE,,,,,OVC,4800,,,,,,,VFR,,,,,,,,,,,,METAR,78.0
EGSS 291520Z AUTO 17011KT 9999 OVC044 14/04 Q1013,EGSS,2017-04-29T15:20:00Z,51.88,0.22,14.0,4.0,170,11,,6.21,29.911417,,,TRUE,,,,,,,,OVC,4400,,,,,,,VFR,,,,,,,,,,,,METAR,106.0
EGPK 291520Z 15014KT 9999 FEW025 SCT040 11/05 Q1010,EGPK,2017-04-29T15:20:00Z,55.5,-4.57,11.0,5.0,150,14,,6.21,29.822834,,,,,,,,,,,FEW,2500,SCT,4000,,,,,VFR,,,,,,,,,,,,METAR,20.0
EGPH 291520Z 16008KT 130V200 9999 SCT043 12/02 Q1011,EGPH,2017-04-29T15:20:00Z,55.95,-3.35,12.0,2.0,160,8,,6.21,29.852362,,,,,,,,,,,SCT,4300,,,,,,,VFR,,,,,,,,,,,,METAR,41.0
EGPF 291520Z AUTO 17014KT 9999 SCT034 BKN041 12/04 Q1010,EGPF,2017-04-29T15:20:00Z,55.87,-4.42,12.0,4.0,170,14,,6.21,29.822834,,,TRUE,,,,,,,,SCT,3400,BKN,4100,,,,,VFR,,,,,,,,,,,,METAR,8.0
EGLL 291520Z AUTO 15010KT 9999 BKN048 14/03 Q1013,EGLL,2017-04-29T15:20:00Z,51.48,-0.45,14.0,3.0,150,10,,6.21,29.911417,,,TRUE,,,,,,,,BKN,4800,,,,,,,VFR,,,,,,,,,,,,METAR,24.0
EGKK 291520Z 19009KT 150V220 9999 FEW044 14/03 Q1013,EGKK,2017-04-29T15:20:00Z,51.13,-0.17,14.0,3.0,190,9,,6.21,29.911417,,,,,,,,,,,FEW,4400,,,,,,,VFR,,,,,,,,,,,,METAR,62.0
EGBB 291520Z 15013KT 9999 FEW038 BKN045 12/04 Q1012,EGBB,2017-04-29T15:20:00Z,52.47,-1.75,12.0,4.0,150,13,,6.21,29.88189,,,,,,,,,,,FEW,3800,BKN,4500,,,,,VFR,,,,,,,,,,,,METAR,99.0
ESTL 291520Z AUTO 15005KT 110V190 9999NDV FEW059/// 10/02 Q1018,ESTL,2017-04-29T15:20:00Z,56.07,13.2,10.0,2.0,150,5,,,30.059055,,,TRUE,,,,,,,,FEW,5900,,,,,,,,,,,,,,,,,,,METAR,43.0
ESTA 291520Z AUTO 35010KT 9999 FEW018/// SCT033/// BKN046/// 07/02 Q1019,ESTA,2017-04-29T15:20:00Z,56.28,12.83,7.0,2.0,350,10,,6.21,30.088583,,,TRUE,,,,,,,,FEW,1800,SCT,3300,BKN,4600,,,VFR,,,,,,,,,,,,METAR,47.0
ESMX 291520Z AUTO 36006KT 340V040 9999 FEW034/// 06/01 Q1018 REDZ,ESMX,2017-04-29T15:20:00Z,56.92,14.72,6.0,1.0,360,6,,6.21,30.059055,,,TRUE,,,,,,,,FEW,3400,,,,,,,VFR,,,,,,,,,,,,SPECI,186.0
ESMT 291520Z AUTO 20007KT 9999 SCT034/// BKN043/// 08/03 Q1019 REDZ,ESMT,2017-04-29T15:20:00Z,56.67,12.82,8.0,3.0,200,7,,6.21,30.088583,,,TRUE,,,,,,,,SCT,3400,BKN,4300,,,,,VFR,,,,,,,,,,,,METAR,30.0
ESMS 291520Z 26005KT 9999 -RA FEW009CB SCT019 BKN024 05/04 Q1018,ESMS,2017-04-29T15:20:00Z,55.53,13.37,5.0,4.0,260,5,,6.21,30.059055,,,,,,,,,,-RA,FEW,900,SCT,1900,BKN,2400,,,MVFR,,,,,,,,,,,,METAR,106.0
ESMQ 291520Z AUTO 01013KT 9999 FEW083/// 07/M01 Q1018,ESMQ,2017-04-29T15:20:00Z,56.68,16.3,7.0,-1.0,10,13,,6.21,30.059055,,,TRUE,,,,,,,,FEW,8300,,,,,,,VFR,,,,,,,,,,,,METAR,16.0
ESMK 291520Z AUTO VRB01KT 9999 -DZ NCD 06/05 Q1018,ESMK,2017-04-29T15:20:00Z,55.92,14.07,6.0,5.0,0,1,,6.21,30.059055,,,TRUE,,,,,,,-DZ,CLR,,,,,,,,VFR,,,,,,,,,,,,METAR,23.0
ESGJ 291520Z AUTO 02015KT 9999 FEW062/// 08/M04 Q1018,ESGJ,2017-04-29T15:20:00Z,57.77,14.07,8.0,-4.0,20,15,,6.21,30.059055,,,TRUE,,,,,,,,FEW,6200,,,,,,,VFR,,,,,,,,,,,,METAR,232.0
ESGG 291520Z 02010KT 9999 FEW028 08/M02 Q1019,ESGG,2017-04-29T15:20:00Z,57.67,12.3,8.0,-2.0,20,10,,6.21,30.088583,,,,,,,,,,,FEW,2800,,,,,,,VFR,,,,,,,,,,,,METAR,169.0
EDDV 291520Z 33005KT 310V010 9999 FEW048 SCT060 10/00 Q1018 NOSIG,EDDV,2017-04-29T15:20:00Z,52.47,9.68,10.0,0.0,330,5,,6.21,30.059055,,,,,,TRUE,,,,,FEW,4800,SCT,6000,,,,,VFR,,,,,,,,,,,,METAR,54.0
EDDT 291520Z 31005KT 260V010 9999 VCSH FEW040CB SCT070 09/01 Q1017 NOSIG,EDDT,2017-04-29T15:20:00Z,52.57,13.32,9.0,1.0,310,5,,6.21,30.029528,,,,,,TRUE,,,,VCSH,FEW,4000,SCT,7000,,,,,VFR,,,,,,,,,,,,METAR,37.0
EDDS 291520Z VRB02KT CAVOK 13/M00 Q1016 NOSIG,EDDS,2017-04-29T15:20:00Z,48.67,9.22,13.0,0.0,0,2,,6.21,30.0,,,,,,TRUE,,,,,CAVOK,,,,,,,,VFR,,,,,,,,,,,,METAR,419.0
EDDN 291520Z 26005KT 190V300 9999 FEW041 SCT077 12/01 Q1017 NOSIG,EDDN,2017-04-29T15:20:00Z,49.5,11.08,12.0,1.0,260,5,,6.21,30.029528,,,,,,TRUE,,,,,FEW,4100,SCT,7700,,,,,VFR,,,,,,,,,,,,METAR,312.0
EDDM 291520Z 14004KT 090V200 9999 FEW048 BKN070 10/00 Q1017 NOSIG,EDDM,2017-04-29T15:20:00Z,48.35,11.82,10.0,0.0,140,4,,6.21,30.029528,,,,,,TRUE,,,,,FEW,4800,BKN,7000,,,,,VFR,,,,,,,,,,,,METAR,447.0
EDDL 291520Z VRB03KT CAVOK 14/M01 Q1017 NOSIG,EDDL,2017-04-29T15:20:00Z,51.3,6.77,14.0,-1.0,0,3,,6.21,30.029528,,,,,,TRUE,,,,,CAVOK,,,,,,,,VFR,,,,,,,,,,,,METAR,44.0
EDDK 291520Z VRB04KT CAVOK 13/00 Q1017 NOSIG,EDDK,2017-04-29T15:20:00Z,50.87,7.15,13.0,0.0,0,4,,6.21,30.029528,,,,,,TRUE,,,,,CAVOK,,,,,,,,VFR,,,,,,,,,,,,METAR,99.0
EDDH 291520Z 32007KT 290V360 9999 FEW016CB SCT060 09/05 Q1018 NOSIG,EDDH,2017-04-29T15:20:00Z,53.63,10.0,9.0,5.0,320,7,,6.21,30.059055,,,,,,TRUE,,,,,FEW,1600,SCT,6000,,,,,VFR,,,,,,,,,,,,METAR,16.0
EDDF 291520Z 28005KT 190V360 CAVOK 16/M02 Q1016 NOSIG,EDDF,2017-04-29T15:20:00Z,50.05,8.6,16.0,-2.0,280,5,,6.21,30.0,,,,,,TRUE,,,,,CAVOK,,,,,,,,VFR,,,,,,,,,,,,METAR,113.0
EKSB 291520Z AUTO 04005KT 9999NDV FEW048/// 09/02 Q1018,EKSB,2017-04-29T15:20:00Z,54.97,9.8,9.0,2.0,40,5,,,30.059055,,,TRUE,,,,,,,,FEW,4800,,,,,,,,,,,,,,,,,,,METAR,23.0
EFKT 291520Z 12004KT 060V190 CAVOK 05/M09 Q1030,EFKT,2017-04-29T15:20:00Z,67.7,24.85,5.0,-9.0,120,4,,6.21,30.413385,,,,,,,,,,,CAVOK,,,,,,,,VFR,,,,,,,,,,,,METAR,643.0
EFKS 291520Z AUTO 09010KT 050V130 CAVOK 04/M14 Q1030,EFKS,2017-04-29T15:20:00Z,66.0,29.23,4.0,-14.0,90,10,,6.21,30.413385,,,TRUE,,,,,,,,CAVOK,,,,,,,,VFR,,,,,,,,,,,,METAR,263.0
EFKI 291520Z AUTO 07015KT CAVOK 04/M09 Q1026,EFKI,2017-04-29T15:20:00Z,64.27,27.67,4.0,-9.0,70,15,,6.21,30.295275,,,TRUE,,,,,,,,CAVOK,,,,,,,,VFR,,,,,,,,,,,,METAR,136.0
EFKE 291520Z 07011KT 030V110 CAVOK 07/M09 Q1028,EFKE,2017-04-29T15:20:00Z,65.77,24.57,7.0,-9.0,70,11,,6.21,30.35433,,,,,,,,,,,CAVOK,,,,,,,,VFR,,,,,,,,,,,,METAR,15.0
EFET 291520Z AUTO 10004KT 050V130 CAVOK 05/M10 Q1030,EFET,2017-04-29T15:20:00Z,68.37,23.43,5.0,-10.0,100,4,,6.21,30.413385,,,TRUE,,,,,,,,CAVOK,,,,,,,,VFR,,,,,,,,,,,,METAR,306.0
EFUT 291520Z AUTO 04014KT 360V070 0800 RASN OVC004 00/M01 Q1014,EFUT,2017-04-29T15:20:00Z,60.88,26.92,0.0,-1.0,40,14,,0.5,29.940945,,,TRUE,,,,,,,RA SN,OVC,400,,,,,,,LIFR,,,,,,,,,,,,METAR,100.0
EFSI 291520Z AUTO 05010KT 010V090 CAVOK 04/M05 Q1022,EFSI,2017-04-29T15:20:00Z,62.7,22.83,4.0,-5.0,50,10,,6.21,30.177166,,,TRUE,,,,,,,,CAVOK,,,,,,,,VFR,,,,,,,,,,,,METAR,91.0
EFSA 291520Z AUTO 04009KT 360V090 1900 RASN OVC012 00/M01 Q1020,EFSA,2017-04-29T15:20:00Z,61.95,28.93,0.0,-1.0,40,9,,1.18,30.11811,,,TRUE,,,,,,,RA SN,OVC,1200,,,,,,,IFR,,,,,,,,,,,,METAR,95.0
EFMI 291520Z AUTO 05011KT 350V130 1000 RASN OVC015 00/M01 Q1019,EFMI,2017-04-29T15:20:00Z,61.68,27.2,0.0,-1.0,50,11,,0.62,30.088583,,,TRUE,,,,,,,RA SN,OVC,1500,,,,,,,LIFR,,,,,,,,,,,,METAR,138.0
EFLP 291520Z AUTO 05017KT 2500 -RASN OVC007 00/M00 Q1015,EFLP,2017-04-29T15:20:00Z,61.07,28.13,0.0,0.0,50,17,,1.55,29.970472,,,TRUE,,,,,,,-RA -SN,OVC,700,,,,,,,IFR,,,,,,,,,,,,METAR,106.0
EFJO 291520Z AUTO 05014KT 010V080 CAVOK 03/M05 Q1022,EFJO,2017-04-29T15:20:00Z,62.67,29.62,3.0,-5.0,50,14,,6.21,30.177166,,,TRUE,,,,,,,,CAVOK,,,,,,,,VFR,,,,,,,,,,,,METAR,117.0
EFPO 291520Z AUTO 06008KT 040V100 9999 FEW057/// SCT086/// 06/M06 Q1019,EFPO,2017-04-29T15:20:00Z,61.47,21.8,6.0,-6.0,60,8,,6.21,30.088583,,,TRUE,,,,,,,,FEW,5700,SCT,8600,,,,,VFR,,,,,,,,,,,,METAR,17.0
EFKK 291520Z 05010KT 010V080 CAVOK 05/M07 Q1024,EFKK,2017-04-29T15:20:00Z,63.72,23.13,5.0,-7.0,50,10,,6.21,30.236221,,,,,,,,,,,CAVOK,,,,,,,,VFR,,,,,,,,,,,,METAR,25.0
EFHA 291520Z AUTO 03015G25KT 9999 -SHSN OVC028 02/M04 Q1019,EFHA,2017-04-29T15:20:00Z,61.85,24.8,2.0,-4.0,30,15,25,6.21,30.088583,,,TRUE,,,,,,,-SHSN,OVC,2800,,,,,,,MVFR,,,,,,,,,,,,METAR,145.0
EFKU 291520Z AUTO 05009KT CAVOK 04/M07 Q1023,EFKU,2017-04-29T15:20:00Z,63.02,27.8,4.0,-7.0,50,9,,6.21,30.206694,,,TRUE,,,,,,,,CAVOK,,,,,,,,VFR,,,,,,,,,,,,METAR,102.0
EFJY 291520Z AUTO 07011KT CAVOK 03/M06 Q1020,EFJY,2017-04-29T15:20:00Z,62.4,25.68,3.0,-6.0,70,11,,6.21,30.11811,,,TRUE,,,,,,,,CAVOK,,,,,,,,VFR,,,,,,,,,,,,METAR,145.0
EDDW 291520Z 34010KT 300V010 9999 FEW045 SCT065 10/01 Q1018 NOSIG,EDDW,2017-04-29T15:20:00Z,53.03,8.8,10.0,1.0,340,10,,6.21,30.059055,,,,,,TRUE,,,,,FEW,4500,SCT,6500,,,,,VFR,,,,,,,,,,,,METAR,5.0
K46U 291520Z AUTO 13009G14KT 10SM CLR 02/M04 A3024 RMK A01,K46U,2017-04-29T15:20:00Z,43.18,-111.05,2.0,-4.0,130,9,14,10.0,30.239174,,,TRUE,TRUE,,,,,,,CLR,,,,,,,,VFR,,,,,,,,,,,,METAR,1717.0
K05U 291520Z AUTO 00000KT 10SM CLR 03/M06 A3027 RMK A01,K05U,2017-04-29T15:20:00Z,39.6,-116.0,3.0,-6.0,0,0,,10.0,30.268702,,,TRUE,TRUE,,,,,,,CLR,,,,,,,,VFR,,,,,,,,,,,,METAR,1816.0
KGZN 291520Z AUTO 31013G22KT 10SM BKN021 BKN050 14/11 A2965 RMK AO2,KGZN,2017-04-29T15:20:00Z,32.37,-99.02,14.0,11.0,310,13,22,10.0,29.648623,,,TRUE,TRUE,,,,,,,BKN,2100,BKN,5000,,,,,MVFR,,,,,,,,,,,,METAR,522.0
LOWI 291520Z VRB02KT 9999 FEW070 13/M02 Q1015 NOSIG,LOWI,2017-04-29T15:20:00Z,47.27,11.33,13.0,-2.0,0,2,,6.21,29.970472,,,,,,TRUE,,,,,FEW,7000,,,,,,,VFR,,,,,,,,,,,,METAR,581.0
KMLC 291519Z AUTO 20009G18KT 3SM VCTS -RA BR FEW010 BKN016 OVC026 24/23 A2959 RMK AO2 LTG DSNT ALQDS P0001 T02390228,KMLC,2017-04-29T15:19:00Z,34.88,-95.78,23.9,22.8,200,9,18,3.0,29.589567,,,TRUE,TRUE,,,,,,VCTS -RA BR,FEW,1000,BKN,1600,OVC,2600,,,MVFR,,,,,,0.01,,,,,,METAR,232.0
KLVM 291519Z AUTO 31007KT 10SM SCT002 03/02 A3022 RMK AO2 T00330022,KLVM,2017-04-29T15:19:00Z,45.7,-110.43,3.3,2.2,310,7,,10.0,30.221457,,,TRUE,TRUE,,,,,,,SCT,200,,,,,,,VFR,,,,,,,,,,,,METAR,1418.0
KFRG 291519Z 27008G14KT 10SM FEW085 24/19 A2998 RMK AO2 PRESFR T02390189,KFRG,2017-04-29T15:19:00Z,40.73,-73.42,23.9,18.9,270,8,14,10.0,29.97933,,,,TRUE,,,,,,,FEW,8500,,,,,,,VFR,,,,,,,,,,,,METAR,21.0
KUNO 291519Z AUTO 07005KT 10SM BKN007 OVC012 18/17 A2981 RMK AO2 CIG 005V010 T01780167,KUNO,2017-04-29T15:19:00Z,36.88,-91.9,17.8,16.7,70,5,,10.0,29.811024,,,TRUE,TRUE,,,,,,,BKN,700,OVC,1200,,,,,IFR,,,,,,,,,,,,METAR,372.0
KMRH 291519Z AUTO 23012KT 10SM SCT010 BKN030 26/24 A3024 RMK AO2 T02610239 TSNO,KMRH,2017-04-29T15:19:00Z,34.73,-76.65,26.1,23.9,230,12,,10.0,30.239174,,,TRUE,TRUE,,,TRUE,,,,SCT,1000,BKN,3000,,,,,MVFR,,,,,,,,,,,,METAR,3.0
KTUP 291519Z 14015G22KT 10SM SCT025 BKN034 26/20 A2996 RMK AO2 T02610200,KTUP,2017-04-29T15:19:00Z,34.27,-88.77,26.1,20.0,140,15,22,10.0,29.958662,,,,TRUE,,,,,,,SCT,2500,BKN,3400,,,,,VFR,,,,,,,,,,,,METAR,105.0
CYSJ 291519Z VRB02KT 5SM BR BKN003 OVC060 10/10 A2983 RMK SF7SC1 SLP107,CYSJ,2017-04-29T15:19:00Z,45.32,-65.87,10.0,10.0,0,2,,5.0,29.828741,1010.7,,,,,,,,,BR,BKN,300,OVC,6000,,,,,LIFR,,,,,,,,,,,,SPECI,109.0
CYPH 291519Z AUTO 36026G32KT 3/8SM SN OVC018 M09/M11 A2991 RMK SLP133,CYPH,2017-04-29T15:19:00Z,58.45,-78.08,-9.0,-11.0,360,26,32,0.38,29.911417,1013.3,,TRUE,,,,,,,SN,OVC,1800,,,,,,,LIFR,,,,,,,,,,,,SPECI,3.0
UTO8 M M M 277/-21/-23/2202/M/M SOG 40 2005 83MM,UTO8,2017-04-29T15:18:11Z,,,,,,,,,,,,,,,,,,,,,,,,,,,,,,,,,,,,,,,,METAR,
KSSF 291518Z 14014G23KT 7SM -RA BKN026 OVC032 29/21 A2957 RMK AO2 RAB1454 P0000 T02890211,KSSF,2017-04-29T15:18:00Z,29.33,-98.47,28.9,21.1,140,14,23,7.0,29.568897,,,,TRUE,,,,,,-RA,BKN,2600,OVC,3200,,,,,MVFR,,,,,,0.005,,,,,,METAR,176.0
KDFI 291518Z AUTO 06009KT 5SM -RA BR OVC009 09/08 A3015 RMK AO2 RAB1457 CIG 007V011 P0001 T00940078 $,KDFI,2017-04-29T15:18:00Z,41.33,-84.43,9.4,7.8,60,9,,5.0,30.15059,,,TRUE,TRUE,TRUE,,,,,-RA BR,OVC,900,,,,,,,IFR,,,,,,0.01,,,,,,METAR,219.0
KCLE 291518Z 01011KT 4SM HZ BKN006 OVC017 09/06 A3019 RMK AO2 PRESRR T00890061,KCLE,2017-04-29T15:18:00Z,41.42,-81.85,8.9,6.1,10,11,,4.0,30.188976,,,,TRUE,,,,,,HZ,BKN,600,OVC,1700,,,,,IFR,,,,,,,,,,,,METAR,233.0
KAKO 291518Z AUTO 02018KT 3SM -SN BR SCT012 BKN017 OVC032 00/M02 A3014 RMK AO2 P0000 T00001022 $,KAKO,2017-04-29T15:18:00Z,40.17,-103.22,0.0,-2.2,20,18,,3.0,30.138779,,,TRUE,TRUE,TRUE,,,,,-SN BR,SCT,1200,BKN,1700,OVC,3200,,,MVFR,,,,,,0.005,,,,,,METAR,1421.0
KSKF 291518Z AUTO 13015G22KT 10SM BKN025 28/21 A2957 RMK AO2 BKN V SCT SLP005 $,KSKF,2017-04-29T15:18:00Z,29.37,-98.57,28.0,21.0,130,15,22,10.0,29.568897,1000.5,,TRUE,TRUE,TRUE,,,,,,BKN,2500,,,,,,,MVFR,,,,,,,,,,,,SPECI,210.0
KIAB 291518Z AUTO 03015G26KT 10SM -RA BKN007 OVC090 07/06 A2976 RMK AO2 SLP081,KIAB,2017-04-29T15:18:00Z,37.62,-97.27,7.0,6.0,30,15,26,10.0,29.760826,1008.1,,TRUE,TRUE,,,,,,-RA,BKN,700,OVC,9000,,,,,IFR,,,,,,,,,,,,SPECI,418.0
SCVD 291517Z 00000KT 6000 VCFG OVC002 11/11 Q1021,SCVD,2017-04-29T15:17:00Z,-39.65,-73.07,11.0,11.0,0,0,,3.73,30.147638,,,,,,,,,,VCFG,OVC,200,,,,,,,LIFR,,,,,,,,,,,,SPECI,14.0
KDAN 291517Z AUTO 22009KT 10SM FEW015 SCT026 26/22 A3018 RMK AO2 T02560222,KDAN,2017-04-29T15:17:00Z,36.57,-79.33,25.6,22.2,220,9,,10.0,30.180119,,,TRUE,TRUE,,,,,,,FEW,1500,SCT,2600,,,,,VFR,,,,,,,,,,,,SPECI,175.0
KFMN 291517Z 03005KT 10SM SCT015 04/M01 A2991 RMK AO2 T00391011,KFMN,2017-04-29T15:17:00Z,36.75,-108.23,3.9,-1.1,30,5,,10.0,29.911417,,,,TRUE,,,,,,,SCT,1500,,,,,,,VFR,,,,,,,,,,,,SPECI,1685.0
CYED 291517Z AUTO 25006KT 9SM -RA OVC028 OVC076 OVC093 07/02 A3008,CYED,2017-04-29T15:17:00Z,53.67,-113.47,7.0,2.0,250,6,,9.0,30.079725,,,TRUE,,,,,,,-RA,OVC,2800,OVC,7600,OVC,9300,,,MVFR,,,,,,,,,,,,SPECI,688.0
CYCX 291517Z 27004KT 220V320 9SM -RA FEW040 OVC090 15/12 A2984 RMK SC1AC7 DA454FT PCPN VRY LGT SLP106,CYCX,2017-04-29T15:17:00Z,45.82,-66.42,15.0,12.0,270,4,,9.0,29.840551,1010.6,,,,,,,,,-RA,FEW,4000,OVC,9000,,,,,VFR,,,,,,,,,,,,SPECI,51.0
KGPT 291517Z 14015G22KT 7SM BKN010 OVC015 27/24 A2998 RMK AO2 T02720239,KGPT,2017-04-29T15:17:00Z,30.42,-89.08,27.2,23.9,140,15,22,7.0,29.97933,,,,TRUE,,,,,,,BKN,1000,OVC,1500,,,,,MVFR,,,,,,,,,,,,SPECI,14.0
KJCT 291516Z AUTO 22008KT 4SM HZ FEW027 OVC038 25/19 A2962 RMK AO2 T02500194 TSNO,KJCT,2017-04-29T15:16:00Z,30.5,-99.77,25.0,19.4,220,8,,4.0,29.619095,,,TRUE,TRUE,,,TRUE,,,HZ,FEW,2700,OVC,3800,,,,,MVFR,,,,,,,,,,,,SPECI,522.0
KICT 291516Z 04016KT 7SM VCTS -RA FEW008 BKN010 OVC016 07/07 A2977 RMK AO2 PK WND 03027/1505 LTG DSNT E TSE15 OCNL LTGICCC VC N-NE TS VC N-NE MOV NE P0008 T00720067 $,KICT,2017-04-29T15:16:00Z,37.65,-97.43,7.2,6.7,40,16,,7.0,29.769686,,,,TRUE,TRUE,,,,,VCTS -RA,FEW,800,BKN,1000,OVC,1600,,,MVFR,,,,,,0.08,,,,,,SPECI,407.0
KBTR 291516Z 15016G26KT 10SM BKN029 BKN034 OVC043 28/22 A2988 RMK AO2 PK WND 15032/1502 T02830217,KBTR,2017-04-29T15:16:00Z,30.53,-91.15,28.3,21.7,150,16,26,10.0,29.878937,,,,TRUE,,,,,,,BKN,2900,BKN,3400,OVC,4300,,,MVFR,,,,,,,,,,,,SPECI,21.0
KAMA 291516Z 33019G27KT 1SM R04/5500VP6000FT -SN BR BKN006 OVC012 01/00 A2991 RMK AO2 PK WND 33027/1506 SFC VIS 1 1/2 P0001 T00060000,KAMA,2017-04-29T15:16:00Z,35.22,-101.72,0.6,0.0,330,19,27,1.0,29.911417,,,,TRUE,,,,,,-SN BR,BKN,600,OVC,1200,,,,,IFR,,,,,,0.01,,,,,,SPECI,1093.0
PAKV 291516Z AUTO 00000KT 10SM -RA BKN028 BKN035 OVC050 01/M01 A2999 RMK AO2 UPE1454RAB1454 P0000 T00061011 TSNO,PAKV,2017-04-29T15:16:00Z,64.33,-158.75,0.6,-1.1,0,0,,10.0,29.991142,,,TRUE,TRUE,,,TRUE,,,-RA,BKN,2800,BKN,3500,OVC,5000,,,MVFR,,,,,,0.005,,,,,,SPECI,61.0
CYGW 291516Z AUTO 35013G23KT 9SM OVC012 M04/M06 A2990 RMK PRESRR SLP128,CYGW,2017-04-29T15:16:00Z,55.27,-77.77,-4.0,-6.0,350,13,23,9.0,29.899607,1012.8,,TRUE,,,,,,,,OVC,1200,,,,,,,MVFR,,,,,,,,,,,,SPECI,12.0
K40B 291516Z AUTO 22007G18KT 180V270 17/05 A2976 RMK AO1 SLP086 T01690047 58025,K40B,2017-04-29T15:16:00Z,46.62,-69.52,16.9,4.7,220,7,18,,29.760826,1008.6,,TRUE,TRUE,,,,,,,,,,,,,,,,-2.5,,,,,,,,,,,METAR,314.0
KSJT 291516Z 32019G25KT 10SM OVC031 21/11 A2966 RMK AO2 T02060106,KSJT,2017-04-29T15:16:00Z,31.37,-100.5,20.6,10.6,320,19,25,10.0,29.660433,,,,TRUE,,,,,,,OVC,3100,,,,,,,VFR,,,,,,,,,,,,SPECI,576.0
KPMU 291516Z AUTO 17007G14KT 10SM BKN029 BKN037 27/21 A2991 RMK AO2,KPMU,2017-04-29T15:16:00Z,34.37,-89.9,27.0,21.0,170,7,14,10.0,29.911417,,,TRUE,TRUE,,,,,,,BKN,2900,BKN,3700,,,,,MVFR,,,,,,,,,,,,METAR,67.0
KNJM 291515Z AUTO 23012G17KT 10SM SCT010 26/23 A3024 RMK AO2 T02610228 $,KNJM,2017-04-29T15:15:00Z,34.67,-77.02,26.1,22.8,230,12,17,10.0,30.239174,,,TRUE,TRUE,TRUE,,,,,,SCT,1000,,,,,,,VFR,,,,,,,,,,,,SPECI,7.0
KIND 291515Z 36009KT 1 3/4SM -RA BR OVC006 14/14 A3005 RMK AO2 SFC VIS 4 TSE15 P0002 T01440139 $,KIND,2017-04-29T15:15:00Z,39.72,-86.3,14.4,13.9,360,9,,1.75,30.050198,,,,TRUE,TRUE,,,,,-RA BR,OVC,600,,,,,,,IFR,,,,,,0.02,,,,,,METAR,241.0
KDFW 291515Z 19023G31KT 7SM BKN029 BKN038 OVC047 28/22 A2955 RMK AO2 PK WND 18035/1501 T02830217,KDFW,2017-04-29T15:15:00Z,32.9,-97.02,28.3,21.7,190,23,31,7.0,29.551182,,,,TRUE,,,,,,,BKN,2900,BKN,3800,OVC,4700,,,MVFR,,,,,,,,,,,,METAR,174.0
KAIB 291515Z AUTO 29003KT 10SM SCT025 04/M02 A2997 RMK AO2,KAIB,2017-04-29T15:15:00Z,38.23,-108.57,4.0,-2.0,290,3,,10.0,29.970472,,,TRUE,TRUE,,,,,,,SCT,2500,,,,,,,VFR,,,,,,,,,,,,SPECI,1811.0
LHSN 291515Z 29004KT 9999 SCT040 OVC083 12/05 Q1015 NOSIG RMK BLU,LHSN,2017-04-29T15:15:00Z,47.12,20.23,12.0,5.0,290,4,,6.21,29.970472,,,,,,TRUE,,,,,SCT,4000,OVC,8300,,,,,VFR,,,,,,,,,,,,METAR,98.0
KTOC 291515Z AUTO 10003KT 10SM CLR 27/22 A3019 RMK AO2,KTOC,2017-04-29T15:15:00Z,34.6,-83.3,27.0,22.0,100,3,,10.0,30.188976,,,TRUE,TRUE,,,,,,,CLR,,,,,,,,VFR,,,,,,,,,,,,METAR,304.0
KFWB 291515Z AUTO 10006G15KT 1/2SM -RA OVC002 18/18 A2968 RMK AO2 LTG DSNT SW-N,KFWB,2017-04-29T15:15:00Z,36.7,-93.4,18.0,18.0,100,6,15,0.5,29.681103,,,TRUE,TRUE,,,,,,-RA,OVC,200,,,,,,,LIFR,,,,,,,,,,,,SPECI,406.0
LHKE 291515Z 30004KT 9999 SCT043 BKN053 OVC200 12/03 Q1015 NOSIG RMK BLU,LHKE,2017-04-29T15:15:00Z,46.92,19.75,12.0,3.0,300,4,,6.21,29.970472,,,,,,TRUE,,,,,SCT,4300,BKN,5300,OVC,20000,,,VFR,,,,,,,,,,,,METAR,115.0
K28J 291515Z AUTO 14009G15KT 10SM BKN032 29/22 A3019 RMK AO2,K28J,2017-04-29T15:15:00Z,29.65,-81.58,29.0,22.0,140,9,15,10.0,30.188976,,,TRUE,TRUE,,,,,,,BKN,3200,,,,,,,VFR,,,,,,,,,,,,SPECI,15.0
LMML 291515Z 32016KT CAVOK 22/13 Q1008 NOSIG,LMML,2017-04-29T15:15:00Z,35.85,14.47,22.0,13.0,320,16,,6.21,29.763779,,,,,,TRUE,,,,,CAVOK,,,,,,,,VFR,,,,,,,,,,,,METAR,91.0
LHUD 291515Z 32007KT CAVOK 12/04 Q1016,LHUD,2017-04-29T15:15:00Z,46.25,20.1,12.0,4.0,320,7,,6.21,30.0,,,,,,,,,,,CAVOK,,,,,,,,VFR,,,,,,,,,,,,METAR,84.0
LHSM 291515Z 35007KT 9999 FEW046 SCT056 BKN076 13/02 Q1018 NOSIG,LHSM,2017-04-29T15:15:00Z,46.68,17.17,13.0,2.0,350,7,,6.21,30.059055,,,,,,TRUE,,,,,FEW,4600,SCT,5600,BKN,7600,,,VFR,,,,,,,,,,,,METAR,125.0
LHPR 291515Z 34011KT 320V020 CAVOK 14/02 Q1017 RMK BLU,LHPR,2017-04-29T15:15:00Z,47.63,17.82,14.0,2.0,340,11,,6.21,30.029528,,,,,,,,,,,CAVOK,,,,,,,,VFR,,,,,,,,,,,,METAR,129.0
LHPP 291515Z 35004KT 9999 FEW036 SCT083 11/03 Q1017,LHPP,2017-04-29T15:15:00Z,45.98,18.23,11.0,3.0,350,4,,6.21,30.029528,,,,,,,,,,,FEW,3600,SCT,8300,,,,,VFR,,,,,,,,,,,,METAR,305.0
LHPA 291515Z 30010KT 9999 BKN047TCU BKN200 11/M00 Q1017 TEMPO -SHRA RMK BLU,LHPA,2017-04-29T15:15:00Z,47.35,17.5,11.0,0.0,300,10,,6.21,30.029528,,,,,,,,,,,BKN,4700,BKN,20000,,,,,VFR,,,,,,,,,,,,METAR,148.0
LHDC 291515Z 21001KT 9999 SCT040 OVC083 12/03 Q1016 NOSIG,LHDC,2017-04-29T15:15:00Z,47.47,21.62,12.0,3.0,210,1,,6.21,30.0,,,,,,TRUE,,,,,SCT,4000,OVC,8300,,,,,VFR,,,,,,,,,,,,METAR,112.0
LIRP 291515Z 30012KT 9999 FEW025 18/03 Q1014 NOSIG,LIRP,2017-04-29T15:15:00Z,43.67,10.37,18.0,3.0,300,12,,6.21,29.940945,,,,,,TRUE,,,,,FEW,2500,,,,,,,VFR,,,,,,,,,,,,METAR,2.0
LIPR 291515Z 05007KT CAVOK 17/09 Q1016,LIPR,2017-04-29T15:15:00Z,44.02,12.62,17.0,9.0,50,7,,6.21,30.0,,,,,,,,,,,CAVOK,,,,,,,,VFR,,,,,,,,,,,,METAR,13.0
LIBR 291515Z 36011G23KT 9999 SCT015 BKN025 16/14 Q1013 NOSIG,LIBR,2017-04-29T15:15:00Z,40.65,17.95,16.0,14.0,360,11,23,6.21,29.911417,,,,,,TRUE,,,,,SCT,1500,BKN,2500,,,,,MVFR,,,,,,,,,,,,METAR,10.0
KFOE 291514Z 03011G16KT 2 1/2SM RA BR BKN006 OVC055 08/07 A2990 RMK AO2 P0007 T00830072,KFOE,2017-04-29T15:14:00Z,38.93,-95.65,8.3,7.2,30,11,16,2.5,29.899607,,,,TRUE,,,,,,RA BR,BKN,600,OVC,5500,,,,,IFR,,,,,,0.07,,,,,,METAR,320.0
KAKH 291514Z AUTO 20005KT 6SM HZ BKN015 25/20 A3020 RMK AO2 T02500200,KAKH,2017-04-29T15:14:00Z,35.2,-81.15,25.0,20.0,200,5,,6.0,30.200787,,,TRUE,TRUE,,,,,,HZ,BKN,1500,,,,,,,MVFR,,,,,,,,,,,,METAR,243.0
KTIK 291513Z AUTO 01013G18KT 10SM OVC004 10/10 A2965 RMK AO2 SLP042,KTIK,2017-04-29T15:13:00Z,35.42,-97.37,10.0,10.0,10,13,18,10.0,29.648623,1004.2,,TRUE,TRUE,,,,,,,OVC,400,,,,,,,LIFR,,,,,,,,,,,,SPECI,394.0
KT70 291513Z AUTO 16008KT 8SM BKN017 OVC025 25/21 A2954 RMK AO2 SLP992,KT70,2017-04-29T15:13:00Z,29.12,-100.48,25.0,21.0,160,8,,8.0,29.53937,999.2,,TRUE,TRUE,,,,,,,BKN,1700,OVC,2500,,,,,MVFR,,,,,,,,,,,,METAR,298.0
KHKS 291513Z 17018G23KT 10SM BKN027 BKN038 27/21 A2991 RMK AO2 PK WND 16028/1501 T02720211,KHKS,2017-04-29T15:13:00Z,32.33,-90.22,27.2,21.1,170,18,23,10.0,29.911417,,,,TRUE,,,,,,,BKN,2700,BKN,3800,,,,,MVFR,,,,,,,,,,,,SPECI,108.0
KACK 291513Z 20011KT 9SM BKN002 14/11 A3000 RMK AO2 T01390111,KACK,2017-04-29T15:13:00Z,41.25,-70.07,13.9,11.1,200,11,,9.0,30.0,,,,TRUE,,,,,,,BKN,200,,,,,,,LIFR,,,,,,,,,,,,SPECI,16.0
KSAF 291512Z 10007KT 1/4SM +SN FZFG VV005 M01/M01 A2989 RMK AO2 P0001 T10061006,KSAF,2017-04-29T15:12:00Z,35.62,-106.1,-0.6,-0.6,100,7,,0.25,29.890747,,,,TRUE,,,,,,+SN FZFG,OVX,0,,,,,,,LIFR,,,,,,0.01,,,,,500,SPECI,1930.0
KVTA 291512Z AUTO 21004KT 3SM TSRA BR FEW012 BKN037 OVC075 17/16 A3014 RMK AO2 LTG DSNT ALQDS P0011 T01720161,KVTA,2017-04-29T15:12:00Z,40.02,-82.47,17.2,16.1,210,4,,3.0,30.138779,,,TRUE,TRUE,,,,,,TSRA BR,FEW,1200,BKN,3700,OVC,7500,,,MVFR,,,,,,0.11,,,,,,SPECI,268.0
KOSH 291512Z 05011G19KT 10SM SCT026 06/M02 A3026 RMK AO2 T00611017 $,KOSH,2017-04-29T15:12:00Z,43.97,-88.55,6.1,-1.7,50,11,19,10.0,30.259842,,,,TRUE,TRUE,,,,,,SCT,2600,,,,,,,VFR,,,,,,,,,,,,SPECI,248.0
KORF 291512Z 26008KT 240V310 10SM SCT024 29/22 A3016 RMK AO2 T02890222,KORF,2017-04-29T15:12:00Z,36.9,-76.2,28.9,22.2,260,8,,10.0,30.159449,,,,TRUE,,,,,,,SCT,2400,,,,,,,VFR,,,,,,,,,,,,SPECI,14.0
KAKR 291512Z AUTO 00000KT 6SM -RA BR OVC016 14/13 A3012 RMK AO2 P0000 T01440128 TSNO,KAKR,2017-04-29T15:12:00Z,41.03,-81.47,14.4,12.8,0,0,,6.0,30.121063,,,TRUE,TRUE,,,TRUE,,,-RA BR,OVC,1600,,,,,,,MVFR,,,,,,0.005,,,,,,SPECI,363.0
KGXY 291512Z AUTO 36012KT 4SM -SN BR SCT008 BKN016 OVC029 00/M02 A3020 RMK AO2 P0000 FZRANO,KGXY,2017-04-29T15:12:00Z,40.42,-104.62,0.0,-2.0,360,12,,4.0,30.200787,,,TRUE,TRUE,,,,TRUE,,-SN BR,SCT,800,BKN,1600,OVC,2900,,,MVFR,,,,,,0.005,,,,,,SPECI,1420.0
KTUL 291511Z 36014G23KT 10SM -RA SCT060 BKN070 OVC100 13/12 A2963 RMK AO2 LTG DSNT ALQDS TSE1456 TS MOV NE P0000 T01330117 $,KTUL,2017-04-29T15:11:00Z,36.2,-95.88,13.3,11.7,360,14,23,10.0,29.630905,,,,TRUE,TRUE,,,,,-RA,SCT,6000,BKN,7000,OVC,10000,,,VFR,,,,,,0.005,,,,,,SPECI,207.0
KLVS 291511Z AUTO 01020KT 3/4SM -SN BR BKN021 OVC029 M03/M05 A2990 RMK AO2 PK WND 02026/1455 P0000 T10331050,KLVS,2017-04-29T15:11:00Z,35.65,-105.13,-3.3,-5.0,10,20,,0.75,29.899607,,,TRUE,TRUE,,,,,,-SN BR,BKN,2100,OVC,2900,,,,,LIFR,,,,,,0.005,,,,,,SPECI,2091.0
KLAA 291511Z AUTO 01008KT 1/2SM SN FG OVC006 01/M01 A3006 RMK AO2 P0002 T00061006,KLAA,2017-04-29T15:11:00Z,38.07,-102.68,0.6,-0.6,10,8,,0.5,30.059055,,,TRUE,TRUE,,,,,,SN FG,OVC,600,,,,,,,LIFR,,,,,,0.02,,,,,,SPECI,1119.0
KDTS 291511Z AUTO 13012KT 10SM FEW011 FEW020 28/26 A3008 RMK AO2 T02780256 TSNO,KDTS,2017-04-29T15:11:00Z,30.4,-86.47,27.8,25.6,130,12,,10.0,30.079725,,,TRUE,TRUE,,,TRUE,,,,FEW,1100,FEW,2000,,,,,VFR,,,,,,,,,,,,METAR,5.0
KDDC 291511Z AUTO 36020G24KT 3SM -RA BR OVC004 04/03 A2988 RMK AO2 PK WND 01026/1455 CIG 003V008 P0001 T00390033,KDDC,2017-04-29T15:11:00Z,37.77,-99.97,3.9,3.3,360,20,24,3.0,29.878937,,,TRUE,TRUE,,,,,,-RA BR,OVC,400,,,,,,,LIFR,,,,,,0.01,,,,,,SPECI,789.0
KBMG 291511Z 16009KT 10SM OVC005 18/17 A3004 RMK AO2 RAE11 CIG 004V008 P0000 T01830167,KBMG,2017-04-29T15:11:00Z,39.15,-86.62,18.3,16.7,160,9,,10.0,30.041338,,,,TRUE,,,,,,,OVC,500,,,,,,,IFR,,,,,,0.005,,,,,,SPECI,257.0
KACV 291511Z AUTO 00000KT 10SM BKN007 09/08 A3026 RMK AO2 T00890078,KACV,2017-04-29T15:11:00Z,40.98,-124.1,8.9,7.8,0,0,,10.0,30.259842,,,TRUE,TRUE,,,,,,,BKN,700,,,,,,,IFR,,,,,,,,,,,,SPECI,67.0
CYMO 291511Z AUTO 32016G28KT 9SM OVC015 M02/M05 A3009 RMK SLP190,CYMO,2017-04-29T15:11:00Z,51.28,-80.62,-2.0,-5.0,320,16,28,9.0,30.088583,1019.0,,TRUE,,,,,,,,OVC,1500,,,,,,,MVFR,,,,,,,,,,,,SPECI,10.0
KQQY 291510Z AUTO 12001KT 5SM BR FEW026 SCT065 26/24 A3010 RMK AO2 SLP172 $,KQQY,2017-04-29T15:10:00Z,,,26.0,24.0,120,1,,5.0,30.100393,1017.2,,TRUE,TRUE,TRUE,,,,,BR,FEW,2600,SCT,6500,,,,,MVFR,,,,,,,,,,,,SPECI,
KBGD 291510Z AUTO 32013G22KT 3SM -SN BR BKN009 OVC015 01/01 A2992 RMK AO2 P0002 T00110006,KBGD,2017-04-29T15:10:00Z,35.7,-101.4,1.1,0.6,320,13,22,3.0,29.920275,,,TRUE,TRUE,,,,,,-SN BR,BKN,900,OVC,1500,,,,,IFR,,,,,,0.02,,,,,,SPECI,927.0
KDYR 291510Z AUTO 20007KT 170V240 10SM BKN028 OVC036 26/21 A2994 RMK AO2,KDYR,2017-04-29T15:10:00Z,36.0,-89.4,26.0,21.0,200,7,,10.0,29.940945,,,TRUE,TRUE,,,,,,,BKN,2800,OVC,3600,,,,,MVFR,,,,,,,,,,,,SPECI,103.0
VCRI 291510Z 31007KT 280V340 9999 FEW018 25/18 Q1010 NOSIG,VCRI,2017-04-29T15:10:00Z,6.28,81.13,25.0,18.0,310,7,,6.21,29.822834,,,,,,TRUE,,,,,FEW,1800,,,,,,,VFR,,,,,,,,,,,,METAR,7.0
VCBI 291510Z 23006KT 9999 SCT018 30/25 Q1010 NOSIG,VCBI,2017-04-29T15:10:00Z,7.17,79.87,30.0,25.0,230,6,,6.21,29.822834,,,,,,TRUE,,,,,SCT,1800,,,,,,,VFR,,,,,,,,,,,,METAR,8.0
ENDR 291510Z 14006KT CAVOK 07/00 Q1022,ENDR,2017-04-29T15:10:00Z,64.35,7.8,7.0,0.0,140,6,,6.21,30.177166,,,,,,,,,,,CAVOK,,,,,,,,VFR,,,,,,,,,,,,METAR,50.0
KAQO 291510Z AUTO 17015G20KT 7SM SCT033 28/20 A2961 RMK AO2,KAQO,2017-04-29T15:10:00Z,30.78,-98.67,28.0,20.0,170,15,20,7.0,29.610237,,,TRUE,TRUE,,,,,,,SCT,3300,,,,,,,VFR,,,,,,,,,,,,METAR,336.0
KNOG 291509Z AUTO 16017G24KT 7SM SCT022 BKN031 30/24 A2958 RMK AO2 T03000239,KNOG,2017-04-29T15:09:00Z,27.9,-98.05,30.0,23.9,160,17,24,7.0,29.58071,,,TRUE,TRUE,,,,,,,SCT,2200,BKN,3100,,,,,VFR,,,,,,,,,,,,SPECI,78.0
KOGB 291509Z AUTO 18007KT 150V210 10SM SCT025 27/21 A3021 RMK AO2 T02720211,KOGB,2017-04-29T15:09:00Z,33.47,-80.85,27.2,21.1,180,7,,10.0,30.209646,,,TRUE,TRUE,,,,,,,SCT,2500,,,,,,,VFR,,,,,,,,,,,,SPECI,59.0
KMHK 291509Z 02011KT 9SM -RA OVC010 07/06 A2994 RMK AO2 P0000 T00670056,KMHK,2017-04-29T15:09:00Z,39.13,-96.68,6.7,5.6,20,11,,9.0,29.940945,,,,TRUE,,,,,,-RA,OVC,1000,,,,,,,MVFR,,,,,,0.005,,,,,,SPECI,317.0
KHKY 291509Z 20003KT 5SM BR SCT005 OVC010 22/21 A3022 RMK AO2 CIG 007V013 T02220211,KHKY,2017-04-29T15:09:00Z,35.75,-81.38,22.2,21.1,200,3,,5.0,30.221457,,,,TRUE,,,,,,BR,SCT,500,OVC,1000,,,,,MVFR,,,,,,,,,,,,SPECI,354.0
KCSM 291509Z AUTO A2973 RMK AO2 LTG DSNT N AND NW TSE06 PWINO $,KCSM,2017-04-29T15:09:00Z,35.35,-99.2,,,,,,,29.731298,,,TRUE,TRUE,TRUE,,,,TRUE,,,,,,,,,,,,,,,,,,,,,,SPECI,588.0
KPRN 291509Z AUTO 15008KT 110V170 10SM OVC017 26/21 A3008 RMK AO2 T02560206,KPRN,2017-04-29T15:09:00Z,31.85,-86.62,25.6,20.6,150,8,,10.0,30.079725,,,TRUE,TRUE,,,,,,,OVC,1700,,,,,,,MVFR,,,,,,,,,,,,SPECI,138.0
CYBK 291509Z VRB11KT 20SM FEW090 FEW220 M18/M22 A3034 RMK AC1CI1 AC TR CI TR WSHFT 1500 SLP280,CYBK,2017-04-29T15:09:00Z,64.28,-96.07,-18.0,-22.0,0,11,,20.0,30.339567,1028.0,,,,,,,,,,FEW,9000,FEW,22000,,,,,VFR,,,,,,,,,,,,SPECI,18.0
KSZL 291508Z 04017G21KT 2 1/2SM +TSRA BR OVC004CB 10/10 A2978 RMK AO2A VIS 2 1/2V9 PRESFR SLP087 $,KSZL,2017-04-29T15:08:00Z,38.72,-93.53,10.0,10.0,40,17,21,2.5,29.778543,1008.7,,,TRUE,TRUE,,,,,+TSRA BR,OVC,400,,,,,,,LIFR,,,,,,,,,,,,SPECI,265.0
KIRK 291508Z AUTO 05010KT 3SM -RA OVC005 09/M01 A3003 RMK AO2 CIG 004V010 P0003 T00891011,KIRK,2017-04-29T15:08:00Z,40.1,-92.55,8.9,-1.1,50,10,,3.0,30.029528,,,TRUE,TRUE,,,,,,-RA,OVC,500,,,,,,,IFR,,,,,,0.03,,,,,,SPECI,293.0
KFLO 291508Z 21012KT 10SM SCT027 28/21 A3022 RMK AO2 T02830211,KFLO,2017-04-29T15:08:00Z,34.18,-79.73,28.3,21.1,210,12,,10.0,30.221457,,,,TRUE,,,,,,,SCT,2700,,,,,,,VFR,,,,,,,,,,,,SPECI,44.0
KCRG 291508Z 12011KT 10SM FEW024 28/22 A3020 RMK AO2 T02830217 $,KCRG,2017-04-29T15:08:00Z,30.33,-81.52,28.3,21.7,120,11,,10.0,30.200787,,,,TRUE,TRUE,,,,,,FEW,2400,,,,,,,VFR,,,,,,,,,,,,SPECI,13.0
KAST 291508Z AUTO 00000KT 10SM SCT004 BKN100 06/04 A3029 RMK AO2 CIG 004 RWY 08 T00610044,KAST,2017-04-29T15:08:00Z,46.15,-123.88,6.1,4.4,0,0,,10.0,30.28937,,,TRUE,TRUE,,,,,,,SCT,400,BKN,10000,,,,,VFR,,,,,,,,,,,,SPECI,3.0
KCUB 291507Z AUTO 19009KT 10SM SCT024 28/20 A3021 RMK AO2 T02780200,KCUB,2017-04-29T15:07:00Z,33.97,-81.0,27.8,20.0,190,9,,10.0,30.209646,,,TRUE,TRUE,,,,,,,SCT,2400,,,,,,,VFR,,,,,,,,,,,,SPECI,56.0
CYUB 291507Z 06007KT 6SM -SN BKN088 M17/M20 A3021 RMK AS6 SLP232,CYUB,2017-04-29T15:07:00Z,69.45,-133.02,-17.0,-20.0,60,7,,6.0,30.209646,1023.2,,,,,,,,,-SN,BKN,8800,,,,,,,VFR,,,,,,,,,,,,SPECI,5.0
KTXK 291506Z 16014G21KT 8SM FEW023 BKN029 OVC035 25/22 A2970 RMK AO2 T02500222,KTXK,2017-04-29T15:06:00Z,33.45,-93.98,25.0,22.2,160,14,21,8.0,29.698818,,,,TRUE,,,,,,,FEW,2300,BKN,2900,OVC,3500,,,MVFR,,,,,,,,,,,,SPECI,111.0
KMLP 291506Z AUTO VRB03KT 4SM BR SCT001 BKN018 OVC060 M01/M01 A3020 RMK AO2 T10061011 TSNO,KMLP,2017-04-29T15:06:00Z,47.45,-115.67,-0.6,-1.1,0,3,,4.0,30.200787,,,TRUE,TRUE,,,TRUE,,,BR,SCT,100,BKN,1800,OVC,6000,,,MVFR,,,,,,,,,,,,SPECI,1837.0
PASA 291506Z AUTO 08015KT 1/4SM FZFG OVC001 M01/M02 A2988 RMK AO2 FZRANO $,PASA,2017-04-29T15:06:00Z,63.68,-170.5,-1.0,-2.0,80,15,,0.25,29.878937,,,TRUE,TRUE,TRUE,,,TRUE,,FZFG,OVC,100,,,,,,,LIFR,,,,,,,,,,,,SPECI,16.0
MMPE 291506Z 32012KT 10SM SKC 22/M10 A2993,MMPE,2017-04-29T15:06:00Z,31.35,-113.52,22.0,-10.0,320,12,,10.0,29.929134,,,,,,,,,,,SKC,,,,,,,,VFR,,,,,,,,,,,,METAR,9.0
KATT 291505Z AUTO 16011G23KT 7SM SCT024 OVC034 28/22 A2961 RMK AO2 T02780217,KATT,2017-04-29T15:05:00Z,30.32,-97.77,27.8,21.7,160,11,23,7.0,29.610237,,,TRUE,TRUE,,,,,,,SCT,2400,OVC,3400,,,,,VFR,,,,,,,,,,,,SPECI,201.0
KBFD 291505Z AUTO 00000KT 10SM BKN010 OVC013 15/13 A3005 RMK AO2 T01500128,KBFD,2017-04-29T15:05:00Z,41.8,-78.63,15.0,12.8,0,0,,10.0,30.050198,,,TRUE,TRUE,,,,,,,BKN,1000,OVC,1300,,,,,MVFR,,,,,,,,,,,,SPECI,647.0
CYHK 291505Z AUTO 31011KT 5SM -SN CLR M21/M24 A3021 RMK SLP240,CYHK,2017-04-29T15:05:00Z,68.62,-95.83,-21.0,-24.0,310,11,,5.0,30.209646,1024.0,,TRUE,,,,,,,-SN,CLR,,,,,,,,MVFR,,,,,,,,,,,,SPECI,46.0
KEWK 291505Z AUTO 03016G24KT 6SM -RA BR OVC005 06/05 A2978 RMK AO2 LTG DSNT SE P0003,KEWK,2017-04-29T15:05:00Z,38.03,-97.27,6.0,5.0,30,16,24,6.0,29.778543,,,TRUE,TRUE,,,,,,-RA BR,OVC,500,,,,,,,IFR,,,,,,0.03,,,,,,SPECI,467.0
MMMT 291504Z RTD 18020KT 10SM SCT200 32/21 A2970 RMK SLP132 5//// 957 8/001,MMMT,2017-04-29T15:04:00Z,18.1,-94.57,32.0,21.0,180,20,,10.0,29.698818,1013.2,,,,,,,,,,SCT,20000,,,,,,,VFR,,,,,,,,,,,,METAR,40.0
CYER 291504Z AUTO 31014G21KT 6SM -SN OVC015 M08/M11 A3036 RMK SLP283,CYER,2017-04-29T15:04:00Z,56.02,-87.68,-8.0,-11.0,310,14,21,6.0,30.360237,1028.3,,TRUE,,,,,,,-SN,OVC,1500,,,,,,,MVFR,,,,,,,,,,,,SPECI,16.0
KFEW 291503Z AUTO 02008KT 10SM -SN SCT007 OVC031 M03/M04 A3020 RMK AO2 SLP270 $,KFEW,2017-04-29T15:03:00Z,41.13,-104.87,-3.0,-4.0,20,8,,10.0,30.200787,1027.0,,TRUE,TRUE,TRUE,,,,,-SN,SCT,700,OVC,3100,,,,,VFR,,,,,,,,,,,,SPECI,1878.0
KLRF 291503Z AUTO 14012G18KT 10SM SCT024 26/22 A2977 RMK AO2 SLP081,KLRF,2017-04-29T15:03:00Z,34.92,-92.15,26.0,22.0,140,12,18,10.0,29.769686,1008.1,,TRUE,TRUE,,,,,,,SCT,2400,,,,,,,VFR,,,,,,,,,,,,SPECI,95.0
PASY 291503Z 18009KT 7SM SCT011 03/02 A2919 RMK AO2 WND DATA ESTMD $,PASY,2017-04-29T15:03:00Z,52.72,174.12,3.0,2.0,180,9,,7.0,29.190945,,,,TRUE,TRUE,,,,,,SCT,1100,,,,,,,VFR,,,,,,,,,,,,SPECI,31.0
KBRL 291503Z AUTO 06016G22KT 6SM RA BR OVC015 08/06 A3006 RMK AO2 RAB1455 P0001 T00830061 $,KBRL,2017-04-29T15:03:00Z,40.77,-91.13,8.3,6.1,60,16,22,6.0,30.059055,,,TRUE,TRUE,TRUE,,,,,RA BR,OVC,1500,,,,,,,MVFR,,,,,,0.01,,,,,,SPECI,211.0
OMAL 291503Z 33019KT 4500 BLDU NSC 37/16 Q1009 TEMPO 3000,OMAL,2017-04-29T15:03:00Z,24.25,55.6,37.0,16.0,330,19,,2.8,29.793306,,,,,,,,,,BLDU,CLR,,,,,,,,IFR,,,,,,,,,,,,METAR,262.0
KFTK 291502Z AUTO 08006KT 10SM SCT043 SCT055 19/18 A3007 RMK AO2 RAE02 SLP181,KFTK,2017-04-29T15:02:00Z,37.88,-85.97,19.0,18.0,80,6,,10.0,30.070866,1018.1,,TRUE,TRUE,,,,,,,SCT,4300,SCT,5500,,,,,VFR,,,,,,,,,,,,SPECI,230.0
PAFS 291501Z AUTO 06004KT 10SM FEW048 SCT070 SCT095 01/01 A3001 RMK AO2 SLP184 T00060006 50000 PWINO FZRANO $,PAFS,2017-04-29T15:01:00Z,63.02,-154.35,0.6,0.6,60,4,,10.0,30.008858,1018.4,,TRUE,TRUE,TRUE,,,TRUE,TRUE,,FEW,4800,SCT,7000,SCT,9500,,,VFR,0.0,,,,,,,,,,,SPECI,126.0
PAKF 291501Z AUTO 17012G27KT 10SM -RA OVC011 04/02 A2966 RMK AO2 PK WND 18027/1458 SLP137 P0004 60007 T00390017 56024 $,PAKF,2017-04-29T15:01:00Z,54.85,-163.42,3.9,1.7,170,12,27,10.0,29.660433,1013.7,,TRUE,TRUE,TRUE,,,,,-RA,OVC,1100,,,,,,,MVFR,-2.4,,,,,0.04,0.07,,,,,METAR,6.0
PAIK 291501Z AUTO 00000KT 10SM SCT095 00/M04 A3001 RMK AO2 SLP205 T00001044 55000 FZRANO,PAIK,2017-04-29T15:01:00Z,66.98,-160.43,0.0,-4.4,0,0,,10.0,30.008858,1020.5,,TRUE,TRUE,,,,TRUE,,,SCT,9500,,,,,,,VFR,0.0,,,,,,,,,,,SPECI,51.0
PADE 291501Z AUTO 22003KT 10SM SCT001 M04/M06 A2996 RMK AO2 T10441056 TSNO $,PADE,2017-04-29T15:01:00Z,66.07,-162.77,-4.4,-5.6,220,3,,10.0,29.958662,,,TRUE,TRUE,TRUE,,TRUE,,,,SCT,100,,,,,,,VFR,,,,,,,,,,,,METAR,5.0
KFIG 291501Z AUTO 25004KT 10SM BKN025 BKN033 19/16 A3007 RMK AO2 T01890161,KFIG,2017-04-29T15:01:00Z,41.05,-78.42,18.9,16.1,250,4,,10.0,30.070866,,,TRUE,TRUE,,,,,,,BKN,2500,BKN,3300,,,,,MVFR,,,,,,,,,,,,METAR,462.0
KCDS 291501Z AUTO 34022KT 10SM -RA OVC010 08/06 A2975 RMK AO2 PK WND 34026/1501 P0000 T00780061,KCDS,2017-04-29T15:01:00Z,34.43,-100.28,7.8,6.1,340,22,,10.0,29.749016,,,TRUE,TRUE,,,,,,-RA,OVC,1000,,,,,,,MVFR,,,,,,0.005,,,,,,METAR,594.0
KAPA 291501Z 02010KT 1SM -SN BR BKN005 OVC010 M03/M03 A3014 RMK AO2 TWR VIS 1 1/4 P0000 T10281033,KAPA,2017-04-29T15:01:00Z,39.57,-104.85,-2.8,-3.3,20,10,,1.0,30.138779,,,,TRUE,,,,,,-SN BR,BKN,500,OVC,1000,,,,,IFR,,,,,,0.005,,,,,,METAR,1775.0
SVMI 291500Z 36004KT 9999 SCT016 31/20 Q1013,SVMI,2017-04-29T15:00:00Z,10.58,-67.0,31.0,20.0,360,4,,6.21,29.911417,,,,,,,,,,,SCT,1600,,,,,,,VFR,,,,,,,,,,,,METAR,48.0
KWHP 291500Z 30015G20KT 10SM SKC 19/M12 A3005,KWHP,2017-04-29T15:00:00Z,34.25,-118.42,19.0,-12.0,300,15,20,10.0,30.050198,,,,,,,,,,,SKC,,,,,,,,VFR,,,,,,,,,,,,METAR,306.0
SUMU 291500Z 28009KT CAVOK 21/13 Q1021 NOSIG,SUMU,2017-04-29T15:00:00Z,-34.82,-56.0,21.0,13.0,280,9,,6.21,30.147638,,,,,,TRUE,,,,,CAVOK,,,,,,,,VFR,,,,,,,,,,,,METAR,32.0
OPST 291500Z 31006KT 4000 HZ FEW100 27/13 Q1007 TEMPO 05020KT RH43,OPST,2017-04-29T15:00:00Z,32.53,74.37,27.0,13.0,310,6,,2.49,29.734253,,,,,,,,,,HZ,FEW,10000,,,,,,,IFR,,,,,,,,,,,,METAR,247.0
SBMO 291500Z 12013KT 9999 BKN023 29/23 Q1014,SBMO,2017-04-29T15:00:00Z,-9.52,-35.77,29.0,23.0,120,13,,6.21,29.940945,,,,,,,,,,,BKN,2300,,,,,,,MVFR,,,,,,,,,,,,METAR,115.0
CWND 291500Z AUTO 07010KT M20/M23 RMK AO1 SLP198 T11991226 58006,CWND,2017-04-29T15:00:00Z,69.63,-135.43,-19.9,-22.6,70,10,,,,1019.8,,TRUE,TRUE,,,,,,,,,,,,,,,,-0.6,,,,,,,,,,,METAR,12.0
CZMJ 291500Z AUTO 28009KT 07/01 RMK AO1 SOG 00 1013 SLP257 T00700011 50003,CZMJ,2017-04-29T15:00:00Z,50.33,-105.57,7.0,1.1,280,9,,,,1025.7,,TRUE,TRUE,,,,,,,,,,,,,,,,0.3,,,,,,,,,,,METAR,577.0
CWXL 291500Z AUTO 20005KT 08/03 RMK AO1 T00760034,CWXL,2017-04-29T15:00:00Z,49.73,-111.45,7.6,3.4,200,5,,,,,,TRUE,TRUE,,,,,,,,,,,,,,,,,,,,,,,,,,,METAR,817.0
CWIJ 291500Z AUTO 06007KT M15/M17 RMK AO1 SOG 92 6009 SLP230 T11471166,CWIJ,2017-04-29T15:00:00Z,65.77,-111.23,-14.7,-16.6,60,7,,,,1023.0,,TRUE,TRUE,,,,,,,,,,,,,,,,,,,,,,,,,,,METAR,500.0
CWGX 291500Z AUTO 01004KT M08/M11 RMK AO1 SOG 30 0006 SLP308 T10831106,CWGX,2017-04-29T15:00:00Z,56.35,-94.7,-8.3,-10.6,10,4,,,,1030.8,,TRUE,TRUE,,,,,,,,,,,,,,,,,,,,,,,,,,,METAR,145.0
CWEK 291500Z AUTO 06022G27KT 07/04 RMK AO1 PK WND 06031/1415 SLP130 T00670035 56042,CWEK,2017-04-29T15:00:00Z,54.58,-130.7,6.7,3.5,60,22,27,,,1013.0,,TRUE,TRUE,,,,,,,,,,,,,,,,-4.2,,,,,,,,,,,METAR,8.0
CWDM 291500Z AUTO 24006KT 06/04 RMK AO1 SOG 54 7028 SLP017 T00550035,CWDM,2017-04-29T15:00:00Z,50.47,-59.62,5.5,3.5,240,6,,,,1001.7,,TRUE,TRUE,,,,,,,,,,,,,,,,,,,,,,,,,,,METAR,6.0
SCGE 291500Z 18006KT CAVOK 14/09 Q1019,SCGE,2017-04-29T15:00:00Z,-37.38,-72.42,14.0,9.0,180,6,,6.21,30.088583,,,,,,,,,,,CAVOK,,,,,,,,VFR,,,,,,,,,,,,METAR,114.0
CZDB 291500Z AUTO 28005KT 12/12 RMK AO1 SLP111 T01150118 56025,CZDB,2017-04-29T15:00:00Z,45.42,-63.47,11.5,11.8,280,5,,,,1011.1,,TRUE,TRUE,,,,,,,,,,,,,,,,-2.5,,,,,,,,,,,METAR,38.0
CXTN 291500Z AUTO 06002KT M18/M23 RMK AO1 SLP248 T11791231 56001,CXTN,2017-04-29T15:00:00Z,69.2,-122.35,-17.9,-23.1,60,2,,,,1024.8,,TRUE,TRUE,,,,,,,,,,,,,,,,-0.1,,,,,,,,,,,METAR,552.0
CXSR 291500Z AUTO 28005KT 04/M02 RMK AO1 SOG 40 7008 SLP182 T00361022 50002,CXSR,2017-04-29T15:00:00Z,55.7,-119.23,3.6,-2.2,280,5,,,,1018.2,,TRUE,TRUE,,,,,,,,,,,,,,,,0.2,,,,,,,,,,,METAR,1015.0
CXLL 291500Z AUTO 01002KT 04/M04 RMK AO1 SOG 24 8002 SLP172 T00361038,CXLL,2017-04-29T15:00:00Z,61.12,-122.85,3.6,-3.8,10,2,,,,1017.2,,TRUE,TRUE,,,,,,,,,,,,,,,,,,,,,,,,,,,METAR,183.0
CXLC 291500Z AUTO 04004KT M04/M08 RMK AO1 SOG 30 8009 SLP178 T10421078,CXLC,2017-04-29T15:00:00Z,63.6,-113.85,-4.2,-7.8,40,4,,,,1017.8,,TRUE,TRUE,,,,,,,,,,,,,,,,,,,,,,,,,,,METAR,373.0
CXDW 291500Z AUTO 16008KT 11/M08 RMK AO1 SLP270 T01121080 53007,CXDW,2017-04-29T15:00:00Z,49.4,-98.32,11.2,-8.0,160,8,,,,1027.0,,TRUE,TRUE,,,,,,,,,,,,,,,,0.7,,,,,,,,,,,METAR,341.0
CWXC 291500Z AUTO 31011G19KT 06/M02 RMK AO1 PK WND 32022/1431 SLP069 T00551017 53006,CWXC,2017-04-29T15:00:00Z,48.88,-71.03,5.5,-1.7,310,11,19,,,1006.9,,TRUE,TRUE,,,,,,,,,,,,,,,,0.6,,,,,,,,,,,METAR,300.0
CWXA 291500Z AUTO 26008KT 03/M01 RMK AO1 5001 SLP218 T00331006 50002,CWXA,2017-04-29T15:00:00Z,51.07,-115.07,3.3,-0.6,260,8,,,,1021.8,,TRUE,TRUE,,,,,,,,,,,,,,,,0.2,,,,,,,,,,,METAR,1298.0
CWVN 291500Z AUTO 22001KT 06/02 RMK AO1 SOG 02 1010 SLP253 T00550023,CWVN,2017-04-29T15:00:00Z,49.07,-107.57,5.5,2.3,220,1,,,,1025.3,,TRUE,TRUE,,,,,,,,,,,,,,,,,,,,,,,,,,,METAR,785.0
CWDZ 291500Z AUTO 14003KT 05/M00 RMK AO1 T00481003,CWDZ,2017-04-29T15:00:00Z,51.42,-112.67,4.8,-0.3,140,3,,,,,,TRUE,TRUE,,,,,,,,,,,,,,,,,,,,,,,,,,,METAR,678.0
GOGK 291500Z 04004KT CAVOK 40/13 Q1009,GOGK,2017-04-29T15:00:00Z,12.9,-14.97,40.0,13.0,40,4,,6.21,29.793306,,,,,,,,,,,CAVOK,,,,,,,,VFR,,,,,,,,,,,,METAR,10.0
GOSM 291500Z 04004KT CAVOK 40/13 Q1009,GOSM,2017-04-29T15:00:00Z,15.6,-13.33,40.0,13.0,40,4,,6.21,29.793306,,,,,,,,,,,CAVOK,,,,,,,,VFR,,,,,,,,,,,,METAR,17.0
GOOG 291500Z 36008KT CAVOK 38/10 Q////,GOOG,2017-04-29T15:00:00Z,15.4,-15.08,38.0,10.0,360,8,,6.21,,,,,,,,,,,,CAVOK,,,,,,,,VFR,,,,,,,,,,,,METAR,21.0
GOSP 291500Z 04004KT CAVOK 39/12 Q1010,GOSP,2017-04-29T15:00:00Z,16.68,-14.97,39.0,12.0,40,4,,6.21,29.822834,,,,,,,,,,,CAVOK,,,,,,,,VFR,,,,,,,,,,,,METAR,7.0
SKIP 291500Z 09004KT 9999 BKN016 12/10 A3047 REDZ,SKIP,2017-04-29T15:00:00Z,0.88,-77.67,12.0,10.0,90,4,,6.21,30.469488,,,,,,,,,,,BKN,1600,,,,,,,MVFR,,,,,,,,,,,,METAR,2961.0
SKPS 291500Z 35005KT 9999 SCT023 21/14 A3019,SKPS,2017-04-29T15:00:00Z,1.4,-77.28,21.0,14.0,350,5,,6.21,30.188976,,,,,,,,,,,SCT,2300,,,,,,,VFR,,,,,,,,,,,,METAR,1826.0
SKNV 291500Z 19005KT 130V240 9999 FEW045 SCT100 30/20 A2995,SKNV,2017-04-29T15:00:00Z,2.97,-75.28,30.0,20.0,190,5,,6.21,29.949802,,,,,,,,,,,FEW,4500,SCT,10000,,,,,VFR,,,,,,,,,,,,METAR,443.0
SKVV 291500Z 08004KT 6000 DZ SCT017 BKN090 26/22 A3002,SKVV,2017-04-29T15:00:00Z,4.17,-73.62,26.0,22.0,80,4,,3.73,30.02067,,,,,,,,,,DZ,SCT,1700,BKN,9000,,,,,MVFR,,,,,,,,,,,,METAR,431.0
SKIB 291500Z 18004KT 9999 FEW030 BKN100 29/19 A3011,SKIB,2017-04-29T15:00:00Z,4.42,-75.15,29.0,19.0,180,4,,6.21,30.109253,,,,,,,,,,,FEW,3000,BKN,10000,,,,,VFR,,,,,,,,,,,,METAR,928.0
SKAR 291500Z 00000KT 9999 SCT020 SCT100 25/20 A3007,SKAR,2017-04-29T15:00:00Z,4.45,-75.77,25.0,20.0,0,0,,6.21,30.070866,,,,,,,,,,,SCT,2000,SCT,10000,,,,,VFR,,,,,,,,,,,,METAR,1219.0
SKMZ 291500Z 29009KT 9000 SCT020 BKN100 20/15 A3035 RMK HZ,SKMZ,2017-04-29T15:00:00Z,5.03,-75.47,20.0,15.0,290,9,,5.59,30.351377,,,,,,,,,,,SCT,2000,BKN,10000,,,,,VFR,,,,,,,,,,,,METAR,2080.0
SKUI 291500Z 24005KT 6000 OVC015 27/25 A2986 RMK HZ,SKUI,2017-04-29T15:00:00Z,5.72,-76.62,27.0,25.0,240,5,,3.73,29.861221,,,,,,,,,,,OVC,1500,,,,,,,MVFR,,,,,,,,,,,,METAR,33.0
SKPC 291500Z 06005KT 9999 SCT020 30/24 A2987,SKPC,2017-04-29T15:00:00Z,6.17,-67.5,30.0,24.0,60,5,,6.21,29.870079,,,,,,,,,,,SCT,2000,,,,,,,VFR,,,,,,,,,,,,METAR,55.0
SKMD 291500Z 36006KT 9999 FEW030 BKN200 25/15 A3016,SKMD,2017-04-29T15:00:00Z,6.22,-75.58,25.0,15.0,360,6,,6.21,30.159449,,,,,,,,,,,FEW,3000,BKN,20000,,,,,VFR,,,,,,,,,,,,METAR,1499.0
SKUC 291500Z VRB02KT 9999 SCT022 SCT200 27/25 A2996,SKUC,2017-04-29T15:00:00Z,7.07,-70.72,27.0,25.0,0,2,,6.21,29.958662,,,,,,,,,,,SCT,2200,SCT,20000,,,,,VFR,,,,,,,,,,,,METAR,128.0
SKEJ 291500Z 00000KT 9999 SCT015 31/24 A2984,SKEJ,2017-04-29T15:00:00Z,7.02,-73.78,31.0,24.0,0,0,,6.21,29.840551,,,,,,,,,,,SCT,1500,,,,,,,VFR,,,,,,,,,,,,METAR,134.0
SKLC 291500Z 33004KT 9999 SCT010 SCT100 BKN300 28/25 A2988,SKLC,2017-04-29T15:00:00Z,7.82,-76.7,28.0,25.0,330,4,,6.21,29.878937,,,,,,,,,,,SCT,1000,SCT,10000,BKN,30000,,,VFR,,,,,,,,,,,,METAR,30.0
SKMR 291500Z 20005KT 9999 BKN017 BKN100 31/26 A2982,SKMR,2017-04-29T15:00:00Z,8.82,-75.83,31.0,26.0,200,5,,6.21,29.819881,,,,,,,,,,,BKN,1700,BKN,10000,,,,,MVFR,,,,,,,,,,,,METAR,26.0
SKVP 291500Z 04010KT 8000 FEW015 32/23 A2989 RMK HZ,SKVP,2017-04-29T15:00:00Z,10.42,-73.25,32.0,23.0,40,10,,4.97,29.890747,,,,,,,,,,,FEW,1500,,,,,,,MVFR,,,,,,,,,,,,METAR,138.0
SKRH 291500Z 12012KT 9999 BKN020 33/24 A2987,SKRH,2017-04-29T15:00:00Z,11.52,-72.92,33.0,24.0,120,12,,6.21,29.870079,,,,,,,,,,,BKN,2000,,,,,,,MVFR,,,,,,,,,,,,METAR,4.0
SKSM 291500Z 27006KT 9999 FEW020 32/25 A2980,SKSM,2017-04-29T15:00:00Z,11.12,-74.22,32.0,25.0,270,6,,6.21,29.799213,,,,,,,,,,,FEW,2000,,,,,,,VFR,,,,,,,,,,,,METAR,4.0
SKPV 291500Z 07008KT 9999 FEW018 BKN200 30/25 A////,SKPV,2017-04-29T15:00:00Z,13.37,-81.33,30.0,25.0,70,8,,6.21,,,,,,,,,,,,FEW,1800,BKN,20000,,,,,VFR,,,,,,,,,,,,METAR,6.0
TNCC 291500Z 09021KT 9999 SCT018 30/23 Q1014 NOSIG,TNCC,2017-04-29T15:00:00Z,12.2,-68.97,30.0,23.0,90,21,,6.21,29.940945,,,,,,TRUE,,,,,SCT,1800,,,,,,,VFR,,,,,,,,,,,,METAR,9.0
GOOK 291500Z 04008KT CAVOK 41/12 Q1010,GOOK,2017-04-29T15:00:00Z,14.15,-16.07,41.0,12.0,40,8,,6.21,29.822834,,,,,,,,,,,CAVOK,,,,,,,,VFR,,,,,,,,,,,,METAR,7.0
GOTT 291500Z VRB02KT CAVOK 41/14 Q1008,GOTT,2017-04-29T15:00:00Z,13.73,-13.65,41.0,14.0,0,2,,6.21,29.763779,,,,,,,,,,,CAVOK,,,,,,,,VFR,,,,,,,,,,,,METAR,50.0
GOTK 291500Z 28010KT CAVOK 41/18 Q1008,GOTK,2017-04-29T15:00:00Z,12.57,-12.22,41.0,18.0,280,10,,6.21,29.763779,,,,,,,,,,,CAVOK,,,,,,,,VFR,,,,,,,,,,,,METAR,167.0
GOSS 291500Z 34014KT CAVOK 28/19 Q1012,GOSS,2017-04-29T15:00:00Z,16.05,-16.43,28.0,19.0,340,14,,6.21,29.88189,,,,,,,,,,,CAVOK,,,,,,,,VFR,,,,,,,,,,,,METAR,4.0
SBSM 291500Z 12004KT 040V190 CAVOK 21/10 Q1025,SBSM,2017-04-29T15:00:00Z,-29.72,-53.7,21.0,10.0,120,4,,6.21,30.265747,,,,,,,,,,,CAVOK,,,,,,,,VFR,,,,,,,,,,,,METAR,85.0
SBPF 291500Z 10010KT CAVOK 16/09 Q1025,SBPF,2017-04-29T15:00:00Z,-28.25,-52.33,16.0,9.0,100,10,,6.21,30.265747,,,,,,,,,,,CAVOK,,,,,,,,VFR,,,,,,,,,,,,METAR,684.0
SBMG 291500Z 15004KT CAVOK 20/12 Q1021,SBMG,2017-04-29T15:00:00Z,-23.48,-52.02,20.0,12.0,150,4,,6.21,30.147638,,,,,,,,,,,CAVOK,,,,,,,,VFR,,,,,,,,,,,,METAR,542.0
SBCM 291500Z 00000KT CAVOK 23/07 Q1024,SBCM,2017-04-29T15:00:00Z,-28.72,-49.42,23.0,7.0,0,0,,6.21,30.236221,,,,,,,,,,,CAVOK,,,,,,,,VFR,,,,,,,,,,,,METAR,28.0
SBCA 291500Z 12006KT CAVOK 20/10 Q1024,SBCA,2017-04-29T15:00:00Z,-25.0,-53.5,20.0,10.0,120,6,,6.21,30.236221,,,,,,,,,,,CAVOK,,,,,,,,VFR,,,,,,,,,,,,METAR,754.0
SBQV 291500Z 11013KT 9999 BKN030 23/16 Q1022,SBQV,2017-04-29T15:00:00Z,-14.87,-40.87,23.0,16.0,110,13,,6.21,30.177166,,,,,,,,,,,BKN,3000,,,,,,,MVFR,,,,,,,,,,,,METAR,893.0
SBKG 291500Z 11014KT 9999 SCT040 30/19 Q1015,SBKG,2017-04-29T15:00:00Z,-7.27,-35.87,30.0,19.0,110,14,,6.21,29.970472,,,,,,,,,,,SCT,4000,,,,,,,VFR,,,,,,,,,,,,METAR,560.0
SBJU 291500Z 17010KT 9999 SCT020 30/21 Q1016,SBJU,2017-04-29T15:00:00Z,-7.22,-39.27,30.0,21.0,170,10,,6.21,30.0,,,,,,,,,,,SCT,2000,,,,,,,VFR,,,,,,,,,,,,METAR,409.0
SBCO 291500Z 28004KT 250V330 CAVOK 21/10 Q1025,SBCO,2017-04-29T15:00:00Z,-29.95,-51.15,21.0,10.0,280,4,,6.21,30.265747,,,,,,,,,,,CAVOK,,,,,,,,VFR,,,,,,,,,,,,METAR,47.0
SBBI 291500Z 09006KT 9999 SCT025 16/10 Q1026,SBBI,2017-04-29T15:00:00Z,-25.4,-49.23,16.0,10.0,90,6,,6.21,30.295275,,,,,,,,,,,SCT,2500,,,,,,,VFR,,,,,,,,,,,,METAR,923.0
SBVH 291500Z 10009KT 070V130 9999 SCT020 25/21 Q1019,SBVH,2017-04-29T15:00:00Z,-12.72,-60.12,25.0,21.0,100,9,,6.21,30.088583,,,,,,,,,,,SCT,2000,,,,,,,VFR,,,,,,,,,,,,METAR,652.0
SBUA 291500Z 19004KT 9999 SCT017 BKN100 28/24 Q1015,SBUA,2017-04-29T15:00:00Z,-0.15,-66.98,28.0,24.0,190,4,,6.21,29.970472,,,,,,,,,,,SCT,1700,BKN,10000,,,,,VFR,,,,,,,,,,,,METAR,79.0
SBHT 291500Z 14002KT 9999 BKN015 30/25 Q1014,SBHT,2017-04-29T15:00:00Z,-3.25,-52.27,30.0,25.0,140,2,,6.21,29.940945,,,,,,,,,,,BKN,1500,,,,,,,MVFR,,,,,,,,,,,,METAR,74.0
SBGM 291500Z 17010KT CAVOK 28/22 Q1017,SBGM,2017-04-29T15:00:00Z,-10.78,-65.28,28.0,22.0,170,10,,6.21,30.029528,,,,,,,,,,,CAVOK,,,,,,,,VFR,,,,,,,,,,,,METAR,146.0
NVVV 291500Z 00000KT 9999 TSRA BKN018 FEW020CB OVC110 24/24 Q1008 RMK NIL,NVVV,2017-04-29T15:00:00Z,-17.68,168.3,24.0,24.0,0,0,,6.21,29.763779,,,,,,,,,,TSRA,BKN,1800,FEW,2000,OVC,11000,,,MVFR,,,,,,,,,,,,METAR,21.0
NVSC 291500Z 00000KT 9999 FEW020 25/25 Q1009 RMK NIL,NVSC,2017-04-29T15:00:00Z,-13.83,167.55,25.0,25.0,0,0,,6.21,29.793306,,,,,,,,,,,FEW,2000,,,,,,,VFR,,,,,,,,,,,,METAR,18.0
FCPP 291500Z 24006KT 9999 FEW016 29/24 Q1009 NOSIG,FCPP,2017-04-29T15:00:00Z,-4.82,11.9,29.0,24.0,240,6,,6.21,29.793306,,,,,,TRUE,,,,,FEW,1600,,,,,,,VFR,,,,,,,,,,,,METAR,17.0
FEFF 291500Z 24003KT 9999 SCT023 36/22 Q1007 NOSIG,FEFF,2017-04-29T15:00:00Z,4.4,18.52,36.0,22.0,240,3,,6.21,29.734253,,,,,,TRUE,,,,,SCT,2300,,,,,,,VFR,,,,,,,,,,,,METAR,366.0
FCBB 291500Z 09004KT 9999 FEW030CB 33/21 Q1009 TEMPO TS,FCBB,2017-04-29T15:00:00Z,-4.25,15.25,33.0,21.0,90,4,,6.21,29.793306,,,,,,,,,,,FEW,3000,,,,,,,VFR,,,,,,,,,,,,METAR,316.0
FZAA 291500Z 23004KT 8000 TS SCT020 FEW028CB BKN100 29/22 Q1010 BECMG NSW,FZAA,2017-04-29T15:00:00Z,-4.38,15.45,29.0,22.0,230,4,,4.97,29.822834,,,,,,,,,,TS,SCT,2000,FEW,2800,BKN,10000,,,MVFR,,,,,,,,,,,,METAR,312.0
FGBT 291500Z 26010KT 9999 FEW010 31/26 Q1008,FGBT,2017-04-29T15:00:00Z,1.88,9.8,31.0,26.0,260,10,,6.21,29.763779,,,,,,,,,,,FEW,1000,,,,,,,VFR,,,,,,,,,,,,METAR,8.0
FGSL 291500Z 27008KT 9999 SCT010 30/24 Q1009 NOSIG,FGSL,2017-04-29T15:00:00Z,3.75,8.72,30.0,24.0,270,8,,6.21,29.793306,,,,,,TRUE,,,,,SCT,1000,,,,,,,VFR,,,,,,,,,,,,METAR,56.0
FYRU 291500Z AUTO 13006KT //// // ////// 26/M08 Q1024,FYRU,2017-04-29T15:00:00Z,-17.95,19.72,26.0,-8.0,130,6,,,30.236221,,,TRUE,,,,,,,,,,,,,,,,,,,,,,,,,,,,METAR,1100.0
FVKB 291500Z 24001KT 9999 FEW035 BKN100 26/16 Q1020,FVKB,2017-04-29T15:00:00Z,-16.52,28.87,26.0,16.0,240,1,,6.21,30.11811,,,,,,,,,,,FEW,3500,BKN,10000,,,,,VFR,,,,,,,,,,,,METAR,518.0
OETF 291500Z 25010KT 9999 SCT030 24/07 Q1019 NOSIG,OETF,2017-04-29T15:00:00Z,21.47,40.53,24.0,7.0,250,10,,6.21,30.088583,,,,,,TRUE,,,,,SCT,3000,,,,,,,VFR,,,,,,,,,,,,METAR,1449.0
YSNW 291500Z AUTO 15007KT 130V210 9999 // BKN040 BKN052 OVC070 13/11 Q1022,YSNW,2017-04-29T15:00:00Z,-34.95,150.52,13.0,11.0,150,7,,6.21,30.177166,,,TRUE,,,,,,,,BKN,4000,BKN,5200,OVC,7000,,,VFR,,,,,,,,,,,,METAR,110.0
YRMD 291500Z AUTO 11009KT //// // ////// 14/M02 Q1016,YRMD,2017-04-29T15:00:00Z,-20.7,143.12,14.0,-2.0,110,9,,,30.0,,,TRUE,,,,,,,,,,,,,,,,,,,,,,,,,,,,METAR,207.0
YBPN 291500Z AUTO 20003KT 9999 // NCD 15/14 Q1016,YBPN,2017-04-29T15:00:00Z,-20.5,148.55,15.0,14.0,200,3,,6.21,30.0,,,TRUE,,,,,,,,CLR,,,,,,,,VFR,,,,,,,,,,,,METAR,25.0
YBOK 291500Z AUTO 09004KT 9999 // NCD 08/07 Q1019,YBOK,2017-04-29T15:00:00Z,-27.42,151.72,8.0,7.0,90,4,,6.21,30.088583,,,TRUE,,,,,,,,CLR,,,,,,,,VFR,,,,,,,,,,,,METAR,407.0
YBNA 291500Z AUTO 00000KT 9999 // SCT028 SCT037 13/13 Q1019,YBNA,2017-04-29T15:00:00Z,-28.83,153.57,13.0,13.0,0,0,,6.21,30.088583,,,TRUE,,,,,,,,SCT,2800,SCT,3700,,,,,VFR,,,,,,,,,,,,METAR,2.0
YBMK 291500Z AUTO 23007KT 9999 // BKN023 BKN036 OVC047 18/17 Q1016,YBMK,2017-04-29T15:00:00Z,-21.17,149.17,18.0,17.0,230,7,,6.21,30.0,,,TRUE,,,,,,,,BKN,2300,BKN,3600,OVC,4700,,,MVFR,,,,,,,,,,,,METAR,31.0
YBHI 291500Z AUTO 00000KT 9999 // ////// 09/06 Q1023,YBHI,2017-04-29T15:00:00Z,-32.0,141.47,9.0,6.0,0,0,,6.21,30.206694,,,TRUE,,,,,,,,,,,,,,,,,,,,,,,,,,,,METAR,292.0
YLEC 291500Z AUTO 13005KT //// // ////// 12/08 Q1022,YLEC,2017-04-29T15:00:00Z,-30.6,138.43,12.0,8.0,130,5,,,30.177166,,,TRUE,,,,,,,,,,,,,,,,,,,,,,,,,,,,METAR,262.0
YKRY 291500Z AUTO 00000KT 9999 // NCD 08/06 Q1020,YKRY,2017-04-29T15:00:00Z,-26.57,151.83,8.0,6.0,0,0,,6.21,30.11811,,,TRUE,,,,,,,,CLR,,,,,,,,VFR,,,,,,,,,,,,METAR,434.0
YHUG 291500Z AUTO 10005KT 9999 // NCD 14/M03 Q1016,YHUG,2017-04-29T15:00:00Z,-20.82,144.23,14.0,-3.0,100,5,,6.21,30.0,,,TRUE,,,,,,,,CLR,,,,,,,,VFR,,,,,,,,,,,,METAR,318.0
YGTH 291500Z AUTO 00000KT 9999 // NCD 09/07 Q1022,YGTH,2017-04-29T15:00:00Z,-34.25,146.07,9.0,7.0,0,0,,6.21,30.177166,,,TRUE,,,,,,,,CLR,,,,,,,,VFR,,,,,,,,,,,,METAR,134.0
YGTE 291500Z AUTO 12002KT 9999 // NCD 22/19 Q1013,YGTE,2017-04-29T15:00:00Z,-13.97,136.45,22.0,19.0,120,2,,6.21,29.911417,,,TRUE,,,,,,,,CLR,,,,,,,,VFR,,,,,,,,,,,,METAR,14.0
YGFN 291500Z AUTO 22003KT 9999 // NCD 13/12 Q1019,YGFN,2017-04-29T15:00:00Z,-29.77,153.03,13.0,12.0,220,3,,6.21,30.088583,,,TRUE,,,,,,,,CLR,,,,,,,,VFR,,,,,,,,,,,,METAR,34.0
YPBO 291500Z AUTO 05007KT 9999 // NCD 21/05 Q1018,YPBO,2017-04-29T15:00:00Z,-23.2,117.75,21.0,5.0,50,7,,6.21,30.059055,,,TRUE,,,,,,,,CLR,,,,,,,,VFR,,,,,,,,,,,,METAR,1292.0
YOLD 291500Z AUTO 19004KT 9999 // NCD 12/09 Q1023,YOLD,2017-04-29T15:00:00Z,-30.48,136.88,12.0,9.0,190,4,,6.21,30.206694,,,TRUE,,,,,,,,CLR,,,,,,,,VFR,,,,,,,,,,,,METAR,105.0
YNWN 291500Z AUTO 00000KT 9999 // NCD 16/12 Q1020,YNWN,2017-04-29T15:00:00Z,-23.42,119.8,16.0,12.0,0,0,,6.21,30.11811,,,TRUE,,,,,,,,CLR,,,,,,,,VFR,,,,,,,,,,,,METAR,525.0
YNTN 291500Z AUTO 18007KT 9999 // NCD 20/01 Q1013,YNTN,2017-04-29T15:00:00Z,-17.68,141.07,20.0,1.0,180,7,,6.21,29.911417,,,TRUE,,,,,,,,CLR,,,,,,,,VFR,,,,,,,,,,,,METAR,22.0
YNBR 291500Z AUTO 18005KT 9999 // NCD 07/04 Q1020,YNBR,2017-04-29T15:00:00Z,-30.32,149.83,7.0,4.0,180,5,,6.21,30.11811,,,TRUE,,,,,,,,CLR,,,,,,,,VFR,,,,,,,,,,,,METAR,240.0
YNAR 291500Z AUTO 00000KT //// // ////// 09/08 Q1023,YNAR,2017-04-29T15:00:00Z,-34.7,146.52,9.0,8.0,0,0,,,30.206694,,,TRUE,,,,,,,,,,,,,,,,,,,,,,,,,,,,METAR,145.0
YMTG 291500Z AUTO 36002KT 9999 // OVC028 12/12 Q1023,YMTG,2017-04-29T15:00:00Z,-37.75,140.78,12.0,12.0,360,2,,6.21,30.206694,,,TRUE,,,,,,,,OVC,2800,,,,,,,MVFR,,,,,,,,,,,,METAR,65.0
YESP 291500Z AUTO 02008KT 9999 // NCD 13/10 Q1021,YESP,2017-04-29T15:00:00Z,-33.68,121.82,13.0,10.0,20,8,,6.21,30.147638,,,TRUE,,,,,,,,CLR,,,,,,,,VFR,,,,,,,,,,,,METAR,143.0
YEML 291500Z AUTO 24004KT 9999 // NCD 16/12 Q1018,YEML,2017-04-29T15:00:00Z,-23.57,148.18,16.0,12.0,240,4,,6.21,30.059055,,,TRUE,,,,,,,,CLR,,,,,,,,VFR,,,,,,,,,,,,METAR,190.0
YDBY 291500Z AUTO 14005KT 9999 // OVC100 OVC120 25/15 Q1013,YDBY,2017-04-29T15:00:00Z,-17.37,123.67,25.0,15.0,140,5,,6.21,29.911417,,,TRUE,,,,,,,,OVC,10000,OVC,12000,,,,,VFR,,,,,,,,,,,,METAR,7.0
YCOM 291500Z AUTO 00000KT 9999 // OVC029 08/08 Q1023,YCOM,2017-04-29T15:00:00Z,-36.3,148.97,8.0,8.0,0,0,,6.21,30.206694,,,TRUE,,,,,,,,OVC,2900,,,,,,,MVFR,,,,,,,,,,,,METAR,941.0
YCNM 291500Z AUTO 21005KT //// // ////// 08/07 Q1020,YCNM,2017-04-29T15:00:00Z,-30.98,148.38,8.0,7.0,210,5,,,30.11811,,,TRUE,,,,,,,,,,,,,,,,,,,,,,,,,,,,METAR,184.0
YCDU 291500Z AUTO 05003KT 9999 // NCD 10/09 Q1023,YCDU,2017-04-29T15:00:00Z,-32.12,133.7,10.0,9.0,50,3,,6.21,30.206694,,,TRUE,,,,,,,,CLR,,,,,,,,VFR,,,,,,,,,,,,METAR,15.0
CWJT 291500Z AUTO 27005KT 15/04 RMK AO1 SLP122 T01520044 50003,CWJT,2017-04-29T15:00:00Z,46.07,-74.57,15.2,4.4,270,5,,,,1012.2,,TRUE,TRUE,,,,,,,,,,,,,,,,0.3,,,,,,,,,,,METAR,239.0
CWGD 291500Z AUTO 35016G23KT 06/00 RMK AO1 PK WND 35023/1451 SLP225 T00560000 51025,CWGD,2017-04-29T15:00:00Z,43.77,-81.72,5.6,0.0,350,16,23,,,1022.5,,TRUE,TRUE,,,,,,,,,,,,,,,,2.5,,,,,,,,,,,METAR,214.0
CXDE 291500Z AUTO 20001KT M05/M10 RMK AO1 SOG 11 8005 SLP227 T10511098,CXDE,2017-04-29T15:00:00Z,65.22,-123.43,-5.1,-9.8,200,1,,,,1022.7,,TRUE,TRUE,,,,,,,,,,,,,,,,,,,,,,,,,,,METAR,213.0
CWDQ 291500Z AUTO 27009G16KT 12/01 RMK AO1 PK WND 28022/1443 SLP104 T01240006 53007,CWDQ,2017-04-29T15:00:00Z,47.42,-72.78,12.4,0.6,270,9,16,,,1010.4,,TRUE,TRUE,,,,,,,,,,,,,,,,0.7,,,,,,,,,,,METAR,169.0
CWWK 291500Z AUTO 10001KT 09/04 RMK AO1 SLP262 T00860043 53004,CWWK,2017-04-29T15:00:00Z,49.02,-122.78,8.6,4.3,100,1,,,,1026.2,,TRUE,TRUE,,,,,,,,,,,,,,,,0.4,,,,,,,,,,,METAR,15.0
CWHQ 291500Z AUTO 23005KT 15/09 RMK AO1 T01480094,CWHQ,2017-04-29T15:00:00Z,46.68,-71.97,14.8,9.4,230,5,,,,,,TRUE,TRUE,,,,,,,,,,,,,,,,,,,,,,,,,,,METAR,55.0
CZKD 291500Z AUTO 12003KT M06/M10 RMK AO1 SOG 16 0001 SLP292 T10591096,CZKD,2017-04-29T15:00:00Z,56.03,-96.52,-5.9,-9.6,120,3,,,,1029.2,,TRUE,TRUE,,,,,,,,,,,,,,,,,,,,,,,,,,,METAR,183.0
CXSE 291500Z AUTO 31008KT M15/M17 RMK AO1 SOG 60 8005 SLP265 T11501173,CXSE,2017-04-29T15:00:00Z,73.77,-105.28,-15.0,-17.3,310,8,,,,1026.5,,TRUE,TRUE,,,,,,,,,,,,,,,,,,,,,,,,,,,METAR,11.0
CXDK 291500Z AUTO 24001KT 03/M04 RMK AO1 SLP171 T00291042 58001,CXDK,2017-04-29T15:00:00Z,61.27,-124.47,2.9,-4.2,240,1,,,,1017.1,,TRUE,TRUE,,,,,,,,,,,,,,,,-0.1,,,,,,,,,,,METAR,283.0
CWWS 291500Z AUTO 15004KT 02/M05 RMK AO1 SLP264 T00181047 50002,CWWS,2017-04-29T15:00:00Z,52.82,-97.62,1.8,-4.7,150,4,,,,1026.4,,TRUE,TRUE,,,,,,,,,,,,,,,,0.2,,,,,,,,,,,METAR,223.0
CWCT 291500Z AUTO 16008KT 06/M02 RMK AO1 SLP226 T00551017 58004,CWCT,2017-04-29T15:00:00Z,52.07,-111.47,5.5,-1.7,160,8,,,,1022.6,,TRUE,TRUE,,,,,,,,,,,,,,,,-0.4,,,,,,,,,,,METAR,791.0
CWBO 291500Z AUTO 22003KT 05/01 RMK AO1 3003 SLP225 T00520010 50002,CWBO,2017-04-29T15:00:00Z,50.53,-111.83,5.2,1.0,220,3,,,,1022.5,,TRUE,TRUE,,,,,,,,,,,,,,,,0.2,,,,,,,,,,,METAR,747.0
CWDO 291500Z AUTO 23014G21KT 07/07 RMK AO1 SOG 65 8026 PK WND 23023/1434 SLP005 T00720066 50015,CWDO,2017-04-29T15:00:00Z,49.67,-54.78,7.2,6.6,230,14,21,,,1000.5,,TRUE,TRUE,,,,,,,,,,,,,,,,1.5,,,,,,,,,,,METAR,92.0
CWPK 291500Z AUTO 29012G21KT 02/M04 RMK AO1 PK WND 31021/1450 SLP135 T00181040 51022,CWPK,2017-04-29T15:00:00Z,47.92,-74.62,1.8,-4.0,290,12,21,,,1013.5,,TRUE,TRUE,,,,,,,,,,,,,,,,2.2,,,,,,,,,,,METAR,442.0
TNCA 291500Z 09024KT 9999 SCT022 31/25 Q1013 A2991 NOSIG,TNCA,2017-04-29T15:00:00Z,12.5,-70.0,31.0,25.0,90,24,,6.21,29.911417,,,,,,TRUE,,,,,SCT,2200,,,,,,,VFR,,,,,,,,,,,,METAR,18.0
VTCT 291500Z 33005KT 7000 -TSRA SCT020CB BKN040 OVC090 21/20 Q1013 A2993,VTCT,2017-04-29T15:00:00Z,19.95,99.88,21.0,20.0,330,5,,4.35,29.911417,,,,,,,,,,-TSRA,SCT,2000,BKN,4000,OVC,9000,,,MVFR,,,,,,,,,,,,METAR,390.0
FVWN 291500Z 12003KT CAVOK 24/09 Q1024,FVWN,2017-04-29T15:00:00Z,-18.62,27.0,24.0,9.0,120,3,,6.21,30.236221,,,,,,,,,,,CAVOK,,,,,,,,VFR,,,,,,,,,,,,METAR,1077.0
FVFA 291500Z 09005KT 060V140 CAVOK 24/10 Q1023 NOSIG,FVFA,2017-04-29T15:00:00Z,-18.1,25.85,24.0,10.0,90,5,,6.21,30.206694,,,,,,TRUE,,,,,CAVOK,,,,,,,,VFR,,,,,,,,,,,,METAR,1062.0
FVMV 291500Z 17003KT 9999 SCT018 18/14 Q1026 REDZ,FVMV,2017-04-29T15:00:00Z,-20.07,30.87,18.0,14.0,170,3,,6.21,30.295275,,,,,,,,,,,SCT,1800,,,,,,,VFR,,,,,,,,,,,,METAR,1095.0
FVCZ 291500Z 18005KT 9999 BKN035 21/18 Q1027,FVCZ,2017-04-29T15:00:00Z,-21.02,31.57,21.0,18.0,180,5,,6.21,30.324802,,,,,,,,,,,BKN,3500,,,,,,,VFR,,,,,,,,,,,,METAR,430.0
DRRT 291500Z 22004KT 9999 FEW040 41/14 Q1008,DRRT,2017-04-29T15:00:00Z,14.9,5.25,41.0,14.0,220,4,,6.21,29.763779,,,,,,,,,,,FEW,4000,,,,,,,VFR,,,,,,,,,,,,METAR,391.0
DRRM 291500Z 36006KT 9999 FEW040 42/12 Q1009,DRRM,2017-04-29T15:00:00Z,13.5,7.12,42.0,12.0,360,6,,6.21,29.793306,,,,,,,,,,,FEW,4000,,,,,,,VFR,,,,,,,,,,,,METAR,373.0
DRZR 291500Z 04010KT CAVOK 42/03 Q1008,DRZR,2017-04-29T15:00:00Z,13.77,8.97,42.0,3.0,40,10,,6.21,29.763779,,,,,,,,,,,CAVOK,,,,,,,,VFR,,,,,,,,,,,,METAR,453.0
MNBL 291500Z 09008KT 9999 BKN016 31/25 Q1013,MNBL,2017-04-29T15:00:00Z,12.0,-83.77,31.0,25.0,90,8,,6.21,29.911417,,,,,,,,,,,BKN,1600,,,,,,,MVFR,,,,,,,,,,,,METAR,5.0
MNCH 291500Z 00000KT 4000 +FU FEW024CB SCT300 31/24 Q1012 2CU025 1AC090 CB W TCU N NE,MNCH,2017-04-29T15:00:00Z,12.62,-87.12,31.0,24.0,0,0,,2.49,29.88189,,,,,,,,,,+FU,FEW,2400,SCT,30000,,,,,IFR,,,,,,,,,,,,METAR,53.0
MNJU 291500Z 09004KT 9999 SCT020 32/23 Q1013 1AC080 1CI300,MNJU,2017-04-29T15:00:00Z,12.08,-85.37,32.0,23.0,90,4,,6.21,29.911417,,,,,,,,,,,SCT,2000,,,,,,,VFR,,,,,,,,,,,,METAR,90.0
MNJG 291500Z 00000KT 9999 SCT019 25/19 Q1014,MNJG,2017-04-29T15:00:00Z,13.08,-86.02,25.0,19.0,0,0,,6.21,29.940945,,,,,,,,,,,SCT,1900,,,,,,,VFR,,,,,,,,,,,,METAR,985.0
MNRS 291500Z 11006KT 9999 SCT018 BKN200 30/23 Q1011,MNRS,2017-04-29T15:00:00Z,11.42,-85.82,30.0,23.0,110,6,,6.21,29.852362,,,,,,,,,,,SCT,1800,BKN,20000,,,,,VFR,,,,,,,,,,,,METAR,53.0
MNPC 291500Z 09010KT 7000 BKN016 31/26 Q1012 HZ,MNPC,2017-04-29T15:00:00Z,14.05,-83.38,31.0,26.0,90,10,,4.35,29.88189,,,,,,,,,,HZ,BKN,1600,,,,,,,MVFR,,,,,,,,,,,,METAR,16.0
VILK 291500Z 00000KT 2500 HZ NSC 35/13 Q1004 NOSIG,VILK,2017-04-29T15:00:00Z,26.75,80.87,35.0,13.0,0,0,,1.55,29.64567,,,,,,TRUE,,,,HZ,CLR,,,,,,,,IFR,,,,,,,,,,,,METAR,128.0
NCAI 291500Z AUTO 35005KT 320V030 //// ////// 26/23 Q1009,NCAI,2017-04-29T15:00:00Z,-18.82,-159.77,26.0,23.0,350,5,,,29.793306,,,TRUE,,,,,,,,,,,,,,,,,,,,,,,,,,,,METAR,6.0
NSFA 291500Z 13004KT 9999 FEW024 24/23 Q1008 RMK DEW,NSFA,2017-04-29T15:00:00Z,-13.83,-172.0,24.0,23.0,130,4,,6.21,29.763779,,,,,,,,,,,FEW,2400,,,,,,,VFR,,,,,,,,,,,,METAR,5.0
NIUE 291500Z AUTO 14003KT //// ////// 20/19 Q1011,NIUE,2017-04-29T15:00:00Z,-19.07,-169.92,20.0,19.0,140,3,,,29.852362,,,TRUE,,,,,,,,,,,,,,,,,,,,,,,,,,,,METAR,20.0
NGTT 291500Z VRB03KT 9999 FEW018TCU 27/25 Q1008,NGTT,2017-04-29T15:00:00Z,1.35,172.92,27.0,25.0,0,3,,6.21,29.763779,,,,,,,,,,,FEW,1800,,,,,,,VFR,,,,,,,,,,,,METAR,2.0
FOON 291500Z /////KT 9999 SCT020 FEW023CB 32/23 Q1010,FOON,2017-04-29T15:00:00Z,-1.63,13.42,32.0,23.0,,,,6.21,29.822834,,,,,,,,,,,SCT,2000,FEW,2300,,,,,VFR,,,,,,,,,,,,METAR,441.0
FOOL 291500Z 24007KT 9999 FEW016 30/25 Q1009 NOSIG,FOOL,2017-04-29T15:00:00Z,0.45,9.42,30.0,25.0,240,7,,6.21,29.793306,,,,,,TRUE,,,,,FEW,1600,,,,,,,VFR,,,,,,,,,,,,SPECI,15.0
FOOG 291500Z 20010KT 9999 FEW011 30/25 Q1010,FOOG,2017-04-29T15:00:00Z,-0.7,8.75,30.0,25.0,200,10,,6.21,29.822834,,,,,,,,,,,FEW,1100,,,,,,,VFR,,,,,,,,,,,,SPECI,4.0
UTFN 291500Z 14002KT 9999 SCT050CB 13/01 Q1026 R28/CLRD70 NOSIG,UTFN,2017-04-29T15:00:00Z,40.98,71.57,13.0,1.0,140,2,,6.21,30.295275,,,,,,TRUE,,,,,SCT,5000,,,,,,,VFR,,,,,,,,,,,,METAR,490.0
RPVD 291500Z 22004KT 9999 SCT015 26/23 Q1011 RMK A2985,RPVD,2017-04-29T15:00:00Z,9.33,123.3,26.0,23.0,220,4,,6.21,29.852362,,,,,,,,,,,SCT,1500,,,,,,,VFR,,,,,,,,,,,,METAR,8.0
RPLC 291500Z 35005KT 9999 FEW020 BKN300 27/24 Q1013 NOSIG RMK A2991,RPLC,2017-04-29T15:00:00Z,15.17,120.58,27.0,24.0,350,5,,6.21,29.911417,,,,,,TRUE,,,,,FEW,2000,BKN,30000,,,,,VFR,,,,,,,,,,,,METAR,196.0
SECO 291500Z 15002KT 9999 FEW023 BKN100 27/25 Q1016,SECO,2017-04-29T15:00:00Z,-0.45,-76.98,27.0,25.0,150,2,,6.21,30.0,,,,,,,,,,,FEW,2300,BKN,10000,,,,,VFR,,,,,,,,,,,,METAR,220.0
FDUS 291500Z AUTO 11008KT //// // ////// 20/14 Q1028,FDUS,2017-04-29T15:00:00Z,-26.72,30.92,20.0,14.0,110,8,,,30.35433,,,TRUE,,,,,,,,,,,,,,,,,,,,,,,,,,,,METAR,956.0
FDST 291500Z AUTO 22005KT //// // ////// 18/18 Q1027,FDST,2017-04-29T15:00:00Z,-26.43,31.95,18.0,18.0,220,5,,,30.324802,,,TRUE,,,,,,,,,,,,,,,,,,,,,,,,,,,,METAR,667.0
FDPP 291500Z AUTO 18006KT //// // ////// 15/12 Q1032,FDPP,2017-04-29T15:00:00Z,-25.97,31.25,15.0,12.0,180,6,,,30.47244,,,TRUE,,,,,,,,,,,,,,,,,,,,,,,,,,,,METAR,1099.0
FDMV 291500Z AUTO 16010KT //// // ////// 20/19 Q1033,FDMV,2017-04-29T15:00:00Z,,,20.0,19.0,160,10,,,30.501968,,,TRUE,,,,,,,,,,,,,,,,,,,,,,,,,,,,METAR,
FDLB 291500Z AUTO 15007KT //// // ////// 19/17 Q1030,FDLB,2017-04-29T15:00:00Z,,,19.0,17.0,150,7,,,30.413385,,,TRUE,,,,,,,,,,,,,,,,,,,,,,,,,,,,METAR,
FDJR 291500Z AUTO 12007KT //// // ////// 17/13 Q1030,FDJR,2017-04-29T15:00:00Z,-27.17,31.43,17.0,13.0,120,7,,,30.413385,,,TRUE,,,,,,,,,,,,,,,,,,,,,,,,,,,,METAR,701.0
FTTC 291500Z 36010KT CAVOK 41/08 Q1008,FTTC,2017-04-29T15:00:00Z,13.83,20.85,41.0,8.0,360,10,,6.21,29.763779,,,,,,,,,,,CAVOK,,,,,,,,VFR,,,,,,,,,,,,METAR,549.0
FTTD 291500Z 36006KT 9999 FEW040TCU 40/17 Q1007,FTTD,2017-04-29T15:00:00Z,8.62,16.07,40.0,17.0,360,6,,6.21,29.734253,,,,,,,,,,,FEW,4000,,,,,,,VFR,,,,,,,,,,,,METAR,422.0
CYRA 291500Z 34007KT 15SM SCT070 BKN210 M05/M09 A3008 RMK AC4CI1 SLP205,CYRA,2017-04-29T15:00:00Z,64.12,-117.32,-5.0,-9.0,340,7,,15.0,30.079725,1020.5,,,,,,,,,,SCT,7000,BKN,21000,,,,,VFR,,,,,,,,,,,,SPECI,213.0
SAWH 291500Z 00000KT 9999 BKN045 05/03 Q0987,SAWH,2017-04-29T15:00:00Z,-54.85,-68.3,5.0,3.0,0,0,,6.21,29.143702,,,,,,,,,,,BKN,4500,,,,,,,VFR,,,,,,,,,,,,METAR,14.0
MTPP 291500Z 10011KT 9999 FEW028 31/21 Q1015 A2998,MTPP,2017-04-29T15:00:00Z,18.57,-72.28,31.0,21.0,100,11,,6.21,29.970472,,,,,,,,,,,FEW,2800,,,,,,,VFR,,,,,,,,,,,,METAR,37.0
HUEN 291500Z 23010KT 9999 SCT018 FEW020CB BKN120 21/19 Q1016.3 NOSIG,HUEN,2017-04-29T15:00:00Z,0.03,32.45,21.0,19.0,230,10,,6.21,30.008858,,,,,,TRUE,,,,,SCT,1800,FEW,2000,BKN,12000,,,VFR,,,,,,,,,,,,METAR,1155.0
HKMO 291500Z 20009KT 9999 BKN023 BKN080 26/23 Q1013 NOSIG,HKMO,2017-04-29T15:00:00Z,-4.02,39.62,26.0,23.0,200,9,,6.21,29.911417,,,,,,TRUE,,,,,BKN,2300,BKN,8000,,,,,MVFR,,,,,,,,,,,,METAR,55.0
HKKI 291500Z 20004KT 9999 FEW021CB SCT022 BKN080 23/19 Q1017,HKKI,2017-04-29T15:00:00Z,-0.1,34.75,23.0,19.0,200,4,,6.21,30.029528,,,,,,,,,,,FEW,2100,SCT,2200,BKN,8000,,,VFR,,,,,,,,,,,,METAR,1146.0
HKEL 291500Z 18004KT 9999 FEW020CB SCT021 BKN080 18/15 Q1024,HKEL,2017-04-29T15:00:00Z,0.4,35.23,18.0,15.0,180,4,,6.21,30.236221,,,,,,,,,,,FEW,2000,SCT,2100,BKN,8000,,,VFR,,,,,,,,,,,,METAR,2133.0
WIPP 291500Z 09004KT 9999 FEW012 27/25 Q1012,WIPP,2017-04-29T15:00:00Z,-2.88,104.7,27.0,25.0,90,4,,6.21,29.88189,,,,,,,,,,,FEW,1200,,,,,,,VFR,,,,,,,,,,,,METAR,10.0
WIOO 291500Z 05004KT 6000 BKN012 26/24 Q1012 NOSIG,WIOO,2017-04-29T15:00:00Z,-0.15,109.4,26.0,24.0,50,4,,3.73,29.88189,,,,,,TRUE,,,,,BKN,1200,,,,,,,MVFR,,,,,,,,,,,,METAR,3.0
WAHS 291500Z 00000KT 6000 FEW013CB SCT014 26/25 Q1012 NOSIG,WAHS,2017-04-29T15:00:00Z,-6.98,110.38,26.0,25.0,0,0,,3.73,29.88189,,,,,,TRUE,,,,,FEW,1300,SCT,1400,,,,,MVFR,,,,,,,,,,,,METAR,5.0
WATT 291500Z 09002KT 8000 FEW016CB BKN016 24/23 Q1012 NOSIG RMK CB TO E AND SE,WATT,2017-04-29T15:00:00Z,-10.17,123.67,24.0,23.0,90,2,,4.97,29.88189,,,,,,TRUE,,,,,FEW,1600,BKN,1600,,,,,MVFR,,,,,,,,,,,,METAR,102.0
VABP 291500Z 27014KT 5000 HZ SCT025 SCT030 FEW035 CB 33/09 Q1010 NOSIG,VABP,2017-04-29T15:00:00Z,23.27,77.33,33.0,9.0,270,14,,3.11,29.822834,,,,,,TRUE,,,,HZ,SCT,2500,SCT,3000,FEW,3500,,,MVFR,,,,,,,,,,,,METAR,523.0
SEMT 291500Z 27006KT 9999 SCT020 29/21 Q1011 RMK A2988,SEMT,2017-04-29T15:00:00Z,-0.95,-80.67,29.0,21.0,270,6,,6.21,29.852362,,,,,,,,,,,SCT,2000,,,,,,,VFR,,,,,,,,,,,,METAR,14.0
FYOW 291500Z AUTO 04004KT //// // ////// 26/09 Q1022,FYOW,2017-04-29T15:00:00Z,-20.43,16.67,26.0,9.0,40,4,,,30.177166,,,TRUE,,,,,,,,,,,,,,,,,,,,,,,,,,,,METAR,1481.0
FBKE 291500Z 14006KT 9999 SCT025 24/10 Q1023,FBKE,2017-04-29T15:00:00Z,-17.82,25.17,24.0,10.0,140,6,,6.21,30.206694,,,,,,,,,,,SCT,2500,,,,,,,VFR,,,,,,,,,,,,METAR,1000.0
FSPP 291500Z 13003KT //// //// 27/24 Q1011,FSPP,2017-04-29T15:00:00Z,-4.32,55.7,27.0,24.0,130,3,,,29.852362,,,,,,,,,,,,,,,,,,,,,,,,,,,,,,,METAR,4.0
LOAV 291500Z 33009KT 35KM BKN060CU 12/M02,LOAV,2017-04-29T15:00:00Z,47.97,16.27,12.0,-2.0,330,9,,21.75,,,,,,,,,,,,BKN,6000,,,,,,,VFR,,,,,,,,,,,,METAR,233.0
LOAN 291500Z 33005KT 25KM FEW040CU SCT070SC BKN100AC,LOAN,2017-04-29T15:00:00Z,47.85,16.25,,,330,5,,15.53,,,,,,,,,,,,FEW,4000,,,,,,,VFR,,,,,,,,,,,,METAR,272.0
RCNN 291500Z 06002KT 9999 FEW012 SCT060 20/14 Q1014 RMK A2995,RCNN,2017-04-29T15:00:00Z,22.93,120.2,20.0,14.0,60,2,,6.21,29.940945,,,,,,,,,,,FEW,1200,SCT,6000,,,,,VFR,,,,,,,,,,,,SPECI,19.0
RCMQ 291500Z 06002KT 9999 FEW012 21/12 Q1014 RMK A2995,RCMQ,2017-04-29T15:00:00Z,24.27,120.62,21.0,12.0,60,2,,6.21,29.940945,,,,,,,,,,,FEW,1200,,,,,,,VFR,,,,,,,,,,,,SPECI,5.0
ULOO 291500Z AUTO VRB01MPS 6000 // ///006/// 08/07 Q1009 RMK QFE752,ULOO,2017-04-29T15:00:00Z,57.78,28.4,8.0,7.0,0,2,,3.73,29.793306,,,TRUE,,,,,,,,,,,,,,,,,,,,,,,,,,,,METAR,47.0
OESK 291500Z 31008KT CAVOK 32/M05 Q1012 NOSIG,OESK,2017-04-29T15:00:00Z,29.77,40.1,32.0,-5.0,310,8,,6.21,29.88189,,,,,,TRUE,,,,,CAVOK,,,,,,,,VFR,,,,,,,,,,,,METAR,684.0
OESH 291500Z 06006KT 9999 FEW040 SCT080 37/00 Q1010 NOSIG,OESH,2017-04-29T15:00:00Z,17.47,47.12,37.0,0.0,60,6,,6.21,29.822834,,,,,,TRUE,,,,,FEW,4000,SCT,8000,,,,,VFR,,,,,,,,,,,,METAR,722.0
OERR 291500Z 27012KT CAVOK 33/M04 Q1011 NOSIG,OERR,2017-04-29T15:00:00Z,30.88,41.12,33.0,-4.0,270,12,,6.21,29.852362,,,,,,TRUE,,,,,CAVOK,,,,,,,,VFR,,,,,,,,,,,,METAR,552.0
OERF 291500Z 28007KT CAVOK 34/M04 Q1010,OERF,2017-04-29T15:00:00Z,29.62,43.47,34.0,-4.0,280,7,,6.21,29.822834,,,,,,,,,,,CAVOK,,,,,,,,VFR,,,,,,,,,,,,METAR,447.0
OEPA 291500Z 36006KT 8000 SKC 38/13 Q1009 NOSIG,OEPA,2017-04-29T15:00:00Z,28.32,46.12,38.0,13.0,360,6,,4.97,29.793306,,,,,,TRUE,,,,,SKC,,,,,,,,MVFR,,,,,,,,,,,,METAR,355.0
OENG 291500Z 03008KT 9999 BKN030 BKN090 31/01 Q1014 NOSIG,OENG,2017-04-29T15:00:00Z,17.62,44.42,31.0,1.0,30,8,,6.21,29.940945,,,,,,TRUE,,,,,BKN,3000,BKN,9000,,,,,MVFR,,,,,,,,,,,,METAR,1203.0
OEMK 291500Z 18008KT 9999 FEW040 BKN080 34/17 Q1010,OEMK,2017-04-29T15:00:00Z,21.43,40.0,34.0,17.0,180,8,,6.21,29.822834,,,,,,,,,,,FEW,4000,BKN,8000,,,,,VFR,,,,,,,,,,,,METAR,369.0
OEYN 291500Z 25003KT 9999 FEW040 29/21 Q1008 NOSIG,OEYN,2017-04-29T15:00:00Z,24.13,38.07,29.0,21.0,250,3,,6.21,29.763779,,,,,,TRUE,,,,,FEW,4000,,,,,,,VFR,,,,,,,,,,,,METAR,8.0
OEWJ 291500Z 29008KT CAVOK 31/18 Q1007 NOSIG,OEWJ,2017-04-29T15:00:00Z,26.18,36.47,31.0,18.0,290,8,,6.21,29.734253,,,,,,TRUE,,,,,CAVOK,,,,,,,,VFR,,,,,,,,,,,,METAR,16.0
OEWD 291500Z 11006KT CAVOK 36/14 Q1010 NOSIG,OEWD,2017-04-29T15:00:00Z,20.5,45.2,36.0,14.0,110,6,,6.21,29.822834,,,,,,TRUE,,,,,CAVOK,,,,,,,,VFR,,,,,,,,,,,,METAR,617.0
OETR 291500Z 27011KT CAVOK 28/M10 Q1013 NOSIG,OETR,2017-04-29T15:00:00Z,31.7,38.73,28.0,-10.0,270,11,,6.21,29.911417,,,,,,TRUE,,,,,CAVOK,,,,,,,,VFR,,,,,,,,,,,,METAR,855.0
OETB 291500Z 26008KT 9999 BKN040 32/M02 Q1012 NOSIG,OETB,2017-04-29T15:00:00Z,28.37,36.62,32.0,-2.0,260,8,,6.21,29.88189,,,,,,TRUE,,,,,BKN,4000,,,,,,,VFR,,,,,,,,,,,,METAR,770.0
OEKM 291500Z 33014KT 9000 TS BKN022 FEW025CB 18/13 Q1024 RERA NOSIG,OEKM,2017-04-29T15:00:00Z,18.3,42.78,18.0,13.0,330,14,,5.59,30.236221,,,,,,TRUE,,,,TS,BKN,2200,FEW,2500,,,,,MVFR,,,,,,,,,,,,METAR,2054.0
SCCF 291500Z VRB03KT CAVOK 22/M15 Q1028,SCCF,2017-04-29T15:00:00Z,-22.5,-68.9,22.0,-15.0,0,3,,6.21,30.35433,,,,,,,,,,,CAVOK,,,,,,,,VFR,,,,,,,,,,,,METAR,2312.0
SASJ 291500Z 36003KT CAVOK 21/11 Q1023,SASJ,2017-04-29T15:00:00Z,-24.37,-65.1,21.0,11.0,360,3,,6.21,30.206694,,,,,,,,,,,CAVOK,,,,,,,,VFR,,,,,,,,,,,,METAR,1167.0
GGOV 291500Z 24010KT 210V270 CAVOK 35/15 Q1009 NOSIG,GGOV,2017-04-29T15:00:00Z,11.87,-15.65,35.0,15.0,240,10,,6.21,29.793306,,,,,,TRUE,,,,,CAVOK,,,,,,,,VFR,,,,,,,,,,,,METAR,36.0
HAAB 291500Z 10006KT 9999 FEW023 CB BKN025 BKN80 18/11 Q1025,HAAB,2017-04-29T15:00:00Z,8.97,38.78,18.0,11.0,100,6,,6.21,30.265747,,,,,,,,,,,FEW,2300,BKN,2500,,,,,MVFR,,,,,,,,,,,,METAR,2355.0
OEKK 291500Z 04010KT 9999 BKN035 37/22 Q1010 NOSIG,OEKK,2017-04-29T15:00:00Z,27.88,45.52,37.0,22.0,40,10,,6.21,29.822834,,,,,,TRUE,,,,,BKN,3500,,,,,,,VFR,,,,,,,,,,,,METAR,413.0
OEKJ 291500Z 16007KT 8000 SCT050 39/02 Q1013,OEKJ,2017-04-29T15:00:00Z,24.07,47.58,39.0,2.0,160,7,,4.97,29.911417,,,,,,,,,,,SCT,5000,,,,,,,MVFR,,,,,,,,,,,,METAR,503.0
OEHL 291500Z 27010KT CAVOK 32/02 Q1015,OEHL,2017-04-29T15:00:00Z,27.42,41.67,32.0,2.0,270,10,,6.21,29.970472,,,,,,,,,,,CAVOK,,,,,,,,VFR,,,,,,,,,,,,METAR,1013.0
OEGT 291500Z 27008KT CAVOK 29/M11 Q1010 NOSIG,OEGT,2017-04-29T15:00:00Z,31.42,37.27,29.0,-11.0,270,8,,6.21,29.822834,,,,,,TRUE,,,,,CAVOK,,,,,,,,VFR,,,,,,,,,,,,METAR,499.0
OEGS 291500Z 27004KT 9999 SCT040 36/08 Q1010,OEGS,2017-04-29T15:00:00Z,26.3,43.77,36.0,8.0,270,4,,6.21,29.822834,,,,,,,,,,,SCT,4000,,,,,,,VFR,,,,,,,,,,,,METAR,650.0
OEGN 291500Z 26010KT 9999 SCT030 BKN100 31/25 Q1010 NOSIG,OEGN,2017-04-29T15:00:00Z,16.88,42.57,31.0,25.0,260,10,,6.21,29.822834,,,,,,TRUE,,,,,SCT,3000,BKN,10000,,,,,VFR,,,,,,,,,,,,METAR,3.0
OEDM 291500Z 11012KT 9999 FEW030CB BKN040 SCT070 35/15 Q1014,OEDM,2017-04-29T15:00:00Z,24.45,44.12,35.0,15.0,110,12,,6.21,29.940945,,,,,,,,,,,FEW,3000,BKN,4000,SCT,7000,,,VFR,,,,,,,,,,,,METAR,922.0
OEBH 291500Z 27007KT 9999 SCT028 SCT029 28/13 Q1017 NOSIG,OEBH,2017-04-29T15:00:00Z,19.97,42.62,28.0,13.0,270,7,,6.21,30.029528,,,,,,TRUE,,,,,SCT,2800,SCT,2900,,,,,VFR,,,,,,,,,,,,METAR,1157.0
OEBA 291500Z 32013KT 9999 TS FEW025CB BKN030 23/11 Q1021 NOSIG,OEBA,2017-04-29T15:00:00Z,20.3,41.62,23.0,11.0,320,13,,6.21,30.147638,,,,,,TRUE,,,,TS,FEW,2500,BKN,3000,,,,,MVFR,,,,,,,,,,,,METAR,1656.0
OEAR 291500Z 27003KT 9999 FEW040 33/17 Q1011,OEAR,2017-04-29T15:00:00Z,,,33.0,17.0,270,3,,6.21,29.852362,,,,,,,,,,,FEW,4000,,,,,,,VFR,,,,,,,,,,,,METAR,
OEAO 291500Z 26014KT 7000 BKN045 36/M06 Q1012,OEAO,2017-04-29T15:00:00Z,26.48,38.12,36.0,-6.0,260,14,,4.35,29.88189,,,,,,,,,,,BKN,4500,,,,,,,MVFR,,,,,,,,,,,,METAR,624.0
OEAH 291500Z 12005KT CAVOK 39/00 Q1008 NOSIG,OEAH,2017-04-29T15:00:00Z,25.27,49.47,39.0,0.0,120,5,,6.21,29.763779,,,,,,TRUE,,,,,CAVOK,,,,,,,,VFR,,,,,,,,,,,,METAR,172.0
OEAB 291500Z 02012KT 9000 TSRA SCT020 SCT025CB 19/09 Q1025 NOSIG,OEAB,2017-04-29T15:00:00Z,18.22,42.63,19.0,9.0,20,12,,5.59,30.265747,,,,,,TRUE,,,,TSRA,SCT,2000,SCT,2500,,,,,VFR,,,,,,,,,,,,METAR,2084.0
WABB 291500Z 00000KT 9999 FEW018 25/25 Q1011 NOSIG,WABB,2017-04-29T15:00:00Z,-1.17,136.12,25.0,25.0,0,0,,6.21,29.852362,,,,,,TRUE,,,,,FEW,1800,,,,,,,VFR,,,,,,,,,,,,METAR,11.0
TNCM 291500Z 09014KT 9999 SCT017 28/22 Q1019 A3009 NOSIG ,TNCM,2017-04-29T15:00:00Z,18.05,-63.12,28.0,22.0,90,14,,6.21,30.088583,,,,,,TRUE,,,,,SCT,1700,,,,,,,VFR,,,,,,,,,,,,METAR,4.0
FNBG 291500Z 31010KT 9999 FEW015 27/22 Q1011,FNBG,2017-04-29T15:00:00Z,-12.62,13.4,27.0,22.0,310,10,,6.21,29.852362,,,,,,,,,,,FEW,1500,,,,,,,VFR,,,,,,,,,,,,METAR,36.0
FNMO 291500Z 24015KT CAVOK 26/18 Q1012,FNMO,2017-04-29T15:00:00Z,-15.27,12.15,26.0,18.0,240,15,,6.21,29.88189,,,,,,,,,,,CAVOK,,,,,,,,VFR,,,,,,,,,,,,METAR,64.0
FNHU 291500Z 12010KT 9999 FEW015 25/11 Q1024,FNHU,2017-04-29T15:00:00Z,-12.82,15.77,25.0,11.0,120,10,,6.21,30.236221,,,,,,,,,,,FEW,1500,,,,,,,VFR,,,,,,,,,,,,METAR,1701.0
DFFD 291500Z VRB06KT CAVOK 39/20 Q1009 NOSIG,DFFD,2017-04-29T15:00:00Z,12.33,-1.52,39.0,20.0,0,6,,6.21,29.793306,,,,,,TRUE,,,,,CAVOK,,,,,,,,VFR,,,,,,,,,,,,METAR,306.0
DFOO 291500Z 18006KT CAVOK 37/19 Q1011,DFOO,2017-04-29T15:00:00Z,11.17,-4.32,37.0,19.0,180,6,,6.21,29.852362,,,,,,,,,,,CAVOK,,,,,,,,VFR,,,,,,,,,,,,METAR,460.0
FTTJ 291500Z 10008KT 020V150 9999 FEW040 43/08 Q1006 NOSIG,FTTJ,2017-04-29T15:00:00Z,12.12,15.02,43.0,8.0,100,8,,6.21,29.704725,,,,,,TRUE,,,,,FEW,4000,,,,,,,VFR,,,,,,,,,,,,METAR,295.0
DBBB 291500Z 18011KT 9999 SCT013 32/26 Q1009 NOSIG,DBBB,2017-04-29T15:00:00Z,6.33,2.37,32.0,26.0,180,11,,6.21,29.793306,,,,,,TRUE,,,,,SCT,1300,,,,,,,VFR,,,,,,,,,,,,METAR,9.0
DGAA 291500Z 18011KT 140V200 9999 FEW017 31/25 Q1010 NOSIG,DGAA,2017-04-29T15:00:00Z,5.58,-0.17,31.0,25.0,180,11,,6.21,29.822834,,,,,,TRUE,,,,,FEW,1700,,,,,,,VFR,,,,,,,,,,,,METAR,69.0
RPMZ 291500Z 00000KT 9999 FEW017 SCT300 26/24 Q1013 RMK A2991,RPMZ,2017-04-29T15:00:00Z,6.92,122.07,26.0,24.0,0,0,,6.21,29.911417,,,,,,,,,,,FEW,1700,SCT,30000,,,,,VFR,,,,,,,,,,,,METAR,6.0
RPLI 291500Z 00000KT 9999 FEW019 26/23 Q1010 NOSIG RMK A2983,RPLI,2017-04-29T15:00:00Z,18.17,120.52,26.0,23.0,0,0,,6.21,29.822834,,,,,,TRUE,,,,,FEW,1900,,,,,,,VFR,,,,,,,,,,,,METAR,5.0
RPLB 291500Z VRB02KT 9999 FEW020 28/23 Q1011 NOSIG RMK A2985,RPLB,2017-04-29T15:00:00Z,14.8,120.27,28.0,23.0,0,2,,6.21,29.852362,,,,,,TRUE,,,,,FEW,2000,,,,,,,VFR,,,,,,,,,,,,METAR,17.0
RPMD 291500Z 16004KT 9999 FEW015CB SCT016 BKN290 28/26 Q1012 RMK A2988 DSTNT LTG NE,RPMD,2017-04-29T15:00:00Z,7.12,125.65,28.0,26.0,160,4,,6.21,29.88189,,,,,,,,,,,FEW,1500,SCT,1600,BKN,29000,,,VFR,,,,,,,,,,,,METAR,18.0
RPVM 291500Z 00000KT 9999 FEW020 27/23 Q1012 NOSIG RMK A2988,RPVM,2017-04-29T15:00:00Z,10.32,123.98,27.0,23.0,0,0,,6.21,29.88189,,,,,,TRUE,,,,,FEW,2000,,,,,,,VFR,,,,,,,,,,,,METAR,10.0
RPLL 291500Z 17003KT 090V210 9000 FEW022CB FEW023 SCT100 29/27 Q1011 NOSIG RMK A2985 CB E-SE,RPLL,2017-04-29T15:00:00Z,14.52,121.0,29.0,27.0,170,3,,5.59,29.852362,,,,,,TRUE,,,,,FEW,2200,FEW,2300,SCT,10000,,,VFR,,,,,,,,,,,,METAR,21.0
DRRN 291500Z VRB02KT 9999 FEW046 42/10 Q1007 NOSIG,DRRN,2017-04-29T15:00:00Z,13.47,2.17,42.0,10.0,0,2,,6.21,29.734253,,,,,,TRUE,,,,,FEW,4600,,,,,,,VFR,,,,,,,,,,,,METAR,227.0
DNMM 291500Z 16008KT 9999 SCT015 33/24 Q1011 NOSIG,DNMM,2017-04-29T15:00:00Z,6.57,3.32,33.0,24.0,160,8,,6.21,29.852362,,,,,,TRUE,,,,,SCT,1500,,,,,,,VFR,,,,,,,,,,,,METAR,38.0
DXSK 291500Z 00000KT 9999 SCT013 BKN160 34/27 Q////,DXSK,2017-04-29T15:00:00Z,9.0,1.15,34.0,27.0,0,0,,6.21,,,,,,,,,,,,SCT,1300,BKN,16000,,,,,VFR,,,,,,,,,,,,METAR,387.0
DXNG 291500Z 24006KT 180V280 9999 BKN010 33/22 Q1012 NOSIG,DXNG,2017-04-29T15:00:00Z,9.77,1.1,33.0,22.0,240,6,,6.21,29.88189,,,,,,TRUE,,,,,BKN,1000,,,,,,,MVFR,,,,,,,,,,,,METAR,343.0
DXXX 291500Z 19013KT 9999 FEW016 32/25 Q1010 NOSIG,DXXX,2017-04-29T15:00:00Z,6.17,1.25,32.0,25.0,190,13,,6.21,29.822834,,,,,,TRUE,,,,,FEW,1600,,,,,,,VFR,,,,,,,,,,,,METAR,25.0
FWKI 291500Z 13009KT 9999 FEW030 23/14 Q1022 NOSIG,FWKI,2017-04-29T15:00:00Z,-13.77,33.77,23.0,14.0,130,9,,6.21,30.177166,,,,,,TRUE,,,,,FEW,3000,,,,,,,VFR,,,,,,,,,,,,SPECI,1229.0
GUCY 291500Z 28006KT 9999 SCT015 BKN110 31/24 Q1011 NOSIG,GUCY,2017-04-29T15:00:00Z,9.57,-13.62,31.0,24.0,280,6,,6.21,29.852362,,,,,,TRUE,,,,,SCT,1500,BKN,11000,,,,,VFR,,,,,,,,,,,,METAR,26.0
GQPZ 291500Z VRB04KT 9999 FEW050TCU 31/13 Q1015,GQPZ,2017-04-29T15:00:00Z,22.75,-12.48,31.0,13.0,0,4,,6.21,29.970472,,,,,,,,,,,FEW,5000,,,,,,,VFR,,,,,,,,,,,,METAR,344.0
GOGG 291500Z 28006KT CAVOK 39/19 Q1011,GOGG,2017-04-29T15:00:00Z,12.55,-16.27,39.0,19.0,280,6,,6.21,29.852362,,,,,,,,,,,CAVOK,,,,,,,,VFR,,,,,,,,,,,,METAR,23.0
GOGS 291500Z 32010KT CAVOK 28/19 Q1011,GOGS,2017-04-29T15:00:00Z,12.4,-16.75,28.0,19.0,320,10,,6.21,29.852362,,,,,,,,,,,CAVOK,,,,,,,,VFR,,,,,,,,,,,,METAR,13.0
WMKB 291500Z 14005KT 8000 -TSRA FEW017CB SCT024 BKN260 26/25 Q1011 NOSIG,WMKB,2017-04-29T15:00:00Z,5.47,100.37,26.0,25.0,140,5,,4.97,29.852362,,,,,,TRUE,,,,-TSRA,FEW,1700,SCT,2400,BKN,26000,,,MVFR,,,,,,,,,,,,METAR,4.0
WMKN 291500Z 23003KT 9999 FEW017CB BKN300 29/25 Q1011,WMKN,2017-04-29T15:00:00Z,5.37,103.08,29.0,25.0,230,3,,6.21,29.852362,,,,,,,,,,,FEW,1700,BKN,30000,,,,,VFR,,,,,,,,,,,,METAR,6.0
WMKM 291500Z 01002KT 9999 FEW017CB SCT140 BKN270 27/24 Q1012,WMKM,2017-04-29T15:00:00Z,2.27,102.25,27.0,24.0,10,2,,6.21,29.88189,,,,,,,,,,,FEW,1700,SCT,14000,BKN,27000,,,VFR,,,,,,,,,,,,METAR,9.0
WMKL 291500Z 03002KT 9999 FEW025 BKN280 29/27 Q1011,WMKL,2017-04-29T15:00:00Z,6.32,99.72,29.0,27.0,30,2,,6.21,29.852362,,,,,,,,,,,FEW,2500,BKN,28000,,,,,VFR,,,,,,,,,,,,METAR,7.0
WMKI 291500Z 01001KT 9999 FEW006 FEW017CB SCT140 BKN260 25/25 Q1012,WMKI,2017-04-29T15:00:00Z,4.57,101.08,25.0,25.0,10,1,,6.21,29.88189,,,,,,,,,,,FEW,600,FEW,1700,SCT,14000,BKN,26000,VFR,,,,,,,,,,,,METAR,39.0
WMKE 291500Z AUTO 00000KT //// // 26/25 Q1011,WMKE,2017-04-29T15:00:00Z,4.53,103.43,26.0,25.0,0,0,,,29.852362,,,TRUE,,,,,,,,,,,,,,,,,,,,,,,,,,,,METAR,5.0
WMKD 291500Z 29001KT 9999 FEW017CB SCT160 BKN280 27/26 Q1011 TEMPO 8000 -TSRA,WMKD,2017-04-29T15:00:00Z,3.77,103.22,27.0,26.0,290,1,,6.21,29.852362,,,,,,,,,,,FEW,1700,SCT,16000,BKN,28000,,,VFR,,,,,,,,,,,,METAR,16.0
WMKC 291500Z 16001KT 9999 FEW020 SCT140 BKN280 29/24 Q1011,WMKC,2017-04-29T15:00:00Z,6.17,102.27,29.0,24.0,160,1,,6.21,29.852362,,,,,,,,,,,FEW,2000,SCT,14000,BKN,28000,,,VFR,,,,,,,,,,,,METAR,5.0
WMKA 291500Z 15003KT 9999 FEW017CB BKN260 26/25 Q1011 RETS,WMKA,2017-04-29T15:00:00Z,6.2,100.4,26.0,25.0,150,3,,6.21,29.852362,,,,,,,,,,,FEW,1700,BKN,26000,,,,,VFR,,,,,,,,,,,,METAR,5.0
WMBA 291500Z 00000KT 9999 FEW017CB SCT140 BKN260 28/26 Q1011,WMBA,2017-04-29T15:00:00Z,4.22,100.7,28.0,26.0,0,0,,6.21,29.852362,,,,,,,,,,,FEW,1700,SCT,14000,BKN,26000,,,VFR,,,,,,,,,,,,METAR,8.0
WMAU 291500Z AUTO 24004KT 210V310 //// // 26/25 Q//// QFF1001,WMAU,2017-04-29T15:00:00Z,2.38,103.88,26.0,25.0,240,4,,0.62,,,,TRUE,,,,,,,,,,,,,,,,,,,,,,,,,,,,METAR,45.0
GANR 291500Z 08006KT 9999 FEW030 44/03 Q1008,GANR,2017-04-29T15:00:00Z,15.23,-9.58,44.0,3.0,80,6,,6.21,29.763779,,,,,,,,,,,FEW,3000,,,,,,,VFR,,,,,,,,,,,,METAR,237.0
GAMB 291500Z 16002KT CAVOK 42/14 Q1007,GAMB,2017-04-29T15:00:00Z,14.52,-4.08,42.0,14.0,160,2,,6.21,29.734253,,,,,,,,,,,CAVOK,,,,,,,,VFR,,,,,,,,,,,,METAR,272.0
WBKW 291500Z 33003KT 9999 FEW017 BKN300 26/25 Q1012,WBKW,2017-04-29T15:00:00Z,4.32,118.12,26.0,25.0,330,3,,6.21,29.88189,,,,,,,,,,,FEW,1700,BKN,30000,,,,,VFR,,,,,,,,,,,,METAR,20.0
WBKT 291500Z 27002KT 9999 FEW015 BKN280 26/24 Q1012,WBKT,2017-04-29T15:00:00Z,6.92,116.82,26.0,24.0,270,2,,6.21,29.88189,,,,,,,,,,,FEW,1500,BKN,28000,,,,,VFR,,,,,,,,,,,,METAR,5.0
WBKS 291500Z 29003KT 9999 FEW015 BKN280 27/25 Q1011,WBKS,2017-04-29T15:00:00Z,5.9,118.07,27.0,25.0,290,3,,6.21,29.852362,,,,,,,,,,,FEW,1500,BKN,28000,,,,,VFR,,,,,,,,,,,,METAR,13.0
WBKL 291500Z 19002KT 9999 FEW014 BKN300 27/25 Q1012,WBKL,2017-04-29T15:00:00Z,5.28,115.25,27.0,25.0,190,2,,6.21,29.88189,,,,,,,,,,,FEW,1400,BKN,30000,,,,,VFR,,,,,,,,,,,,METAR,30.0
WBGY 291500Z 11002KT 9999 -RA SCT022 BKN150 25/24 Q1012,WBGY,2017-04-29T15:00:00Z,1.22,111.43,25.0,24.0,110,2,,6.21,29.88189,,,,,,,,,,-RA,SCT,2200,BKN,15000,,,,,VFR,,,,,,,,,,,,METAR,34.0
WBGS 291500Z 08002KT 9999 SCT016 BKN150 24/23 Q1012,WBGS,2017-04-29T15:00:00Z,2.27,111.98,24.0,23.0,80,2,,6.21,29.88189,,,,,,,,,,,SCT,1600,BKN,15000,,,,,VFR,,,,,,,,,,,,METAR,8.0
WBGR 291500Z 09002KT 9999 FEW016 SCT150 BKN300 25/25 Q1012,WBGR,2017-04-29T15:00:00Z,4.32,113.97,25.0,25.0,90,2,,6.21,29.88189,,,,,,,,,,,FEW,1600,SCT,15000,BKN,30000,,,VFR,,,,,,,,,,,,METAR,18.0
WBGB 291500Z 12002KT 9999 SCT016 BKN150 24/24 Q1013,WBGB,2017-04-29T15:00:00Z,3.12,113.02,24.0,24.0,120,2,,6.21,29.911417,,,,,,,,,,,SCT,1600,BKN,15000,,,,,VFR,,,,,,,,,,,,METAR,5.0
SVMG 291500Z /////KT 9999 FEW010 31/24 Q1014 NOSIG,SVMG,2017-04-29T15:00:00Z,10.92,-63.97,31.0,24.0,,,,6.21,29.940945,,,,,,TRUE,,,,,FEW,1000,,,,,,,VFR,,,,,,,,,,,,METAR,23.0
WMSA 291500Z 35003KT 9000 FEW025 SCT140 BKN280 25/23 Q1013,WMSA,2017-04-29T15:00:00Z,3.13,101.55,25.0,23.0,350,3,,5.59,29.911417,,,,,,,,,,,FEW,2500,SCT,14000,BKN,28000,,,VFR,,,,,,,,,,,,METAR,27.0
WMKJ 291500Z 00000KT 9999 FEW017CB BKN280 25/24 Q1011,WMKJ,2017-04-29T15:00:00Z,1.62,103.67,25.0,24.0,0,0,,6.21,29.852362,,,,,,,,,,,FEW,1700,BKN,28000,,,,,VFR,,,,,,,,,,,,METAR,40.0
VOVZ 291500Z 33018KT 6000 FEW016 FEW025CB BKN090 31/14 Q1008 TEMPO 5000 DZ,VOVZ,2017-04-29T15:00:00Z,17.75,83.22,31.0,14.0,330,18,,3.73,29.763779,,,,,,,,,,,FEW,1600,FEW,2500,BKN,9000,,,MVFR,,,,,,,,,,,,METAR,5.0
ROYN 291500Z AUTO 15004KT 9999 SCT038 BKN044 BKN150 19/15 Q1015,ROYN,2017-04-29T15:00:00Z,24.47,122.97,19.0,15.0,150,4,,6.21,29.970472,,,TRUE,,,,,,,,SCT,3800,BKN,4400,BKN,15000,,,VFR,,,,,,,,,,,,METAR,17.0
RORY 291500Z AUTO VRB02KT 9999 NCD 18/10 Q1015,RORY,2017-04-29T15:00:00Z,27.05,128.4,18.0,10.0,0,2,,6.21,29.970472,,,TRUE,,,,,,,,CLR,,,,,,,,VFR,,,,,,,,,,,,METAR,16.0
VDSR 291500Z 09003KT 9000 NSC 27/27 Q1011,VDSR,2017-04-29T15:00:00Z,13.42,103.83,27.0,27.0,90,3,,5.59,29.852362,,,,,,,,,,,CLR,,,,,,,,VFR,,,,,,,,,,,,METAR,15.0
UWOR 291500Z 29004MPS CAVOK 18/04 Q1027 R25/CLRD65 NOSIG RMK QFE746/0995,UWOR,2017-04-29T15:00:00Z,51.07,58.6,18.0,4.0,290,8,,6.21,30.324802,,,,,,TRUE,,,,,CAVOK,,,,,,,,VFR,,,,,,,,,,,,METAR,277.0
UWLW 291500Z 19006MPS 8000 NSC 21/M02 Q1025 R20/CLRD60 NOSIG RMK QFE763,UWLW,2017-04-29T15:00:00Z,54.4,48.8,21.0,-2.0,190,12,,4.97,30.265747,,,,,,TRUE,,,,,CLR,,,,,,,,MVFR,,,,,,,,,,,,METAR,66.0
UUBP 291500Z 16006MPS CAVOK 25/M01 Q1013 R16/////// NOSIG RMK QFE741/0989,UUBP,2017-04-29T15:00:00Z,53.22,34.18,25.0,-1.0,160,12,,6.21,29.911417,,,,,,TRUE,,,,,CAVOK,,,,,,,,VFR,,,,,,,,,,,,METAR,202.0
UIAA 291500Z 20001MPS 9999 NSC 07/M07 Q1009 R29/CLRD70 NOSIG RMK QFE698,UIAA,2017-04-29T15:00:00Z,52.02,113.32,7.0,-7.0,200,2,,6.21,29.793306,,,,,,TRUE,,,,,CLR,,,,,,,,VFR,,,,,,,,,,,,METAR,685.0
UNTT 291500Z 25003MPS 9999 -SHRA SCT009 BKN019CB 04/03 Q1015 NOSIG RMK QFE745,UNTT,2017-04-29T15:00:00Z,56.38,85.22,4.0,3.0,250,6,,6.21,29.970472,,,,,,TRUE,,,,-SHRA,SCT,900,BKN,1900,,,,,MVFR,,,,,,,,,,,,METAR,182.0
TDCF 291500Z 29002KT 9999 BKN019 30/23 Q1016,TDCF,2017-04-29T15:00:00Z,15.33,-61.4,30.0,23.0,290,2,,6.21,30.0,,,,,,,,,,,BKN,1900,,,,,,,MVFR,,,,,,,,,,,,METAR,5.0
UHSS 291500Z 16001MPS 9999 BKN010 BKN027CB 02/02 Q1005 R01/CLRD70 NOSIG RMK MT OBSC QFE752/1003,UHSS,2017-04-29T15:00:00Z,46.88,142.72,2.0,2.0,160,2,,6.21,29.675198,,,,,,TRUE,,,,,BKN,1000,BKN,2700,,,,,MVFR,,,,,,,,,,,,METAR,31.0
UHPP 291500Z 06001MPS 9999 SCT040 01/M01 Q0999 R34L/CLRD70 NOSIG RMK QFE746/0995,UHPP,2017-04-29T15:00:00Z,53.17,158.45,1.0,-1.0,60,2,,6.21,29.498032,,,,,,TRUE,,,,,SCT,4000,,,,,,,VFR,,,,,,,,,,,,METAR,40.0
UHMM 291500Z 06001MPS 9999 FEW040 M04/M06 Q1006 RMK QFE740,UHMM,2017-04-29T15:00:00Z,59.92,150.72,-4.0,-6.0,60,2,,6.21,29.704725,,,,,,,,,,,FEW,4000,,,,,,,VFR,,,,,,,,,,,,METAR,175.0
UHBB 291500Z 02006G11MPS 9999 SCT033CB 05/04 Q0999 R36/190060 NOSIG RMK QFE732/0976,UHBB,2017-04-29T15:00:00Z,50.43,127.42,5.0,4.0,20,12,21,6.21,29.498032,,,,,,TRUE,,,,,SCT,3300,,,,,,,VFR,,,,,,,,,,,,METAR,195.0
VGEG 291500Z 19004KT 4000 HZ NSC 29/27 Q1008 NOSIG,VGEG,2017-04-29T15:00:00Z,22.27,91.82,29.0,27.0,190,4,,2.49,29.763779,,,,,,TRUE,,,,HZ,CLR,,,,,,,,IFR,,,,,,,,,,,,METAR,6.0
FKYS 291500Z 08003KT 9999 BKN023 FEW026CB 33/21 Q1012 NOSIG,FKYS,2017-04-29T15:00:00Z,3.82,11.52,33.0,21.0,80,3,,6.21,29.88189,,,,,,TRUE,,,,,BKN,2300,FEW,2600,,,,,MVFR,,,,,,,,,,,,METAR,760.0
FKKR 291500Z 22008KT 9999 SCT020TCU FEW023CB 40/20 Q1006 NOSIG,FKKR,2017-04-29T15:00:00Z,9.32,13.37,40.0,20.0,220,8,,6.21,29.704725,,,,,,TRUE,,,,,SCT,2000,FEW,2300,,,,,VFR,,,,,,,,,,,,METAR,244.0
FKKN 291500Z 18010KT 9999 TS SCT020 FEW023CB 24/18 Q1015,FKKN,2017-04-29T15:00:00Z,7.33,13.57,24.0,18.0,180,10,,6.21,29.970472,,,,,,,,,,TS,SCT,2000,FEW,2300,,,,,VFR,,,,,,,,,,,,METAR,1104.0
VOMD 291500Z 17008KT 6000 FEW020 32/20 Q1010 NOSIG,VOMD,2017-04-29T15:00:00Z,9.82,78.07,32.0,20.0,170,8,,3.73,29.822834,,,,,,TRUE,,,,,FEW,2000,,,,,,,MVFR,,,,,,,,,,,,METAR,131.0
VTSG 291500Z AUTO VRB02KT 6000 ////// 27/25 Q1011 A2987,VTSG,2017-04-29T15:00:00Z,8.1,98.98,27.0,25.0,0,2,,3.73,29.852362,,,TRUE,,,,,,,,,,,,,,,,,,,,,,,,,,,,METAR,25.0
CWWZ 291500Z AUTO 30005KT 09/02 RMK AO1 SLP206 T00860024 51023,CWWZ,2017-04-29T15:00:00Z,43.25,-79.22,8.6,2.4,300,5,,,,1020.6,,TRUE,TRUE,,,,,,,,,,,,,,,,2.3,,,,,,,,,,,METAR,79.0
CWPO 291500Z AUTO 19012KT 10/M07 RMK AO1 SLP272 T01021074 53005,CWPO,2017-04-29T15:00:00Z,49.2,-98.9,10.2,-7.4,190,12,,,,1027.2,,TRUE,TRUE,,,,,,,,,,,,,,,,0.5,,,,,,,,,,,METAR,470.0
CWWB 291500Z AUTO 13007KT 07/03 RMK AO1 SLP202 T00730026 51019,CWWB,2017-04-29T15:00:00Z,43.3,-79.78,7.3,2.6,130,7,,,,1020.2,,TRUE,TRUE,,,,,,,,,,,,,,,,1.9,,,,,,,,,,,METAR,76.0
CWPC 291500Z AUTO 02009KT 09/03 RMK AO1 SLP200 T00930026 51020,CWPC,2017-04-29T15:00:00Z,42.87,-79.25,9.3,2.6,20,9,,,,1020.0,,TRUE,TRUE,,,,,,,,,,,,,,,,2.0,,,,,,,,,,,METAR,184.0
CWLS 291500Z AUTO 33010G15KT 06/M00 RMK AO1 PK WND 31017/1440 SLP210 T00581003 51016,CWLS,2017-04-29T15:00:00Z,43.97,-80.75,5.8,-0.3,330,10,15,,,1021.0,,TRUE,TRUE,,,,,,,,,,,,,,,,1.6,,,,,,,,,,,METAR,415.0
CWBE 291500Z AUTO 32010G18KT 05/M05 RMK AO1 PK WND 29023/1410 SLP230 T00531049 50008,CWBE,2017-04-29T15:00:00Z,45.98,-81.48,5.3,-4.9,320,10,18,,,1023.0,,TRUE,TRUE,,,,,,,,,,,,,,,,0.8,,,,,,,,,,,METAR,196.0
CTCK 291500Z AUTO 26008G15KT 15/07 RMK AO1 SOG 00 0002 SLP133 T01490073,CTCK,2017-04-29T15:00:00Z,45.25,-74.97,14.9,7.3,260,8,15,,,1013.3,,TRUE,TRUE,,,,,,,,,,,,,,,,,,,,,,,,,,,METAR,85.0
CWNZ 291500Z AUTO 32009G16KT 03/M08 RMK AO1 SOG 04 3036 PK WND 32018/1407 SLP243 T00271079,CWNZ,2017-04-29T15:00:00Z,49.75,-84.17,2.7,-7.9,320,9,16,,,1024.3,,TRUE,TRUE,,,,,,,,,,,,,,,,,,,,,,,,,,,METAR,256.0
CWNC 291500Z AUTO 33008KT 10/01 RMK AO1 SLP178 T01040006 51014,CWNC,2017-04-29T15:00:00Z,43.95,-78.17,10.4,0.6,330,8,,,,1017.8,,TRUE,TRUE,,,,,,,,,,,,,,,,1.4,,,,,,,,,,,METAR,78.0
CWDV 291500Z AUTO 03003KT 03/M09 RMK AO1 SOG 19 1022 SLP285 T00301094,CWDV,2017-04-29T15:00:00Z,49.02,-90.47,3.0,-9.4,30,3,,,,1028.5,,TRUE,TRUE,,,,,,,,,,,,,,,,,,,,,,,,,,,METAR,489.0
CWJH 291500Z AUTO 14002KT 05/M07 RMK AO1 SOG 24 8005 SLP240 T00521069,CWJH,2017-04-29T15:00:00Z,56.32,-103.27,5.2,-6.9,140,2,,,,1024.0,,TRUE,TRUE,,,,,,,,,,,,,,,,,,,,,,,,,,,METAR,344.0
CWJB 291500Z AUTO 22005KT 12/09 RMK AO1 SOG 00 T01150092,CWJB,2017-04-29T15:00:00Z,46.78,-71.27,11.5,9.2,220,5,,,,,,TRUE,TRUE,,,,,,,,,,,,,,,,,,,,,,,,,,,METAR,91.0
CWIZ 291500Z AUTO 25011G18KT 18/08 RMK AO1 PK WND 23018/1451 T01810082,CWIZ,2017-04-29T15:00:00Z,45.28,-73.33,18.1,8.2,250,11,18,,,,,TRUE,TRUE,,,,,,,,,,,,,,,,,,,,,,,,,,,METAR,45.0
CWIW 291500Z AUTO 27012KT 06/01 RMK AO1 SOG 01 1008 PK WND 28017/1447 SLP231 T00550014,CWIW,2017-04-29T15:00:00Z,51.67,-105.4,5.5,1.4,270,12,,,,1023.1,,TRUE,TRUE,,,,,,,,,,,,,,,,,,,,,,,,,,,METAR,526.0
CWIT 291500Z AUTO 27009G15KT 18/08 RMK AO1 PK WND 26017/1449 SLP119 T01810077 58005,CWIT,2017-04-29T15:00:00Z,45.17,-73.67,18.1,7.7,270,9,15,,,1011.9,,TRUE,TRUE,,,,,,,,,,,,,,,,-0.5,,,,,,,,,,,METAR,52.0
CWIS 291500Z AUTO 25008G20KT 09/04 RMK AO1 SOG 75 8015 PK WND 29020/1459 SLP074 T00870043,CWIS,2017-04-29T15:00:00Z,47.28,-70.63,8.7,4.3,250,8,20,,,1007.4,,TRUE,TRUE,,,,,,,,,,,,,,,,,,,,,,,,,,,METAR,719.0
CWIP 291500Z AUTO 01005KT 02/ RMK AO1 T0024,CWIP,2017-04-29T15:00:00Z,50.17,-66.43,2.4,,10,5,,,,,,TRUE,TRUE,,,,,,,,,,,,,,,,,,,,,,,,,,,METAR,25.0
CWII 291500Z AUTO 31003KT 03/M00 RMK AO1 T00311002,CWII,2017-04-29T15:00:00Z,50.7,-96.57,3.1,-0.2,310,3,,,,,,TRUE,TRUE,,,,,,,,,,,,,,,,,,,,,,,,,,,METAR,220.0
CWIG 291500Z AUTO 22019G26KT RMK AO1 PK WND 22026/1459,CWIG,2017-04-29T15:00:00Z,47.07,-70.53,,,220,19,26,,,,,TRUE,TRUE,,,,,,,,,,,,,,,,,,,,,,,,,,,METAR,18.0
CWID 291500Z AUTO 24001KT 05/M02 RMK AO1 SLP160 T00471020 56008,CWID,2017-04-29T15:00:00Z,61.32,-117.6,4.7,-2.0,240,1,,,,1016.0,,TRUE,TRUE,,,,,,,,,,,,,,,,-0.8,,,,,,,,,,,METAR,161.0
CWHV 291500Z AUTO 24006G18KT 18/06 RMK AO1 PK WND 25018/1459 SLP094 T01750058 58010,CWHV,2017-04-29T15:00:00Z,46.2,-70.77,17.5,5.8,240,6,18,,,1009.4,,TRUE,TRUE,,,,,,,,,,,,,,,,-1.0,,,,,,,,,,,METAR,229.0
CWHT 291500Z AUTO 20001KT M02/M04 RMK AO1 SOG 02 6009 SLP175 T10161037,CWHT,2017-04-29T15:00:00Z,60.77,-137.58,-1.6,-3.7,200,1,,,,1017.5,,TRUE,TRUE,,,,,,,,,,,,,,,,,,,,,,,,,,,METAR,599.0
CWHL 291500Z AUTO 09007G16KT 08/03 RMK AO1 SLP125 T00830027 56048,CWHL,2017-04-29T15:00:00Z,54.17,-130.35,8.3,2.7,90,7,16,,,1012.5,,TRUE,TRUE,,,,,,,,,,,,,,,,-4.8,,,,,,,,,,,METAR,5.0
CWGY 291500Z AUTO 16004KT 08/M04 RMK AO1 SLP235 T00781035 58001,CWGY,2017-04-29T15:00:00Z,51.67,-110.2,7.8,-3.5,160,4,,,,1023.5,,TRUE,TRUE,,,,,,,,,,,,,,,,-0.1,,,,,,,,,,,METAR,707.0
CWGW 291500Z AUTO 15002KT 04/02 RMK AO1 SLP252 T00370017 51001,CWGW,2017-04-29T15:00:00Z,49.75,-114.9,3.7,1.7,150,2,,,,1025.2,,TRUE,TRUE,,,,,,,,,,,,,,,,0.1,,,,,,,,,,,METAR,1137.0
CWGT 291500Z AUTO 15011KT 09/06 RMK AO1 SLP236 T00890059 56006,CWGT,2017-04-29T15:00:00Z,49.48,-124.43,8.9,5.9,150,11,,,,1023.6,,TRUE,TRUE,,,,,,,,,,,,,,,,-0.6,,,,,,,,,,,METAR,5.0
CWGR 291500Z AUTO 28007KT 05/05 RMK AO1 SLP082 T00530052 55012,CWGR,2017-04-29T15:00:00Z,47.42,-61.8,5.3,5.2,280,7,,,,1008.2,,TRUE,TRUE,,,,,,,,,,,,,,,,-1.2,,,,,,,,,,,METAR,60.0
CWZW 291500Z AUTO 17001KT 01/M03 RMK AO1 SOG 02 7013 SLP190 T00131031,CWZW,2017-04-29T15:00:00Z,60.17,-132.73,1.3,-3.1,170,1,,,,1019.0,,TRUE,TRUE,,,,,,,,,,,,,,,,,,,,,,,,,,,METAR,705.0
CWVT 291500Z AUTO 24003KT 07/M05 RMK AO1 SOG 03 7002 SLP217 T00691048,CWVT,2017-04-29T15:00:00Z,55.82,-108.42,6.9,-4.8,240,3,,,,1021.7,,TRUE,TRUE,,,,,,,,,,,,,,,,,,,,,,,,,,,METAR,434.0
CWZG 291500Z AUTO 22007KT 01/M01 RMK AO1 SOG 02 3002 SLP236 T00091013 50003,CWZG,2017-04-29T15:00:00Z,51.2,-115.53,0.9,-1.3,220,7,,,,1023.6,,TRUE,TRUE,,,,,,,,,,,,,,,,0.3,,,,,,,,,,,METAR,1397.0
CWRO 291500Z AUTO 12026G31KT 07/ RMK AO1 PK WND 12031/1451 T0074,CWRO,2017-04-29T15:00:00Z,54.17,-131.67,7.4,,120,26,31,,,,,TRUE,TRUE,,,,,,,,,,,,,,,,,,,,,,,,,,,METAR,7.0
CWLP 291500Z AUTO 14037G44KT 06/05 RMK AO1 2PAST HR PRESFR 8051 PK WND 14044/1452 SLP163 P0001 T00620047 50004,CWLP,2017-04-29T15:00:00Z,50.93,-127.63,6.2,4.7,140,37,44,,,1016.3,,TRUE,TRUE,,,,,,,,,,,,,,,,0.4,,,,,0.01,,,,,,METAR,17.0
CWJD 291500Z AUTO 07005KT 02/M07 RMK AO1 SLP257 T00231069 58004,CWJD,2017-04-29T15:00:00Z,53.17,-99.27,2.3,-6.9,70,5,,,,1025.7,,TRUE,TRUE,,,,,,,,,,,,,,,,-0.4,,,,,,,,,,,METAR,223.0
CWEQ 291500Z AUTO 02002KT 02/M02 RMK AO1 2PAST HR SOG 03 0002 SLP235 P0001 T00191021 50002,CWEQ,2017-04-29T15:00:00Z,52.12,-101.22,1.9,-2.1,20,2,,,,1023.5,,TRUE,TRUE,,,,,,,,,,,,,,,,0.2,,,,,0.01,,,,,,METAR,335.0
CWOY 291500Z AUTO 23011KT 04/02 RMK AO1 SLP231 T00350018 53010,CWOY,2017-04-29T15:00:00Z,51.77,-104.2,3.5,1.8,230,11,,,,1023.1,,TRUE,TRUE,,,,,,,,,,,,,,,,1.0,,,,,,,,,,,METAR,560.0
CWEH 291500Z AUTO 15003KT 04/M01 RMK AO1 SOG 00 3008 SLP250 T00361010,CWEH,2017-04-29T15:00:00Z,49.42,-108.97,3.6,-1.0,150,3,,,,1025.0,,TRUE,TRUE,,,,,,,,,,,,,,,,,,,,,,,,,,,METAR,1078.0
CWDC 291500Z AUTO 07006KT 04/M02 RMK AO1 SLP207 T00441022 58010,CWDC,2017-04-29T15:00:00Z,59.57,-108.47,4.4,-2.2,70,6,,,,1020.7,,TRUE,TRUE,,,,,,,,,,,,,,,,-1.0,,,,,,,,,,,METAR,318.0
CZZJ 291500Z AUTO 26004KT 05/M00 RMK AO1 SOG 00 6003 SLP216 T00471002,CZZJ,2017-04-29T15:00:00Z,53.58,-116.47,4.7,-0.2,260,4,,,,1021.6,,TRUE,TRUE,,,,,,,,,,,,,,,,,,,,,,,,,,,METAR,927.0
CZTB 291500Z AUTO 09002KT 05/M09 RMK AO1 SOG 06 1038 SLP291 T00461086,CZTB,2017-04-29T15:00:00Z,48.37,-89.32,4.6,-8.6,90,2,,,,1029.1,,TRUE,TRUE,,,,,,,,,,,,,,,,,,,,,,,,,,,METAR,199.0
CXZV 291500Z AUTO 15003KT 02/01 RMK AO1 SOG 63 8018 SLP045 T00150009,CXZV,2017-04-29T15:00:00Z,50.22,-66.25,1.5,0.9,150,3,,,,1004.5,,TRUE,TRUE,,,,,,,,,,,,,,,,,,,,,,,,,,,METAR,52.0
CXVN 291500Z AUTO 02003KT 08/01 RMK AO1 SLP197 T00800012 51020,CXVN,2017-04-29T15:00:00Z,43.18,-79.4,8.0,1.2,20,3,,,,1019.7,,TRUE,TRUE,,,,,,,,,,,,,,,,2.0,,,,,,,,,,,METAR,79.0
CXTO 291500Z AUTO 09/M00 RMK AO1 SLP198 T00851003 50019,CXTO,2017-04-29T15:00:00Z,43.67,-79.4,8.5,-0.3,,,,,,1019.8,,TRUE,TRUE,,,,,,,,,,,,,,,,1.9,,,,,,,,,,,METAR,113.0
CXTD 291500Z AUTO 26011G18KT 22/07 RMK AO1 PK WND 26018/1454 SLP100 T02160073 56025,CXTD,2017-04-29T15:00:00Z,45.62,-61.68,21.6,7.3,260,11,18,,,1010.0,,TRUE,TRUE,,,,,,,,,,,,,,,,-2.5,,,,,,,,,,,METAR,68.0
CXRL 291500Z AUTO 13004KT 02/M02 RMK AO1 T00231019,CXRL,2017-04-29T15:00:00Z,54.5,-111.7,2.3,-1.9,130,4,,,,,,TRUE,TRUE,,,,,,,,,,,,,,,,,,,,,,,,,,,METAR,585.0
CXRB 291500Z AUTO 36005KT M20/M24 RMK AO1 SOG 01 7002 SLP216 T11951244,CXRB,2017-04-29T15:00:00Z,74.72,-94.98,-19.5,-24.4,360,5,,,,1021.6,,TRUE,TRUE,,,,,,,,,,,,,,,,,,,,,,,,,,,METAR,68.0
CXPC 291500Z AUTO 07/M01 RMK AO1 SOG 00 1011 SLP194 T00671006,CXPC,2017-04-29T15:00:00Z,45.35,-80.05,6.7,-0.6,,,,,,1019.4,,TRUE,TRUE,,,,,,,,,,,,,,,,,,,,,,,,,,,METAR,176.0
CXLB 291500Z AUTO 14006KT 11/11 RMK AO1 SLP110 T01130107 58023,CXLB,2017-04-29T15:00:00Z,44.37,-64.3,11.3,10.7,140,6,,,,1011.0,,TRUE,TRUE,,,,,,,,,,,,,,,,-2.3,,,,,,,,,,,METAR,4.0
CXKI 291500Z AUTO 01/M04 RMK AO1 SLP198 T00061043 51035,CXKI,2017-04-29T15:00:00Z,48.22,-80.0,0.6,-4.3,,,,,,1019.8,,TRUE,TRUE,,,,,,,,,,,,,,,,3.5,,,,,,,,,,,METAR,324.0
CXCP 291500Z AUTO 30005KT 04/02 RMK AO1 T00400015,CXCP,2017-04-29T15:00:00Z,50.28,-113.35,4.0,1.5,300,5,,,,,,TRUE,TRUE,,,,,,,,,,,,,,,,,,,,,,,,,,,METAR,1006.0
CWDK 291500Z AUTO 35003KT 05/M00 RMK AO1 SOG 00 0005 SLP236 T00491004 50002,CWDK,2017-04-29T15:00:00Z,50.02,-113.62,4.9,-0.4,350,3,,,,1023.6,,TRUE,TRUE,,,,,,,,,,,,,,,,0.2,,,,,,,,,,,METAR,1012.0
CWDJ 291500Z AUTO 26009KT 05/01 RMK AO1 SOG 00 1013 SLP249 T00540013,CWDJ,2017-04-29T15:00:00Z,50.4,-104.58,5.4,1.3,260,9,,,,1024.9,,TRUE,TRUE,,,,,,,,,,,,,,,,,,,,,,,,,,,METAR,573.0
CWCO 291500Z AUTO 32020KT 05/01 RMK AO1 PK WND 31024/1450 SLP216 T00540011 51024,CWCO,2017-04-29T15:00:00Z,44.45,-80.17,5.4,1.1,320,20,,,,1021.6,,TRUE,TRUE,,,,,,,,,,,,,,,,2.4,,,,,,,,,,,METAR,221.0
CWCJ 291500Z AUTO 02005KT 05/M09 RMK AO1 SOG 01 3036 SLP267 T00491087,CWCJ,2017-04-29T15:00:00Z,48.6,-86.28,4.9,-8.7,20,5,,,,1026.7,,TRUE,TRUE,,,,,,,,,,,,,,,,,,,,,,,,,,,METAR,206.0
CWCF 291500Z AUTO 24005KT 05/M05 RMK AO1 SLP262 T00531052 50000,CWCF,2017-04-29T15:00:00Z,52.35,-97.03,5.3,-5.2,240,5,,,,1026.2,,TRUE,TRUE,,,,,,,,,,,,,,,,0.0,,,,,,,,,,,METAR,222.0
CWBZ 291500Z AUTO 27013KT 17/08 RMK AO1 PK WND 26017/1454 SLP130 T01740082 58002,CWBZ,2017-04-29T15:00:00Z,45.12,-74.27,17.4,8.2,270,13,,,,1013.0,,TRUE,TRUE,,,,,,,,,,,,,,,,-0.2,,,,,,,,,,,METAR,49.0
CWBT 291500Z AUTO 23004KT 02/02 RMK AO1 SLP053 T00170017 56016,CWBT,2017-04-29T15:00:00Z,50.27,-64.23,1.7,1.7,230,4,,,,1005.3,,TRUE,TRUE,,,,,,,,,,,,,,,,-1.6,,,,,,,,,,,METAR,11.0
CWBS 291500Z AUTO 22018KT 13/08 RMK AO1 PK WND 23023/1440 T01330077,CWBS,2017-04-29T15:00:00Z,46.18,-72.92,13.3,7.7,220,18,,,,,,TRUE,TRUE,,,,,,,,,,,,,,,,,,,,,,,,,,,METAR,16.0
CWBA 291500Z AUTO 34011G19KT 04/M04 RMK AO1 PK WND 32022/1446 T00431043,CWBA,2017-04-29T15:00:00Z,46.72,-79.1,4.3,-4.3,340,11,19,,,,,TRUE,TRUE,,,,,,,,,,,,,,,,,,,,,,,,,,,METAR,181.0
CWAV 291500Z AUTO 21001KT 04/01 RMK AO1 SLP228 T00440007 53002,CWAV,2017-04-29T15:00:00Z,51.77,-114.67,4.4,0.7,210,1,,,,1022.8,,TRUE,TRUE,,,,,,,,,,,,,,,,0.2,,,,,,,,,,,METAR,1114.0
CWAQ 291500Z AUTO 23009KT 08/02 RMK AO1 SOG 00 0009 SLP246 T00830016,CWAQ,2017-04-29T15:00:00Z,49.05,-105.48,8.3,1.6,230,9,,,,1024.6,,TRUE,TRUE,,,,,,,,,,,,,,,,,,,,,,,,,,,METAR,756.0
CWAF 291500Z AUTO 29005KT 03/03 RMK AO1 T00250031 50002,CWAF,2017-04-29T15:00:00Z,48.07,-69.53,2.5,3.1,290,5,,,,,,TRUE,TRUE,,,,,,,,,,,,,,,,0.2,,,,,,,,,,,METAR,5.0
CWPZ 291500Z AUTO 17001KT M02/M04 RMK AO1 SLP189 T10231037 58029,CWPZ,2017-04-29T15:00:00Z,54.38,-125.97,-2.3,-3.7,170,1,,,,1018.9,,TRUE,TRUE,,,,,,,,,,,,,,,,-2.9,,,,,,,,,,,METAR,713.0
CWPR 291500Z AUTO 15001KT 02/M02 RMK AO1 SLP250 T00161023 58005,CWPR,2017-04-29T15:00:00Z,49.47,-120.52,1.6,-2.3,150,1,,,,1025.0,,TRUE,TRUE,,,,,,,,,,,,,,,,-0.5,,,,,,,,,,,METAR,700.0
CWPE 291500Z AUTO 18007KT 06/06 RMK AO1 9PAST HR 8017 SLP111 P0199 T00600061 51725,CWPE,2017-04-29T15:00:00Z,45.07,-66.47,6.0,6.1,180,7,,,,1011.1,,TRUE,TRUE,,,,,,,,,,,,,,,,0.0,,,,,1.99,,,,,,METAR,1.0
CWPD 291500Z AUTO 20012G26KT 07/04 RMK AO1 6016 SLP064 T00700036 50030,CWPD,2017-04-29T15:00:00Z,47.57,-71.22,7.0,3.6,200,12,26,,,1006.4,,TRUE,TRUE,,,,,,,,,,,,,,,,3.0,,,,,,,,,,,METAR,803.0
CWOD 291500Z AUTO 30015KT 04/M01 RMK AO1 SOG 15 0016 PK WND 31025/1401 SLP086 T00441013,CWOD,2017-04-29T15:00:00Z,48.85,-72.55,4.4,-1.3,300,15,,,,1008.6,,TRUE,TRUE,,,,,,,,,,,,,,,,,,,,,,,,,,,METAR,137.0
CWOC 291500Z AUTO 25005KT 08/07 RMK AO1 SLP072 T00790072 58019,CWOC,2017-04-29T15:00:00Z,48.02,-65.32,7.9,7.2,250,5,,,,1007.2,,TRUE,TRUE,,,,,,,,,,,,,,,,-1.9,,,,,,,,,,,METAR,47.0
CWNQ 291500Z AUTO 23015KT 15/08 RMK AO1 PK WND 23020/1433 SLP098 T01540078 58013,CWNQ,2017-04-29T15:00:00Z,46.22,-72.65,15.4,7.8,230,15,,,,1009.8,,TRUE,TRUE,,,,,,,,,,,,,,,,-1.3,,,,,,,,,,,METAR,10.0
CWNP 291500Z AUTO 31001KT 06/02 RMK AO1 SLP237 T00590015 56003,CWNP,2017-04-29T15:00:00Z,50.27,-117.82,5.9,1.5,310,1,,,,1023.7,,TRUE,TRUE,,,,,,,,,,,,,,,,-0.3,,,,,,,,,,,METAR,524.0
CWNM 291500Z AUTO 03001KT 06/02 RMK AO1 SLP245 T00610017 55000,CWNM,2017-04-29T15:00:00Z,49.5,-117.28,6.1,1.7,30,1,,,,1024.5,,TRUE,TRUE,,,,,,,,,,,,,,,,0.0,,,,,,,,,,,METAR,535.0
CWNK 291500Z AUTO 17010KT 10/M10 RMK AO1 T00981095,CWNK,2017-04-29T15:00:00Z,49.5,-98.03,9.8,-9.5,170,10,,,,,,TRUE,TRUE,,,,,,,,,,,,,,,,,,,,,,,,,,,METAR,268.0
CWNE 291500Z AUTO 23012KT 09/07 RMK AO1 PK WND 22019/1414 SLP078 T00900068 55012,CWNE,2017-04-29T15:00:00Z,47.07,-64.0,9.0,6.8,230,12,,,,1007.8,,TRUE,TRUE,,,,,,,,,,,,,,,,-1.2,,,,,,,,,,,METAR,15.0
CXWN 291500Z AUTO 21002KT 09/M11 RMK AO1 SLP273 T00861110 53015,CXWN,2017-04-29T15:00:00Z,49.88,-97.13,8.6,-11.0,210,2,,,,1027.3,,TRUE,TRUE,,,,,,,,,,,,,,,,1.5,,,,,,,,,,,METAR,230.0
CXTP 291500Z AUTO 24005KT 09/09 RMK AO1 SOG 05 7020 SLP024 T00870086,CXTP,2017-04-29T15:00:00Z,48.55,-53.97,8.7,8.6,240,5,,,,1002.4,,TRUE,TRUE,,,,,,,,,,,,,,,,,,,,,,,,,,,METAR,107.0
CXSH 291500Z AUTO 24007KT 16/07 RMK AO1 SLP090 T01620073 58013,CXSH,2017-04-29T15:00:00Z,46.58,-72.73,16.2,7.3,240,7,,,,1009.0,,TRUE,TRUE,,,,,,,,,,,,,,,,-1.3,,,,,,,,,,,METAR,110.0
CXRH 291500Z AUTO 00000KT 03/04 RMK AO1 T00320041,CXRH,2017-04-29T15:00:00Z,49.57,-57.88,3.2,4.1,0,0,,,,,,TRUE,TRUE,,,,,,,,,,,,,,,,,,,,,,,,,,,METAR,68.0
CXOX 291500Z AUTO 13003KT 07/M10 RMK AO1 SOG 00 1002 SLP221 T00661099,CXOX,2017-04-29T15:00:00Z,55.15,-105.27,6.6,-9.9,130,3,,,,1022.1,,TRUE,TRUE,,,,,,,,,,,,,,,,,,,,,,,,,,,METAR,379.0
CXNM 291500Z AUTO 26013G18KT RMK AO1 SOG 138 PK WND 25018/1456,CXNM,2017-04-29T15:00:00Z,46.82,-60.67,,,260,13,18,,,,,TRUE,TRUE,,,,,,,,,,,,,,,,,,,,,,,,,,,METAR,439.0
CXMY 291500Z AUTO 22/12 RMK AO1 T02240117 50007,CXMY,2017-04-29T15:00:00Z,44.98,-62.48,22.4,11.7,,,,,,,,TRUE,TRUE,,,,,,,,,,,,,,,,0.7,,,,,,,,,,,METAR,40.0
CXMI 291500Z AUTO 16010KT 10/09 RMK AO1 T00980093,CXMI,2017-04-29T15:00:00Z,44.6,-63.53,9.8,9.3,160,10,,,,,,TRUE,TRUE,,,,,,,,,,,,,,,,,,,,,,,,,,,METAR,15.0
CXMD 291500Z AUTO 15006KT 09/M07 RMK AO1 SOG 01 3010 SLP272 T00911074,CXMD,2017-04-29T15:00:00Z,49.22,-98.08,9.1,-7.4,150,6,,,,1027.2,,TRUE,TRUE,,,,,,,,,,,,,,,,,,,,,,,,,,,METAR,301.0
CXIB 291500Z AUTO 25006KT 19/11 RMK AO1 SLP080 T01880108 56018,CXIB,2017-04-29T15:00:00Z,46.67,-60.38,18.8,10.8,250,6,,,,1008.0,,TRUE,TRUE,,,,,,,,,,,,,,,,-1.8,,,,,,,,,,,METAR,8.0
CXHF 291500Z AUTO 12/00 RMK AO1 T01200000,CXHF,2017-04-29T15:00:00Z,45.83,-75.65,12.0,0.0,,,,,,,,TRUE,TRUE,,,,,,,,,,,,,,,,,,,,,,,,,,,METAR,190.0
CXHA 291500Z AUTO 04007KT 07/03 RMK AO1 PK WND 02017/1415 SLP214 T00670027 53023,CXHA,2017-04-29T15:00:00Z,42.03,-82.9,6.7,2.7,40,7,,,,1021.4,,TRUE,TRUE,,,,,,,,,,,,,,,,2.3,,,,,,,,,,,METAR,191.0
CXGH 291500Z AUTO 13003KT 04/01 RMK AO1 T00350006,CXGH,2017-04-29T15:00:00Z,50.63,-97.0,3.5,0.6,130,3,,,,,,TRUE,TRUE,,,,,,,,,,,,,,,,,,,,,,,,,,,METAR,217.0
CXET 291500Z AUTO 32011G18KT 07/M00 RMK AO1 PK WND 34021/1410 SLP201 T00711004 51017,CXET,2017-04-29T15:00:00Z,44.23,-79.78,7.1,-0.4,320,11,18,,,1020.1,,TRUE,TRUE,,,,,,,,,,,,,,,,1.7,,,,,,,,,,,METAR,251.0
CXEG 291500Z AUTO 04/02 RMK AO1 SOG 00 T00350022,CXEG,2017-04-29T15:00:00Z,53.3,-113.6,3.5,2.2,,,,,,,,TRUE,TRUE,,,,,,,,,,,,,,,,,,,,,,,,,,,METAR,715.0
CXEC 291500Z AUTO 22003KT 07/01 RMK AO1 SOG 00 7003 SLP204 T00660008,CXEC,2017-04-29T15:00:00Z,53.57,-113.52,6.6,0.8,220,3,,,,1020.4,,TRUE,TRUE,,,,,,,,,,,,,,,,,,,,,,,,,,,METAR,671.0
CXEA 291500Z AUTO 14001KT 05/M15 RMK AO1 SLP278 T00511150 52005,CXEA,2017-04-29T15:00:00Z,50.63,-93.22,5.1,-15.0,140,1,,,,1027.8,,TRUE,TRUE,,,,,,,,,,,,,,,,0.5,,,,,,,,,,,METAR,355.0
CXDI 291500Z AUTO 36006KT 10/03 RMK AO1 SLP198 T00980033 51015,CXDI,2017-04-29T15:00:00Z,42.87,-80.55,9.8,3.3,360,6,,,,1019.8,,TRUE,TRUE,,,,,,,,,,,,,,,,1.5,,,,,,,,,,,METAR,232.0
CXCK 291500Z AUTO 28001KT M00/M01 RMK AO1 SLP173 T10021010 57004,CXCK,2017-04-29T15:00:00Z,62.12,-136.2,-0.2,-1.0,280,1,,,,1017.3,,TRUE,TRUE,,,,,,,,,,,,,,,,-0.4,,,,,,,,,,,METAR,540.0
CXCH 291500Z AUTO 11/10 RMK AO1 T01100097 50018,CXCH,2017-04-29T15:00:00Z,46.63,-60.95,11.0,9.7,,,,,,,,TRUE,TRUE,,,,,,,,,,,,,,,,1.8,,,,,,,,,,,METAR,44.0
CXCA 291500Z AUTO 25009KT 02/M12 RMK AO1 SOG 10 1029 SLP280 T00151116,CXCA,2017-04-29T15:00:00Z,49.15,-88.35,1.5,-11.6,250,9,,,,1028.0,,TRUE,TRUE,,,,,,,,,,,,,,,,,,,,,,,,,,,METAR,228.0
CXBO 291500Z AUTO 25010KT RMK AO1 0PAST HR M PK WND 23017/1444 P0004 50010,CXBO,2017-04-29T15:00:00Z,46.83,-71.2,,,250,10,,,,,,TRUE,TRUE,,,,,,,,,,,,,,,,1.0,,,,,0.04,,,,,,METAR,100.0
CXKT 291500Z AUTO 30004KT 15/14 RMK AO1 SLP108 T01480135 56023,CXKT,2017-04-29T15:00:00Z,45.07,-64.48,14.8,13.5,300,4,,,,1010.8,,TRUE,TRUE,,,,,,,,,,,,,,,,-2.3,,,,,,,,,,,METAR,49.0
CXBK 291500Z AUTO 26009KT 06/02 RMK AO1 SOG 02 1016 SLP239 T00630021,CXBK,2017-04-29T15:00:00Z,50.2,-104.7,6.3,2.1,260,9,,,,1023.9,,TRUE,TRUE,,,,,,,,,,,,,,,,,,,,,,,,,,,METAR,580.0
CMFM 291500Z AUTO 25013G21KT 08/05 RMK AO1 SOG 29 8017 PK WND 24021/1454 SLP086 T00750053 50023,CMFM,2017-04-29T15:00:00Z,47.32,-71.15,7.5,5.3,250,13,21,,,1008.6,,TRUE,TRUE,,,,,,,,,,,,,,,,2.3,,,,,,,,,,,METAR,672.0
CZEL 291500Z AUTO 31011G16KT 07/01 RMK AO1 SLP205 T00710008 51021,CZEL,2017-04-29T15:00:00Z,43.65,-80.42,7.1,0.8,310,11,16,,,1020.5,,TRUE,TRUE,,,,,,,,,,,,,,,,2.1,,,,,,,,,,,METAR,376.0
CXZC 291500Z AUTO 32014G27KT M02/M05 RMK AO1 2PAST HR PRESRR 2062 PK WND 31027/1450 SLP192 P0001 T10241048 50005,CXZC,2017-04-29T15:00:00Z,51.3,-80.62,-2.4,-4.8,320,14,27,,,1019.2,,TRUE,TRUE,,,,,,,,,,,,,,,,0.5,,,,,0.01,,,,,,METAR,9.0
CXBI 291500Z AUTO 30022G28KT 06/M02 RMK AO1 PK WND 31028/1458 SLP206 T00631017 51021,CXBI,2017-04-29T15:00:00Z,44.48,-79.55,6.3,-1.7,300,22,28,,,1020.6,,TRUE,TRUE,,,,,,,,,,,,,,,,2.1,,,,,,,,,,,METAR,289.0
CTRA 291500Z AUTO 08004KT 06/M15 RMK AO1 SOG 02 3021 SLP279 T00611149,CTRA,2017-04-29T15:00:00Z,49.67,-93.73,6.1,-14.9,80,4,,,,1027.9,,TRUE,TRUE,,,,,,,,,,,,,,,,,,,,,,,,,,,METAR,435.0
CTNK 291500Z AUTO 34005KT 09/M02 RMK AO1 SOG 00 0004 SLP164 T00871019,CTNK,2017-04-29T15:00:00Z,45.53,-78.27,8.7,-1.9,340,5,,,,1016.4,,TRUE,TRUE,,,,,,,,,,,,,,,,,,,,,,,,,,,METAR,410.0
CWGM 291500Z AUTO 23012KT 06/M01 RMK AO1 PK WND 21020/1424 T00641007,CWGM,2017-04-29T15:00:00Z,49.13,-113.78,6.4,-0.7,230,12,,,,,,TRUE,TRUE,,,,,,,,,,,,,,,,,,,,,,,,,,,METAR,1296.0
CWGL 291500Z AUTO 31017KT 06/01 RMK AO1 PK WND 30025/1400 SLP190 T00620005 51014,CWGL,2017-04-29T15:00:00Z,44.52,-79.22,6.2,0.5,310,17,,,,1019.0,,TRUE,TRUE,,,,,,,,,,,,,,,,1.4,,,,,,,,,,,METAR,221.0
CWGB 291500Z AUTO 13011KT 09/05 RMK AO1 SLP235 T00880053 56003,CWGB,2017-04-29T15:00:00Z,49.35,-124.17,8.8,5.3,130,11,,,,1023.5,,TRUE,TRUE,,,,,,,,,,,,,,,,-0.3,,,,,,,,,,,METAR,5.0
CWFQ 291500Z AUTO 29004KT 17/07 RMK AO1 SLP125 T01670070 58002,CWFQ,2017-04-29T15:00:00Z,45.03,-72.82,16.7,7.0,290,4,,,,1012.5,,TRUE,TRUE,,,,,,,,,,,,,,,,-0.2,,,,,,,,,,,METAR,152.0
CWFJ 291500Z AUTO 27006KT 08/M01 RMK AO1 T00801014,CWFJ,2017-04-29T15:00:00Z,49.2,-113.27,8.0,-1.4,270,6,,,,,,TRUE,TRUE,,,,,,,,,,,,,,,,,,,,,,,,,,,METAR,1136.0
CWFF 291500Z AUTO 20003KT 05/02 RMK AO1 SOG 00 3001 SLP219 T00510022,CWFF,2017-04-29T15:00:00Z,52.82,-104.58,5.1,2.2,200,3,,,,1021.9,,TRUE,TRUE,,,,,,,,,,,,,,,,,,,,,,,,,,,METAR,490.0
CWEZ 291500Z AUTO 18010KT 09/06 RMK AO1 SLP256 T00860064 53005,CWEZ,2017-04-29T15:00:00Z,48.78,-123.05,8.6,6.4,180,10,,,,1025.6,,TRUE,TRUE,,,,,,,,,,,,,,,,0.5,,,,,,,,,,,METAR,7.0
CWEW 291500Z AUTO 24013G21KT 17/07 RMK AO1 PK WND 22026/1447 SLP118 T01700070 58009,CWEW,2017-04-29T15:00:00Z,45.82,-73.43,17.0,7.0,240,13,21,,,1011.8,,TRUE,TRUE,,,,,,,,,,,,,,,,-0.9,,,,,,,,,,,METAR,21.0
CWEL 291500Z AUTO 18008KT 08/06 RMK AO1 SLP241 T00750058 56002,CWEL,2017-04-29T15:00:00Z,49.22,-123.78,7.5,5.8,180,8,,,,1024.1,,TRUE,TRUE,,,,,,,,,,,,,,,,-0.2,,,,,,,,,,,METAR,5.0
CWEB 291500Z AUTO 15019KT 07/06 RMK AO1 9PAST HR 6022 PK WND 16023/1432 SLP225 P0011 T00660056 50031,CWEB,2017-04-29T15:00:00Z,49.38,-126.55,6.6,5.6,150,19,,,,1022.5,,TRUE,TRUE,,,,,,,,,,,,,,,,3.1,,,,,0.11,,,,,,METAR,7.0
CXKE 291500Z AUTO 26009KT 16/07 RMK AO1 SOG 00 0000 SLP139 T01570067,CXKE,2017-04-29T15:00:00Z,45.0,-75.63,15.7,6.7,260,9,,,,1013.9,,TRUE,TRUE,,,,,,,,,,,,,,,,,,,,,,,,,,,METAR,99.0
CXKA 291500Z AUTO 33011G17KT M01/M05 RMK AO1 PRESRR SOG 00 3052 PK WND 32022/1402 SLP227 T10131050,CXKA,2017-04-29T15:00:00Z,49.4,-82.45,-1.3,-5.0,330,11,17,,,1022.7,,TRUE,TRUE,,,,,,,,,,,,,,,,,,,,,,,,,,,METAR,218.0
CXHM 291500Z AUTO 31003KT 11/04 RMK AO1 SLP194 T01100044 51020,CXHM,2017-04-29T15:00:00Z,43.28,-79.9,11.0,4.4,310,3,,,,1019.4,,TRUE,TRUE,,,,,,,,,,,,,,,,2.0,,,,,,,,,,,METAR,107.0
CWZS 291500Z AUTO 18002KT 07/07 RMK AO1 SLP062 T00690066 58017,CWZS,2017-04-29T15:00:00Z,48.47,-67.43,6.9,6.6,180,2,,,,1006.2,,TRUE,TRUE,,,,,,,,,,,,,,,,-1.7,,,,,,,,,,,METAR,166.0
CWZO 291500Z AUTO 21003KT RMK AO1,CWZO,2017-04-29T15:00:00Z,48.55,-123.23,,,210,3,,,,,,TRUE,TRUE,,,,,,,,,,,,,,,,,,,,,,,,,,,METAR,1.0
CWZA 291500Z AUTO 00000KT 07/05 RMK AO1 SLP256 T00690053 55000,CWZA,2017-04-29T15:00:00Z,49.25,-121.77,6.9,5.3,0,0,,,,1025.6,,TRUE,TRUE,,,,,,,,,,,,,,,,0.0,,,,,,,,,,,METAR,15.0
CWYY 291500Z AUTO 03001KT 08/M00 RMK AO1 SLP241 T00791004 57002,CWYY,2017-04-29T15:00:00Z,49.03,-119.43,7.9,-0.4,30,1,,,,1024.1,,TRUE,TRUE,,,,,,,,,,,,,,,,-0.2,,,,,,,,,,,METAR,283.0
CWYL 291500Z AUTO 26010KT 01/M01 RMK AO1 SOG 64 6001 SLP224 T00111012,CWYL,2017-04-29T15:00:00Z,51.45,-116.32,1.1,-1.2,260,10,,,,1022.4,,TRUE,TRUE,,,,,,,,,,,,,,,,,,,,,,,,,,,METAR,1615.0
CWYJ 291500Z AUTO 24003KT 08/05 RMK AO1 SLP253 T00790054 53002,CWYJ,2017-04-29T15:00:00Z,48.45,-123.3,7.9,5.4,240,3,,,,1025.3,,TRUE,TRUE,,,,,,,,,,,,,,,,0.2,,,,,,,,,,,METAR,39.0
CXSL 291500Z AUTO 14003KT 02/M01 RMK AO1 T00241011,CXSL,2017-04-29T15:00:00Z,54.28,-112.5,2.4,-1.1,140,3,,,,,,TRUE,TRUE,,,,,,,,,,,,,,,,,,,,,,,,,,,METAR,680.0
CXHP 291500Z AUTO 24005KT 06/02 RMK AO1 T00590018,CXHP,2017-04-29T15:00:00Z,55.4,-116.48,5.9,1.8,240,5,,,,,,TRUE,TRUE,,,,,,,,,,,,,,,,,,,,,,,,,,,METAR,602.0
CPXL 291500Z AUTO 18006KT 07/03 RMK AO1 T00650027,CPXL,2017-04-29T15:00:00Z,49.87,-111.38,6.5,2.7,180,6,,,,,,TRUE,TRUE,,,,,,,,,,,,,,,,,,,,,,,,,,,METAR,799.0
CPSV 291500Z AUTO 21003KT 07/02 RMK AO1 T00670020,CPSV,2017-04-29T15:00:00Z,49.92,-110.92,6.7,2.0,210,3,,,,,,TRUE,TRUE,,,,,,,,,,,,,,,,,,,,,,,,,,,METAR,766.0
CPST 291500Z AUTO 29004KT 05/02 RMK AO1 T00450015,CPST,2017-04-29T15:00:00Z,51.03,-113.28,4.5,1.5,290,4,,,,,,TRUE,TRUE,,,,,,,,,,,,,,,,,,,,,,,,,,,METAR,967.0
CPRO 291500Z AUTO 23003KT 04/M01 RMK AO1 T00401008,CPRO,2017-04-29T15:00:00Z,50.83,-112.05,4.0,-0.8,230,3,,,,,,TRUE,TRUE,,,,,,,,,,,,,,,,,,,,,,,,,,,METAR,714.0
CPFI 291500Z AUTO 26004KT 07/02 RMK AO1 T00680024,CPFI,2017-04-29T15:00:00Z,49.8,-112.03,6.8,2.4,260,4,,,,,,TRUE,TRUE,,,,,,,,,,,,,,,,,,,,,,,,,,,METAR,833.0
CWWF 291500Z AUTO 23006KT 08/02 RMK AO1 SLP250 T00840016 51011,CWWF,2017-04-29T15:00:00Z,49.7,-103.8,8.4,1.6,230,6,,,,1025.0,,TRUE,TRUE,,,,,,,,,,,,,,,,1.1,,,,,,,,,,,METAR,589.0
CWWA 291500Z AUTO 08003KT 09/02 RMK AO1 SLP252 T00940023 53001,CWWA,2017-04-29T15:00:00Z,49.35,-123.17,9.4,2.3,80,3,,,,1025.2,,TRUE,TRUE,,,,,,,,,,,,,,,,0.1,,,,,,,,,,,METAR,178.0
CWVQ 291500Z AUTO 25015G23KT 16/08 RMK AO1 PK WND 25023/1457 SLP122 T01610076 50000,CWVQ,2017-04-29T15:00:00Z,45.42,-73.92,16.1,7.6,250,15,23,,,1012.2,,TRUE,TRUE,,,,,,,,,,,,,,,,0.0,,,,,,,,,,,METAR,39.0
CWVP 291500Z AUTO 20005KT 03/M02 RMK AO1 SOG 00 2006 SLP236 T00341024,CWVP,2017-04-29T15:00:00Z,49.63,-109.52,3.4,-2.4,200,5,,,,1023.6,,TRUE,TRUE,,,,,,,,,,,,,,,,,,,,,,,,,,,METAR,1271.0
CWVI 291500Z AUTO 19008KT 05/M00 RMK AO1 SLP204 T00541001 58007,CWVI,2017-04-29T15:00:00Z,53.52,-112.1,5.4,-0.1,190,8,,,,1020.4,,TRUE,TRUE,,,,,,,,,,,,,,,,-0.7,,,,,,,,,,,METAR,639.0
CWUX 291500Z AUTO 30015G21KT 10/04 RMK AO1 PK WND 28024/1442 SLP071 T00950044 58011,CWUX,2017-04-29T15:00:00Z,48.3,-70.93,9.5,4.4,300,15,21,,,1007.1,,TRUE,TRUE,,,,,,,,,,,,,,,,-1.1,,,,,,,,,,,METAR,135.0
CWUS 291500Z AUTO 10001KT 08/01 RMK AO1 SLP240 T00780005 58005,CWUS,2017-04-29T15:00:00Z,49.57,-119.65,7.8,0.5,100,1,,,,1024.0,,TRUE,TRUE,,,,,,,,,,,,,,,,-0.5,,,,,,,,,,,METAR,454.0
CWTY 291500Z AUTO 22019G26KT 12/07 RMK AO1 PK WND 23026/1455 SLP091 T01230071 58017,CWTY,2017-04-29T15:00:00Z,46.35,-72.52,12.3,7.1,220,19,26,,,1009.1,,TRUE,TRUE,,,,,,,,,,,,,,,,-1.7,,,,,,,,,,,METAR,6.0
CWTT 291500Z AUTO 28016G22KT 16/06 RMK AO1 PK WND 28022/1455 T01600063,CWTT,2017-04-29T15:00:00Z,45.27,-72.17,16.0,6.3,280,16,22,,,,,TRUE,TRUE,,,,,,,,,,,,,,,,,,,,,,,,,,,METAR,209.0
CWTN 291500Z AUTO 25011G19KT 14/09 RMK AO1 6021 PK WND 25019/1457 SLP078 T01420094 50010,CWTN,2017-04-29T15:00:00Z,47.07,-70.78,14.2,9.4,250,11,19,,,1007.8,,TRUE,TRUE,,,,,,,,,,,,,,,,1.0,,,,,,,,,,,METAR,6.0
CWTG 291500Z AUTO 26013KT 01/01 RMK AO1 PK WND 25019/1416 SLP053 T00110010 58019,CWTG,2017-04-29T15:00:00Z,49.32,-67.37,1.1,1.0,260,13,,,,1005.3,,TRUE,TRUE,,,,,,,,,,,,,,,,-1.9,,,,,,,,,,,METAR,5.0
CWTA 291500Z AUTO 21005G21KT 17/07 RMK AO1 PK WND 29021/1454 SLP115 T01730068 58006,CWTA,2017-04-29T15:00:00Z,45.5,-73.58,17.3,6.8,210,5,21,,,1011.5,,TRUE,TRUE,,,,,,,,,,,,,,,,-0.6,,,,,,,,,,,METAR,63.0
CWST 291500Z AUTO 22017G22KT 14/10 RMK AO1 PK WND 23022/1459 SLP066 T01440096 58019,CWST,2017-04-29T15:00:00Z,47.35,-70.02,14.4,9.6,220,17,22,,,1006.6,,TRUE,TRUE,,,,,,,,,,,,,,,,-1.9,,,,,,,,,,,METAR,31.0
CWSR 291500Z AUTO 11002KT 06/M00 RMK AO1 SOG 01 3003 SLP207 T00601004,CWSR,2017-04-29T15:00:00Z,53.37,-107.53,6.0,-0.4,110,2,,,,1020.7,,TRUE,TRUE,,,,,,,,,,,,,,,,,,,,,,,,,,,METAR,584.0
CWSP 291500Z AUTO 08002KT 07/04 RMK AO1 SLP255 T00710037 53002,CWSP,2017-04-29T15:00:00Z,48.38,-123.92,7.1,3.7,80,2,,,,1025.5,,TRUE,TRUE,,,,,,,,,,,,,,,,0.2,,,,,,,,,,,METAR,21.0
CWSL 291500Z AUTO 26002KT 07/03 RMK AO1 SLP239 T00720031 50001,CWSL,2017-04-29T15:00:00Z,50.7,-119.27,7.2,3.1,260,2,,,,1023.9,,TRUE,TRUE,,,,,,,,,,,,,,,,0.1,,,,,,,,,,,METAR,351.0
CWSK 291500Z AUTO 00000KT 05/04 RMK AO1 SLP251 T00530036 56001,CWSK,2017-04-29T15:00:00Z,49.78,-123.17,5.3,3.6,0,0,,,,1025.1,,TRUE,TRUE,,,,,,,,,,,,,,,,-0.1,,,,,,,,,,,METAR,60.0
CWSG 291500Z AUTO 26013KT 02/02 RMK AO1 PK WND 27018/1416 SLP058 T00220022 56014,CWSG,2017-04-29T15:00:00Z,49.12,-66.65,2.2,2.2,260,13,,,,1005.8,,TRUE,TRUE,,,,,,,,,,,,,,,,-1.4,,,,,,,,,,,METAR,5.0
CWRZ 291500Z AUTO 23007KT 02/ RMK AO1 SLP060 T0024 58018,CWRZ,2017-04-29T15:00:00Z,48.42,-64.32,2.4,,230,7,,,,1006.0,,TRUE,TRUE,,,,,,,,,,,,,,,,-1.8,,,,,,,,,,,METAR,16.0
CWRY 291500Z AUTO 25005KT 07/02 RMK AO1 SOG 00 3008 SLP229 T00730022,CWRY,2017-04-29T15:00:00Z,49.12,-112.03,7.3,2.2,250,5,,,,1022.9,,TRUE,TRUE,,,,,,,,,,,,,,,,,,,,,,,,,,,METAR,1050.0
CWRT 291500Z AUTO 11001KT 02/02 RMK AO1 8PAST HR M P0003 T00200017,CWRT,2017-04-29T15:00:00Z,49.62,-114.47,2.0,1.7,110,1,,,,,,TRUE,TRUE,,,,,,,,,,,,,,,,,,,,,0.03,,,,,,METAR,1303.0
CWRK 291500Z AUTO 31008G15KT 10/M02 RMK AO1 PK WND 30020/1420 SLP163 T01031022 51007,CWRK,2017-04-29T15:00:00Z,45.07,-77.87,10.3,-2.2,310,8,15,,,1016.3,,TRUE,TRUE,,,,,,,,,,,,,,,,0.7,,,,,,,,,,,METAR,331.0
CWQV 291500Z AUTO 12002KT 03/02 RMK AO1 T00250020,CWQV,2017-04-29T15:00:00Z,48.27,-70.12,2.5,2.0,120,2,,,,,,TRUE,TRUE,,,,,,,,,,,,,,,,,,,,,,,,,,,METAR,1.0
CWQR 291500Z AUTO 23009KT M00/ RMK AO1 T1003,CWQR,2017-04-29T15:00:00Z,50.22,-64.22,-0.3,,230,9,,,,,,TRUE,TRUE,,,,,,,,,,,,,,,,,,,,,,,,,,,METAR,9.0
CWQP 291500Z AUTO 26010G15KT 08/05 RMK AO1 SLP182 T00830049 51018,CWQP,2017-04-29T15:00:00Z,43.83,-77.15,8.3,4.9,260,10,15,,,1018.2,,TRUE,TRUE,,,,,,,,,,,,,,,,1.8,,,,,,,,,,,METAR,79.0
CWQO 291500Z AUTO 21008KT 05/04 RMK AO1 T00490041,CWQO,2017-04-29T15:00:00Z,48.42,-68.9,4.9,4.1,210,8,,,,,,TRUE,TRUE,,,,,,,,,,,,,,,,,,,,,,,,,,,METAR,1.0
CWQK 291500Z AUTO 27006KT 08/06 RMK AO1 SLP254 T00780058 53001,CWQK,2017-04-29T15:00:00Z,48.3,-123.53,7.8,5.8,270,6,,,,1025.4,,TRUE,TRUE,,,,,,,,,,,,,,,,0.1,,,,,,,,,,,METAR,5.0
CWQH 291500Z AUTO 24009G15KT 18/07 RMK AO1 PK WND 26018/1433 T01780074,CWQH,2017-04-29T15:00:00Z,45.37,-71.82,17.8,7.4,240,9,15,,,,,TRUE,TRUE,,,,,,,,,,,,,,,,,,,,,,,,,,,METAR,181.0
CZSP 291500Z AUTO 22010KT 18/11 RMK AO1 SOG 00 6022 SLP091 T01810111,CZSP,2017-04-29T15:00:00Z,46.45,-62.58,18.1,11.1,220,10,,,,1009.1,,TRUE,TRUE,,,,,,,,,,,,,,,,,,,,,,,,,,,METAR,30.0
CZCR 291500Z AUTO 33004KT 08/07 RMK AO1 SOG 01 8014 SLP077 T00820070,CZCR,2017-04-29T15:00:00Z,47.97,-66.32,8.2,7.0,330,4,,,,1007.7,,TRUE,TRUE,,,,,,,,,,,,,,,,,,,,,,,,,,,METAR,38.0
CWXI 291500Z AUTO 22019KT 01/01 RMK AO1 SOG 36 8019 PK WND 22022/1413 SLP000 T00090008,CWXI,2017-04-29T15:00:00Z,51.02,-57.1,0.9,0.8,220,19,,,,1000.0,,TRUE,TRUE,,,,,,,,,,,,,,,,,,,,,,,,,,,METAR,6.0
CWBK 291500Z AUTO 18002KT 17/07 RMK AO1 SOG 01 6024 SLP085 T01660074,CWBK,2017-04-29T15:00:00Z,45.77,-62.67,16.6,7.4,180,2,,,,1008.5,,TRUE,TRUE,,,,,,,,,,,,,,,,,,,,,,,,,,,METAR,2.0
CERM 291500Z AUTO 14003KT 13/08 RMK AO1 SLP074 T01260081 58026,CERM,2017-04-29T15:00:00Z,47.42,-68.32,12.6,8.1,140,3,,,,1007.4,,TRUE,TRUE,,,,,,,,,,,,,,,,-2.6,,,,,,,,,,,METAR,154.0
CWIK 291500Z AUTO 24007KT 10/M01 RMK AO1 SLP241 T00981010 51007,CWIK,2017-04-29T15:00:00Z,50.37,-102.58,9.8,-1.0,240,7,,,,1024.1,,TRUE,TRUE,,,,,,,,,,,,,,,,0.7,,,,,,,,,,,METAR,602.0
CWBU 291500Z AUTO 04004KT 04/02 RMK AO1 SOG 00 5000 SLP221 T00370015 50019,CWBU,2017-04-29T15:00:00Z,53.33,-104.02,3.7,1.5,40,4,,,,1022.1,,TRUE,TRUE,,,,,,,,,,,,,,,,1.9,,,,,,,,,,,METAR,373.0
CZSM 291500Z AUTO 04004KT 04/M03 RMK AO1 2PAST HR SOG 00 8010 SLP190 P0001 T00391033 50004,CZSM,2017-04-29T15:00:00Z,60.03,-111.93,3.9,-3.3,40,4,,,,1019.0,,TRUE,TRUE,,,,,,,,,,,,,,,,0.4,,,,,0.01,,,,,,METAR,203.0
CZHY 291500Z AUTO 00019KT 07/M02 RMK AO1 SOG 05 8010 SLP166 T00661016,CZHY,2017-04-29T15:00:00Z,60.83,-115.78,6.6,-1.6,0,19,,,,1016.6,,TRUE,TRUE,,,,,,,,,,,,,,,,,,,,,,,,,,,METAR,164.0
CWMT 291500Z AUTO 07006KT M00/M04 RMK AO1 SLP180 T10041040 58002,CWMT,2017-04-29T15:00:00Z,63.13,-117.25,-0.4,-4.0,70,6,,,,1018.0,,TRUE,TRUE,,,,,,,,,,,,,,,,-0.2,,,,,,,,,,,METAR,271.0
CWSF 291500Z AUTO 12005KT 02/02 RMK AO1 SLP053 T00210020 56025,CWSF,2017-04-29T15:00:00Z,49.25,-65.32,2.1,2.0,120,5,,,,1005.3,,TRUE,TRUE,,,,,,,,,,,,,,,,-2.5,,,,,,,,,,,METAR,29.0
CWRA 291500Z AUTO 26018KT 08/08 RMK AO1 6024 PK WND 25025/1422 SLP058 T00750076 50013,CWRA,2017-04-29T15:00:00Z,46.63,-53.07,7.5,7.6,260,18,,,,1005.8,,TRUE,TRUE,,,,,,,,,,,,,,,,1.3,,,,,,,,,,,METAR,28.0
CWSS 291500Z AUTO 07002KT 11/10 RMK AO1 SLP111 T01090103 55018,CWSS,2017-04-29T15:00:00Z,45.2,-67.25,10.9,10.3,70,2,,,,1011.1,,TRUE,TRUE,,,,,,,,,,,,,,,,-1.8,,,,,,,,,,,METAR,26.0
CWRN 291500Z AUTO 23016KT 13/11 RMK AO1 PK WND 23020/1455 SLP101 T01280113 55012,CWRN,2017-04-29T15:00:00Z,45.35,-60.98,12.8,11.3,230,16,,,,1010.1,,TRUE,TRUE,,,,,,,,,,,,,,,,-1.2,,,,,,,,,,,METAR,8.0
CWHO 291500Z AUTO 00002KT 06/03 RMK AO1 SLP942 T00580028 58016,CWHO,2017-04-29T15:00:00Z,55.45,-60.22,5.8,2.8,0,2,,,,994.2,,TRUE,TRUE,,,,,,,,,,,,,,,,-1.6,,,,,,,,,,,METAR,8.0
CWBV 291500Z AUTO 23017KT 06/ RMK AO1 PK WND 24019/1428 SLP109 T0057 56019,CWBV,2017-04-29T15:00:00Z,44.82,-62.32,5.7,,230,17,,,,1010.9,,TRUE,TRUE,,,,,,,,,,,,,,,,-1.9,,,,,,,,,,,METAR,10.0
CWWE 291500Z AUTO 22006KT 07/07 RMK AO1 5PAST HR SOG 00 8018 SLP123 P0002 T00700070 50005,CWWE,2017-04-29T15:00:00Z,43.97,-64.67,7.0,7.0,220,6,,,,1012.3,,TRUE,TRUE,,,,,,,,,,,,,,,,0.5,,,,,0.02,,,,,,METAR,9.0
CWER 291500Z AUTO 24019G27KT RMK AO1 PK WND 23027/1450,CWER,2017-04-29T15:00:00Z,47.0,-70.82,,,240,19,27,,,,,TRUE,TRUE,,,,,,,,,,,,,,,,,,,,,,,,,,,METAR,5.0
CWEP 291500Z AUTO 18007KT 12/10 RMK AO1 SOG 00 6016 SLP089 T01230095,CWEP,2017-04-29T15:00:00Z,46.45,-61.97,12.3,9.5,180,7,,,,1008.9,,TRUE,TRUE,,,,,,,,,,,,,,,,,,,,,,,,,,,METAR,11.0
CWNH 291500Z AUTO 21007KT 13/08 RMK AO1 SLP068 T01270083 58018,CWNH,2017-04-29T15:00:00Z,47.78,-69.53,12.7,8.3,210,7,,,,1006.8,,TRUE,TRUE,,,,,,,,,,,,,,,,-1.8,,,,,,,,,,,METAR,148.0
CWBY 291500Z AUTO 22007KT 02/02 RMK AO1 SLP055 T00170017 56018,CWBY,2017-04-29T15:00:00Z,49.82,-64.28,1.7,1.7,220,7,,,,1005.5,,TRUE,TRUE,,,,,,,,,,,,,,,,-1.8,,,,,,,,,,,METAR,53.0
CWMQ 291500Z AUTO 13002KT 09/M01 RMK AO1 SOG 00 8003 SLP235 T00851009,CWMQ,2017-04-29T15:00:00Z,49.9,-109.47,8.5,-0.9,130,2,,,,1023.5,,TRUE,TRUE,,,,,,,,,,,,,,,,,,,,,,,,,,,METAR,767.0
CWMM 291500Z AUTO 12001KT 08/05 RMK AO1 SLP260 T00770047 53003,CWMM,2017-04-29T15:00:00Z,49.22,-122.68,7.7,4.7,120,1,,,,1026.0,,TRUE,TRUE,,,,,,,,,,,,,,,,0.3,,,,,,,,,,,METAR,5.0
CWMJ 291500Z AUTO 30007KT 10/M02 RMK AO1 SLP145 T01011023 51015,CWMJ,2017-04-29T15:00:00Z,46.27,-76.0,10.1,-2.3,300,7,,,,1014.5,,TRUE,TRUE,,,,,,,,,,,,,,,,1.5,,,,,,,,,,,METAR,200.0
CWLM 291500Z AUTO 24006KT 08/06 RMK AO1 SLP255 T00780060 53003,CWLM,2017-04-29T15:00:00Z,48.42,-123.32,7.8,6.0,240,6,,,,1025.5,,TRUE,TRUE,,,,,,,,,,,,,,,,0.3,,,,,,,,,,,METAR,70.0
CWLE 291500Z AUTO 27011KT 08/M01 RMK AO1 SOG 00 1007 SLP241 T00761006,CWLE,2017-04-29T15:00:00Z,50.95,-107.15,7.6,-0.6,270,11,,,,1024.1,,TRUE,TRUE,,,,,,,,,,,,,,,,,,,,,,,,,,,METAR,665.0
CWLC 291500Z AUTO 11009KT 08/03 RMK AO1 T00790027,CWLC,2017-04-29T15:00:00Z,54.3,-130.62,7.9,2.7,110,9,,,,,,TRUE,TRUE,,,,,,,,,,,,,,,,,,,,,,,,,,,METAR,27.0
CWKX 291500Z AUTO 06006KT M01/M04 RMK AO1 SLP198 T10081043 56021,CWKX,2017-04-29T15:00:00Z,58.43,-130.02,-0.8,-4.3,60,6,,,,1019.8,,TRUE,TRUE,,,,,,,,,,,,,,,,-2.1,,,,,,,,,,,METAR,793.0
CWKH 291500Z AUTO 07/02 RMK AO1 SLP238 T00670017 53001,CWKH,2017-04-29T15:00:00Z,48.57,-123.55,6.7,1.7,,,,,,1023.8,,TRUE,TRUE,,,,,,,,,,,,,,,,0.1,,,,,,,,,,,METAR,366.0
CWKG 291500Z AUTO 29003KT 17/14 RMK AO1 SLP112 T01730141 58026,CWKG,2017-04-29T15:00:00Z,44.43,-65.2,17.3,14.1,290,3,,,,1011.2,,TRUE,TRUE,,,,,,,,,,,,,,,,-2.6,,,,,,,,,,,METAR,165.0
CWJX 291500Z AUTO 19004KT 06/M01 RMK AO1 SOG 01 0001 SLP239 T00641010 50002,CWJX,2017-04-29T15:00:00Z,50.88,-109.5,6.4,-1.0,190,4,,,,1023.9,,TRUE,TRUE,,,,,,,,,,,,,,,,0.2,,,,,,,,,,,METAR,672.0
CWJW 291500Z AUTO 21001KT 01/M00 RMK AO1 4PAST HR SOG 01 8002 SLP225 P0002 T00111001 50004,CWJW,2017-04-29T15:00:00Z,52.93,-118.03,1.1,-0.1,210,1,,,,1022.5,,TRUE,TRUE,,,,,,,,,,,,,,,,0.4,,,,,0.02,,,,,,METAR,1020.0
CWJV 291500Z AUTO 09004KT 06/01 RMK AO1 SLP236 T00640014 56004,CWJV,2017-04-29T15:00:00Z,50.22,-119.18,6.4,1.4,90,4,,,,1023.6,,TRUE,TRUE,,,,,,,,,,,,,,,,-0.4,,,,,,,,,,,METAR,556.0
CWJU 291500Z AUTO 08011G18KT 05/04 RMK AO1 3PAST HR 8042 PK WND 08021/1447 SLP098 P0001 T00530038 50003,CWJU,2017-04-29T15:00:00Z,54.25,-133.07,5.3,3.8,80,11,18,,,1009.8,,TRUE,TRUE,,,,,,,,,,,,,,,,0.3,,,,,0.01,,,,,,METAR,41.0
CWJR 291500Z AUTO 19001KT 07/04 RMK AO1 SLP256 T00710039 53002,CWJR,2017-04-29T15:00:00Z,49.07,-116.5,7.1,3.9,190,1,,,,1025.6,,TRUE,TRUE,,,,,,,,,,,,,,,,0.2,,,,,,,,,,,METAR,646.0
CWJI 291500Z AUTO 26005KT 06/01 RMK AO1 SOG 00 1015 SLP259 T00580005,CWJI,2017-04-29T15:00:00Z,49.72,-105.92,5.8,0.5,260,5,,,,1025.9,,TRUE,TRUE,,,,,,,,,,,,,,,,,,,,,,,,,,,METAR,724.0
SLYA 291500Z 05006KT 9999 BKN080 BKN200 21/13 Q1022,SLYA,2017-04-29T15:00:00Z,-21.97,-63.65,21.0,13.0,50,6,,6.21,30.177166,,,,,,,,,,,BKN,8000,BKN,20000,,,,,VFR,,,,,,,,,,,,SPECI,645.0
SLVM 291500Z 00000KT 9999 OVC070 21/16 Q1022,SLVM,2017-04-29T15:00:00Z,-21.25,-63.4,21.0,16.0,0,0,,6.21,30.177166,,,,,,,,,,,OVC,7000,,,,,,,VFR,,,,,,,,,,,,SPECI,400.0
SLSI 291500Z 00000KT 9999 NSC 26/19 Q1019,SLSI,2017-04-29T15:00:00Z,-16.37,-60.95,26.0,19.0,0,0,,6.21,30.088583,,,,,,,,,,,CLR,,,,,,,,VFR,,,,,,,,,,,,SPECI,413.0
SLSA 291500Z 16013KT 9999 SCT080 26/18 Q1018,SLSA,2017-04-29T15:00:00Z,-13.77,-65.43,26.0,18.0,160,13,,6.21,30.059055,,,,,,,,,,,SCT,8000,,,,,,,VFR,,,,,,,,,,,,SPECI,144.0
SLRY 291500Z 17006KT 9999 BKN080 26/15 Q1019,SLRY,2017-04-29T15:00:00Z,-14.3,-67.37,26.0,15.0,170,6,,6.21,30.088583,,,,,,,,,,,BKN,8000,,,,,,,VFR,,,,,,,,,,,,SPECI,280.0
SLRQ 291500Z 18008KT 9999 BKN080 28/22 Q1019,SLRQ,2017-04-29T15:00:00Z,-14.42,-67.5,28.0,22.0,180,8,,6.21,30.088583,,,,,,,,,,,BKN,8000,,,,,,,VFR,,,,,,,,,,,,SPECI,203.0
SLRI 291500Z 17014KT 9999 NSC 27/19 Q1017,SLRI,2017-04-29T15:00:00Z,-11.02,-66.08,27.0,19.0,170,14,,6.21,30.029528,,,,,,,,,,,CLR,,,,,,,,VFR,,,,,,,,,,,,SPECI,135.0
SLRB 291500Z 00000KT 9999 NSC 23/17 Q1022,SLRB,2017-04-29T15:00:00Z,-18.32,-59.75,23.0,17.0,0,0,,6.21,30.177166,,,,,,,,,,,CLR,,,,,,,,VFR,,,,,,,,,,,,SPECI,284.0
SLOR 291500Z 34006KT 9999 FEW017 BKN070 10/02 Q1038,SLOR,2017-04-29T15:00:00Z,-17.97,-67.08,10.0,2.0,340,6,,6.21,30.649607,,,,,,,,,,,FEW,1700,BKN,7000,,,,,VFR,,,,,,,,,,,,SPECI,3702.0
SLMG 291500Z 14006KT 9999 NSC 27/20 Q1016,SLMG,2017-04-29T15:00:00Z,-13.27,-64.07,27.0,20.0,140,6,,6.21,30.0,,,,,,,,,,,CLR,,,,,,,,VFR,,,,,,,,,,,,SPECI,141.0
SLJO 291500Z 18010KT 9999 NSC 27/20 Q1017,SLJO,2017-04-29T15:00:00Z,-13.07,-64.67,27.0,20.0,180,10,,6.21,30.029528,,,,,,,,,,,CLR,,,,,,,,VFR,,,,,,,,,,,,SPECI,140.0
SLJE 291500Z 36004KT 9999 NSC 29/21 Q1022,SLJE,2017-04-29T15:00:00Z,-17.82,-60.75,29.0,21.0,360,4,,6.21,30.177166,,,,,,,,,,,CLR,,,,,,,,VFR,,,,,,,,,,,,SPECI,284.0
SLCP 291500Z 17010KT 9999 NSC 23/18 Q1021,SLCP,2017-04-29T15:00:00Z,-16.15,-62.02,23.0,18.0,170,10,,6.21,30.147638,,,,,,,,,,,CLR,,,,,,,,VFR,,,,,,,,,,,,SPECI,497.0
SLCA 291500Z 00000KT 9999 OVC070 18/09 Q1024,SLCA,2017-04-29T15:00:00Z,-20.0,-63.53,18.0,9.0,0,0,,6.21,30.236221,,,,,,,,,,,OVC,7000,,,,,,,VFR,,,,,,,,,,,,SPECI,798.0
FNUB 291500Z 18006KT 9999 SCT025 FEW030TCU 26/// Q1025,FNUB,2017-04-29T15:00:00Z,-14.93,13.57,,,180,6,,6.21,30.265747,,,,,,,,,,,SCT,2500,FEW,3000,,,,,VFR,,,,,,,,,,,,METAR,1761.0
FNCA 291500Z 21008KT 9999 FEW020 30/25 Q1009,FNCA,2017-04-29T15:00:00Z,-5.58,12.18,30.0,25.0,210,8,,6.21,29.793306,,,,,,,,,,,FEW,2000,,,,,,,VFR,,,,,,,,,,,,METAR,20.0
FNBC 291500Z 36008KT 6000 TS BKN016 FEW019CB 29/// Q////,FNBC,2017-04-29T15:00:00Z,-6.27,14.25,,,360,8,,3.73,,,,,,,,,,,TS,BKN,1600,FEW,1900,,,,,MVFR,,,,,,,,,,,,METAR,567.0
FNUE 291500Z 07011KT 9999 SCT040 26/16 Q1021,FNUE,2017-04-29T15:00:00Z,-11.77,19.9,26.0,16.0,70,11,,6.21,30.147638,,,,,,,,,,,SCT,4000,,,,,,,VFR,,,,,,,,,,,,METAR,1329.0
RJAW 291500Z 36008KT 9999 SCT030 21/16 Q1013 RMK 3CU030 A2992,RJAW,2017-04-29T15:00:00Z,24.77,141.32,21.0,16.0,360,8,,6.21,29.911417,,,,,,,,,,,SCT,3000,,,,,,,VFR,,,,,,,,,,,,METAR,116.0
DAUE 291500Z 26016KT 7000 NSC 37/11 Q1011,DAUE,2017-04-29T15:00:00Z,30.57,2.87,37.0,11.0,260,16,,4.35,29.852362,,,,,,,,,,,CLR,,,,,,,,MVFR,,,,,,,,,,,,METAR,397.0
DAOY 291500Z 31007KT 9999 SCT026 BKN233 19/07 Q1016,DAOY,2017-04-29T15:00:00Z,33.72,1.08,19.0,7.0,310,7,,6.21,30.0,,,,,,,,,,,SCT,2600,BKN,23300,,,,,VFR,,,,,,,,,,,,METAR,1347.0
DAOV 291500Z 30014KT 9999 SCT026 FEW030CB 25/11 Q1012,DAOV,2017-04-29T15:00:00Z,35.2,0.15,25.0,11.0,300,14,,6.21,29.88189,,,,,,,,,,,SCT,2600,FEW,3000,,,,,VFR,,,,,,,,,,,,METAR,514.0
DAUT 291500Z 24017KT 8000 NSC 36/02 Q1011,DAUT,2017-04-29T15:00:00Z,29.25,0.27,36.0,2.0,240,17,,4.97,29.852362,,,,,,,,,,,CLR,,,,,,,,MVFR,,,,,,,,,,,,METAR,312.0
DAUO 291500Z 08003KT 5000 NSC 30/15 Q1010,DAUO,2017-04-29T15:00:00Z,33.5,6.78,30.0,15.0,80,3,,3.11,29.822834,,,,,,,,,,,CLR,,,,,,,,MVFR,,,,,,,,,,,,METAR,63.0
DAUK 291500Z 08003KT 5000 NSC 32/11 Q1010,DAUK,2017-04-29T15:00:00Z,33.08,6.12,32.0,11.0,80,3,,3.11,29.822834,,,,,,,,,,,CLR,,,,,,,,MVFR,,,,,,,,,,,,METAR,85.0
DAFH 291500Z 00000KT CAVOK 29/04 Q1012,DAFH,2017-04-29T15:00:00Z,32.93,3.32,29.0,4.0,0,0,,6.21,29.88189,,,,,,,,,,,CAVOK,,,,,,,,VFR,,,,,,,,,,,,METAR,774.0
DABT 291500Z 01008KT 9999 SCT023 24/06 Q1012,DABT,2017-04-29T15:00:00Z,35.75,6.32,24.0,6.0,10,8,,6.21,29.88189,,,,,,,,,,,SCT,2300,,,,,,,VFR,,,,,,,,,,,,METAR,823.0
DAAV 291500Z 01009KT 9999 FEW016 18/11 Q1014,DAAV,2017-04-29T15:00:00Z,36.8,5.88,18.0,11.0,10,9,,6.21,29.940945,,,,,,,,,,,FEW,1600,,,,,,,VFR,,,,,,,,,,,,METAR,11.0
DAAP 291500Z 30010KT 8000 NSC 39/06 Q1013,DAAP,2017-04-29T15:00:00Z,26.72,8.62,39.0,6.0,300,10,,4.97,29.911417,,,,,,,,,,,CLR,,,,,,,,MVFR,,,,,,,,,,,,METAR,558.0
DAAJ 291500Z 00000KT CAVOK 36/M02 Q1017,DAAJ,2017-04-29T15:00:00Z,24.28,9.47,36.0,-2.0,0,0,,6.21,30.029528,,,,,,,,,,,CAVOK,,,,,,,,VFR,,,,,,,,,,,,METAR,968.0
DAAE 291500Z 07008KT 9999 FEW020 SCT090 18/12 Q1014,DAAE,2017-04-29T15:00:00Z,36.72,5.07,18.0,12.0,70,8,,6.21,29.940945,,,,,,,,,,,FEW,2000,SCT,9000,,,,,VFR,,,,,,,,,,,,METAR,2.0
DAAD 291500Z 04004KT 9999 FEW030TCU SCT033 BKN200 27/12 Q1011,DAAD,2017-04-29T15:00:00Z,35.32,4.2,27.0,12.0,40,4,,6.21,29.852362,,,,,,,,,,,FEW,3000,SCT,3300,BKN,20000,,,VFR,,,,,,,,,,,,METAR,461.0
DAUL 291500Z 20012KT 9000 SCT030 BKN200 28/06 Q1012,DAUL,2017-04-29T15:00:00Z,33.77,2.92,28.0,6.0,200,12,,5.59,29.88189,,,,,,,,,,,SCT,3000,BKN,20000,,,,,VFR,,,,,,,,,,,,METAR,765.0
DAOI 291500Z 32012KT 300V020 9999 SCT026 SCT030TCU 24/16 Q1012,DAOI,2017-04-29T15:00:00Z,36.22,1.32,24.0,16.0,320,12,,6.21,29.88189,,,,,,,,,,,SCT,2600,SCT,3000,,,,,VFR,,,,,,,,,,,,METAR,143.0
DAAY 291500Z 00000KT 9999 SCT030 SCT233 23/05 Q1017,DAAY,2017-04-29T15:00:00Z,33.53,-0.25,23.0,5.0,0,0,,6.21,30.029528,,,,,,,,,,,SCT,3000,SCT,23300,,,,,VFR,,,,,,,,,,,,METAR,1149.0
DAOL 291500Z 34014KT 9000 SCT026 24/13 Q1013,DAOL,2017-04-29T15:00:00Z,35.53,-0.52,24.0,13.0,340,14,,5.59,29.911417,,,,,,,,,,,SCT,2600,,,,,,,VFR,,,,,,,,,,,,METAR,112.0
DAUZ 291500Z 30005KT 7000 NSC 37/09 Q1013,DAUZ,2017-04-29T15:00:00Z,28.05,9.62,37.0,9.0,300,5,,4.35,29.911417,,,,,,,,,,,CLR,,,,,,,,MVFR,,,,,,,,,,,,METAR,562.0
DAUU 291500Z 30010KT 7000 NSC 35/02 Q1008,DAUU,2017-04-29T15:00:00Z,31.92,5.4,35.0,2.0,300,10,,4.35,29.763779,,,,,,,,,,,CLR,,,,,,,,MVFR,,,,,,,,,,,,METAR,141.0
DAUG 291500Z 24016KT CAVOK 34/// Q1010,DAUG,2017-04-29T15:00:00Z,32.37,3.82,,,240,16,,6.21,29.822834,,,,,,,,,,,CAVOK,,,,,,,,VFR,,,,,,,,,,,,METAR,450.0
DAUB 291500Z 27007KT 9999 FEW040 BKN200 30/10 Q1010,DAUB,2017-04-29T15:00:00Z,34.78,5.72,30.0,10.0,270,7,,6.21,29.822834,,,,,,,,,,,FEW,4000,BKN,20000,,,,,VFR,,,,,,,,,,,,METAR,87.0
DAUA 291500Z 27011KT 9000 FEW046 BKN133 36/M01 Q1011,DAUA,2017-04-29T15:00:00Z,27.83,-0.18,36.0,-1.0,270,11,,5.59,29.852362,,,,,,,,,,,FEW,4600,BKN,13300,,,,,VFR,,,,,,,,,,,,METAR,263.0
DAOR 291500Z 25009KT 2000 HZ NSC 30/07 Q1012,DAOR,2017-04-29T15:00:00Z,31.65,-2.27,30.0,7.0,250,9,,1.24,29.88189,,,,,,,,,,HZ,CLR,,,,,,,,IFR,,,,,,,,,,,,METAR,773.0
DAOF 291500Z 23026KT 9999 FEW040 BKN233 32/03 Q1013,DAOF,2017-04-29T15:00:00Z,27.7,-8.17,32.0,3.0,230,26,,6.21,29.911417,,,,,,,,,,,FEW,4000,BKN,23300,,,,,VFR,,,,,,,,,,,,METAR,431.0
DAOB 291500Z 30013KT 9999 FEW026TCU SCT026 21/10 Q1014,DAOB,2017-04-29T15:00:00Z,35.33,1.47,21.0,10.0,300,13,,6.21,29.940945,,,,,,,,,,,FEW,2600,SCT,2600,,,,,VFR,,,,,,,,,,,,METAR,989.0
DABS 291500Z 36004KT 9999 FEW033CB SCT040TCU 24/10 Q1013,DABS,2017-04-29T15:00:00Z,35.43,8.12,24.0,10.0,360,4,,6.21,29.911417,,,,,,,,,,,FEW,3300,SCT,4000,,,,,VFR,,,,,,,,,,,,METAR,813.0
DAAS 291500Z 28010KT 9999 SCT030 20/08 Q1013,DAAS,2017-04-29T15:00:00Z,36.18,5.33,20.0,8.0,280,10,,6.21,29.911417,,,,,,,,,,,SCT,3000,,,,,,,VFR,,,,,,,,,,,,METAR,1038.0
VTSM 291500Z 00000KT 8000 FEW020 30/26 Q1011,VTSM,2017-04-29T15:00:00Z,9.55,100.07,30.0,26.0,0,0,,4.97,29.852362,,,,,,,,,,,FEW,2000,,,,,,,MVFR,,,,,,,,,,,,METAR,17.0
VTSB 291500Z 00000KT 8000 FEW020 28/25 Q1011,VTSB,2017-04-29T15:00:00Z,9.12,99.13,28.0,25.0,0,0,,4.97,29.852362,,,,,,,,,,,FEW,2000,,,,,,,MVFR,,,,,,,,,,,,METAR,11.0
VTCP 291500Z AUTO VRB02KT 9999 // ////// 26/21 Q1012,VTCP,2017-04-29T15:00:00Z,18.13,100.17,26.0,21.0,0,2,,6.21,29.88189,,,TRUE,,,,,,,,,,,,,,,,,,,,,,,,,,,,METAR,162.0
VTUU 291500Z 11009KT 080V140 9999 FEW020CB BKN090 26/24 Q1013 NOSIG,VTUU,2017-04-29T15:00:00Z,15.25,104.87,26.0,24.0,110,9,,6.21,29.911417,,,,,,TRUE,,,,,FEW,2000,BKN,9000,,,,,VFR,,,,,,,,,,,,METAR,127.0
VTUQ 291500Z AUTO 12003KT ////NDV ////// 26/24 Q1013 A2991,VTUQ,2017-04-29T15:00:00Z,14.95,102.32,26.0,24.0,120,3,,,29.911417,,,TRUE,,,,,,,,,,,,,,,,,,,,,,,,,,,,METAR,234.0
VTUK 291500Z 05005KT 9000 FEW035 27/23 Q1012 NOSIG,VTUK,2017-04-29T15:00:00Z,16.47,102.78,27.0,23.0,50,5,,5.59,29.88189,,,,,,TRUE,,,,,FEW,3500,,,,,,,VFR,,,,,,,,,,,,METAR,204.0
VTUD 291500Z 12003KT 8000 FEW040 27/23 Q1012,VTUD,2017-04-29T15:00:00Z,17.37,102.78,27.0,23.0,120,3,,4.97,29.88189,,,,,,,,,,,FEW,4000,,,,,,,MVFR,,,,,,,,,,,,METAR,182.0
CZUM 291500Z AUTO 23008KT 190V260 9SM -RA OVC023 05/02 A2942 RMK SLP982,CZUM,2017-04-29T15:00:00Z,53.53,-64.08,5.0,2.0,230,8,,9.0,29.421259,998.2,,TRUE,,,,,,,-RA,OVC,2300,,,,,,,MVFR,,,,,,,,,,,,METAR,440.0
CZPC 291500Z AUTO 28011G16KT 9SM CLR 06/01 A3014 RMK SLP233,CZPC,2017-04-29T15:00:00Z,49.52,-114.0,6.0,1.0,280,11,16,9.0,30.138779,1023.3,,TRUE,,,,,,,,CLR,,,,,,,,VFR,,,,,,,,,,,,METAR,1190.0
CZFM 291500Z 35003KT 320V020 35SM FEW060 M07/M13 A3016 RMK SC2 SLP218,CZFM,2017-04-29T15:00:00Z,67.4,-134.87,-7.0,-13.0,350,3,,35.0,30.159449,1021.8,,,,,,,,,,FEW,6000,,,,,,,VFR,,,,,,,,,,,,METAR,43.0
CYPD 291500Z AUTO 28007KT 9SM CLR 21/10 A2980 RMK SLP092 DENSITY ALT 1200FT,CYPD,2017-04-29T15:00:00Z,45.67,-61.37,21.0,10.0,280,7,,9.0,29.799213,1009.2,,TRUE,,,,,,,,CLR,,,,,,,,VFR,,,,,,,,,,,,METAR,114.0
CWYM 291500Z AUTO ///// M15/ A2939 RMK SLP013,CWYM,2017-04-29T15:00:00Z,64.95,-63.57,-15.0,,,,,,29.388779,1001.3,,TRUE,,,,,,,,,,,,,,,,,,,,,,,,,,,,METAR,583.0
CWXR 291500Z AUTO 10010KT M23/ A3030 RMK SLP276,CWXR,2017-04-29T15:00:00Z,69.27,-119.22,-23.0,,100,10,,,30.301182,1027.6,,TRUE,,,,,,,,,,,,,,,,,,,,,,,,,,,,METAR,69.0
CWTU 291500Z AUTO ///// 02/ A2931 RMK SLP952,CWTU,2017-04-29T15:00:00Z,54.72,-58.35,2.0,,,,,,29.309055,995.2,,TRUE,,,,,,,,,,,,,,,,,,,,,,,,,,,,METAR,683.0
CWRH 291500Z AUTO 10017KT M05/ A2918 RMK SLP916,CWRH,2017-04-29T15:00:00Z,61.57,-64.65,-5.0,,100,17,,,29.179134,991.6,,TRUE,,,,,,,,,,,,,,,,,,,,,,,,,,,,METAR,369.0
CWKP 291500Z AUTO 10013KT M18/ A3016 RMK SLP261,CWKP,2017-04-29T15:00:00Z,69.67,-121.67,-18.0,,100,13,,,30.159449,1026.1,,TRUE,,,,,,,,,,,,,,,,,,,,,,,,,,,,METAR,330.0
CWFD 291500Z AUTO ///// ////SM //// NCD M14/M15 A2942,CWFD,2017-04-29T15:00:00Z,66.57,-61.58,-14.0,-15.0,,,,,29.421259,,,TRUE,,,,,,,,CLR,,,,,,,,,,,,,,,,,,,,METAR,393.0
CWEU 291500Z 13004KT 15SM BKN030 M24/M27 A3028 RMK SC7 SLP257,CWEU,2017-04-29T15:00:00Z,80.0,-85.92,-24.0,-27.0,130,4,,15.0,30.280512,1025.7,,,,,,,,,,BKN,3000,,,,,,,MVFR,,,,,,,,,,,,METAR,10.0
CYZE 291500Z AUTO 31012G21KT 9SM CLR 05/M02 A3018 RMK SLP230,CYZE,2017-04-29T15:00:00Z,45.87,-82.57,5.0,-2.0,310,12,21,9.0,30.180119,1023.0,,TRUE,,,,,,,,CLR,,,,,,,,VFR,,,,,,,,,,,,METAR,193.0
CYYY 291500Z 22007KT 15SM SCT049 BKN083 10/08 A2969 RMK SC3AC4 SLP058,CYYY,2017-04-29T15:00:00Z,48.6,-68.22,10.0,8.0,220,7,,15.0,29.68996,1005.8,,,,,,,,,,SCT,4900,BKN,8300,,,,,VFR,,,,,,,,,,,,METAR,52.0
CYWA 291500Z AUTO 30014G21KT 280V340 9SM FEW045 10/M02 A3001 RMK SLP165,CYWA,2017-04-29T15:00:00Z,45.95,-77.32,10.0,-2.0,300,14,21,9.0,30.008858,1016.5,,TRUE,,,,,,,,FEW,4500,,,,,,,VFR,,,,,,,,,,,,METAR,130.0
CYVV 291500Z 26006KT 240V320 15SM FEW040 SCT250 06/M01 A3017 RMK SC1CI2 SLP225,CYVV,2017-04-29T15:00:00Z,44.75,-81.08,6.0,-1.0,260,6,,15.0,30.171259,1022.5,,,,,,,,,,FEW,4000,SCT,25000,,,,,VFR,,,,,,,,,,,,METAR,222.0
CYVP 291500Z 32014G22KT 8SM -SN OVC018 M03/M06 A2942 RMK SC8 SLP968,CYVP,2017-04-29T15:00:00Z,58.12,-68.42,-3.0,-6.0,320,14,22,8.0,29.421259,996.8,,,,,,,,,-SN,OVC,1800,,,,,,,MVFR,,,,,,,,,,,,SPECI,60.0
CYTZ 291500Z AUTO 32009KT 290V350 9SM OVC070 10/01 A3012 RMK SLP201,CYTZ,2017-04-29T15:00:00Z,43.63,-79.4,10.0,1.0,320,9,,9.0,30.121063,1020.1,,TRUE,,,,,,,,OVC,7000,,,,,,,VFR,,,,,,,,,,,,METAR,77.0
CYTS 291500Z 30016G24KT 15SM -SN OVC025 M01/M07 A3013 RMK SC8 PRESRR SLP221,CYTS,2017-04-29T15:00:00Z,48.57,-81.37,-1.0,-7.0,300,16,24,15.0,30.129921,1022.1,,,,,,,,,-SN,OVC,2500,,,,,,,MVFR,,,,,,,,,,,,METAR,295.0
CYTL 291500Z AUTO VRB07KT 9SM CLR M02/M09 A3031 RMK SLP283,CYTL,2017-04-29T15:00:00Z,53.82,-89.88,-2.0,-9.0,0,7,,9.0,30.31004,1028.3,,TRUE,,,,,,,,CLR,,,,,,,,VFR,,,,,,,,,,,,SPECI,224.0
CYRL 291500Z 26004KT 15SM FEW240 05/M14 A3030 RMK CI1 CI TR SLP281,CYRL,2017-04-29T15:00:00Z,51.07,-93.78,5.0,-14.0,260,4,,15.0,30.301182,1028.1,,,,,,,,,,FEW,24000,,,,,,,VFR,,,,,,,,,,,,METAR,383.0
CYRJ 291500Z 30015G23KT 40SM BKN042 06/M03 A2980 RMK SC7 SLP098,CYRJ,2017-04-29T15:00:00Z,48.52,-72.27,6.0,-3.0,300,15,23,40.0,29.799213,1009.8,,,,,,,,,,BKN,4200,,,,,,,VFR,,,,,,,,,,,,METAR,179.0
CYQT 291500Z 13004KT 360V150 20SM SKC 04/M07 A3035 RMK SLP291,CYQT,2017-04-29T15:00:00Z,48.37,-89.32,4.0,-7.0,130,4,,20.0,30.351377,1029.1,,,,,,,,,,SKC,,,,,,,,VFR,,,,,,,,,,,,METAR,199.0
CYPQ 291500Z AUTO 30010G16KT 260V320 9SM BKN085 10/02 A3006 RMK SLP184,CYPQ,2017-04-29T15:00:00Z,44.22,-78.37,10.0,2.0,300,10,16,9.0,30.059055,1018.4,,TRUE,,,,,,,,BKN,8500,,,,,,,VFR,,,,,,,,,,,,METAR,191.0
CYND 291500Z 27013G21KT 15SM FEW080 SCT220 16/05 A2994 RMK AC2CI1 SLP140,CYND,2017-04-29T15:00:00Z,45.52,-75.57,16.0,5.0,270,13,21,15.0,29.940945,1014.0,,,,,,,,,,FEW,8000,SCT,22000,,,,,VFR,,,,,,,,,,,,METAR,64.0
CYNA 291500Z AUTO 27010G16KT 9SM BKN003 02/01 A2965 RMK SLP044,CYNA,2017-04-29T15:00:00Z,50.17,-61.82,2.0,1.0,270,10,16,9.0,29.648623,1004.4,,TRUE,,,,,,,,BKN,300,,,,,,,LIFR,,,,,,,,,,,,METAR,11.0
CYKO 291500Z 33026G31KT 8SM DRSN BKN014 M10/M13 A2988 RMK SC6 SLP121,CYKO,2017-04-29T15:00:00Z,60.82,-78.15,-10.0,-13.0,330,26,31,8.0,29.878937,1012.1,,,,,,,,,DRSN,BKN,1400,,,,,,,MVFR,,,,,,,,,,,,METAR,9.0
CYHU 291500Z AUTO 24018G28KT 9SM FEW120 17/08 A2987 RMK SLP117 DENSITY ALT 400FT,CYHU,2017-04-29T15:00:00Z,45.52,-73.42,17.0,8.0,240,18,28,9.0,29.870079,1011.7,,TRUE,,,,,,,,FEW,12000,,,,,,,VFR,,,,,,,,,,,,METAR,27.0
CYHD 291500Z AUTO 06006KT 030V110 9SM CLR 05/M13 A3031 RMK SLP285,CYHD,2017-04-29T15:00:00Z,49.82,-92.75,5.0,-13.0,60,6,,9.0,30.31004,1028.5,,TRUE,,,,,,,,CLR,,,,,,,,VFR,,,,,,,,,,,,METAR,413.0
CYGR 291500Z 29009KT 3/4SM BR OVC002 06/06 A2978 RMK FG6SF2 SLP085,CYGR,2017-04-29T15:00:00Z,47.42,-61.77,6.0,6.0,290,9,,0.75,29.778543,1008.5,,,,,,,,,BR,OVC,200,,,,,,,LIFR,,,,,,,,,,,,METAR,10.0
CYFT 291500Z 24011G18KT 15SM BKN020 06/04 A2935 RMK SC7 SLP945,CYFT,2017-04-29T15:00:00Z,55.07,-59.17,6.0,4.0,240,11,18,15.0,29.350393,994.5,,,,,,,,,,BKN,2000,,,,,,,MVFR,,,,,,,,,,,,SPECI,71.0
CYAM 291500Z 33011G21KT 290V350 15SM FEW028 FEW031 FEW210 BKN230 05/M03 A3026 RMK CF1CU1CI1CC4 CU TR CI TR SLP257,CYAM,2017-04-29T15:00:00Z,46.47,-84.52,5.0,-3.0,330,11,21,15.0,30.259842,1025.7,,,,,,,,,,FEW,2800,FEW,3100,FEW,21000,BKN,23000,VFR,,,,,,,,,,,,METAR,192.0
CZST 291500Z VRB02KT 15SM OVC200 03/01 A3001 RMK CS8 CLIMAT 13.7/1.4/0.0 SLP163,CZST,2017-04-29T15:00:00Z,55.93,-129.98,3.0,1.0,0,2,,15.0,30.008858,1016.3,,,,,,,,,,OVC,20000,,,,,,,VFR,,,,,,,,,,,,METAR,7.0
CZBF 291500Z 10006KT 15SM VCSH FEW030 BKN070 11/08 A2973 RMK SC1AC6 SLP071,CZBF,2017-04-29T15:00:00Z,47.62,-65.75,11.0,8.0,100,6,,15.0,29.731298,1007.1,,,,,,,,,VCSH,FEW,3000,BKN,7000,,,,,VFR,,,,,,,,,,,,SPECI,59.0
CWZZ 291500Z AUTO ///// ////SM //// OVC065 M01/M01 A2915,CWZZ,2017-04-29T15:00:00Z,58.32,-62.57,-1.0,-1.0,,,,,29.149607,,,TRUE,,,,,,,,OVC,6500,,,,,,,,,,,,,,,,,,,METAR,483.0
CWYK 291500Z AUTO ///// M01/ A2915 RMK SLP916,CWYK,2017-04-29T15:00:00Z,57.12,-61.47,-1.0,,,,,,29.149607,991.6,,TRUE,,,,,,,,,,,,,,,,,,,,,,,,,,,,METAR,834.0
CWVH 291500Z AUTO 10003KT A3013,CWVH,2017-04-29T15:00:00Z,68.9,-133.93,,,100,3,,,30.129921,,,TRUE,,,,,,,,,,,,,,,,,,,,,,,,,,,,METAR,261.0
CWUW 291500Z AUTO 08025G35KT ////SM //// BKN003 M15/M17 A2949,CWUW,2017-04-29T15:00:00Z,68.65,-71.17,-15.0,-17.0,80,25,35,,29.489174,,,TRUE,,,,,,,,BKN,300,,,,,,,,,,,,,,,,,,,METAR,527.0
CWUP 291500Z AUTO ///// M15/ A2958 RMK SLP060,CWUP,2017-04-29T15:00:00Z,68.47,-66.82,-15.0,,,,,,29.58071,1006.0,,TRUE,,,,,,,,,,,,,,,,,,,,,,,,,,,,METAR,390.0
CWSW 291500Z 17003KT 040V200 8SM FEW003 SCT007 BKN025 04/02 A3018 RMK SF1ST4CU1 SF TR SLP253,CWSW,2017-04-29T15:00:00Z,49.75,-114.87,4.0,2.0,170,3,,8.0,30.180119,1025.3,,,,,,,,,,FEW,300,SCT,700,BKN,2500,,,MVFR,,,,,,,,,,,,METAR,1138.0
CWRX 291500Z AUTO 36007KT 7SM //// OVC029 ///// A////,CWRX,2017-04-29T15:00:00Z,69.07,-79.02,,,360,7,,7.0,,,,TRUE,,,,,,,,OVC,2900,,,,,,,MVFR,,,,,,,,,,,,METAR,41.0
CWPX 291500Z AUTO 02018KT ////SM //// OVC002 M23/M27 A3020,CWPX,2017-04-29T15:00:00Z,69.02,-107.82,-23.0,-27.0,20,18,,,30.200787,,,TRUE,,,,,,,,OVC,200,,,,,,,,,,,,,,,,,,,METAR,165.0
CWOB 291500Z AUTO 08023G29KT ////SM //// OVC003 ///// A2934,CWOB,2017-04-29T15:00:00Z,63.32,-64.15,,,80,23,29,,29.338583,,,TRUE,,,,,,,,OVC,300,,,,,,,,,,,,,,,,,,,METAR,367.0
CWLX 291500Z AUTO 09025KT M12/ A2962 RMK SLP051,CWLX,2017-04-29T15:00:00Z,68.9,-75.15,-12.0,,90,25,,,29.619095,1005.1,,TRUE,,,,,,,,,,,,,,,,,,,,,,,,,,,,METAR,162.0
CWLI 291500Z AUTO ///// ////SM //// NCD ///// A////,CWLI,2017-04-29T15:00:00Z,69.58,-130.9,,,,,,,,,,TRUE,,,,,,,,CLR,,,,,,,,,,,,,,,,,,,,METAR,102.0
CWKW 291500Z AUTO ///// A2914,CWKW,2017-04-29T15:00:00Z,59.97,-64.17,,,,,,,29.140747,,,TRUE,,,,,,,,,,,,,,,,,,,,,,,,,,,,METAR,551.0
CWKM 291500Z AUTO 10013KT A3015,CWKM,2017-04-29T15:00:00Z,69.6,-140.17,,,100,13,,,30.15059,,,TRUE,,,,,,,,,,,,,,,,,,,,,,,,,,,,METAR,13.0
CWIL 291500Z AUTO 29006KT M23/ A3028 RMK SLP264,CWIL,2017-04-29T15:00:00Z,68.32,-100.07,-23.0,,290,6,,,30.280512,1026.4,,TRUE,,,,,,,,,,,,,,,,,,,,,,,,,,,,METAR,36.0
CWCA 291500Z 23009KT 15SM FEW020 FEW200 08/04 A2939 RMK SC1CI1 SLP953,CWCA,2017-04-29T15:00:00Z,53.7,-57.02,8.0,4.0,230,9,,15.0,29.388779,995.3,,,,,,,,,,FEW,2000,FEW,20000,,,,,VFR,,,,,,,,,,,,METAR,14.0
CWAE 291500Z 00000KT 15SM FEW048 OVC100 02/01 A3022 RMK SC2AS6 SLP247,CWAE,2017-04-29T15:00:00Z,50.13,-122.95,2.0,1.0,0,0,,15.0,30.221457,1024.7,,,,,,,,,,FEW,4800,OVC,10000,,,,,VFR,,,,,,,,,,,,METAR,658.0
CZVL 291500Z AUTO 25004KT 9SM BKN060 OVC075 07/03 A3008 RMK SLP206,CZVL,2017-04-29T15:00:00Z,53.67,-113.85,7.0,3.0,250,4,,9.0,30.079725,1020.6,,TRUE,,,,,,,,BKN,6000,OVC,7500,,,,,VFR,,,,,,,,,,,,METAR,686.0
CYZH 291500Z AUTO 35003KT 300V010 9SM SCT048 BKN055 BKN080 06/03 A3004 RMK SLP193,CYZH,2017-04-29T15:00:00Z,55.28,-114.77,6.0,3.0,350,3,,9.0,30.041338,1019.3,,TRUE,,,,,,,,SCT,4800,BKN,5500,BKN,8000,,,VFR,,,,,,,,,,,,METAR,581.0
CYYN 291500Z AUTO 24006KT 9SM CLR 06/M02 A3018 RMK SLP244,CYYN,2017-04-29T15:00:00Z,50.27,-107.67,6.0,-2.0,240,6,,9.0,30.180119,1024.4,,TRUE,,,,,,,,CLR,,,,,,,,VFR,,,,,,,,,,,,METAR,818.0
CYYL 291500Z AUTO 12008KT 9SM OVC100 M01/M05 A3025 RMK SLP267,CYYL,2017-04-29T15:00:00Z,56.87,-101.07,-1.0,-5.0,120,8,,9.0,30.250984,1026.7,,TRUE,,,,,,,,OVC,10000,,,,,,,VFR,,,,,,,,,,,,METAR,357.0
CYVC 291500Z 10003KT 360V150 15SM FEW110 SCT250 07/M09 A3014 RMK AC1CI2 SLP225,CYVC,2017-04-29T15:00:00Z,55.15,-105.27,7.0,-9.0,100,3,,15.0,30.138779,1022.5,,,,,,,,,,FEW,11000,SCT,25000,,,,,VFR,,,,,,,,,,,,METAR,379.0
CYQW 291500Z AUTO 28004KT 240V300 9SM CLR 04/M02 A3016 RMK SLP236,CYQW,2017-04-29T15:00:00Z,52.77,-108.25,4.0,-2.0,280,4,,9.0,30.159449,1023.6,,TRUE,,,,,,,,CLR,,,,,,,,VFR,,,,,,,,,,,,METAR,548.0
CYQR 291500Z 24008KT 15SM FEW100 05/02 A3022 RMK AC1 AC TR SLP255,CYQR,2017-04-29T15:00:00Z,50.43,-104.67,5.0,2.0,240,8,,15.0,30.221457,1025.5,,,,,,,,,,FEW,10000,,,,,,,VFR,,,,,,,,,,,,METAR,577.0
CYQL 291500Z 27008KT 60SM FEW060 FEW120 06/03 A3014 RMK SC1AC1 SC TR AC TR SLP228,CYQL,2017-04-29T15:00:00Z,49.63,-112.8,6.0,3.0,270,8,,60.0,30.138779,1022.8,,,,,,,,,,FEW,6000,FEW,12000,,,,,VFR,,,,,,,,,,,,METAR,929.0
CYQF 291500Z 30004KT 280V350 15SM FEW040 SCT090 BKN220 05/01 A3010 RMK CU2AC2CI2 SLP224,CYQF,2017-04-29T15:00:00Z,52.17,-113.9,5.0,1.0,300,4,,15.0,30.100393,1022.4,,,,,,,,,,FEW,4000,SCT,9000,BKN,22000,,,VFR,,,,,,,,,,,,METAR,905.0
CYPY 291500Z AUTO 11004KT 100V160 9SM OVC090 04/M01 A3004 RMK SLP186,CYPY,2017-04-29T15:00:00Z,58.77,-111.12,4.0,-1.0,110,4,,9.0,30.041338,1018.6,,TRUE,,,,,,,,OVC,9000,,,,,,,VFR,,,,,,,,,,,,METAR,232.0
CYPA 291500Z 04006KT 15SM FEW015 BKN037 OVC250 06/01 A3013 RMK SF1SC5CI2 SLP223,CYPA,2017-04-29T15:00:00Z,53.22,-105.67,6.0,1.0,40,6,,15.0,30.129921,1022.3,,,,,,,,,,FEW,1500,BKN,3700,OVC,25000,,,VFR,,,,,,,,,,,,METAR,428.0
CYOJ 291500Z 18004KT 140V220 15SM FEW090 FEW260 08/M03 A2999 RMK AC1CI2 AC TR SLP171,CYOJ,2017-04-29T15:00:00Z,58.62,-117.17,8.0,-3.0,180,4,,15.0,29.991142,1017.1,,,,,,,,,,FEW,9000,FEW,26000,,,,,VFR,,,,,,,,,,,,METAR,338.0
CYNE 291500Z AUTO VRB03KT 9SM CLR 07/M10 A3027 RMK SLP265,CYNE,2017-04-29T15:00:00Z,53.97,-97.82,7.0,-10.0,0,3,,9.0,30.268702,1026.5,,TRUE,,,,,,,,CLR,,,,,,,,VFR,,,,,,,,,,,,METAR,223.0
CYMM 291500Z AUTO 23004KT 200V330 9SM CLR 09/M00 A3006 RMK SLP193,CYMM,2017-04-29T15:00:00Z,56.65,-111.22,9.0,0.0,230,4,,9.0,30.059055,1019.3,,TRUE,,,,,,,,CLR,,,,,,,,VFR,,,,,,,,,,,,METAR,369.0
CYLL 291500Z 23005KT 15SM FEW008 BKN270 07/M02 A3012 RMK SC1CI5 LWR LYR W SLP227,CYLL,2017-04-29T15:00:00Z,53.32,-110.07,7.0,-2.0,230,5,,15.0,30.121063,1022.7,,,,,,,,,,FEW,800,BKN,27000,,,,,VFR,,,,,,,,,,,,METAR,669.0
CYKJ 291500Z AUTO 14005KT 100V160 9SM CLR 06/M08 A3012 RMK SLP224,CYKJ,2017-04-29T15:00:00Z,57.25,-105.62,6.0,-8.0,140,5,,9.0,30.121063,1022.4,,TRUE,,,,,,,,CLR,,,,,,,,VFR,,,,,,,,,,,,METAR,509.0
CYGX 291500Z 02005KT 15SM FEW023 SCT085 SCT230 BKN280 M06/M12 A3040 RMK SC1AS4CS1CI1 SC TR CS TR SLP309,CYGX,2017-04-29T15:00:00Z,56.35,-94.7,-6.0,-12.0,20,5,,15.0,30.398623,1030.9,,,,,,,,,,FEW,2300,SCT,8500,SCT,23000,BKN,28000,VFR,,,,,,,,,,,,METAR,145.0
CYET 291500Z AUTO 28006KT 9SM FEW070 05/01 A3008 RMK SLP213,CYET,2017-04-29T15:00:00Z,53.57,-116.47,5.0,1.0,280,6,,9.0,30.079725,1021.3,,TRUE,,,,,,,,FEW,7000,,,,,,,VFR,,,,,,,,,,,,METAR,925.0
CYEN 291500Z 26004KT 150V280 15SM FEW120 FEW250 09/02 A3023 RMK AC1CI1 AC TR SLP256,CYEN,2017-04-29T15:00:00Z,49.22,-102.97,9.0,2.0,260,4,,15.0,30.230314,1025.6,,,,,,,,,,FEW,12000,FEW,25000,,,,,VFR,,,,,,,,,,,,METAR,581.0
CYDN 291500Z AUTO 01005KT 300V050 9SM CLR 09/M06 A3021 RMK SLP243,CYDN,2017-04-29T15:00:00Z,51.1,-100.03,9.0,-6.0,10,5,,9.0,30.209646,1024.3,,TRUE,,,,,,,,CLR,,,,,,,,VFR,,,,,,,,,,,,METAR,305.0
CYBU 291500Z AUTO 01005KT 9SM FEW004 OVC018 04/03 A3014 RMK SLP224,CYBU,2017-04-29T15:00:00Z,53.32,-104.0,4.0,3.0,10,5,,9.0,30.138779,1022.4,,TRUE,,,,,,,,FEW,400,OVC,1800,,,,,MVFR,,,,,,,,,,,,METAR,374.0
CYBR 291500Z 17003KT 140V220 15SM FEW150 FEW220 08/M04 A3023 RMK AC1CI1 SLP258,CYBR,2017-04-29T15:00:00Z,49.92,-99.95,8.0,-4.0,170,3,,15.0,30.230314,1025.8,,,,,,,,,,FEW,15000,FEW,22000,,,,,VFR,,,,,,,,,,,,METAR,409.0
CYBQ 291500Z AUTO 14005KT 110V170 9SM OVC035 M09/M12 A3032 RMK SLP295,CYBQ,2017-04-29T15:00:00Z,58.7,-98.5,-9.0,-12.0,140,5,,9.0,30.318897,1029.5,,TRUE,,,,,,,,OVC,3500,,,,,,,VFR,,,,,,,,,,,,METAR,262.0
CWHN 291500Z AUTO 14002KT 9SM CLR 06/M04 A3009 RMK ICG PAST HR SLP214,CWHN,2017-04-29T15:00:00Z,54.88,-109.97,6.0,-4.0,140,2,,9.0,30.088583,1021.4,,TRUE,,,,,,,,CLR,,,,,,,,VFR,,,,,,,,,,,,METAR,636.0
CZMT 291500Z 15012G17KT 12SM -RA FEW006 SCT015 BKN020 OVC030 06/04 A2986 RMK SF1SC3SC3SC1 SLP113,CZMT,2017-04-29T15:00:00Z,54.03,-132.13,6.0,4.0,150,12,17,12.0,29.861221,1011.3,,,,,,,,,-RA,FEW,600,SCT,1500,BKN,2000,OVC,3000,MVFR,,,,,,,,,,,,METAR,8.0
CZFA 291500Z 14002KT 30SM SCT075 M02/M07 A2997 RMK AC3 SLP184,CZFA,2017-04-29T15:00:00Z,62.2,-133.37,-2.0,-7.0,140,2,,30.0,29.970472,1018.4,,,,,,,,,,SCT,7500,,,,,,,VFR,,,,,,,,,,,,METAR,717.0
CYZY 291500Z AUTO 17008KT 9SM CLR 02/M01 A3008 RMK SLP215,CYZY,2017-04-29T15:00:00Z,55.28,-123.12,2.0,-1.0,170,8,,9.0,30.079725,1021.5,,TRUE,,,,,,,,CLR,,,,,,,,VFR,,,,,,,,,,,,SPECI,690.0
CYYF 291500Z 15002KT 15SM SKC 06/M01 A3023 RMK SLP245,CYYF,2017-04-29T15:00:00Z,49.47,-119.58,6.0,-1.0,150,2,,15.0,30.230314,1024.5,,,,,,,,,,SKC,,,,,,,,VFR,,,,,,,,,,,,METAR,344.0
CYYE 291500Z 20005KT 30SM SCT090 08/M01 A3002 RMK AC4 SLP179,CYYE,2017-04-29T15:00:00Z,58.82,-122.57,8.0,-1.0,200,5,,30.0,30.02067,1017.9,,,,,,,,,,SCT,9000,,,,,,,VFR,,,,,,,,,,,,METAR,382.0
CYYD 291500Z 00000KT 25SM FEW065 OVC250 M01/M03 A3002 RMK CF1CI8 CF TR SLP181,CYYD,2017-04-29T15:00:00Z,54.82,-127.18,-1.0,-3.0,0,0,,25.0,30.02067,1018.1,,,,,,,,,,FEW,6500,OVC,25000,,,,,VFR,,,,,,,,,,,,METAR,523.0
CYXY 291500Z 15008KT 110V170 40SM BKN060 03/M04 A2997 RMK SC5 SLP180,CYXY,2017-04-29T15:00:00Z,60.72,-135.07,3.0,-4.0,150,8,,40.0,29.970472,1018.0,,,,,,,,,,BKN,6000,,,,,,,VFR,,,,,,,,,,,,SPECI,703.0
CYXT 291500Z VRB02KT 20SM FEW040 BKN150 OVC200 03/00 A2999 RMK SC1AC5CI2 SLP163,CYXT,2017-04-29T15:00:00Z,54.47,-128.57,3.0,0.0,0,2,,20.0,29.991142,1016.3,,,,,,,,,,FEW,4000,BKN,15000,OVC,20000,,,VFR,,,,,,,,,,,,METAR,217.0
CYXJ 291500Z 25004KT 230V300 15SM FEW120 04/01 A3002 RMK AC1 SLP193,CYXJ,2017-04-29T15:00:00Z,56.25,-120.73,4.0,1.0,250,4,,15.0,30.02067,1019.3,,,,,,,,,,FEW,12000,,,,,,,VFR,,,,,,,,,,,,METAR,695.0
CYWL 291500Z 12007KT 15SM OVC220 04/M01 A3012 RMK CS8 SLP223,CYWL,2017-04-29T15:00:00Z,52.18,-122.07,4.0,-1.0,120,7,,15.0,30.121063,1022.3,,,,,,,,,,OVC,22000,,,,,,,VFR,,,,,,,,,,,,METAR,940.0
CYQU 291500Z 24007KT 25SM FEW240 05/M02 A3005 RMK CI1 SLP201,CYQU,2017-04-29T15:00:00Z,55.18,-118.88,5.0,-2.0,240,7,,25.0,30.050198,1020.1,,,,,,,,,,FEW,24000,,,,,,,VFR,,,,,,,,,,,,METAR,669.0
CYQH 291500Z 00000KT 40SM FEW040 02/M04 A3000 RMK SC2 SLP187,CYQH,2017-04-29T15:00:00Z,60.12,-128.82,2.0,-4.0,0,0,,40.0,30.0,1018.7,,,,,,,,,,FEW,4000,,,,,,,VFR,,,,,,,,,,,,METAR,690.0
CYPW 291500Z 11009G17KT 070V130 25SM FEW045 OVC090 08/05 A3022 RMK SC1AS7 AC ASOCTD SLP238,CYPW,2017-04-29T15:00:00Z,49.82,-124.5,8.0,5.0,110,9,17,25.0,30.221457,1023.8,,,,,,,,,,FEW,4500,OVC,9000,,,,,VFR,,,,,,,,,,,,METAR,130.0
CYOC 291500Z VRB02KT 35SM FEW035 FEW130 FEW210 M11/M14 A3009 RMK SC1AC1CI1 SC TR AC TR SLP214,CYOC,2017-04-29T15:00:00Z,67.57,-139.82,-11.0,-14.0,0,2,,35.0,30.088583,1021.4,,,,,,,,,,FEW,3500,FEW,13000,FEW,21000,,,VFR,,,,,,,,,,,,METAR,251.0
CYMA 291500Z 01005KT 20SM SCT045 BKN090 03/01 A2996 RMK SC4AC3 SLP173,CYMA,2017-04-29T15:00:00Z,63.62,-135.87,3.0,1.0,10,5,,20.0,29.958662,1017.3,,,,,,,,,,SCT,4500,BKN,9000,,,,,VFR,,,,,,,,,,,,METAR,504.0
CYLW 291500Z AUTO 00000KT 9SM CLR 07/00 A3021 RMK SLP239,CYLW,2017-04-29T15:00:00Z,49.95,-119.37,7.0,0.0,0,0,,9.0,30.209646,1023.9,,TRUE,,,,,,,,CLR,,,,,,,,VFR,,,,,,,,,,,,METAR,430.0
CYKA 291500Z 31002KT 40SM FEW090 SCT250 07/01 A3021 RMK AC2CI2 SLP240,CYKA,2017-04-29T15:00:00Z,50.7,-120.45,7.0,1.0,310,2,,40.0,30.209646,1024.0,,,,,,,,,,FEW,9000,SCT,25000,,,,,VFR,,,,,,,,,,,,METAR,346.0
CYIN 291500Z AUTO 13005KT 9SM CLR 04/M03 A3011 RMK SLP216,CYIN,2017-04-29T15:00:00Z,51.27,-121.68,4.0,-3.0,130,5,,9.0,30.109253,1021.6,,TRUE,,,,,,,,CLR,,,,,,,,VFR,,,,,,,,,,,,METAR,1128.0
CYGE 291500Z 14004KT 20SM FEW002 SCT055 BKN095 03/00 A3019 RMK ST1SC2AC4 SLP246,CYGE,2017-04-29T15:00:00Z,51.3,-116.98,3.0,0.0,140,4,,20.0,30.188976,1024.6,,,,,,,,,,FEW,200,SCT,5500,BKN,9500,,,VFR,,,,,,,,,,,,METAR,785.0
CYDL 291500Z AUTO 06007KT 9SM CLR M01/M03 A3000 RMK SLP182,CYDL,2017-04-29T15:00:00Z,58.42,-130.02,-1.0,-3.0,60,7,,9.0,30.0,1018.2,,TRUE,,,,,,,,CLR,,,,,,,,VFR,,,,,,,,,,,,METAR,816.0
CYDA 291500Z 10003KT 20SM BKN038 OVC070 02/01 A2997 RMK SC6AC2 SLP166,CYDA,2017-04-29T15:00:00Z,64.03,-139.12,2.0,1.0,100,3,,20.0,29.970472,1016.6,,,,,,,,,,BKN,3800,OVC,7000,,,,,VFR,,,,,,,,,,,,METAR,369.0
CYCG 291500Z 00000KT 15SM FEW080 SCT100 05/01 A3023 RMK AC2ACC1 SLP248,CYCG,2017-04-29T15:00:00Z,49.28,-117.62,5.0,1.0,0,0,,15.0,30.230314,1024.8,,,,,,,,,,FEW,8000,SCT,10000,,,,,VFR,,,,,,,,,,,,METAR,495.0
CYCD 291500Z VRB02KT 20SM FEW015 OVC090 05/03 A3026 RMK SC1AC7 SLP247,CYCD,2017-04-29T15:00:00Z,49.05,-123.87,5.0,3.0,0,2,,20.0,30.259842,1024.7,,,,,,,,,,FEW,1500,OVC,9000,,,,,VFR,,,,,,,,,,,,METAR,30.0
CYBD 291500Z 00000KT 15SM OVC080 05/02 A3004 RMK AC8 SLP175,CYBD,2017-04-29T15:00:00Z,52.37,-126.57,5.0,2.0,0,0,,15.0,30.041338,1017.5,,,,,,,,,,OVC,8000,,,,,,,VFR,,,,,,,,,,,,METAR,35.0
CZSJ 291500Z AUTO 08004KT 020V120 9SM CLR 03/M12 A3030 RMK SLP280,CZSJ,2017-04-29T15:00:00Z,53.07,-93.35,3.0,-12.0,80,4,,9.0,30.301182,1028.0,,TRUE,,,,,,,,CLR,,,,,,,,VFR,,,,,,,,,,,,METAR,290.0
CZMD 291500Z AUTO 01005KT 310V070 9SM OVC008 M03/M05 A3033 RMK SLP291,CZMD,2017-04-29T15:00:00Z,53.43,-91.77,-3.0,-5.0,10,5,,9.0,30.33071,1029.1,,TRUE,,,,,,,,OVC,800,,,,,,,IFR,,,,,,,,,,,,METAR,278.0
CYYW 291500Z AUTO 35004KT 300V040 9SM CLR 02/M12 A3030 RMK SLP278,CYYW,2017-04-29T15:00:00Z,50.3,-88.9,2.0,-12.0,350,4,,9.0,30.301182,1027.8,,TRUE,,,,,,,,CLR,,,,,,,,VFR,,,,,,,,,,,,METAR,351.0
CYYH 291500Z 32015KT 15SM DRSN FEW020 FEW040 SCT100 SCT210 M19/M23 A3014 RMK SC1SC1AC1CI1 CI TR SLP213,CYYH,2017-04-29T15:00:00Z,69.53,-93.57,-19.0,-23.0,320,15,,15.0,30.138779,1021.3,,,,,,,,,DRSN,FEW,2000,FEW,4000,SCT,10000,SCT,21000,VFR,,,,,,,,,,,,METAR,28.0
CYYB 291500Z 31017G24KT 280V350 30SM SCT037 SCT120 04/M05 A3006 RMK SC3AC1 SLP192,CYYB,2017-04-29T15:00:00Z,46.35,-79.42,4.0,-5.0,310,17,24,30.0,30.059055,1019.2,,,,,,,,,,SCT,3700,SCT,12000,,,,,VFR,,,,,,,,,,,,METAR,371.0
CYXZ 291500Z 27006KT 230V310 15SM FEW028 SCT150 03/M04 A3026 RMK SC2AC1 SLP264,CYXZ,2017-04-29T15:00:00Z,47.97,-84.77,3.0,-4.0,270,6,,15.0,30.259842,1026.4,,,,,,,,,,FEW,2800,SCT,15000,,,,,VFR,,,,,,,,,,,,METAR,287.0
CYXU 291500Z 36011G18KT 15SM BKN053 08/01 A3012 RMK SC7 SLP206,CYXU,2017-04-29T15:00:00Z,43.02,-81.15,8.0,1.0,360,11,18,15.0,30.121063,1020.6,,,,,,,,,,BKN,5300,,,,,,,VFR,,,,,,,,,,,,SPECI,278.0
CYXL 291500Z 30003KT 15SM FEW220 04/M13 A3031 RMK CI2 PRESRR SLP287,CYXL,2017-04-29T15:00:00Z,50.12,-91.9,4.0,-13.0,300,3,,15.0,30.31004,1028.7,,,,,,,,,,FEW,22000,,,,,,,VFR,,,,,,,,,,,,METAR,390.0
CYVQ 291500Z 13006KT 30SM BKN027 BKN090 OVC260 M03/M07 A3014 RMK SC5AC1CI2 SLP214,CYVQ,2017-04-29T15:00:00Z,65.27,-126.78,-3.0,-7.0,130,6,,30.0,30.138779,1021.4,,,,,,,,,,BKN,2700,BKN,9000,OVC,26000,,,MVFR,,,,,,,,,,,,METAR,74.0
CYVO 291500Z 29013G26KT 240V330 15SM -SHSN BKN034 01/M06 A2999 RMK SC7 CVCTV CLD EMBD PRESRR SLP174,CYVO,2017-04-29T15:00:00Z,48.07,-77.77,1.0,-6.0,290,13,26,15.0,29.991142,1017.4,,,,,,,,,-SHSN,BKN,3400,,,,,,,VFR,,,,,,,,,,,,METAR,337.0
CYSP 291500Z VRB04KT 15SM SKC 03/M07 A3028 RMK SLP273,CYSP,2017-04-29T15:00:00Z,48.75,-86.35,3.0,-7.0,0,4,,15.0,30.280512,1027.3,,,,,,,,,,SKC,,,,,,,,VFR,,,,,,,,,,,,METAR,315.0
CYSN 291500Z 33007KT 15SM OVC067 09/02 A3012 RMK AC8 SLP204,CYSN,2017-04-29T15:00:00Z,43.2,-79.17,9.0,2.0,330,7,,15.0,30.121063,1020.4,,,,,,,,,,OVC,6700,,,,,,,VFR,,,,,,,,,,,,METAR,98.0
CYSC 291500Z AUTO 26013G19KT 9SM BKN100 OVC120 18/07 A2986 RMK SLP115 DENSITY ALT 1400FT,CYSC,2017-04-29T15:00:00Z,45.43,-71.68,18.0,7.0,260,13,19,9.0,29.861221,1011.5,,TRUE,,,,,,,,BKN,10000,OVC,12000,,,,,VFR,,,,,,,,,,,,METAR,241.0
CYSB 291500Z 29018KT 20SM FEW038 SCT200 05/M05 A3010 RMK SC2CI2 SLP209,CYSB,2017-04-29T15:00:00Z,46.63,-80.8,5.0,-5.0,290,18,,20.0,30.100393,1020.9,,,,,,,,,,FEW,3800,SCT,20000,,,,,VFR,,,,,,,,,,,,METAR,348.0
CYRQ 291500Z AUTO 22017G24KT 9SM CLR 16/09 A2981 RMK SLP097 DENSITY ALT 500FT,CYRQ,2017-04-29T15:00:00Z,46.35,-72.68,16.0,9.0,220,17,24,9.0,29.811024,1009.7,,TRUE,,,,,,,,CLR,,,,,,,,VFR,,,,,,,,,,,,METAR,61.0
CYRB 291500Z 04007KT 15SM FEW040 FEW240 M21/M24 A3016 RMK SC1CI1 SC TR CI TR SLP226,CYRB,2017-04-29T15:00:00Z,74.72,-94.97,-21.0,-24.0,40,7,,15.0,30.159449,1022.6,,,,,,,,,,FEW,4000,FEW,24000,,,,,VFR,,,,,,,,,,,,SPECI,67.0
CYQK 291500Z 09003KT 060V140 15SM FEW260 07/M13 A3031 RMK CI1 SLP281,CYQK,2017-04-29T15:00:00Z,49.77,-94.37,7.0,-13.0,90,3,,15.0,30.31004,1028.1,,,,,,,,,,FEW,26000,,,,,,,VFR,,,,,,,,,,,,METAR,411.0
CYQA 291500Z AUTO 27012G20KT 250V320 9SM FEW029 07/M00 A3008 RMK SLP194,CYQA,2017-04-29T15:00:00Z,44.97,-79.28,7.0,0.0,270,12,20,9.0,30.079725,1019.4,,TRUE,,,,,,,,FEW,2900,,,,,,,VFR,,,,,,,,,,,,METAR,282.0
CYPO 291500Z AUTO 32013G20KT 9SM FEW018 M07/M12 A3029 RMK SLP262,CYPO,2017-04-29T15:00:00Z,54.98,-85.43,-7.0,-12.0,320,13,20,9.0,30.28937,1026.2,,TRUE,,,,,,,,FEW,1800,,,,,,,VFR,,,,,,,,,,,,METAR,53.0
CYPL 291500Z 29003KT 270V330 15SM SCT230 01/M12 A3029 RMK CI4 SLP280,CYPL,2017-04-29T15:00:00Z,51.47,-90.2,1.0,-12.0,290,3,,15.0,30.28937,1028.0,,,,,,,,,,SCT,23000,,,,,,,VFR,,,,,,,,,,,,SPECI,373.0
CYOO 291500Z AUTO 31014G20KT 9SM OVC070 09/00 A3010 RMK SLP196,CYOO,2017-04-29T15:00:00Z,43.92,-78.9,9.0,0.0,310,14,20,9.0,30.100393,1019.6,,TRUE,,,,,,,,OVC,7000,,,,,,,VFR,,,,,,,,,,,,METAR,139.0
CYLH 291500Z AUTO 01007KT 250V040 9SM CLR M02/M08 A3028 RMK SLP274,CYLH,2017-04-29T15:00:00Z,52.2,-87.93,-2.0,-8.0,10,7,,9.0,30.280512,1027.4,,TRUE,,,,,,,,CLR,,,,,,,,VFR,,,,,,,,,,,,METAR,254.0
CYKZ 291500Z 33012G17KT 300V010 15SM BKN070 08/01 A3010 RMK AC6 SLP198,CYKZ,2017-04-29T15:00:00Z,43.87,-79.37,8.0,1.0,330,12,17,15.0,30.100393,1019.8,,,,,,,,,,BKN,7000,,,,,,,VFR,,,,,,,,,,,,METAR,198.0
CYKP 291500Z AUTO 32012G18KT 300V010 9SM CLR M01/M08 A3024 RMK SLP253,CYKP,2017-04-29T15:00:00Z,51.67,-85.9,-1.0,-8.0,320,12,18,9.0,30.239174,1025.3,,TRUE,,,,,,,,CLR,,,,,,,,VFR,,,,,,,,,,,,METAR,179.0
CYKL 291500Z AUTO 28005KT 9SM SCT016 OVC040 02/M01 A2942 RMK SLP987,CYKL,2017-04-29T15:00:00Z,54.78,-66.82,2.0,-1.0,280,5,,9.0,29.421259,998.7,,TRUE,,,,,,,,SCT,1600,OVC,4000,,,,,VFR,,,,,,,,,,,,SPECI,521.0
CYKF 291500Z AUTO 32011KT 9SM OVC060 08/02 A3012 RMK SLP205,CYKF,2017-04-29T15:00:00Z,43.47,-80.38,8.0,2.0,320,11,,9.0,30.121063,1020.5,,TRUE,,,,,,,,OVC,6000,,,,,,,VFR,,,,,,,,,,,,METAR,317.0
CYHM 291500Z 33005KT 270V340 15SM FEW025 OVC060 10/03 A3012 RMK CF1SC8 CF TR SLP204,CYHM,2017-04-29T15:00:00Z,43.17,-79.93,10.0,3.0,330,5,,15.0,30.121063,1020.4,,,,,,,,,,FEW,2500,OVC,6000,,,,,VFR,,,,,,,,,,,,METAR,238.0
CYGQ 291500Z 33006G16KT 300V010 15SM SKC 03/M09 A3025 RMK TR AC SLP265,CYGQ,2017-04-29T15:00:00Z,49.77,-86.92,3.0,-9.0,330,6,16,15.0,30.250984,1026.5,,,,,,,,,,SKC,,,,,,,,VFR,,,,,,,,,,,,METAR,351.0
CYGK 291500Z 23010G15KT 15SM FEW050 BKN075 14/07 A3001 RMK CF1AC7 CF TR SLP166,CYGK,2017-04-29T15:00:00Z,44.22,-76.58,14.0,7.0,230,10,15,15.0,30.008858,1016.6,,,,,,,,,,FEW,5000,BKN,7500,,,,,VFR,,,,,,,,,,,,METAR,93.0
CYCK 291500Z AUTO 02010G17KT 9SM OVC055 07/01 A3015 RMK PRESRR SLP213,CYCK,2017-04-29T15:00:00Z,42.3,-82.08,7.0,1.0,20,10,17,9.0,30.15059,1021.3,,TRUE,,,,,,,,OVC,5500,,,,,,,VFR,,,,,,,,,,,,METAR,198.0
CYBN 291500Z AUTO 36016G22KT 310V020 9SM FEW088 07/00 A3014 RMK SLP210,CYBN,2017-04-29T15:00:00Z,44.27,-79.92,7.0,0.0,360,16,22,9.0,30.138779,1021.0,,TRUE,,,,,,,,FEW,8800,,,,,,,VFR,,,,,,,,,,,,METAR,223.0
CYAT 291500Z AUTO 34021G30KT 9SM BKN018 M03/M08 A3015 RMK PRESRR SLP210,CYAT,2017-04-29T15:00:00Z,52.93,-82.43,-3.0,-8.0,340,21,30,9.0,30.15059,1021.0,,TRUE,,,,,,,,BKN,1800,,,,,,,MVFR,,,,,,,,,,,,METAR,9.0
CYZX 291500Z 22002KT 12SM FEW005 FEW013 BKN100 16/14 A2984 RMK SF1SC1AC6 PRESFR WNDY HILL UNAVBL SLP104,CYZX,2017-04-29T15:00:00Z,44.98,-64.92,16.0,14.0,220,2,,12.0,29.840551,1010.4,,,,,,,,,,FEW,500,FEW,1300,BKN,10000,,,VFR,,,,,,,,,,,,SPECI,28.0
CYZF 291500Z 13004KT 080V160 15SM FEW090 BKN120 01/M03 A3001 RMK AC2AC4 SLP178,CYZF,2017-04-29T15:00:00Z,62.47,-114.45,1.0,-3.0,130,4,,15.0,30.008858,1017.8,,,,,,,,,,FEW,9000,BKN,12000,,,,,VFR,,,,,,,,,,,,SPECI,206.0
CYYZ 291500Z 33008KT 15SM BKN065 09/M00 A3011 RMK SC7 SLP201,CYYZ,2017-04-29T15:00:00Z,43.67,-79.62,9.0,0.0,330,8,,15.0,30.109253,1020.1,,,,,,,,,,BKN,6500,,,,,,,VFR,,,,,,,,,,,,SPECI,173.0
CYYT 291500Z 27018G27KT 15SM BKN025 12/10 A2963 RMK SC7 CIG ESTD SLP038 DENSITY ALT 500FT,CYYT,2017-04-29T15:00:00Z,47.62,-52.72,12.0,10.0,270,18,27,15.0,29.630905,1003.8,,,,,,,,,,BKN,2500,,,,,,,MVFR,,,,,,,,,,,,SPECI,140.0
CYYR 291500Z 24016G22KT 15SM SCT028 SCT052 BKN060 BKN070 BKN250 10/05 A2945 RMK CU3SC1SC1AC0CI2 SLP976,CYYR,2017-04-29T15:00:00Z,53.32,-60.42,10.0,5.0,240,16,22,15.0,29.450787,997.6,,,,,,,,,,SCT,2800,SCT,5200,BKN,6000,BKN,7000,VFR,,,,,,,,,,,,SPECI,49.0
CYYJ 291500Z 22003KT 210V290 30SM BKN110 OVC180 06/04 A3028 RMK AC6AS2 SLP255,CYYJ,2017-04-29T15:00:00Z,48.63,-123.42,6.0,4.0,220,3,,30.0,30.280512,1025.5,,,,,,,,,,BKN,11000,OVC,18000,,,,,VFR,,,,,,,,,,,,SPECI,19.0
CYYC 291500Z 22005KT 40SM FEW040 SCT071 SCT120 SCT230 05/01 A3011 RMK SC1AC2AC1CI1 CI TR SLP229,CYYC,2017-04-29T15:00:00Z,51.12,-114.02,5.0,1.0,220,5,,40.0,30.109253,1022.9,,,,,,,,,,FEW,4000,SCT,7100,SCT,12000,SCT,23000,VFR,,,,,,,,,,,,SPECI,1084.0
CYXX 291500Z 03003KT 30SM FEW056 BKN140 OVC160 07/05 A3029 RMK SC2AC3AS3 SLP259,CYXX,2017-04-29T15:00:00Z,49.03,-122.38,7.0,5.0,30,3,,30.0,30.28937,1025.9,,,,,,,,,,FEW,5600,BKN,14000,OVC,16000,,,VFR,,,,,,,,,,,,SPECI,58.0
CYWG 291500Z 17008KT 15SM SKC 09/M10 A3031 RMK SLP277,CYWG,2017-04-29T15:00:00Z,49.88,-97.22,9.0,-10.0,170,8,,15.0,30.31004,1027.7,,,,,,,,,,SKC,,,,,,,,VFR,,,,,,,,,,,,SPECI,239.0
CYVR 291500Z 10010KT 20SM FEW040 SCT070 OVC140 09/05 A3028 RMK SC1AC2AS5 SLP256,CYVR,2017-04-29T15:00:00Z,49.17,-123.17,9.0,5.0,100,10,,20.0,30.280512,1025.6,,,,,,,,,,FEW,4000,SCT,7000,OVC,14000,,,VFR,,,,,,,,,,,,SPECI,2.0
CYUL 291500Z 23022KT 30SM FEW040 FEW120 17/07 A2988 RMK CU1ACC2 CU TR SLP119 DENSITY ALT 400FT,CYUL,2017-04-29T15:00:00Z,45.47,-73.73,17.0,7.0,230,22,,30.0,29.878937,1011.9,,,,,,,,,,FEW,4000,FEW,12000,,,,,VFR,,,,,,,,,,,,SPECI,36.0
CYTR 291500Z 28007KT 15SM BKN072 14/06 A3004 RMK AC7 SLP176,CYTR,2017-04-29T15:00:00Z,44.12,-77.52,14.0,6.0,280,7,,15.0,30.041338,1017.6,,,,,,,,,,BKN,7200,,,,,,,VFR,,,,,,,,,,,,SPECI,86.0
CYQY 291500Z 26015G21KT 15SM BKN014 18/14 A2976 RMK SC5 SLP079 DENSITY ALT 800FT,CYQY,2017-04-29T15:00:00Z,46.17,-60.03,18.0,14.0,260,15,21,15.0,29.760826,1007.9,,,,,,,,,,BKN,1400,,,,,,,MVFR,,,,,,,,,,,,SPECI,62.0
CYQQ 291500Z 15008KT 20SM BKN018 OVC070 09/06 A3022 RMK SC6AC2 SLP233,CYQQ,2017-04-29T15:00:00Z,49.72,-124.9,9.0,6.0,150,8,,20.0,30.221457,1023.3,,,,,,,,,,BKN,1800,OVC,7000,,,,,MVFR,,,,,,,,,,,,SPECI,24.0
CYQG 291500Z 05014KT 15SM OVC051 07/02 A3018 RMK SC8 PRESRR SLP223,CYQG,2017-04-29T15:00:00Z,42.27,-82.97,7.0,2.0,50,14,,15.0,30.180119,1022.3,,,,,,,,,,OVC,5100,,,,,,,VFR,,,,,,,,,,,,SPECI,190.0
CYQB 291500Z 25011KT 15SM FEW030 FEW045 SCT064 BKN092 13/10 A2981 RMK SC1SC1SC2AC3 SLP097,CYQB,2017-04-29T15:00:00Z,46.78,-71.37,13.0,10.0,250,11,,15.0,29.811024,1009.7,,,,,,,,,,FEW,3000,FEW,4500,SCT,6400,BKN,9200,VFR,,,,,,,,,,,,SPECI,73.0
CYOW 291500Z 30013G19KT 15SM FEW025 FEW110 14/06 A2996 RMK CU1AC1 CU TR AC TR SLP147,CYOW,2017-04-29T15:00:00Z,45.32,-75.67,14.0,6.0,300,13,19,15.0,29.958662,1014.7,,,,,,,,,,FEW,2500,FEW,11000,,,,,VFR,,,,,,,,,,,,SPECI,114.0
CYMX 291500Z 25016G25KT 30SM FEW035 SCT080 BKN250 16/07 A2988 RMK CU1AC2CI2 SLP121 DENSITY ALT 400FT,CYMX,2017-04-29T15:00:00Z,45.67,-74.02,16.0,7.0,250,16,25,30.0,29.878937,1012.1,,,,,,,,,,FEW,3500,SCT,8000,BKN,25000,,,VFR,,,,,,,,,,,,SPECI,82.0
CYJT 291500Z 25006KT 3/8SM R27/3500FT/U FG VV001 03/03 A2971 RMK FG8 SLP062,CYJT,2017-04-29T15:00:00Z,48.55,-58.57,3.0,3.0,250,6,,0.38,29.71063,1006.2,,,,,,,,,FG,OVX,0,,,,,,,LIFR,,,,,,,,,,,100,SPECI,26.0
CYHZ 291500Z 21011KT 15SM BKN110 20/12 A2985 RMK AC7 SLP110 DENSITY ALT 1200FT,CYHZ,2017-04-29T15:00:00Z,44.87,-63.5,20.0,12.0,210,11,,15.0,29.84941,1011.0,,,,,,,,,,BKN,11000,,,,,,,VFR,,,,,,,,,,,,SPECI,145.0
CYGL 291500Z 32011KT 15SM VCSH OVC018 M01/M05 A2980 RMK SC8 PRESRR SLP105,CYGL,2017-04-29T15:00:00Z,53.62,-77.7,-1.0,-5.0,320,11,,15.0,29.799213,1010.5,,,,,,,,,VCSH,OVC,1800,,,,,,,MVFR,,,,,,,,,,,,SPECI,195.0
CYFC 291500Z AUTO 21003KT 150V240 9SM BKN100 13/12 A2983 RMK SLP102,CYFC,2017-04-29T15:00:00Z,45.87,-66.52,13.0,12.0,210,3,,9.0,29.828741,1010.2,,TRUE,,,,,,,,BKN,10000,,,,,,,VFR,,,,,,,,,,,,SPECI,20.0
CYFB 291500Z 29003KT 2SM -SN OVC025 M07/M10 A2947 RMK SN7SC1 SLP984,CYFB,2017-04-29T15:00:00Z,63.75,-68.55,-7.0,-10.0,290,3,,2.0,29.471457,998.4,,,,,,,,,-SN,OVC,2500,,,,,,,IFR,,,,,,,,,,,,SPECI,34.0
CYEG 291500Z 26004KT 15SM SCT080 BKN110 BKN250 04/01 A3009 RMK AC3AC2CI1 SLP218,CYEG,2017-04-29T15:00:00Z,53.28,-113.57,4.0,1.0,260,4,,15.0,30.088583,1021.8,,,,,,,,,,SCT,8000,BKN,11000,BKN,25000,,,VFR,,,,,,,,,,,,SPECI,723.0
CYBG 291500Z 30017G25KT 25SM FEW030 BKN045 10/02 A2974 RMK SC2SC5 SLP075,CYBG,2017-04-29T15:00:00Z,48.33,-70.98,10.0,2.0,300,17,25,25.0,29.740158,1007.5,,,,,,,,,,FEW,3000,BKN,4500,,,,,VFR,,,,,,,,,,,,SPECI,159.0
CYZS 291500Z 33022KT 6SM BLSN SKC M15/M19 A2995 RMK SLP152,CYZS,2017-04-29T15:00:00Z,64.2,-83.37,-15.0,-19.0,330,22,,6.0,29.949802,1015.2,,,,,,,,,BLSN,SKC,,,,,,,,VFR,,,,,,,,,,,,METAR,64.0
CYXP 291500Z 00000KT 15SM OVC030 M08/M13 A2957 RMK SC8 SLP017,CYXP,2017-04-29T15:00:00Z,66.15,-65.72,-8.0,-13.0,0,0,,15.0,29.568897,1001.7,,,,,,,,,,OVC,3000,,,,,,,MVFR,,,,,,,,,,,,METAR,23.0
CYXN 291500Z 31009KT 15SM SKC M18/M22 A3035 RMK SLP280,CYXN,2017-04-29T15:00:00Z,62.22,-92.58,-18.0,-22.0,310,9,,15.0,30.351377,1028.0,,,,,,,,,,SKC,,,,,,,,VFR,,,,,,,,,,,,METAR,20.0
CYWJ 291500Z 00000KT 30SM BKN030 BKN080 M07/M11 A3012 RMK SC5AC2 SLP221,CYWJ,2017-04-29T15:00:00Z,65.22,-123.43,-7.0,-11.0,0,0,,30.0,30.121063,1022.1,,,,,,,,,,BKN,3000,BKN,8000,,,,,MVFR,,,,,,,,,,,,METAR,176.0
CYWE 291500Z AUTO 07005KT 9SM FEW043 SCT055 OVC096 M06/M09 A3002 RMK SLP201,CYWE,2017-04-29T15:00:00Z,64.18,-114.08,-6.0,-9.0,70,5,,9.0,30.02067,1020.1,,TRUE,,,,,,,,FEW,4300,SCT,5500,OVC,9600,,,VFR,,,,,,,,,,,,METAR,371.0
CYVM 291500Z 00000KT 4SM -SN FEW009 BKN012 OVC023 M11/M13 A2970 RMK ST2SC5SC1 VIS S-SW 6 SLP061,CYVM,2017-04-29T15:00:00Z,67.53,-64.02,-11.0,-13.0,0,0,,4.0,29.698818,1006.1,,,,,,,,,-SN,FEW,900,BKN,1200,OVC,2300,,,MVFR,,,,,,,,,,,,METAR,6.0
CYUT 291500Z 33024G36KT 1/4SM -SN BLSN BKN010 BKN220 M17/M21 A2999 RMK BLSN4SC1CI2 SLP162,CYUT,2017-04-29T15:00:00Z,66.52,-86.25,-17.0,-21.0,330,24,36,0.25,29.991142,1016.2,,,,,,,,,-SN BLSN,BKN,1000,BKN,22000,,,,,LIFR,,,,,,,,,,,,METAR,24.0
CYSY 291500Z 11004KT 15SM FEW020 M18/M24 A3034 RMK ST1 ST TR SLP287,CYSY,2017-04-29T15:00:00Z,72.0,-125.27,-18.0,-24.0,110,4,,15.0,30.339567,1028.7,,,,,,,,,,FEW,2000,,,,,,,VFR,,,,,,,,,,,,METAR,86.0
CYRT 291500Z 33012KT 15SM SKC M19/M23 A3032 RMK SLP272,CYRT,2017-04-29T15:00:00Z,62.82,-92.12,-19.0,-23.0,330,12,,15.0,30.318897,1027.2,,,,,,,,,,SKC,,,,,,,,VFR,,,,,,,,,,,,METAR,32.0
CYOA 291500Z 06007KT 15SM BKN045 M13/M13 A3002 RMK SC7,CYOA,2017-04-29T15:00:00Z,64.7,-110.62,-13.0,-13.0,60,7,,15.0,30.02067,,,,,,,,,,,BKN,4500,,,,,,,VFR,,,,,,,,,,,,METAR,469.0
CYLK 291500Z 28005KT 220V290 25SM SCT120 BKN200 01/M03 A3004 RMK AC4CC2 4.7/ -2.7/ 0.0/ SNW CVR MEDIUM PACK SLP189,CYLK,2017-04-29T15:00:00Z,62.42,-110.67,1.0,-3.0,280,5,,25.0,30.041338,1018.9,,,,,,,,,,SCT,12000,BKN,20000,,,,,VFR,,,,,,,,,,,,METAR,179.0
CYKD 291500Z 32003KT 300V010 15SM FEW200 M12/M15 A3018 RMK CI2 SLP221,CYKD,2017-04-29T15:00:00Z,68.22,-135.0,-12.0,-15.0,320,3,,15.0,30.180119,1022.1,,,,,,,,,,FEW,20000,,,,,,,VFR,,,,,,,,,,,,METAR,7.0
CYHY 291500Z 19009KT 15SM FEW050 FEW150 BKN230 06/M02 A3000 RMK SC1AC2CI4 SC TR SLP170,CYHY,2017-04-29T15:00:00Z,60.82,-115.77,6.0,-2.0,190,9,,15.0,30.0,1017.0,,,,,,,,,,FEW,5000,FEW,15000,BKN,23000,,,VFR,,,,,,,,,,,,METAR,166.0
CYHI 291500Z 04004KT 15SM FEW230 M19/M24 A3038 RMK CI1 SLP296,CYHI,2017-04-29T15:00:00Z,70.77,-117.78,-19.0,-24.0,40,4,,15.0,30.380905,1029.6,,,,,,,,,,FEW,23000,,,,,,,VFR,,,,,,,,,,,,METAR,36.0
CYFS 291500Z 32010KT 15SM FEW070 SCT210 03/M03 A3001 RMK ACC1CI3 SLP171,CYFS,2017-04-29T15:00:00Z,61.75,-121.22,3.0,-3.0,320,10,,15.0,30.008858,1017.1,,,,,,,,,,FEW,7000,SCT,21000,,,,,VFR,,,,,,,,,,,,METAR,169.0
CYCS 291500Z 30022KT 12SM IC DRSN FEW120 M19/M23 A3026 RMK AC1 AC TR SLP248,CYCS,2017-04-29T15:00:00Z,63.35,-90.72,-19.0,-23.0,300,22,,12.0,30.259842,1024.8,,,,,,,,,IC DRSN,FEW,12000,,,,,,,VFR,,,,,,,,,,,,METAR,11.0
CYCO 291500Z 21002KT 10SM -SN BKN018 M21/M23 A3034 RMK SC7 SLP279,CYCO,2017-04-29T15:00:00Z,67.82,-115.15,-21.0,-23.0,210,2,,10.0,30.339567,1027.9,,,,,,,,,-SN,BKN,1800,,,,,,,MVFR,,,,,,,,,,,,METAR,22.0
CYCB 291500Z 02009KT 15SM FEW001 FEW025 M24/M27 A3032 RMK SF1SC1 SLP275,CYCB,2017-04-29T15:00:00Z,69.08,-105.12,-24.0,-27.0,20,9,,15.0,30.318897,1027.5,,,,,,,,,,FEW,100,FEW,2500,,,,,VFR,,,,,,,,,,,,METAR,27.0
CYBB 291500Z 26012KT 15SM DRSN BKN020 M20/M24 A3013 RMK SC6 -18.2/-23.5/0.0/27.0/SNW CVR/TRACE LOOSE SLP207,CYBB,2017-04-29T15:00:00Z,68.52,-89.82,-20.0,-24.0,260,12,,15.0,30.129921,1020.7,,,,,,,,,DRSN,BKN,2000,,,,,,,MVFR,,,,,,,,,,,,METAR,15.0
CYYG 291500Z 24012KT 15SM FEW008 BKN110 15/09 A2979 RMK SF1AC7 SF TR SLP092 DENSITY ALT 300FT,CYYG,2017-04-29T15:00:00Z,46.27,-63.12,15.0,9.0,240,12,,15.0,29.790354,1009.2,,,,,,,,,,FEW,800,BKN,11000,,,,,VFR,,,,,,,,,,,,METAR,54.0
CYLU 291500Z 28010G17KT 6SM -SN FEW010 BKN015 BKN021 OVC030 M02/M03 A2934 RMK SC2SC3SC2SC1 SLP941,CYLU,2017-04-29T15:00:00Z,58.72,-65.97,-2.0,-3.0,280,10,17,6.0,29.338583,994.1,,,,,,,,,-SN,FEW,1000,BKN,1500,BKN,2100,OVC,3000,MVFR,,,,,,,,,,,,METAR,60.0
CYDP 291500Z 27014G19KT 15SM FEW015 OVC020 OVC100 05/01 A2931 RMK SF1SC7AS1 AS TR SLP927,CYDP,2017-04-29T15:00:00Z,56.53,-61.67,5.0,1.0,270,14,19,15.0,29.309055,992.7,,,,,,,,,,FEW,1500,OVC,2000,OVC,10000,,,MVFR,,,,,,,,,,,,METAR,7.0
CYDF 291500Z 25009G15KT 8SM OVC009 08/07 A2964 RMK SC8 SLP041,CYDF,2017-04-29T15:00:00Z,49.22,-57.4,8.0,7.0,250,9,15,8.0,29.639763,1004.1,,,,,,,,,,OVC,900,,,,,,,IFR,,,,,,,,,,,,METAR,22.0
CYZU 291500Z 29005KT 270V330 15SM FEW010 FEW140 SCT230 04/02 A3008 RMK CF1AC1CI2 CF TR SLP212,CYZU,2017-04-29T15:00:00Z,54.15,-115.78,4.0,2.0,290,5,,15.0,30.079725,1021.2,,,,,,,,,,FEW,1000,FEW,14000,SCT,23000,,,VFR,,,,,,,,,,,,METAR,785.0
CYXH 291500Z 00000KT 30SM FEW055 SCT270 07/01 A3015 RMK SC2CI1 SLP228,CYXH,2017-04-29T15:00:00Z,50.02,-110.72,7.0,1.0,0,0,,30.0,30.15059,1022.8,,,,,,,,,,FEW,5500,SCT,27000,,,,,VFR,,,,,,,,,,,,METAR,716.0
CYVT 291500Z 22005KT 15SM FEW120 OVC220 07/M05 A3008 RMK AC1CI7 SLP205,CYVT,2017-04-29T15:00:00Z,55.82,-108.42,7.0,-5.0,220,5,,15.0,30.079725,1020.5,,,,,,,,,,FEW,12000,OVC,22000,,,,,VFR,,,,,,,,,,,,METAR,434.0
CYUX 291500Z 34018KT 1SM BLSN BR SCT030 BKN210 M17/M20 A2984 RMK BLSN3SC1CI3 SLP107,CYUX,2017-04-29T15:00:00Z,68.77,-81.25,-17.0,-20.0,340,18,,1.0,29.840551,1010.7,,,,,,,,,BLSN BR,SCT,3000,BKN,21000,,,,,IFR,,,,,,,,,,,,METAR,8.0
CYUS 291500Z AUTO 33010G16KT 280V070 ////SM //// OVC003 M22/M26 A3014,CYUS,2017-04-29T15:00:00Z,68.82,-93.42,-22.0,-26.0,330,10,16,,30.138779,,,TRUE,,,,,,,,OVC,300,,,,,,,,,,,,,,,,,,,METAR,42.0
CYTH 291500Z 06003KT 030V140 15SM BKN078 OVC210 M04/M08 A3033 RMK AC6CI2 SLP290,CYTH,2017-04-29T15:00:00Z,55.78,-97.87,-4.0,-8.0,60,3,,15.0,30.33071,1029.0,,,,,,,,,,BKN,7800,OVC,21000,,,,,VFR,,,,,,,,,,,,METAR,218.0
CYSM 291500Z 00000KT 15SM FEW090 FEW180 BKN240 04/M03 A3006 RMK AC1AC2CS4 AC TR SLP192,CYSM,2017-04-29T15:00:00Z,60.03,-111.97,4.0,-3.0,0,0,,15.0,30.059055,1019.2,,,,,,,,,,FEW,9000,FEW,18000,BKN,24000,,,VFR,,,,,,,,,,,,METAR,203.0
CYSF 291500Z AUTO 08006KT 9SM SCT100 02/M03 A3015 RMK SLP227,CYSF,2017-04-29T15:00:00Z,59.25,-105.82,2.0,-3.0,80,6,,9.0,30.15059,1022.7,,TRUE,,,,,,,,SCT,10000,,,,,,,VFR,,,,,,,,,,,,METAR,250.0
CYQV 291500Z AUTO 23012KT 9SM CLR 09/02 A3017 RMK SLP235,CYQV,2017-04-29T15:00:00Z,51.27,-102.47,9.0,2.0,230,12,,9.0,30.171259,1023.5,,TRUE,,,,,,,,CLR,,,,,,,,VFR,,,,,,,,,,,,METAR,498.0
CYPE 291500Z 00000KT 15SM FEW110 FEW250 06/02 A3002 RMK AC1CI1 AC TR CI TR SLP187,CYPE,2017-04-29T15:00:00Z,56.22,-117.45,6.0,2.0,0,0,,15.0,30.02067,1018.7,,,,,,,,,,FEW,11000,FEW,25000,,,,,VFR,,,,,,,,,,,,METAR,571.0
CYOD 291500Z 00000KT 15SM FEW180 FEW240 05/M02 A3013 RMK AC1CI1 SLP222,CYOD,2017-04-29T15:00:00Z,54.4,-110.28,5.0,-2.0,0,0,,15.0,30.129921,1022.2,,,,,,,,,,FEW,18000,FEW,24000,,,,,VFR,,,,,,,,,,,,METAR,544.0
CYLT 291500Z 17002KT 15SM FEW006 FEW110 FEW200 M16/M21 A3021 RMK ST1AC1CI1 SLP235,CYLT,2017-04-29T15:00:00Z,82.52,-62.27,-16.0,-21.0,170,2,,15.0,30.209646,1023.5,,,,,,,,,,FEW,600,FEW,11000,FEW,20000,,,VFR,,,,,,,,,,,,METAR,31.0
CYLJ 291500Z 24006KT 15SM SCT250 06/M02 A3011 RMK CI4 SLP216,CYLJ,2017-04-29T15:00:00Z,54.12,-108.52,6.0,-2.0,240,6,,15.0,30.109253,1021.6,,,,,,,,,,SCT,25000,,,,,,,VFR,,,,,,,,,,,,METAR,480.0
CYIO 291500Z AUTO 05015G22KT 9SM BKN060 M14/M19 A2991 RMK SLP139,CYIO,2017-04-29T15:00:00Z,72.67,-77.97,-14.0,-19.0,50,15,22,9.0,29.911417,1013.9,,TRUE,,,,,,,,BKN,6000,,,,,,,VFR,,,,,,,,,,,,METAR,57.0
CYEK 291500Z 33010KT 15SM SKC M16/M19 A3040 RMK SLP296,CYEK,2017-04-29T15:00:00Z,61.1,-94.07,-16.0,-19.0,330,10,,15.0,30.398623,1029.6,,,,,,,,,,SKC,,,,,,,,VFR,,,,,,,,,,,,METAR,10.0
CYCY 291500Z 01007KT 25SM -SN SCT012 OVC028 M13/M16 A2990 RMK SF4SC4 SLP128,CYCY,2017-04-29T15:00:00Z,70.47,-68.52,-13.0,-16.0,10,7,,25.0,29.899607,1012.8,,,,,,,,,-SN,SCT,1200,OVC,2800,,,,,MVFR,,,,,,,,,,,,METAR,26.0
CYBW 291500Z AUTO 35004KT 9SM CLR 04/02 A3011 RMK SLP234,CYBW,2017-04-29T15:00:00Z,51.1,-114.37,4.0,2.0,350,4,,9.0,30.109253,1023.4,,TRUE,,,,,,,,CLR,,,,,,,,VFR,,,,,,,,,,,,METAR,1200.0
CWVD 291500Z AUTO 34008KT M15/ A2949 RMK SLP053,CWVD,2017-04-29T15:00:00Z,67.52,-63.77,-15.0,,340,8,,,29.489174,1005.3,,TRUE,,,,,,,,,,,,,,,,,,,,,,,,,,,,METAR,573.0
CWRF 291500Z AUTO ///// A2996,CWRF,2017-04-29T15:00:00Z,69.42,-89.72,,,,,,,29.958662,,,TRUE,,,,,,,,,,,,,,,,,,,,,,,,,,,,METAR,325.0
CYZT 291500Z 11020G26KT 3SM -RA SCT006 OVC020 06/05 A3006 RMK SF3SC5 PRESFR SLP180,CYZT,2017-04-29T15:00:00Z,50.67,-127.37,6.0,5.0,110,20,26,3.0,30.059055,1018.0,,,,,,,,,-RA,SCT,600,OVC,2000,,,,,MVFR,,,,,,,,,,,,METAR,22.0
CYXS 291500Z AUTO 17007KT 9SM CLR 03/M01 A3011 RMK SLP220,CYXS,2017-04-29T15:00:00Z,53.9,-122.68,3.0,-1.0,170,7,,9.0,30.109253,1022.0,,TRUE,,,,,,,,CLR,,,,,,,,VFR,,,,,,,,,,,,METAR,691.0
CYXE 291500Z 30005KT 270V340 15SM SKC 05/00 A3016 RMK SLP238,CYXE,2017-04-29T15:00:00Z,52.17,-106.7,5.0,0.0,300,5,,15.0,30.159449,1023.8,,,,,,,,,,SKC,,,,,,,,VFR,,,,,,,,,,,,METAR,504.0
CYXC 291500Z 14003KT 100V180 10SM VCFG FEW006 SCT030 SCT100 03/02 A3021 RMK SF2SC1AC1 SLP253,CYXC,2017-04-29T15:00:00Z,49.6,-115.77,3.0,2.0,140,3,,10.0,30.209646,1025.3,,,,,,,,,VCFG,FEW,600,SCT,3000,SCT,10000,,,VFR,,,,,,,,,,,,METAR,939.0
CYUA 291500Z AUTO 24002KT ////SM //// OVC043 M15/M17 A3016,CYUA,2017-04-29T15:00:00Z,68.95,-137.28,-15.0,-17.0,240,2,,,30.159449,,,TRUE,,,,,,,,OVC,4300,,,,,,,,,,,,,,,,,,,METAR,38.0
CYQZ 291500Z AUTO 00000KT 9SM CLR 01/00 A3014 RMK SLP229,CYQZ,2017-04-29T15:00:00Z,53.02,-122.52,1.0,0.0,0,0,,9.0,30.138779,1022.9,,TRUE,,,,,,,,CLR,,,,,,,,VFR,,,,,,,,,,,,METAR,545.0
CYQD 291500Z CCA 13008KT 15SM BKN012 BKN200 OVC220 07/M09 A3019 RMK ST6CS1CC1 CIG ESTD SLP235,CYQD,2017-04-29T15:00:00Z,53.97,-101.08,7.0,-9.0,130,8,,15.0,30.188976,1023.5,,,,,,,,,,BKN,1200,BKN,20000,OVC,22000,,,MVFR,,,,,,,,,,,,SPECI,271.0
CYKY 291500Z VRB02KT 15SM FEW090 04/M01 A3016 RMK AC1 AC TR SLP242,CYKY,2017-04-29T15:00:00Z,51.52,-109.17,4.0,-1.0,0,2,,15.0,30.159449,1024.2,,,,,,,,,,FEW,9000,,,,,,,VFR,,,,,,,,,,,,METAR,694.0
CYIV 291500Z VRB02KT 15SM FEW100 BKN250 00/M06 A3033 RMK AC1CI5 AC TR SLP287,CYIV,2017-04-29T15:00:00Z,53.85,-94.65,0.0,-6.0,0,2,,15.0,30.33071,1028.7,,,,,,,,,,FEW,10000,BKN,25000,,,,,VFR,,,,,,,,,,,,METAR,237.0
CYHE 291500Z AUTO 09006KT 9SM CLR 08/03 A3029 RMK SLP259,CYHE,2017-04-29T15:00:00Z,49.37,-121.5,8.0,3.0,90,6,,9.0,30.28937,1025.9,,TRUE,,,,,,,,CLR,,,,,,,,VFR,,,,,,,,,,,,METAR,39.0
CYFO 291500Z 08002KT 15SM BKN150 OVC200 07/M10 A3020 RMK AC6CI2 SLP240,CYFO,2017-04-29T15:00:00Z,54.67,-101.67,7.0,-10.0,80,2,,15.0,30.200787,1024.0,,,,,,,,,,BKN,15000,OVC,20000,,,,,VFR,,,,,,,,,,,,METAR,304.0
CYEV 291500Z 08005KT 15SM BKN051 M06/M10 A3016 RMK SC5 VIS W 50 SLP222,CYEV,2017-04-29T15:00:00Z,68.32,-133.5,-6.0,-10.0,80,5,,15.0,30.159449,1022.2,,,,,,,,,,BKN,5100,,,,,,,VFR,,,,,,,,,,,,METAR,68.0
CYDQ 291500Z AUTO 00000KT 9SM CLR 04/00 A3003 RMK SLP194,CYDQ,2017-04-29T15:00:00Z,55.75,-120.17,4.0,0.0,0,0,,9.0,30.029528,1019.4,,TRUE,,,,,,,,CLR,,,,,,,,VFR,,,,,,,,,,,,SPECI,655.0
CYDC 291500Z 00000KT 25SM FEW090 FEW240 SCT250 02/M02 A3024 RMK AC1CC1CI3 AC TR CC TR SLP256,CYDC,2017-04-29T15:00:00Z,49.47,-120.52,2.0,-2.0,0,0,,25.0,30.239174,1025.6,,,,,,,,,,FEW,9000,FEW,24000,SCT,25000,,,VFR,,,,,,,,,,,,METAR,700.0
CYDB 291500Z 06003KT 030V090 5SM -SN FEW008 SCT025 BKN032 BKN040 00/M01 A2994 RMK ST1SC2SC2SC2 VIS E 20 SLP173,CYDB,2017-04-29T15:00:00Z,61.37,-139.05,0.0,-1.0,60,3,,5.0,29.940945,1017.3,,,,,,,,,-SN,FEW,800,SCT,2500,BKN,3200,BKN,4000,MVFR,,,,,,,,,,,,METAR,801.0
CYCQ 291500Z 25006KT 35SM FEW040 FEW200 03/M02 A3005 RMK CU1CI1 CU TR CI TR SLP198,CYCQ,2017-04-29T15:00:00Z,55.7,-121.62,3.0,-2.0,250,6,,35.0,30.050198,1019.8,,,,,,,,,,FEW,4000,FEW,20000,,,,,VFR,,,,,,,,,,,,METAR,609.0
CYCP 291500Z 00000KT 15SM VCSH FEW020 SCT060TCU BKN075 02/M01 A3019 RMK CF1TCU3AC4 CF TR SLP245,CYCP,2017-04-29T15:00:00Z,52.13,-119.28,2.0,-1.0,0,0,,15.0,30.188976,1024.5,,,,,,,,,VCSH,FEW,2000,SCT,6000,BKN,7500,,,VFR,,,,,,,,,,,,METAR,683.0
CYBL 291500Z 13004KT 20SM FEW019 OVC055 07/05 A3019 RMK SF2SC6 SLP226,CYBL,2017-04-29T15:00:00Z,49.95,-125.27,7.0,5.0,130,4,,20.0,30.188976,1022.6,,,,,,,,,,FEW,1900,OVC,5500,,,,,VFR,,,,,,,,,,,,METAR,106.0
CYAZ 291500Z 09005KT 8SM -RA SCT025 OVC030 06/06 A3023 RMK CF3SC5 SLP240,CYAZ,2017-04-29T15:00:00Z,49.08,-125.77,6.0,6.0,90,5,,8.0,30.230314,1024.0,,,,,,,,,-RA,SCT,2500,OVC,3000,,,,,MVFR,,,,,,,,,,,,METAR,24.0
CYWH 291500Z 23006KT 15SM BKN100 OVC220 08/05 A3028 RMK AC6CI2 SLP255,CYWH,2017-04-29T15:00:00Z,48.42,-123.38,8.0,5.0,230,6,,15.0,30.280512,1025.5,,,,,,,,,,BKN,10000,OVC,22000,,,,,VFR,,,,,,,,,,,,METAR,10.0
CYZG 291500Z 34021G31KT 1 1/2SM SN BLSN OVC009 M12/M15 A2968 RMK BLSN5ST3 SLP076,CYZG,2017-04-29T15:00:00Z,62.17,-75.67,-12.0,-15.0,340,21,31,1.5,29.681103,1007.6,,,,,,,,,SN BLSN,OVC,900,,,,,,,IFR,,,,,,,,,,,,METAR,226.0
CYWK 291500Z 29012G20KT 10SM -SHRASN BKN017 OVC048 03/01 A2947 RMK CU5SC3 SLP003,CYWK,2017-04-29T15:00:00Z,52.92,-66.87,3.0,1.0,290,12,20,10.0,29.471457,1000.3,,,,,,,,,-SHRA -SHSN,BKN,1700,OVC,4800,,,,,MVFR,,,,,,,,,,,,SPECI,551.0
CYUY 291500Z 28012G23KT 15SM -SHSN FEW022 BKN044 01/M05 A3003 RMK SC1SC5 CVCTV CLD EMBD SLP184,CYUY,2017-04-29T15:00:00Z,48.2,-78.82,1.0,-5.0,280,12,23,15.0,30.029528,1018.4,,,,,,,,,-SHSN,FEW,2200,BKN,4400,,,,,VFR,,,,,,,,,,,,SPECI,301.0
CYQI 291500Z 18011KT 9SM FEW024 BKN140 BKN220 12/10 A2991 RMK SC1AC4CI1 SLP130,CYQI,2017-04-29T15:00:00Z,43.83,-66.08,12.0,10.0,180,11,,9.0,29.911417,1013.0,,,,,,,,,,FEW,2400,BKN,14000,BKN,22000,,,VFR,,,,,,,,,,,,METAR,43.0
CYMH 291500Z AUTO VRB02KT 9SM CLR 09/05 A2944 RMK SLP971,CYMH,2017-04-29T15:00:00Z,52.28,-55.85,9.0,5.0,0,2,,9.0,29.438976,997.1,,TRUE,,,,,,,,CLR,,,,,,,,VFR,,,,,,,,,,,,SPECI,11.0
CYLA 291500Z 33020G26KT 12SM -SN DRSN BKN014 OVC035 M05/M07 A2943 RMK SC5SC3 SLP970,CYLA,2017-04-29T15:00:00Z,59.28,-69.58,-5.0,-7.0,330,20,26,12.0,29.430119,997.0,,,,,,,,,-SN DRSN,BKN,1400,OVC,3500,,,,,MVFR,,,,,,,,,,,,METAR,35.0
CYKG 291500Z 34029G39KT 3/4SM -SN BLSN OVC020 M10/M12 A2950 RMK SN3NS5 SLP006,CYKG,2017-04-29T15:00:00Z,61.57,-71.92,-10.0,-12.0,340,29,39,0.75,29.500984,1000.6,,,,,,,,,-SN BLSN,OVC,2000,,,,,,,LIFR,,,,,,,,,,,,METAR,151.0
CYIK 291500Z 31018KT 15SM -SN DRSN BKN015 M11/M15 A2984 RMK ST7 SLP111,CYIK,2017-04-29T15:00:00Z,62.42,-77.93,-11.0,-15.0,310,18,,15.0,29.840551,1011.1,,,,,,,,,-SN DRSN,BKN,1500,,,,,,,MVFR,,,,,,,,,,,,METAR,42.0
CYHA 291500Z 34022G27KT 1SM -SN BLSN SCT011 OVC032 M06/M07 A2942 RMK BLSN2ST2NS4 SLP968,CYHA,2017-04-29T15:00:00Z,61.03,-69.62,-6.0,-7.0,340,22,27,1.0,29.421259,996.8,,,,,,,,,-SN BLSN,SCT,1100,OVC,3200,,,,,IFR,,,,,,,,,,,,METAR,30.0
TRPG 291500Z 12016KT 9999 BKN017 SCT038 28/24 Q1018,TRPG,2017-04-29T15:00:00Z,16.78,-62.2,28.0,24.0,120,16,,6.21,30.059055,,,,,,,,,,,BKN,1700,SCT,3800,,,,,MVFR,,,,,,,,,,,,METAR,168.0
RJNK 291500Z 17004KT 9999 FEW030 10/03 Q1009,RJNK,2017-04-29T15:00:00Z,36.37,136.42,10.0,3.0,170,4,,6.21,29.793306,,,,,,,,,,,FEW,3000,,,,,,,VFR,,,,,,,,,,,,METAR,9.0
RJOH 291500Z 21007KT 9999 NSC 11/03 Q1008,RJOH,2017-04-29T15:00:00Z,35.47,133.25,11.0,3.0,210,7,,6.21,29.763779,,,,,,,,,,,CLR,,,,,,,,VFR,,,,,,,,,,,,METAR,9.0
RJAH 291500Z 21005KT 9999 FEW020 07/06 Q1007,RJAH,2017-04-29T15:00:00Z,36.17,140.42,7.0,6.0,210,5,,6.21,29.734253,,,,,,,,,,,FEW,2000,,,,,,,VFR,,,,,,,,,,,,METAR,35.0
RJFR 291500Z 07003KT CAVOK 15/12 Q1010,RJFR,2017-04-29T15:00:00Z,33.82,131.03,15.0,12.0,70,3,,6.21,29.822834,,,,,,,,,,,CAVOK,,,,,,,,VFR,,,,,,,,,,,,METAR,6.0
SYEC 291500Z 08016KT 7000 RA FEW008CB BKN009 BKN070 25/24 Q1015 CB SSW&W,SYEC,2017-04-29T15:00:00Z,6.8,-58.1,25.0,24.0,80,16,,4.35,29.970472,,,,,,,,,,RA SS,FEW,800,BKN,900,BKN,7000,,,IFR,,,,,,,,,,,,METAR,10.0
FSIA 291500Z 16007KT 9999 FEW014CB BKN016 27/25 Q1010 TEMPO 8000 -SHRA,FSIA,2017-04-29T15:00:00Z,-4.67,55.52,27.0,25.0,160,7,,6.21,29.822834,,,,,,,,,,,FEW,1400,BKN,1600,,,,,MVFR,,,,,,,,,,,,METAR,3.0
SEGS 291500Z 12009KT 9999 FEW020 28/24 Q1013 A2991,SEGS,2017-04-29T15:00:00Z,-0.45,-90.27,28.0,24.0,120,9,,6.21,29.911417,,,,,,,,,,,FEW,2000,,,,,,,VFR,,,,,,,,,,,,METAR,16.0
EIME 291500Z 16013KT 9999 FEW023 SCT030 BKN050 11/04 Q1006,EIME,2017-04-29T15:00:00Z,53.3,-6.45,11.0,4.0,160,13,,6.21,29.704725,,,,,,,,,,,FEW,2300,SCT,3000,BKN,5000,,,VFR,,,,,,,,,,,,METAR,93.0
ZYHB 291500Z 30005MPS CAVOK 10/M01 Q0999 NOSIG,ZYHB,2017-04-29T15:00:00Z,45.62,126.25,10.0,-1.0,300,10,,6.21,29.498032,,,,,,TRUE,,,,,CAVOK,,,,,,,,VFR,,,,,,,,,,,,METAR,140.0
ZYCC 291500Z 31002MPS 7000 FEW026 12/M04 Q1001 NOSIG,ZYCC,2017-04-29T15:00:00Z,43.98,125.68,12.0,-4.0,310,4,,4.35,29.557087,,,,,,TRUE,,,,,FEW,2600,,,,,,,MVFR,,,,,,,,,,,,METAR,238.0
ZUCK 291500Z 35002MPS CAVOK 21/11 Q1011 NOSIG,ZUCK,2017-04-29T15:00:00Z,29.72,106.63,21.0,11.0,350,4,,6.21,29.852362,,,,,,TRUE,,,,,CAVOK,,,,,,,,VFR,,,,,,,,,,,,METAR,416.0
ZSOF 291500Z 16003MPS CAVOK 17/10 Q1010 NOSIG,ZSOF,2017-04-29T15:00:00Z,31.98,116.97,17.0,10.0,160,6,,6.21,29.822834,,,,,,TRUE,,,,,CAVOK,,,,,,,,VFR,,,,,,,,,,,,METAR,63.0
ZSNJ 291500Z 23004MPS CAVOK 20/07 Q1010 NOSIG,ZSNJ,2017-04-29T15:00:00Z,31.75,118.87,20.0,7.0,230,8,,6.21,29.822834,,,,,,TRUE,,,,,CAVOK,,,,,,,,VFR,,,,,,,,,,,,METAR,33.0
ZLLL 291500Z 31004MPS CAVOK 16/M04 Q1015 NOSIG,ZLLL,2017-04-29T15:00:00Z,36.52,103.62,16.0,-4.0,310,8,,6.21,29.970472,,,,,,TRUE,,,,,CAVOK,,,,,,,,VFR,,,,,,,,,,,,METAR,1947.0
ZJSY 291500Z VRB01MPS 9999 FEW026 BKN040 25/22 Q1013 NOSIG,ZJSY,2017-04-29T15:00:00Z,18.3,109.42,25.0,22.0,0,2,,6.21,29.911417,,,,,,TRUE,,,,,FEW,2600,BKN,4000,,,,,VFR,,,,,,,,,,,,METAR,27.0
ZJHK 291500Z 12001MPS CAVOK 22/20 Q1013 NOSIG,ZJHK,2017-04-29T15:00:00Z,19.93,110.47,22.0,20.0,120,2,,6.21,29.911417,,,,,,TRUE,,,,,CAVOK,,,,,,,,VFR,,,,,,,,,,,,METAR,23.0
ZHHH 291500Z 15002MPS CAVOK 22/12 Q1010 NOSIG,ZHHH,2017-04-29T15:00:00Z,30.78,114.22,22.0,12.0,150,4,,6.21,29.822834,,,,,,TRUE,,,,,CAVOK,,,,,,,,VFR,,,,,,,,,,,,METAR,33.0
ZHCC 291500Z 19002MPS 150V250 CAVOK 23/08 Q1007 NOSIG,ZHCC,2017-04-29T15:00:00Z,34.52,113.83,23.0,8.0,190,4,,6.21,29.734253,,,,,,TRUE,,,,,CAVOK,,,,,,,,VFR,,,,,,,,,,,,METAR,151.0
ZGHA 291500Z VRB01MPS CAVOK 18/11 Q1012 NOSIG,ZGHA,2017-04-29T15:00:00Z,28.18,113.22,18.0,11.0,0,2,,6.21,29.88189,,,,,,TRUE,,,,,CAVOK,,,,,,,,VFR,,,,,,,,,,,,METAR,66.0
ZBHH 291500Z 11003MPS CAVOK 15/M09 Q1010 NOSIG,ZBHH,2017-04-29T15:00:00Z,40.85,111.82,15.0,-9.0,110,6,,6.21,29.822834,,,,,,TRUE,,,,,CAVOK,,,,,,,,VFR,,,,,,,,,,,,METAR,1065.0
WAJJ 291500Z 29003KT 9999 FEW014 26/23 Q1011 NOSIG,WAJJ,2017-04-29T15:00:00Z,-2.58,140.52,26.0,23.0,290,3,,6.21,29.852362,,,,,,TRUE,,,,,FEW,1400,,,,,,,VFR,,,,,,,,,,,,METAR,88.0
FMNN 291500Z 21002KT 9999 BKN020 28/24 Q1013,FMNN,2017-04-29T15:00:00Z,-13.32,48.32,28.0,24.0,210,2,,6.21,29.911417,,,,,,,,,,,BKN,2000,,,,,,,MVFR,,,,,,,,,,,,METAR,9.0
FAKM 291500Z 05004KT CAVOK 26/07 Q1027,FAKM,2017-04-29T15:00:00Z,-28.8,24.77,26.0,7.0,50,4,,6.21,30.324802,,,,,,,,,,,CAVOK,,,,,,,,VFR,,,,,,,,,,,,METAR,1192.0
FAHS 291500Z AUTO 18011KT //// 22/13 Q1026,FAHS,2017-04-29T15:00:00Z,-24.37,31.02,22.0,13.0,180,11,,,30.295275,,,TRUE,,,,,,,,,,,,,,,,,,,,,,,,,,,,METAR,500.0
LPBJ 291500Z 27012KT 240V300 9999 SCT040 22/05 Q1011,LPBJ,2017-04-29T15:00:00Z,38.08,-7.93,22.0,5.0,270,12,,6.21,29.852362,,,,,,,,,,,SCT,4000,,,,,,,VFR,,,,,,,,,,,,METAR,194.0
FAWK 291500Z AUTO 35006KT //// ///// Q1030,FAWK,2017-04-29T15:00:00Z,-25.82,28.22,,,350,6,,,30.413385,,,TRUE,,,,,,,,,,,,,,,,,,,,,,,,,,,,METAR,1500.0
FAWB 291500Z AUTO 03006KT //// 23/05 Q1027,FAWB,2017-04-29T15:00:00Z,-25.63,28.22,23.0,5.0,30,6,,,30.324802,,,TRUE,,,,,,,,,,,,,,,,,,,,,,,,,,,,METAR,1248.0
FAGM 291500Z 06007KT CAVOK 18/03 Q1030,FAGM,2017-04-29T15:00:00Z,-26.25,28.15,18.0,3.0,60,7,,6.21,30.413385,,,,,,,,,,,CAVOK,,,,,,,,VFR,,,,,,,,,,,,METAR,1672.0
LPLA 291500Z 29025KT 9999 4000W FEW016 SCT035 22/14 Q1019,LPLA,2017-04-29T15:00:00Z,38.77,-27.1,22.0,14.0,290,25,,6.21,30.088583,,,,,,,,,,,FEW,1600,SCT,3500,,,,,VFR,,,,,,,,,,,,METAR,55.0
FAUT 291500Z 11008KT CAVOK 23/14 Q1027,FAUT,2017-04-29T15:00:00Z,-31.52,28.67,23.0,14.0,110,8,,6.21,30.324802,,,,,,,,,,,CAVOK,,,,,,,,VFR,,,,,,,,,,,,METAR,732.0
FLSK 291500Z 17008KT CAVOK 24/13 Q1022,FLSK,2017-04-29T15:00:00Z,-13.0,28.67,24.0,13.0,170,8,,6.21,30.177166,,,,,,,,,,,CAVOK,,,,,,,,VFR,,,,,,,,,,,,METAR,1261.0
SLET 291500Z 15012KT 9999 FEW030 24/11 Q1020,SLET,2017-04-29T15:00:00Z,-17.8,-63.17,24.0,11.0,150,12,,6.21,30.11811,,,,,,,,,,,FEW,3000,,,,,,,VFR,,,,,,,,,,,,METAR,414.0
LERI 291500Z VRB01KT 9999 SCT027 BKN055 15/10 Q1015 NOSIG,LERI,2017-04-29T15:00:00Z,37.95,-1.22,15.0,10.0,0,1,,6.21,29.970472,,,,,,TRUE,,,,,SCT,2700,BKN,5500,,,,,VFR,,,,,,,,,,,,METAR,75.0
LEGT 291500Z 07004KT 9999 SCT010 BKN015 12/11 Q1011 RERA,LEGT,2017-04-29T15:00:00Z,40.28,-3.72,12.0,11.0,70,4,,6.21,29.852362,,,,,,,,,,,SCT,1000,BKN,1500,,,,,MVFR,,,,,,,,,,,,METAR,612.0
FAVV 291500Z AUTO /////KT //// // ////// 20/// Q////,FAVV,2017-04-29T15:00:00Z,-26.57,27.97,,,,,,,,,,TRUE,,,,,,,,,,,,,,,,,,,,,,,,,,,,METAR,1483.0
FASI 291500Z AUTO /////KT //// // ////// 17/06 Q1034,FASI,2017-04-29T15:00:00Z,-26.25,28.4,17.0,6.0,,,,,30.531496,,,TRUE,,,,,,,,,,,,,,,,,,,,,,,,,,,,METAR,1628.0
FAJB 291500Z AUTO 05003KT //// // ////// 20/03 Q1030,FAJB,2017-04-29T15:00:00Z,-26.15,28.0,20.0,3.0,50,3,,,30.413385,,,TRUE,,,,,,,,,,,,,,,,,,,,,,,,,,,,METAR,1626.0
LERT 291500Z 22011KT 180V250 9999 SCT018 20/15 Q1013 NOSIG,LERT,2017-04-29T15:00:00Z,36.63,-6.33,20.0,15.0,220,11,,6.21,29.911417,,,,,,TRUE,,,,,SCT,1800,,,,,,,VFR,,,,,,,,,,,,METAR,26.0
SLVR 291500Z 18008KT 9999 NSC 25/14 Q1020,SLVR,2017-04-29T15:00:00Z,-17.63,-63.12,25.0,14.0,180,8,,6.21,30.11811,,,,,,,,,,,CLR,,,,,,,,VFR,,,,,,,,,,,,METAR,373.0
SLTR 291500Z 13006KT 080V180 9999 NSC 27/18 Q1018,SLTR,2017-04-29T15:00:00Z,-14.83,-64.92,27.0,18.0,130,6,,6.21,30.059055,,,,,,,,,,,CLR,,,,,,,,VFR,,,,,,,,,,,,METAR,157.0
SLTJ 291500Z 19004KT 9999 FEW080 BKN200 17/07 Q1025,SLTJ,2017-04-29T15:00:00Z,-21.55,-64.72,17.0,7.0,190,4,,6.21,30.265747,,,,,,,,,,,FEW,8000,BKN,20000,,,,,VFR,,,,,,,,,,,,METAR,1858.0
SLLP 291500Z 14005KT 9999 SCT015 FEW017CB SCT070 10/02 Q1041,SLLP,2017-04-29T15:00:00Z,-16.52,-68.17,10.0,2.0,140,5,,6.21,30.73819,,,,,,,,,,,SCT,1500,FEW,1700,SCT,7000,,,VFR,,,,,,,,,,,,METAR,4014.0
SLCB 291500Z 00000KT 9999 FEW033 BKN080 21/05 Q1028,SLCB,2017-04-29T15:00:00Z,-17.42,-66.18,21.0,5.0,0,0,,6.21,30.35433,,,,,,,,,,,FEW,3300,BKN,8000,,,,,VFR,,,,,,,,,,,,METAR,2548.0
SGES 291500Z 09005KT 030V150 CAVOK 21/12 Q1022,SGES,2017-04-29T15:00:00Z,-25.45,-54.85,21.0,12.0,90,5,,6.21,30.177166,,,,,,,,,,,CAVOK,,,,,,,,VFR,,,,,,,,,,,,METAR,849.0
SGAS 291500Z 11006KT 040V160 CAVOK 24/11 Q1021,SGAS,2017-04-29T15:00:00Z,-25.25,-57.52,24.0,11.0,110,6,,6.21,30.147638,,,,,,,,,,,CAVOK,,,,,,,,VFR,,,,,,,,,,,,METAR,101.0
TBPB 291500Z 10018KT 9999 FEW020 30/23 Q1016 NOSIG,TBPB,2017-04-29T15:00:00Z,13.07,-59.48,30.0,23.0,100,18,,6.21,30.0,,,,,,TRUE,,,,,FEW,2000,,,,,,,VFR,,,,,,,,,,,,METAR,52.0
SBTF 291500Z 18004KT 3500 RA BKN007 OVC070 25/25 Q1016,SBTF,2017-04-29T15:00:00Z,-3.37,-64.72,25.0,25.0,180,4,,2.17,30.0,,,,,,,,,,RA,BKN,700,OVC,7000,,,,,IFR,,,,,,,,,,,,METAR,47.0
SBPP 291500Z 03012KT CAVOK 20/11 Q1022,SBPP,2017-04-29T15:00:00Z,-22.55,-55.7,20.0,11.0,30,12,,6.21,30.177166,,,,,,,,,,,CAVOK,,,,,,,,VFR,,,,,,,,,,,,METAR,660.0
SBSG 291500Z 18008KT 150V220 9999 BKN017 BKN050 30/23 Q1012,SBSG,2017-04-29T15:00:00Z,-5.77,-35.37,30.0,23.0,180,8,,6.21,29.88189,,,,,,,,,,,BKN,1700,BKN,5000,,,,,MVFR,,,,,,,,,,,,METAR,83.0
SBBE 291500Z 05005KT 9999 BKN030 30/24 Q1013,SBBE,2017-04-29T15:00:00Z,-1.37,-48.47,30.0,24.0,50,5,,6.21,29.911417,,,,,,,,,,,BKN,3000,,,,,,,MVFR,,,,,,,,,,,,METAR,16.0
SLPS 291500Z 00000KT 9999 NSC 27/18 Q1016,SLPS,2017-04-29T15:00:00Z,-18.98,-57.82,27.0,18.0,0,0,,6.21,30.0,,,,,,,,,,,CLR,,,,,,,,VFR,,,,,,,,,,,,METAR,135.0
SLCO 291500Z 18012KT 9999 NSC 26/17 Q1017,SLCO,2017-04-29T15:00:00Z,-11.03,-68.78,26.0,17.0,180,12,,6.21,30.029528,,,,,,,,,,,CLR,,,,,,,,VFR,,,,,,,,,,,,METAR,272.0
SAZS 291500Z 32014KT 9999 SCT040 14/05 Q1018,SAZS,2017-04-29T15:00:00Z,-41.13,-71.17,14.0,5.0,320,14,,6.21,30.059055,,,,,,,,,,,SCT,4000,,,,,,,VFR,,,,,,,,,,,,METAR,840.0
SAWE 291500Z 27020KT CAVOK 07/06 Q0990,SAWE,2017-04-29T15:00:00Z,-53.78,-67.75,7.0,6.0,270,20,,6.21,29.232283,,,,,,,,,,,CAVOK,,,,,,,,VFR,,,,,,,,,,,,METAR,22.0
SAEZ 291500Z 31011KT CAVOK 23/10 Q1021,SAEZ,2017-04-29T15:00:00Z,-34.82,-58.52,23.0,10.0,310,11,,6.21,30.147638,,,,,,,,,,,CAVOK,,,,,,,,VFR,,,,,,,,,,,,METAR,20.0
FMSD 291500Z 06012KT 9999 VCSH SCT016 BKN033 22/17 Q1025,FMSD,2017-04-29T15:00:00Z,-25.02,46.95,22.0,17.0,60,12,,6.21,30.265747,,,,,,,,,,VCSH,SCT,1600,BKN,3300,,,,,VFR,,,,,,,,,,,,METAR,9.0
FMNM 291500Z 16004KT 9999 FEW023 SCT040 29/21 Q1014 NOSIG,FMNM,2017-04-29T15:00:00Z,-15.67,46.35,29.0,21.0,160,4,,6.21,29.940945,,,,,,TRUE,,,,,FEW,2300,SCT,4000,,,,,VFR,,,,,,,,,,,,METAR,18.0
FMMT 291500Z 24012KT 3000 -RA FEW007 SCT017TCU BKN033 22/21 Q1018 TEMPO 6000,FMMT,2017-04-29T15:00:00Z,-18.12,49.38,22.0,21.0,240,12,,1.86,30.059055,,,,,,,,,,-RA,FEW,700,SCT,1700,BKN,3300,,,IFR,,,,,,,,,,,,METAR,6.0
FMCH 291500Z VRB02KT 9999 FEW020CB BKN070 28/23 Q1014 NOSIG,FMCH,2017-04-29T15:00:00Z,-11.52,43.27,28.0,23.0,0,2,,6.21,29.940945,,,,,,TRUE,,,,,FEW,2000,BKN,7000,,,,,VFR,,,,,,,,,,,,METAR,29.0
GMAG 291500Z 32014KT 9999 FEW016 SCT200 26/12 Q1012 NOSIG,GMAG,2017-04-29T15:00:00Z,29.03,-10.05,26.0,12.0,320,14,,6.21,29.88189,,,,,,TRUE,,,,,FEW,1600,SCT,20000,,,,,VFR,,,,,,,,,,,,METAR,333.0
VEGY 291500Z 02006KT 4000 HZ NSC 33/14 Q1005,VEGY,2017-04-29T15:00:00Z,24.75,84.95,33.0,14.0,20,6,,2.49,29.675198,,,,,,,,,,HZ,CLR,,,,,,,,IFR,,,,,,,,,,,,METAR,116.0
TTCP 291500Z 11016KT 9999 FEW018 31/22 Q1016 NOSIG,TTCP,2017-04-29T15:00:00Z,11.15,-60.85,31.0,22.0,110,16,,6.21,30.0,,,,,,TRUE,,,,,FEW,1800,,,,,,,VFR,,,,,,,,,,,,METAR,8.0
TTPP 291500Z 10015KT 9999 VCSH BKN018 33/22 Q1015 NOSIG RMK SHWRS N NE SE,TTPP,2017-04-29T15:00:00Z,10.58,-61.35,33.0,22.0,100,15,,6.21,29.970472,,,,,,TRUE,,,,VCSH,BKN,1800,,,,,,,MVFR,,,,,,,,,,,,METAR,15.0
LELO 291500Z 09017KT 040V120 9999 FEW055 18/06 Q1009,LELO,2017-04-29T15:00:00Z,42.45,-2.32,18.0,6.0,90,17,,6.21,29.793306,,,,,,,,,,,FEW,5500,,,,,,,VFR,,,,,,,,,,,,METAR,363.0
LEBT 291500Z AUTO 11003KT 070V160 9999 // OVC029/// 14/08 Q1015,LEBT,2017-04-29T15:00:00Z,39.58,-0.45,14.0,8.0,110,3,,6.21,29.970472,,,TRUE,,,,,,,,OVC,2900,,,,,,,MVFR,,,,,,,,,,,,METAR,50.0
TGPY 291500Z 09018KT 9999 FEW020 31/23 Q1016,TGPY,2017-04-29T15:00:00Z,12.0,-61.78,31.0,23.0,90,18,,6.21,30.0,,,,,,,,,,,FEW,2000,,,,,,,VFR,,,,,,,,,,,,METAR,7.0
MPDA 291500Z 22008KT(E) 9000 SCT013 30/26 Q1010,MPDA,2017-04-29T15:00:00Z,8.4,-82.43,30.0,26.0,,,,5.59,29.822834,,,,,,,,,,,SCT,1300,,,,,,,VFR,,,,,,,,,,,,METAR,27.0
DTTN 291500Z 32007KT 9999 SCT020 21/13 Q1013,DTTN,2017-04-29T15:00:00Z,36.47,8.8,21.0,13.0,320,7,,6.21,29.911417,,,,,,,,,,,SCT,2000,,,,,,,VFR,,,,,,,,,,,,METAR,144.0
DTTL 291500Z VRB11KT 9999 SCT020 19/10 Q1013,DTTL,2017-04-29T15:00:00Z,36.85,11.07,19.0,10.0,0,11,,6.21,29.911417,,,,,,,,,,,SCT,2000,,,,,,,VFR,,,,,,,,,,,,METAR,30.0
DTTK 291500Z 01004KT 9999 FEW023 25/08 Q1011,DTTK,2017-04-29T15:00:00Z,35.67,10.08,25.0,8.0,10,4,,6.21,29.852362,,,,,,,,,,,FEW,2300,,,,,,,VFR,,,,,,,,,,,,METAR,68.0
DTTD 291500Z AUTO 13005KT 070V190 NCD 25/11 Q1012,DTTD,2017-04-29T15:00:00Z,32.32,10.4,25.0,11.0,130,5,,,29.88189,,,TRUE,,,,,,,,CLR,,,,,,,,,,,,,,,,,,,,METAR,301.0
DTTB 291500Z 32012KT 9999 FEW020 18/07 Q1014,DTTB,2017-04-29T15:00:00Z,37.25,9.8,18.0,7.0,320,12,,6.21,29.940945,,,,,,,,,,,FEW,2000,,,,,,,VFR,,,,,,,,,,,,METAR,3.0
DTTZ 291500Z 11006KT 070V150 6000 NSC 28/08 Q1010 NOSIG,DTTZ,2017-04-29T15:00:00Z,33.92,8.08,28.0,8.0,110,6,,3.73,29.822834,,,,,,TRUE,,,,,CLR,,,,,,,,MVFR,,,,,,,,,,,,METAR,93.0
DTTX 291500Z 07011KT CAVOK 22/13 Q1011 NOSIG,DTTX,2017-04-29T15:00:00Z,34.72,10.67,22.0,13.0,70,11,,6.21,29.852362,,,,,,TRUE,,,,,CAVOK,,,,,,,,VFR,,,,,,,,,,,,METAR,23.0
DTTG 291500Z 10011KT 6000 NSC 24/07 Q1012 NOSIG,DTTG,2017-04-29T15:00:00Z,33.73,9.92,24.0,7.0,100,11,,3.73,29.88189,,,,,,TRUE,,,,,CLR,,,,,,,,MVFR,,,,,,,,,,,,METAR,5.0
DTTF 291500Z 21009KT 180V240 8000 NSC 29/10 Q1009 NOSIG,DTTF,2017-04-29T15:00:00Z,34.42,8.82,29.0,10.0,210,9,,4.97,29.793306,,,,,,TRUE,,,,,CLR,,,,,,,,MVFR,,,,,,,,,,,,METAR,314.0
DTKA 291500Z 31007KT 220V360 9999 SCT020 17/07 Q1015 NOSIG,DTKA,2017-04-29T15:00:00Z,36.98,8.88,17.0,7.0,310,7,,6.21,29.970472,,,,,,TRUE,,,,,SCT,2000,,,,,,,VFR,,,,,,,,,,,,METAR,21.0
UCFL 291500Z 02004MPS 9999 BKN026CB BKN100 08/M03 Q1025 RMK V/G/Z,UCFL,2017-04-29T15:00:00Z,42.58,76.7,8.0,-3.0,20,8,,6.21,30.265747,,,,,,,,,,,BKN,2600,BKN,10000,,,,,MVFR,,,,,,,,,,,,METAR,1648.0
UTAM 291500Z 03004KT CAVOK 21/m03 Q1025 NOSIG,UTAM,2017-04-29T15:00:00Z,37.62,61.9,,,30,4,,6.21,30.265747,,,,,,TRUE,,,,,CAVOK,,,,,,,,VFR,,,,,,,,,,,,METAR,222.0
UTAV 291500Z 05006KT 7000 SKC 20/03 Q1026 NOSIG,UTAV,2017-04-29T15:00:00Z,39.08,63.62,20.0,3.0,50,6,,4.35,30.295275,,,,,,TRUE,,,,,SKC,,,,,,,,MVFR,,,,,,,,,,,,METAR,192.0
UARR 291500Z 17003MPS CAVOK 20/03 Q1029 R22/CLRD70 NOSIG RMK QFE768/1024,UARR,2017-04-29T15:00:00Z,51.15,51.53,20.0,3.0,170,6,,6.21,30.383858,,,,,,TRUE,,,,,CAVOK,,,,,,,,VFR,,,,,,,,,,,,METAR,38.0
ZUUU 291500Z 21001MPS CAVOK 20/14 Q1011 NOSIG,ZUUU,2017-04-29T15:00:00Z,30.58,103.95,20.0,14.0,210,2,,6.21,29.852362,,,,,,TRUE,,,,,CAVOK,,,,,,,,VFR,,,,,,,,,,,,METAR,508.0
ZUGY 291500Z 16001MPS 9999 FEW026 BKN046 16/13 Q1015 NOSIG,ZUGY,2017-04-29T15:00:00Z,26.53,106.8,16.0,13.0,160,2,,6.21,29.970472,,,,,,TRUE,,,,,FEW,2600,BKN,4600,,,,,VFR,,,,,,,,,,,,METAR,1074.0
ZSQD 291500Z VRB01MPS CAVOK 18/09 Q1004 NOSIG,ZSQD,2017-04-29T15:00:00Z,36.27,120.38,18.0,9.0,0,2,,6.21,29.64567,,,,,,TRUE,,,,,CAVOK,,,,,,,,VFR,,,,,,,,,,,,METAR,77.0
ZSNB 291500Z 17002MPS 130V210 CAVOK 18/09 Q1013 NOSIG,ZSNB,2017-04-29T15:00:00Z,29.83,121.47,18.0,9.0,170,4,,6.21,29.911417,,,,,,TRUE,,,,,CAVOK,,,,,,,,VFR,,,,,,,,,,,,METAR,4.0
ZSFZ 291500Z 31001MPS 7000 NSC 15/14 Q1015 NOSIG,ZSFZ,2017-04-29T15:00:00Z,25.93,119.67,15.0,14.0,310,2,,4.35,29.970472,,,,,,TRUE,,,,,CLR,,,,,,,,MVFR,,,,,,,,,,,,METAR,85.0
ZSAM 291500Z 03001MPS CAVOK 19/13 Q1015 NOSIG,ZSAM,2017-04-29T15:00:00Z,24.53,118.13,19.0,13.0,30,2,,6.21,29.970472,,,,,,TRUE,,,,,CAVOK,,,,,,,,VFR,,,,,,,,,,,,METAR,18.0
ZPPP 291500Z 22006MPS CAVOK 16/09 Q1020 NOSIG,ZPPP,2017-04-29T15:00:00Z,25.0,102.75,16.0,9.0,220,12,,6.21,30.11811,,,,,,TRUE,,,,,CAVOK,,,,,,,,VFR,,,,,,,,,,,,METAR,1892.0
ZLXY 291500Z VRB01MPS CAVOK 13/10 Q1007 NOSIG,ZLXY,2017-04-29T15:00:00Z,34.43,108.75,13.0,10.0,0,2,,6.21,29.734253,,,,,,TRUE,,,,,CAVOK,,,,,,,,VFR,,,,,,,,,,,,METAR,479.0
ZGSZ 291500Z 21005MPS CAVOK 23/19 Q1014 NOSIG,ZGSZ,2017-04-29T15:00:00Z,22.63,113.8,23.0,19.0,210,10,,6.21,29.940945,,,,,,TRUE,,,,,CAVOK,,,,,,,,VFR,,,,,,,,,,,,METAR,18.0
ZGOW 291500Z 00000MPS CAVOK 19/17 Q1015 NOSIG,ZGOW,2017-04-29T15:00:00Z,23.55,116.5,19.0,17.0,0,0,,6.21,29.970472,,,,,,TRUE,,,,,CAVOK,,,,,,,,VFR,,,,,,,,,,,,METAR,3.0
ZGNN 291500Z 15002MPS 120V200 CAVOK 23/16 Q1013 NOSIG,ZGNN,2017-04-29T15:00:00Z,22.62,108.17,23.0,16.0,150,4,,6.21,29.911417,,,,,,TRUE,,,,,CAVOK,,,,,,,,VFR,,,,,,,,,,,,METAR,73.0
ZGKL 291500Z 33001MPS 9999 FEW070 21/17 Q1013 NOSIG,ZGKL,2017-04-29T15:00:00Z,25.22,110.03,21.0,17.0,330,2,,6.21,29.911417,,,,,,TRUE,,,,,FEW,7000,,,,,,,VFR,,,,,,,,,,,,METAR,166.0
ZWSH 291500Z AUTO 34009MPS CAVOK 13/M01 Q1018,ZWSH,2017-04-29T15:00:00Z,39.55,76.02,13.0,-1.0,340,17,,6.21,30.059055,,,TRUE,,,,,,,,CAVOK,,,,,,,,VFR,,,,,,,,,,,,METAR,1380.0
ZBSJ 291500Z 21004MPS CAVOK 22/11 Q1002 NOSIG,ZBSJ,2017-04-29T15:00:00Z,38.28,114.7,22.0,11.0,210,8,,6.21,29.586615,,,,,,TRUE,,,,,CAVOK,,,,,,,,VFR,,,,,,,,,,,,METAR,71.0
FYWW 291500Z AUTO 01008KT //// // ////// 23/07 Q1025,FYWW,2017-04-29T15:00:00Z,-22.57,17.1,23.0,7.0,10,8,,,30.265747,,,TRUE,,,,,,,,,,,,,,,,,,,,,,,,,,,,METAR,1725.0
FYWH 291500Z 03011KT 9999 FEW050 23/05 Q1025 NOSIG,FYWH,2017-04-29T15:00:00Z,-22.47,17.47,23.0,5.0,30,11,,6.21,30.265747,,,,,,TRUE,,,,,FEW,5000,,,,,,,VFR,,,,,,,,,,,,METAR,1700.0
FYWE 291500Z 01010KT 9999 FEW050 24/06 Q1026,FYWE,2017-04-29T15:00:00Z,-22.62,17.08,24.0,6.0,10,10,,6.21,30.295275,,,,,,,,,,,FEW,5000,,,,,,,VFR,,,,,,,,,,,,METAR,1700.0
FYWB 291500Z AUTO 23012KT //// 22/15 Q1016,FYWB,2017-04-29T15:00:00Z,-22.98,14.65,22.0,15.0,230,12,,,30.0,,,TRUE,,,,,,,,,,,,,,,,,,,,,,,,,,,,SPECI,46.0
FYRN 291500Z 09011KT 9999 FEW040 25/10 Q1022,FYRN,2017-04-29T15:00:00Z,-20.02,13.85,25.0,10.0,90,11,,6.21,30.177166,,,,,,,,,,,FEW,4000,,,,,,,VFR,,,,,,,,,,,,METAR,756.0
FYLZ 291500Z AUTO 06004KT //// // ////// 20/15 Q1016,FYLZ,2017-04-29T15:00:00Z,-26.67,15.25,20.0,15.0,60,4,,,30.0,,,TRUE,,,,,,,,,,,,,,,,,,,,,,,,,,,,METAR,130.0
FYKT 291500Z AUTO 03014KT //// 29/09 Q1021,FYKT,2017-04-29T15:00:00Z,-26.52,18.12,29.0,9.0,30,14,,,30.147638,,,TRUE,,,,,,,,,,,,,,,,,,,,,,,,,,,,METAR,1061.0
FYKM 291500Z 16004KT 9999 FEW030 25/16 Q1023,FYKM,2017-04-29T15:00:00Z,-17.63,24.18,25.0,16.0,160,4,,6.21,30.206694,,,,,,,,,,,FEW,3000,,,,,,,VFR,,,,,,,,,,,,METAR,958.0
FYGB 291500Z AUTO 05006KT //// // ////// 25/07 Q1027,FYGB,2017-04-29T15:00:00Z,-22.5,18.97,25.0,7.0,50,6,,,30.324802,,,TRUE,,,,,,,,,,,,,,,,,,,,,,,,,,,,METAR,1442.0
FVHA 291500Z 17004KT 120V200 9999 SCT035 20/10 Q1026 NOSIG,FVHA,2017-04-29T15:00:00Z,-17.92,31.12,20.0,10.0,170,4,,6.21,30.295275,,,,,,TRUE,,,,,SCT,3500,,,,,,,VFR,,,,,,,,,,,,METAR,1503.0
FBSP 291500Z 13004KT 9999 FEW030 23/14 Q1026,FBSP,2017-04-29T15:00:00Z,-22.05,27.82,23.0,14.0,130,4,,6.21,30.295275,,,,,,,,,,,FEW,3000,,,,,,,VFR,,,,,,,,,,,,METAR,892.0
FBMN 291500Z 10012KT 9999 FEW030 25/09 Q1023,FBMN,2017-04-29T15:00:00Z,-19.97,23.42,25.0,9.0,100,12,,6.21,30.206694,,,,,,,,,,,FEW,3000,,,,,,,VFR,,,,,,,,,,,,METAR,900.0
LKPD 291500Z 26013KT 9999 SCT045 BKN060 10/03 Q1017 RMK BLACK,LKPD,2017-04-29T15:00:00Z,50.02,15.73,10.0,3.0,260,13,,6.21,30.029528,,,,,,,,,,,SCT,4500,BKN,6000,,,,,VFR,,,,,,,,,,,,METAR,226.0
LKNA 291500Z 31004KT 220V030 CAVOK 10/M01 Q1016 NOSIG RMK BLU BLU,LKNA,2017-04-29T15:00:00Z,49.17,16.12,10.0,-1.0,310,4,,6.21,30.0,,,,,,TRUE,,,,,CAVOK,,,,,,,,VFR,,,,,,,,,,,,METAR,472.0
LKLN 291500Z AUTO 25006KT 210V290 9999 OVC088 10/01 Q1017,LKLN,2017-04-29T15:00:00Z,49.68,13.27,10.0,1.0,250,6,,6.21,30.029528,,,TRUE,,,,,,,,OVC,8800,,,,,,,VFR,,,,,,,,,,,,METAR,362.0
LKKB 291500Z VRB05KT 9999 -SHRA SCT033 BKN050 09/04 Q1017 NOSIG,LKKB,2017-04-29T15:00:00Z,50.12,14.53,9.0,4.0,0,5,,6.21,30.029528,,,,,,TRUE,,,,-SHRA,SCT,3300,BKN,5000,,,,,VFR,,,,,,,,,,,,METAR,286.0
LKCV 291500Z 17003KT 9999 FEW047 BKN060 09/05 Q1017 RESHRA NOSIG RMK BLU BLU,LKCV,2017-04-29T15:00:00Z,49.93,15.38,9.0,5.0,170,3,,6.21,30.029528,,,,,,TRUE,,,,,FEW,4700,BKN,6000,,,,,VFR,,,,,,,,,,,,METAR,242.0
FAUP 291500Z 02014KT CAVOK 28/02 Q1023 NOSIG,FAUP,2017-04-29T15:00:00Z,-28.38,21.27,28.0,2.0,20,14,,6.21,30.206694,,,,,,TRUE,,,,,CAVOK,,,,,,,,VFR,,,,,,,,,,,,METAR,836.0
FAPP 291500Z 06009KT 9999 FEW030 20/10 Q1027 NOSIG,FAPP,2017-04-29T15:00:00Z,-23.83,29.45,20.0,10.0,60,9,,6.21,30.324802,,,,,,TRUE,,,,,FEW,3000,,,,,,,VFR,,,,,,,,,,,,METAR,1242.0
FAPE 291500Z 09015KT CAVOK 22/14 Q1023 NOSIG,FAPE,2017-04-29T15:00:00Z,-33.97,25.6,22.0,14.0,90,15,,6.21,30.206694,,,,,,TRUE,,,,,CAVOK,,,,,,,,VFR,,,,,,,,,,,,METAR,60.0
FAOR 291500Z 06008KT CAVOK 18/05 Q1030 NOSIG,FAOR,2017-04-29T15:00:00Z,-26.12,28.22,18.0,5.0,60,8,,6.21,30.413385,,,,,,TRUE,,,,,CAVOK,,,,,,,,VFR,,,,,,,,,,,,METAR,1700.0
FAOB 291500Z AUTO 14011KT //// // ////// 27/10 Q1018,FAOB,2017-04-29T15:00:00Z,-34.6,20.27,27.0,10.0,140,11,,,30.059055,,,TRUE,,,,,,,,,,,,,,,,,,,,,,,,,,,,METAR,75.0
FAMM 291500Z 07003KT CAVOK 22/09 Q1028 NOSIG,FAMM,2017-04-29T15:00:00Z,-25.8,25.52,22.0,9.0,70,3,,6.21,30.35433,,,,,,TRUE,,,,,CAVOK,,,,,,,,VFR,,,,,,,,,,,,METAR,1277.0
FALE 291500Z 03009KT 9999 FEW015 23/17 Q1027 NOSIG,FALE,2017-04-29T15:00:00Z,-29.62,31.12,23.0,17.0,30,9,,6.21,30.324802,,,,,,TRUE,,,,,FEW,1500,,,,,,,VFR,,,,,,,,,,,,METAR,109.0
FALA 291500Z 07008KT 9999 FEW045 21/05 Q1030 NOSIG,FALA,2017-04-29T15:00:00Z,-25.92,27.92,21.0,5.0,70,8,,6.21,30.413385,,,,,,TRUE,,,,,FEW,4500,,,,,,,VFR,,,,,,,,,,,,METAR,1377.0
FAKN 291500Z 17004KT 9999 BKN020 20/12 Q1028 NOSIG,FAKN,2017-04-29T15:00:00Z,-25.38,31.1,20.0,12.0,170,4,,6.21,30.35433,,,,,,TRUE,,,,,BKN,2000,,,,,,,MVFR,,,,,,,,,,,,METAR,862.0
FAGG 291500Z 10010KT CAVOK 29/09 Q1020,FAGG,2017-04-29T15:00:00Z,-34.0,22.37,29.0,9.0,100,10,,6.21,30.11811,,,,,,,,,,,CAVOK,,,,,,,,VFR,,,,,,,,,,,,METAR,193.0
FAEL 291500Z 05014G25KT CAVOK 22/18 Q1025,FAEL,2017-04-29T15:00:00Z,-33.02,27.82,22.0,18.0,50,14,25,6.21,30.265747,,,,,,,,,,,CAVOK,,,,,,,,VFR,,,,,,,,,,,,METAR,125.0
FACT 291500Z 04010KT CAVOK 35/09 Q1016 NOSIG,FACT,2017-04-29T15:00:00Z,-33.97,18.6,35.0,9.0,40,10,,6.21,30.0,,,,,,TRUE,,,,,CAVOK,,,,,,,,VFR,,,,,,,,,,,,METAR,42.0
FABL 291500Z 03002KT CAVOK 24/03 Q1029 NOSIG,FABL,2017-04-29T15:00:00Z,-29.1,26.3,24.0,3.0,30,2,,6.21,30.383858,,,,,,TRUE,,,,,CAVOK,,,,,,,,VFR,,,,,,,,,,,,METAR,1348.0
TLPL 291500Z 10020KT 9999 FEW028 30/23 Q1017 NOSIG,TLPL,2017-04-29T15:00:00Z,13.75,-60.95,30.0,23.0,100,20,,6.21,30.029528,,,,,,TRUE,,,,,FEW,2800,,,,,,,VFR,,,,,,,,,,,,METAR,3.0
SCRM 291500Z 34006KT 9999 BKN020 M02/M03 Q0990,SCRM,2017-04-29T15:00:00Z,-62.18,-58.98,-2.0,-3.0,340,6,,6.21,29.232283,,,,,,,,,,,BKN,2000,,,,,,,MVFR,,,,,,,,,,,,METAR,45.0
RKNY 291500Z AUTO 23027KT 9999 NCD 21/M02 Q0999,RKNY,2017-04-29T15:00:00Z,38.07,128.67,21.0,-2.0,230,27,,6.21,29.498032,,,TRUE,,,,,,,,CLR,,,,,,,,VFR,,,,,,,,,,,,METAR,74.0
RKJB 291500Z 17005KT 4000 BR NSC 14/11 Q1009 NOSIG,RKJB,2017-04-29T15:00:00Z,34.98,126.38,14.0,11.0,170,5,,2.49,29.793306,,,,,,TRUE,,,,BR,CLR,,,,,,,,IFR,,,,,,,,,,,,METAR,2.0
RKTN 291500Z 36006KT CAVOK 19/02 Q1006 NOSIG,RKTN,2017-04-29T15:00:00Z,35.88,128.65,19.0,2.0,360,6,,6.21,29.704725,,,,,,TRUE,,,,,CAVOK,,,,,,,,VFR,,,,,,,,,,,,METAR,35.0
RKTU 291500Z 10002KT CAVOK 14/01 Q1007 NOSIG,RKTU,2017-04-29T15:00:00Z,36.7,127.5,14.0,1.0,100,2,,6.21,29.734253,,,,,,TRUE,,,,,CAVOK,,,,,,,,VFR,,,,,,,,,,,,METAR,66.0
RKPK 291500Z 19010KT CAVOK 16/07 Q1008 NOSIG,RKPK,2017-04-29T15:00:00Z,35.17,128.92,16.0,7.0,190,10,,6.21,29.763779,,,,,,TRUE,,,,,CAVOK,,,,,,,,VFR,,,,,,,,,,,,METAR,15.0
RKPC 291500Z 26011KT CAVOK 20/04 Q1010 NOSIG,RKPC,2017-04-29T15:00:00Z,33.5,126.48,20.0,4.0,260,11,,6.21,29.822834,,,,,,TRUE,,,,,CAVOK,,,,,,,,VFR,,,,,,,,,,,,METAR,27.0
RKSS 291500Z 21009KT 9000 NSC 15/05 Q1006 NOSIG,RKSS,2017-04-29T15:00:00Z,37.53,126.78,15.0,5.0,210,9,,5.59,29.704725,,,,,,TRUE,,,,,CLR,,,,,,,,VFR,,,,,,,,,,,,METAR,19.0
TDPD 291500Z 12008KT 9999 -SHRA BKN017 27/24 Q1018,TDPD,2017-04-29T15:00:00Z,15.55,-61.3,27.0,24.0,120,8,,6.21,30.059055,,,,,,,,,,-SHRA,BKN,1700,,,,,,,MVFR,,,,,,,,,,,,METAR,14.0
MKJP 291500Z 13016KT 9999 FEW022 SCT036 30/24 Q1015,MKJP,2017-04-29T15:00:00Z,17.92,-76.78,30.0,24.0,130,16,,6.21,29.970472,,,,,,,,,,,FEW,2200,SCT,3600,,,,,VFR,,,,,,,,,,,,METAR,3.0
KHIF 291500Z 03015G22KT 10SM CLR 05/M07 A3015 RMK AO2A WSHFT 1459 SLP204,KHIF,2017-04-29T15:00:00Z,41.12,-111.97,5.0,-7.0,30,15,22,10.0,30.15059,1020.4,,,TRUE,,,,,,,CLR,,,,,,,,VFR,,,,,,,,,,,,SPECI,1459.0
CWWU 291500Z 24008G15KT 15SM VCFG SCT012 BKN050 BKN070 13/11 A2966 RMK SC3SC3AC1 T6022 VIS LWR NE FG BANK SLP044,CWWU,2017-04-29T15:00:00Z,47.52,-52.98,13.0,11.0,240,8,15,15.0,29.660433,1004.4,,,,,,,,,VCFG,SCT,1200,BKN,5000,BKN,7000,,,VFR,,,,,,,,,,,,METAR,13.0
SEJD 291500Z 36001KT CAVOK 25/24 Q1018 RMK A3007,SEJD,2017-04-29T15:00:00Z,-1.07,-77.58,25.0,24.0,360,1,,6.21,30.059055,,,,,,,,,,,CAVOK,,,,,,,,VFR,,,,,,,,,,,,METAR,375.0
MNMG 291500Z 10012KT 9999 SCT023 SCT300 32/23 Q1011 A2987 NOSIG,MNMG,2017-04-29T15:00:00Z,12.15,-86.17,32.0,23.0,100,12,,6.21,29.852362,,,,,,TRUE,,,,,SCT,2300,SCT,30000,,,,,VFR,,,,,,,,,,,,METAR,59.0
LELN 291500Z 18016G27KT 140V210 9999 FEW055TCU 17/M01 Q1007,LELN,2017-04-29T15:00:00Z,42.57,-5.65,17.0,-1.0,180,16,27,6.21,29.734253,,,,,,,,,,,FEW,5500,,,,,,,VFR,,,,,,,,,,,,METAR,914.0
LELC 291500Z 07005KT 040V120 9999 FEW018 BKN030 16/12 Q1015 NOSIG,LELC,2017-04-29T15:00:00Z,37.77,-0.8,16.0,12.0,70,5,,6.21,29.970472,,,,,,TRUE,,,,,FEW,1800,BKN,3000,,,,,MVFR,,,,,,,,,,,,METAR,3.0
LEBZ 291500Z 26012KT 220V310 CAVOK 23/06 Q1010,LEBZ,2017-04-29T15:00:00Z,38.87,-6.82,23.0,6.0,260,12,,6.21,29.822834,,,,,,,,,,,CAVOK,,,,,,,,VFR,,,,,,,,,,,,METAR,192.0
LEAB 291500Z 16011KT 130V190 9000 -RA FEW006 BKN028 BKN045 10/09 Q1013 TEMPO RA BKN012,LEAB,2017-04-29T15:00:00Z,38.95,-1.85,10.0,9.0,160,11,,5.59,29.911417,,,,,,,,,,-RA,FEW,600,BKN,2800,BKN,4500,,,MVFR,,,,,,,,,,,,METAR,704.0
YMOR 291500Z AUTO 23004KT 9999 // NCD 10/05 Q1019,YMOR,2017-04-29T15:00:00Z,-29.5,149.85,10.0,5.0,230,4,,6.21,30.088583,,,TRUE,,,,,,,,CLR,,,,,,,,VFR,,,,,,,,,,,,METAR,214.0
YMIA 291500Z AUTO 34001KT 9999 // OVC039 16/11 Q1023,YMIA,2017-04-29T15:00:00Z,-34.23,142.08,16.0,11.0,340,1,,6.21,30.206694,,,TRUE,,,,,,,,OVC,3900,,,,,,,VFR,,,,,,,,,,,,METAR,51.0
YMER 291500Z AUTO 21004KT 9999 // SCT046 13/10 Q1022,YMER,2017-04-29T15:00:00Z,-36.92,149.9,13.0,10.0,210,4,,6.21,30.177166,,,TRUE,,,,,,,,SCT,4600,,,,,,,VFR,,,,,,,,,,,,METAR,2.0
YMEN 291500Z AUTO 27006KT 9999 // OVC033 13/12 Q1023,YMEN,2017-04-29T15:00:00Z,-37.72,144.9,13.0,12.0,270,6,,6.21,30.206694,,,TRUE,,,,,,,,OVC,3300,,,,,,,VFR,,,,,,,,,,,,METAR,86.0
YMEK 291500Z AUTO 10007KT 9999 // NCD 18/03 Q1021,YMEK,2017-04-29T15:00:00Z,-26.62,118.55,18.0,3.0,100,7,,6.21,30.147638,,,TRUE,,,,,,,,CLR,,,,,,,,VFR,,,,,,,,,,,,METAR,522.0
YMDG 291500Z AUTO 11004KT 9999 // NCD 08/07 Q1022,YMDG,2017-04-29T15:00:00Z,-32.57,149.62,8.0,7.0,110,4,,6.21,30.177166,,,TRUE,,,,,,,,CLR,,,,,,,,VFR,,,,,,,,,,,,METAR,471.0
YLRE 291500Z AUTO 13004KT 9999 // NCD 15/02 Q1017,YLRE,2017-04-29T15:00:00Z,-23.43,144.28,15.0,2.0,130,4,,6.21,30.029528,,,TRUE,,,,,,,,CLR,,,,,,,,VFR,,,,,,,,,,,,METAR,193.0
UMMG 291500Z 26007G10MPS 9999 OVC023 08/03 Q1013 NOSIG,UMMG,2017-04-29T15:00:00Z,53.6,24.05,8.0,3.0,260,14,19,6.21,29.911417,,,,,,TRUE,,,,,OVC,2300,,,,,,,MVFR,,,,,,,,,,,,METAR,135.0
UMII 291500Z 21005G08MPS 7000 BKN041CB SCT100 16/09 Q1011 R23/290250 TEMPO 2000 SHRA BKN005,UMII,2017-04-29T15:00:00Z,55.13,30.35,16.0,9.0,210,10,16,4.35,29.852362,,,,,,,,,,,BKN,4100,SCT,10000,,,,,MVFR,,,,,,,,,,,,METAR,208.0
FKKD 291500Z 26008KT 9999 SCT016 FEW020CB 33/25 Q1007 NOSIG,FKKD,2017-04-29T15:00:00Z,4.0,9.72,33.0,25.0,260,8,,6.21,29.734253,,,,,,TRUE,,,,,SCT,1600,FEW,2000,,,,,VFR,,,,,,,,,,,,METAR,9.0
TVSA 291500Z 08010KT 9999 SCT020 29/22 Q1016 ,TVSA,2017-04-29T15:00:00Z,13.15,-61.15,29.0,22.0,80,10,,6.21,30.0,,,,,,,,,,,SCT,2000,,,,,,,VFR,,,,,,,,,,,,METAR,17.0
FBSK 291500Z 11009KT 9999 SCT030 24/07 Q1026 NOSIG,FBSK,2017-04-29T15:00:00Z,-24.55,25.92,24.0,7.0,110,9,,6.21,30.295275,,,,,,TRUE,,,,,SCT,3000,,,,,,,VFR,,,,,,,,,,,,METAR,1005.0
OIZI 291500Z 27006KT CAVOK 36/03 Q1011,OIZI,2017-04-29T15:00:00Z,27.23,60.72,36.0,3.0,270,6,,6.21,29.852362,,,,,,,,,,,CAVOK,,,,,,,,VFR,,,,,,,,,,,,METAR,591.0
OIZB 291500Z 32008KT CAVOK 23/M01 Q1015,OIZB,2017-04-29T15:00:00Z,31.1,61.55,23.0,-1.0,320,8,,6.21,29.970472,,,,,,,,,,,CAVOK,,,,,,,,VFR,,,,,,,,,,,,METAR,489.0
OING 291500Z 06006KT 9999 FEW030 BKN200 17/14 Q1019,OING,2017-04-29T15:00:00Z,36.9,54.4,17.0,14.0,60,6,,6.21,30.088583,,,,,,,,,,,FEW,3000,BKN,20000,,,,,VFR,,,,,,,,,,,,METAR,155.0
OIBS 291500Z 27010KT 3500 HZ NSC 30/24 Q1007,OIBS,2017-04-29T15:00:00Z,25.9,54.55,30.0,24.0,270,10,,2.17,29.734253,,,,,,,,,,HZ,CLR,,,,,,,,IFR,,,,,,,,,,,,METAR,14.0
OIBJ 291500Z 23004KT CAVOK 32/10 Q1014,OIBJ,2017-04-29T15:00:00Z,27.82,52.35,32.0,10.0,230,4,,6.21,29.940945,,,,,,,,,,,CAVOK,,,,,,,,VFR,,,,,,,,,,,,METAR,663.0
OITM 291500Z 09014KT 9999 FEW040 19/06 Q1015,OITM,2017-04-29T15:00:00Z,37.35,46.15,19.0,6.0,90,14,,6.21,29.970472,,,,,,,,,,,FEW,4000,,,,,,,VFR,,,,,,,,,,,,METAR,1340.0
OINE 291500Z 00000KT 9999 SCT030 BKN200 17/14 Q1019,OINE,2017-04-29T15:00:00Z,37.38,55.45,17.0,14.0,0,0,,6.21,30.088583,,,,,,,,,,,SCT,3000,BKN,20000,,,,,VFR,,,,,,,,,,,,METAR,130.0
OIMQ 291500Z AUTO 13006KT //// // ////// 22/M14 Q1021,OIMQ,2017-04-29T15:00:00Z,35.23,58.47,22.0,-14.0,130,6,,,30.147638,,,TRUE,,,,,,,,,,,,,,,,,,,,,,,,,,,,METAR,1140.0
OIMD 291500Z AUTO 11012KT //// // ////// 21/M11 Q1017,OIMD,2017-04-29T15:00:00Z,34.38,58.63,21.0,-11.0,110,12,,,30.029528,,,TRUE,,,,,,,,,,,,,,,,,,,,,,,,,,,,METAR,1100.0
OIMC 291500Z AUTO 08002KT //// // ////// 22/M03 Q1024,OIMC,2017-04-29T15:00:00Z,36.5,61.07,22.0,-3.0,80,2,,,30.236221,,,TRUE,,,,,,,,,,,,,,,,,,,,,,,,,,,,METAR,288.0
OIIK 291500Z 12012KT 6000 TSRA FEW020 FEW030CB OVC100 16/13 Q1020,OIIK,2017-04-29T15:00:00Z,36.25,50.05,16.0,13.0,120,12,,3.73,30.11811,,,,,,,,,,TSRA,FEW,2000,FEW,3000,OVC,10000,,,MVFR,,,,,,,,,,,,METAR,1278.0
OIBQ 291500Z 00000KT CAVOK 31/18 Q1007,OIBQ,2017-04-29T15:00:00Z,29.27,50.32,31.0,18.0,0,0,,6.21,29.734253,,,,,,,,,,,CAVOK,,,,,,,,VFR,,,,,,,,,,,,METAR,6.0
OIBL 291500Z 25008KT 5000 HZ NSC 32/17 Q1007,OIBL,2017-04-29T15:00:00Z,26.53,54.82,32.0,17.0,250,8,,3.11,29.734253,,,,,,,,,,HZ,CLR,,,,,,,,MVFR,,,,,,,,,,,,METAR,14.0
OISR 291500Z 23006KT CAVOK 34/17 Q1011,OISR,2017-04-29T15:00:00Z,27.37,53.2,34.0,17.0,230,6,,6.21,29.852362,,,,,,,,,,,CAVOK,,,,,,,,VFR,,,,,,,,,,,,METAR,408.0
OISF 291500Z 31008KT 5000 DU SCT040 SCT200 28/06 Q1015,OISF,2017-04-29T15:00:00Z,28.9,53.72,28.0,6.0,310,8,,3.11,29.970472,,,,,,,,,,DU,SCT,4000,SCT,20000,,,,,MVFR,,,,,,,,,,,,METAR,1383.0
OIAH 291500Z 14006KT 9999 FEW035TCU SCT040 30/03 Q1014,OIAH,2017-04-29T15:00:00Z,30.33,50.83,30.0,3.0,140,6,,6.21,29.940945,,,,,,,,,,,FEW,3500,SCT,4000,,,,,VFR,,,,,,,,,,,,METAR,738.0
OIZJ 291500Z 00000KT 3000 BR NSC 30/26 Q1007,OIZJ,2017-04-29T15:00:00Z,25.65,57.8,30.0,26.0,0,0,,1.86,29.734253,,,,,,,,,,BR,CLR,,,,,,,,IFR,,,,,,,,,,,,METAR,4.0
OIMS 291500Z 11018KT 9999 FEW035 SCT200 22/M10 Q1021,OIMS,2017-04-29T15:00:00Z,36.17,57.6,22.0,-10.0,110,18,,6.21,30.147638,,,,,,,,,,,FEW,3500,SCT,20000,,,,,VFR,,,,,,,,,,,,METAR,941.0
OIMN 291500Z 08008KT CAVOK 21/M08 Q1021,OIMN,2017-04-29T15:00:00Z,37.48,57.3,21.0,-8.0,80,8,,6.21,30.147638,,,,,,,,,,,CAVOK,,,,,,,,VFR,,,,,,,,,,,,METAR,1074.0
OIMB 291500Z 05006KT CAVOK 22/M19 Q1020,OIMB,2017-04-29T15:00:00Z,32.9,59.28,22.0,-19.0,50,6,,6.21,30.11811,,,,,,,,,,,CAVOK,,,,,,,,VFR,,,,,,,,,,,,METAR,1491.0
OIIP 291500Z 18008KT 9999 FEW030CB SCT035 BKN100 17/11 Q1021,OIIP,2017-04-29T15:00:00Z,35.78,50.83,17.0,11.0,180,8,,6.21,30.147638,,,,,,,,,,,FEW,3000,SCT,3500,BKN,10000,,,VFR,,,,,,,,,,,,METAR,1271.0
OIBA 291500Z 32006KT 7000 NSC 29/24 Q1007,OIBA,2017-04-29T15:00:00Z,25.88,55.03,29.0,24.0,320,6,,4.35,29.734253,,,,,,,,,,,CLR,,,,,,,,MVFR,,,,,,,,,,,,METAR,7.0
OITZ 291500Z 12014KT 9999 FEW025 FEW030CB SCT035 BKN090 14/09 Q1018,OITZ,2017-04-29T15:00:00Z,36.77,48.37,14.0,9.0,120,14,,6.21,30.059055,,,,,,,,,,,FEW,2500,FEW,3000,SCT,3500,BKN,9000,VFR,,,,,,,,,,,,METAR,1663.0
OISY 291500Z 00000KT 9999 FEW045 BKN080 19/04 Q1025,OISY,2017-04-29T15:00:00Z,30.7,51.55,19.0,4.0,0,0,,6.21,30.265747,,,,,,,,,,,FEW,4500,BKN,8000,,,,,VFR,,,,,,,,,,,,METAR,1811.0
OISL 291500Z 00000KT CAVOK 32/08 Q1012,OISL,2017-04-29T15:00:00Z,27.67,54.37,32.0,8.0,0,0,,6.21,29.88189,,,,,,,,,,,CAVOK,,,,,,,,VFR,,,,,,,,,,,,METAR,805.0
OINR 291500Z 13004KT 5000 BR OVC010 15/13 Q1016,OINR,2017-04-29T15:00:00Z,36.88,50.67,15.0,13.0,130,4,,3.11,30.0,,,,,,,,,,BR,OVC,1000,,,,,,,MVFR,,,,,,,,,,,,METAR,-20.0
OINN 291500Z 11010KT 5000 BR BKN009 OVC170 15/13 Q1015,OINN,2017-04-29T15:00:00Z,36.67,51.47,15.0,13.0,110,10,,3.11,29.970472,,,,,,,,,,BR,BKN,900,OVC,17000,,,,,IFR,,,,,,,,,,,,METAR,-19.0
OIKQ 291500Z 21004KT 6000 NSC 30/22 Q1007,OIKQ,2017-04-29T15:00:00Z,26.75,55.9,30.0,22.0,210,4,,3.73,29.734253,,,,,,,,,,,CLR,,,,,,,,MVFR,,,,,,,,,,,,METAR,12.0
OICI 291500Z 23006KT 7000 FEW040 FEW045TCU 24/05 Q1017 A3005,OICI,2017-04-29T15:00:00Z,33.58,46.4,24.0,5.0,230,6,,4.35,30.029528,,,,,,,,,,,FEW,4000,FEW,4500,,,,,MVFR,,,,,,,,,,,,METAR,1343.0
OIAM 291500Z 19010KT 7000 NSC 32/21 Q1007,OIAM,2017-04-29T15:00:00Z,30.55,49.15,32.0,21.0,190,10,,4.35,29.734253,,,,,,,,,,,CLR,,,,,,,,MVFR,,,,,,,,,,,,METAR,4.0
OITL 291500Z 25019KT 6000 SHRA BKN035CB SCT040 SCT080 BKN170 13/09 Q1019 RETS,OITL,2017-04-29T15:00:00Z,38.33,48.42,13.0,9.0,250,19,,3.73,30.088583,,,,,,,,,,SHRA,BKN,3500,SCT,4000,SCT,8000,BKN,17000,MVFR,,,,,,,,,,,,METAR,1316.0
OINZ 291500Z 07010KT 9999 SCT080 OVC180 17/14 Q1016,OINZ,2017-04-29T15:00:00Z,36.63,53.2,17.0,14.0,70,10,,6.21,30.0,,,,,,,,,,,SCT,8000,OVC,18000,,,,,VFR,,,,,,,,,,,,METAR,11.0
OIBB 291500Z 05006KT CAVOK 37/03 Q1007 A2974,OIBB,2017-04-29T15:00:00Z,28.97,50.82,37.0,3.0,50,6,,6.21,29.734253,,,,,,,,,,,CAVOK,,,,,,,,VFR,,,,,,,,,,,,METAR,19.0
OIBK 291500Z 30006KT 6000 NSC 30/22 Q1008,OIBK,2017-04-29T15:00:00Z,26.53,53.98,30.0,22.0,300,6,,3.73,29.763779,,,,,,,,,,,CLR,,,,,,,,MVFR,,,,,,,,,,,,METAR,30.0
OIAA 291500Z 14006KT 4000 DU NSC 34/08 Q1007,OIAA,2017-04-29T15:00:00Z,30.37,48.25,34.0,8.0,140,6,,2.49,29.734253,,,,,,,,,,DU,CLR,,,,,,,,IFR,,,,,,,,,,,,METAR,11.0
OIKK 291500Z 08006KT 9999 FEW040CB SCT045 BKN200 23/M01 Q1022 A3018,OIKK,2017-04-29T15:00:00Z,30.25,56.97,23.0,-1.0,80,6,,6.21,30.177166,,,,,,,,,,,FEW,4000,SCT,4500,BKN,20000,,,VFR,,,,,,,,,,,,METAR,1754.0
MZBZ 291500Z 13010KT 9999 SCT022 31/26 A2986 Q1011 NOSIG RMK HZY,MZBZ,2017-04-29T15:00:00Z,17.52,-88.3,31.0,26.0,130,10,,6.21,29.852362,,,,,,TRUE,,,,,SCT,2200,,,,,,,VFR,,,,,,,,,,,,METAR,5.0
FDMS 291500Z 13006KT 9999 BKN030 21/15 Q1028 NOSIG,FDMS,2017-04-29T15:00:00Z,-26.52,31.3,21.0,15.0,130,6,,6.21,30.35433,,,,,,TRUE,,,,,BKN,3000,,,,,,,MVFR,,,,,,,,,,,,METAR,641.0
MROC 291500Z 09012KT 9999 FEW045 BKN250 28/18 A3000 NOSIG,MROC,2017-04-29T15:00:00Z,10.0,-84.22,28.0,18.0,90,12,,6.21,30.0,,,,,,TRUE,,,,,FEW,4500,BKN,25000,,,,,VFR,,,,,,,,,,,,METAR,920.0
SAZN 291500Z 27010KT CAVOK 16/08 Q1018,SAZN,2017-04-29T15:00:00Z,-38.95,-68.15,16.0,8.0,270,10,,6.21,30.059055,,,,,,,,,,,CAVOK,,,,,,,,VFR,,,,,,,,,,,,METAR,271.0
SAZM 291500Z 32011KT CAVOK 20/13 Q1019,SAZM,2017-04-29T15:00:00Z,-37.92,-57.57,20.0,13.0,320,11,,6.21,30.088583,,,,,,,,,,,CAVOK,,,,,,,,VFR,,,,,,,,,,,,METAR,21.0
SAWG 291500Z 27017KT CAVOK 08/02 Q0996,SAWG,2017-04-29T15:00:00Z,-51.62,-69.32,8.0,2.0,270,17,,6.21,29.409449,,,,,,,,,,,CAVOK,,,,,,,,VFR,,,,,,,,,,,,METAR,19.0
SAVC 291500Z 29011KT 210V360 CAVOK 17/06 Q1005,SAVC,2017-04-29T15:00:00Z,-45.77,-67.47,17.0,6.0,290,11,,6.21,29.675198,,,,,,,,,,,CAVOK,,,,,,,,VFR,,,,,,,,,,,,METAR,46.0
SASA 291500Z 27002KT CAVOK 18/08 Q1023,SASA,2017-04-29T15:00:00Z,-24.85,-65.47,18.0,8.0,270,2,,6.21,30.206694,,,,,,,,,,,CAVOK,,,,,,,,VFR,,,,,,,,,,,,METAR,1216.0
SARP 291500Z 05004KT CAVOK 22/12 Q1023,SARP,2017-04-29T15:00:00Z,-27.38,-55.97,22.0,12.0,50,4,,6.21,30.206694,,,,,,,,,,,CAVOK,,,,,,,,VFR,,,,,,,,,,,,METAR,125.0
SARL 291500Z 09009KT CAVOK 20/09 Q1024,SARL,2017-04-29T15:00:00Z,-29.67,-57.13,20.0,9.0,90,9,,6.21,30.236221,,,,,,,,,,,CAVOK,,,,,,,,VFR,,,,,,,,,,,,METAR,70.0
SARI 291500Z 05006KT CAVOK 20/14 Q1024,SARI,2017-04-29T15:00:00Z,-25.72,-54.47,20.0,14.0,50,6,,6.21,30.236221,,,,,,,,,,,CAVOK,,,,,,,,VFR,,,,,,,,,,,,METAR,270.0
SARF 291500Z 09006KT CAVOK 22/13 Q1022,SARF,2017-04-29T15:00:00Z,-26.22,-58.22,22.0,13.0,90,6,,6.21,30.177166,,,,,,,,,,,CAVOK,,,,,,,,VFR,,,,,,,,,,,,METAR,60.0
SARE 291500Z 09005KT CAVOK 22/12 Q1022,SARE,2017-04-29T15:00:00Z,-27.43,-59.03,22.0,12.0,90,5,,6.21,30.177166,,,,,,,,,,,CAVOK,,,,,,,,VFR,,,,,,,,,,,,METAR,52.0
SARC 291500Z 14008KT CAVOK 21/11 Q1022,SARC,2017-04-29T15:00:00Z,-27.43,-58.77,21.0,11.0,140,8,,6.21,30.177166,,,,,,,,,,,CAVOK,,,,,,,,VFR,,,,,,,,,,,,METAR,62.0
SAOC 291500Z 36010KT CAVOK 23/08 Q1019,SAOC,2017-04-29T15:00:00Z,-33.12,-64.27,23.0,8.0,360,10,,6.21,30.088583,,,,,,,,,,,CAVOK,,,,,,,,VFR,,,,,,,,,,,,METAR,421.0
SANT 291500Z 36004KT CAVOK 23/12 Q1020,SANT,2017-04-29T15:00:00Z,-26.85,-65.08,23.0,12.0,360,4,,6.21,30.11811,,,,,,,,,,,CAVOK,,,,,,,,VFR,,,,,,,,,,,,METAR,450.0
SAME 291500Z 09002KT CAVOK 18/08 Q1019,SAME,2017-04-29T15:00:00Z,-32.82,-68.77,18.0,8.0,90,2,,6.21,30.088583,,,,,,,,,,,CAVOK,,,,,,,,VFR,,,,,,,,,,,,METAR,704.0
SACO 291500Z 09003KT CAVOK 25/09 Q1020,SACO,2017-04-29T15:00:00Z,-31.32,-64.22,25.0,9.0,90,3,,6.21,30.11811,,,,,,,,,,,CAVOK,,,,,,,,VFR,,,,,,,,,,,,METAR,474.0
SABE 291500Z 35007KT CAVOK 20/14 Q1022,SABE,2017-04-29T15:00:00Z,-34.57,-58.42,20.0,14.0,350,7,,6.21,30.177166,,,,,,,,,,,CAVOK,,,,,,,,VFR,,,,,,,,,,,,METAR,6.0
SAAR 291500Z 34009KT CAVOK 22/11 Q1021,SAAR,2017-04-29T15:00:00Z,-32.92,-60.77,22.0,11.0,340,9,,6.21,30.147638,,,,,,,,,,,CAVOK,,,,,,,,VFR,,,,,,,,,,,,METAR,25.0
OLBA 291500Z 31005KT 270V360 8000 FEW080 21/16 Q1013,OLBA,2017-04-29T15:00:00Z,33.82,35.47,21.0,16.0,310,5,,4.97,29.911417,,,,,,,,,,,FEW,8000,,,,,,,MVFR,,,,,,,,,,,,METAR,19.0
OPRN 291500Z 23006KT 6000 FEW035 SCT220 24/17 Q1011.0/29.85,OPRN,2017-04-29T15:00:00Z,33.62,73.08,24.0,17.0,230,6,,3.73,,,,,,,,,,,,FEW,3500,SCT,22000,,,,,MVFR,,,,,,,,,,,,METAR,508.0
OPNH 291500Z 05004KT 4000M HZ NSC 37/19 Q.1004 NOSIG,OPNH,2017-04-29T15:00:00Z,26.22,68.37,37.0,19.0,50,4,,2.49,,,,,,,TRUE,,,,HZ,CLR,,,,,,,,IFR,,,,,,,,,,,,METAR,38.0
OPLA 291500Z 35010KT 4000 HZ NSC 31/10 Q1006/A29.70 NOSIG,OPLA,2017-04-29T15:00:00Z,31.52,74.4,31.0,10.0,350,10,,2.49,,,,,,,TRUE,,,,HZ,CLR,,,,,,,,IFR,,,,,,,,,,,,METAR,217.0
MPMG 291500Z 31005KT 280V360 9999 FEW018 SCT080 30/25 Q1010 NOSIG,MPMG,2017-04-29T15:00:00Z,8.98,-79.57,30.0,25.0,310,5,,6.21,29.822834,,,,,,TRUE,,,,,FEW,1800,SCT,8000,,,,,VFR,,,,,,,,,,,,METAR,13.0
MPBO 291500Z 27006KT 9000 VCSH SCT018 BKN080 Q1014,MPBO,2017-04-29T15:00:00Z,9.35,-82.25,,,270,6,,5.59,29.940945,,,,,,,,,,VCSH,SCT,1800,BKN,8000,,,,,VFR,,,,,,,,,,,,METAR,3.0
MPPA 291500Z 02006KT 8000 FEW018 30/// Q1012,MPPA,2017-04-29T15:00:00Z,8.92,-79.6,,,20,6,,4.97,29.88189,,,,,,,,,,,FEW,1800,,,,,,,MVFR,,,,,,,,,,,,METAR,13.0
FQQL 291500Z 15004KT 9999 SCT020 27/24 Q1018,FQQL,2017-04-29T15:00:00Z,-17.87,36.87,27.0,24.0,150,4,,6.21,30.059055,,,,,,,,,,,SCT,2000,,,,,,,VFR,,,,,,,,,,,,METAR,16.0
BIRK 291500Z 12015KT 9999 VCSH SCT022 FEW023TCU 08/00 Q1000 RESHRA,BIRK,2017-04-29T15:00:00Z,64.13,-21.93,8.0,0.0,120,15,,6.21,29.52756,,,,,,,,,,VCSH,SCT,2200,FEW,2300,,,,,VFR,,,,,,,,,,,,METAR,61.0
BIEG 291500Z 14006KT 9999 -SHRA BKN020 OVC035 07/03 Q1006 R04/150095,BIEG,2017-04-29T15:00:00Z,65.27,-14.4,7.0,3.0,140,6,,6.21,29.704725,,,,,,,,,,-SHRA,BKN,2000,OVC,3500,,,,,MVFR,,,,,,,,,,,,METAR,38.0
BIAR 291500Z 12007KT 090V150 9999 FEW054 09/M02 Q1005,BIAR,2017-04-29T15:00:00Z,65.67,-18.07,9.0,-2.0,120,7,,6.21,29.675198,,,,,,,,,,,FEW,5400,,,,,,,VFR,,,,,,,,,,,,METAR,27.0
YBDV 291500Z AUTO 17007KT //// // ////// 15/03 Q1019,YBDV,2017-04-29T15:00:00Z,-25.9,139.35,15.0,3.0,170,7,,,30.088583,,,TRUE,,,,,,,,,,,,,,,,,,,,,,,,,,,,METAR,47.0
YBCV 291500Z AUTO 15003KT 9999 // NCD 12/05 Q1020,YBCV,2017-04-29T15:00:00Z,-26.38,146.27,12.0,5.0,150,3,,6.21,30.11811,,,TRUE,,,,,,,,CLR,,,,,,,,VFR,,,,,,,,,,,,METAR,304.0
YAYE 291500Z AUTO 13007KT 9999 // NCD 15/05 Q1021,YAYE,2017-04-29T15:00:00Z,-25.18,130.98,15.0,5.0,130,7,,6.21,30.147638,,,TRUE,,,,,,,,CLR,,,,,,,,VFR,,,,,,,,,,,,METAR,496.0
YARG 291500Z AUTO 14005KT 9999 // NCD 23/07 Q1016,YARG,2017-04-29T15:00:00Z,-16.63,128.45,23.0,7.0,140,5,,6.21,30.0,,,TRUE,,,,,,,,CLR,,,,,,,,VFR,,,,,,,,,,,,METAR,165.0
YABA 291500Z AUTO 35005KT 9999 // NCD 13/13 Q1020,YABA,2017-04-29T15:00:00Z,-34.93,117.8,13.0,13.0,350,5,,6.21,30.11811,,,TRUE,,,,,,,,CLR,,,,,,,,VFR,,,,,,,,,,,,METAR,69.0
LQMO 291500Z 34007KT 260V060 9999 FEW040 13/06 Q1013,LQMO,2017-04-29T15:00:00Z,43.28,17.83,13.0,6.0,340,7,,6.21,29.911417,,,,,,,,,,,FEW,4000,,,,,,,VFR,,,,,,,,,,,,METAR,48.0
MHCH 291500Z 00000KT 4000 FU SCT034TCU SCT250 32/27 TCU ALL 4 KMS E W FU,MHCH,2017-04-29T15:00:00Z,13.32,-87.15,32.0,27.0,0,0,,2.49,,,,,,,,,,,FU FU,SCT,3400,SCT,25000,,,,,IFR,,,,,,,,,,,,METAR,48.0
MHLE 291500Z 04002KT 9999 FEW024 21/17 FU,MHLE,2017-04-29T15:00:00Z,14.32,-88.15,21.0,17.0,40,2,,6.21,,,,,,,,,,,FU,FEW,2400,,,,,,,VFR,,,,,,,,,,,,METAR,1100.0
MHNO 291500Z 19006KT 9999 FEW040 29/20 FU,MHNO,2017-04-29T15:00:00Z,14.43,-89.18,29.0,20.0,190,6,,6.21,,,,,,,,,,,FU,FEW,4000,,,,,,,VFR,,,,,,,,,,,,METAR,2.0
MHSR 291500Z 12003KT 6000 SCT025 SCT250 25/18 6 KMS FU,MHSR,2017-04-29T15:00:00Z,14.78,-88.78,25.0,18.0,120,3,,3.73,,,,,,,,,,,FU,SCT,2500,SCT,25000,,,,,MVFR,,,,,,,,,,,,METAR,1079.0
MHPL 291500Z 09006KT 9999 SCT028 SCT250 31/25 Q1013 HZ,MHPL,2017-04-29T15:00:00Z,15.27,-83.78,31.0,25.0,90,6,,6.21,29.911417,,,,,,,,,,HZ,SCT,2800,SCT,25000,,,,,VFR,,,,,,,,,,,,METAR,13.0
MHYR 291500Z 25004KT 9999 SCT023TCU 28/21 TCU ALL HZ,MHYR,2017-04-29T15:00:00Z,15.13,-87.12,28.0,21.0,250,4,,6.21,,,,,,,,,,,HZ,SCT,2300,,,,,,,VFR,,,,,,,,,,,,METAR,670.0
MHTR 291500Z 13002KT 9999 FEW028 32/23 HZ,MHTR,2017-04-29T15:00:00Z,15.93,-85.93,32.0,23.0,130,2,,6.21,,,,,,,,,,,HZ,FEW,2800,,,,,,,VFR,,,,,,,,,,,,METAR,3.0
MHAM 291500Z 23004KT 9999 BKN028TCU 32/27 TCU ALL HZ,MHAM,2017-04-29T15:00:00Z,13.27,-87.65,32.0,27.0,230,4,,6.21,,,,,,,,,,,HZ,BKN,2800,,,,,,,MVFR,,,,,,,,,,,,METAR,5.0
SADF 291500Z 32007KT 9000 NSC 21/10 Q1022,SADF,2017-04-29T15:00:00Z,-34.45,-58.58,21.0,10.0,320,7,,5.59,30.177166,,,,,,,,,,,CLR,,,,,,,,VFR,,,,,,,,,,,,METAR,4.0
LEMO 291500Z 22014KT 200V260 9999 SCT039 20/12 Q1012 NOSIG,LEMO,2017-04-29T15:00:00Z,37.17,-5.62,20.0,12.0,220,14,,6.21,29.88189,,,,,,TRUE,,,,,SCT,3900,,,,,,,VFR,,,,,,,,,,,,METAR,88.0
FIMP 291500Z 15017G31KT 9999 VCSH FEW008 SCT014 BKN045 25/19 Q1 019,FIMP,2017-04-29T15:00:00Z,-20.42,57.67,25.0,19.0,150,17,31,6.21,,,,,,,,,,,VCSH,FEW,800,SCT,1400,BKN,4500,,,VFR,,,,,,,,,,,,METAR,57.0
GMMZ 291500Z 12012KT 9999 SCT040 SCT230 27/05 Q1013 NOSIG,GMMZ,2017-04-29T15:00:00Z,30.92,-6.9,27.0,5.0,120,12,,6.21,29.911417,,,,,,TRUE,,,,,SCT,4000,SCT,23000,,,,,VFR,,,,,,,,,,,,METAR,1140.0
GMTN 291500Z 06005KT 360V080 5000 -RA SCT010 BKN023TCU 17/16 Q1014 NOSIG,GMTN,2017-04-29T15:00:00Z,35.57,-5.32,17.0,16.0,60,5,,3.11,29.940945,,,,,,TRUE,,,,-RA,SCT,1000,BKN,2300,,,,,MVFR,,,,,,,,,,,,METAR,10.0
GMTA 291500Z 34006KT 9999 FEW016 SCT026 BKN100 21/16 Q1013 NOSIG,GMTA,2017-04-29T15:00:00Z,35.17,-3.85,21.0,16.0,340,6,,6.21,29.911417,,,,,,TRUE,,,,,FEW,1600,SCT,2600,BKN,10000,,,VFR,,,,,,,,,,,,METAR,14.0
GMMW 291500Z 05011KT 020V090 9999 FEW020 SCT100 22/16 Q1013 NOSIG,GMMW,2017-04-29T15:00:00Z,34.98,-3.02,22.0,16.0,50,11,,6.21,29.911417,,,,,,TRUE,,,,,FEW,2000,SCT,10000,,,,,VFR,,,,,,,,,,,,METAR,175.0
GMML 291500Z 28012KT 9999 SCT027 SCT200 25/15 Q1014 NOSIG,GMML,2017-04-29T15:00:00Z,27.13,-13.23,25.0,15.0,280,12,,6.21,29.940945,,,,,,TRUE,,,,,SCT,2700,SCT,20000,,,,,VFR,,,,,,,,,,,,METAR,6.0
GMMI 291500Z 26010KT 8000 SCT016 24/16 Q1014 NOSIG,GMMI,2017-04-29T15:00:00Z,31.4,-9.68,24.0,16.0,260,10,,4.97,29.940945,,,,,,TRUE,,,,,SCT,1600,,,,,,,MVFR,,,,,,,,,,,,METAR,8.0
GMMH 291500Z 30008KT CAVOK 24/18 Q1015 NOSIG,GMMH,2017-04-29T15:00:00Z,23.72,-15.93,24.0,18.0,300,8,,6.21,29.970472,,,,,,TRUE,,,,,CAVOK,,,,,,,,VFR,,,,,,,,,,,,METAR,11.0
GMMD 291500Z 24008KT 9999 SCT030 SCT230 26/10 Q1013 NOSIG,GMMD,2017-04-29T15:00:00Z,32.4,-6.32,26.0,10.0,240,8,,6.21,29.911417,,,,,,TRUE,,,,,SCT,3000,SCT,23000,,,,,VFR,,,,,,,,,,,,METAR,509.0
GMMC 291500Z 30008KT 9999 SCT016 SCT026 21/15 Q1013,GMMC,2017-04-29T15:00:00Z,33.57,-7.67,21.0,15.0,300,8,,6.21,29.911417,,,,,,,,,,,SCT,1600,SCT,2600,,,,,VFR,,,,,,,,,,,,METAR,62.0
GMMB 291500Z 30009KT 260V340 9999 FEW020 BKN200 23/15 Q1015 NOSIG,GMMB,2017-04-29T15:00:00Z,33.65,-7.22,23.0,15.0,300,9,,6.21,29.970472,,,,,,TRUE,,,,,FEW,2000,BKN,20000,,,,,VFR,,,,,,,,,,,,METAR,191.0
GMFO 291500Z 33011KT 9999 BKN026 FEW033CB 23/12 Q1013 NOSIG,GMFO,2017-04-29T15:00:00Z,34.77,-1.92,23.0,12.0,330,11,,6.21,29.911417,,,,,,TRUE,,,,,BKN,2600,FEW,3300,,,,,MVFR,,,,,,,,,,,,METAR,470.0
GMFM 291500Z 26003KT 8000 TS FEW013 BKN020 FEW026CB 18/14 Q1015 TEMPO SHRA,GMFM,2017-04-29T15:00:00Z,33.87,-5.52,18.0,14.0,260,3,,4.97,29.970472,,,,,,,,,,TS,FEW,1300,BKN,2000,FEW,2600,,,MVFR,,,,,,,,,,,,METAR,549.0
GMFK 291500Z 26015KT 220V290 9999 FEW026 BKN200 27/M05 Q1013 NOSIG,GMFK,2017-04-29T15:00:00Z,31.95,-4.4,27.0,-5.0,260,15,,6.21,29.911417,,,,,,TRUE,,,,,FEW,2600,BKN,20000,,,,,VFR,,,,,,,,,,,,METAR,1045.0
GMAT 291500Z 32018KT 9999 FEW013 SCT200 24/14 Q1014 NOSIG,GMAT,2017-04-29T15:00:00Z,28.43,-11.15,24.0,14.0,320,18,,6.21,29.940945,,,,,,TRUE,,,,,FEW,1300,SCT,20000,,,,,VFR,,,,,,,,,,,,METAR,200.0
SBRB 291500Z 16007KT 9999 FEW025 26/18 Q1017,SBRB,2017-04-29T15:00:00Z,-10.0,-67.78,26.0,18.0,160,7,,6.21,30.029528,,,,,,,,,,,FEW,2500,,,,,,,VFR,,,,,,,,,,,,METAR,143.0
MGTU 291500Z 00000KT 9000 SKC 30/25 HZ,MGTU,2017-04-29T15:00:00Z,,,30.0,25.0,0,0,,5.59,,,,,,,,,,,HZ,SKC,,,,,,,,VFR,,,,,,,,,,,,METAR,
MGMT 291500Z 00000KT CAVOK 34/22 QFE1009.1,MGMT,2017-04-29T15:00:00Z,,,34.0,22.0,0,0,,6.21,,,,,,,,,,,,CAVOK,,,,,,,,VFR,,,,,,,,,,,,METAR,
MGES 291500Z 00000KT 8000 SCT018 SCT200 27/20 QFE909.0 FEW090 HZ,MGES,2017-04-29T15:00:00Z,14.57,-89.32,27.0,20.0,0,0,,4.97,,,,,,,,,,,HZ,SCT,1800,SCT,20000,FEW,9000,,,MVFR,,,,,,,,,,,,METAR,965.0
MGZA 291500Z 00000KT 9999 FEW028 34/20 QFE985/6 FEW200,MGZA,2017-04-29T15:00:00Z,14.97,-89.52,34.0,20.0,0,0,,6.21,,,,,,,,,,,,FEW,2800,FEW,20000,,,,,VFR,,,,,,,,,,,,METAR,490.0
MGCB 291500Z 21006KT CAVOK 27/16 QFE869.7,MGCB,2017-04-29T15:00:00Z,15.48,-90.42,27.0,16.0,210,6,,6.21,,,,,,,,,,,,CAVOK,,,,,,,,VFR,,,,,,,,,,,,METAR,1316.0
MGQZ 291500Z 00000KT 8000 SKC 18/12 QFE774/0 HZ,MGQZ,2017-04-29T15:00:00Z,14.87,-91.5,18.0,12.0,0,0,,4.97,,,,,,,,,,,HZ,SKC,,,,,,,,MVFR,,,,,,,,,,,,METAR,2371.0
MGRT 291500Z 00000KT CAVOK 31/22 Q1014 A2994 VOL. STA. MARIA Y SANTIAGUITO EN ACTIVIDAD,MGRT,2017-04-29T15:00:00Z,14.53,-91.7,31.0,22.0,0,0,,6.21,29.940945,,,,,,,,,,SA,CAVOK,,,,,,,,VFR,,,,,,,,,,,,METAR,200.0
MGSJ 291500Z 32006KT 7000 SKC 32/24 Q1011 A2985 HZ,MGSJ,2017-04-29T15:00:00Z,13.92,-90.83,32.0,24.0,320,6,,4.35,29.852362,,,,,,,,,,HZ,SKC,,,,,,,,MVFR,,,,,,,,,,,,METAR,9.0
MGPB 291500Z 15006KT 6000 SCT200 32/27 Q1010 A2983 HZ,MGPB,2017-04-29T15:00:00Z,15.72,-88.58,32.0,27.0,150,6,,3.73,29.822834,,,,,,,,,,HZ,SCT,20000,,,,,,,MVFR,,,,,,,,,,,,METAR,10.0
MGHT 291500Z 00000KT 8000 SKC 21/15 QFE818.5 HZ,MGHT,2017-04-29T15:00:00Z,15.32,-91.5,21.0,15.0,0,0,,4.97,,,,,,,,,,,HZ,SKC,,,,,,,,MVFR,,,,,,,,,,,,METAR,1901.0
MGMM 291500Z 09006KT CAVOK 31/26 Q1010 A2983 SCT200,MGMM,2017-04-29T15:00:00Z,16.97,-89.87,31.0,26.0,90,6,,6.21,29.822834,,,,,,,,,,,SCT,20000,,,,,,,VFR,,,,,,,,,,,,METAR,123.0
GMFF 291500Z 00000KT 9999 TS BKN033 FEW040CB 16/15 Q1015 TEMPO TSRA,GMFF,2017-04-29T15:00:00Z,33.92,-4.97,16.0,15.0,0,0,,6.21,29.970472,,,,,,,,,,TS,BKN,3300,FEW,4000,,,,,VFR,,,,,,,,,,,,METAR,579.0
UKLU 291500Z 00000MPS 9999 OVC027 11/05 Q1016 R10/290160 NOSIG,UKLU,2017-04-29T15:00:00Z,48.63,22.27,11.0,5.0,0,0,,6.21,30.0,,,,,,TRUE,,,,,OVC,2700,,,,,,,MVFR,,,,,,,,,,,,METAR,117.0
UKON 291500Z 24004MPS 200V300 CAVOK 21/04 Q1015 NOSIG,UKON,2017-04-29T15:00:00Z,47.05,31.92,21.0,4.0,240,8,,6.21,29.970472,,,,,,TRUE,,,,,CAVOK,,,,,,,,VFR,,,,,,,,,,,,METAR,56.0
UKLR 291500Z 29003MPS 9999 -SHRA SCT022 SCT022CB OVC100 08/06 Q1016 R29/090070 NOSIG,UKLR,2017-04-29T15:00:00Z,50.6,26.13,8.0,6.0,290,6,,6.21,30.0,,,,,,TRUE,,,,-SHRA,SCT,2200,SCT,2200,OVC,10000,,,VFR,,,,,,,,,,,,METAR,230.0
MKJS 291500Z 07010KT 9999 FEW022 FEW024CB 30/25 Q1015,MKJS,2017-04-29T15:00:00Z,18.5,-77.92,30.0,25.0,70,10,,6.21,29.970472,,,,,,,,,,,FEW,2200,FEW,2400,,,,,VFR,,,,,,,,,,,,METAR,1.0
UTAT 291500Z 06006KT CAVOK 23/M01 Q1026 R08/CLRD70 NOSIG,UTAT,2017-04-29T15:00:00Z,41.77,59.83,23.0,-1.0,60,6,,6.21,30.295275,,,,,,TRUE,,,,,CAVOK,,,,,,,,VFR,,,,,,,,,,,,METAR,83.0
UTAK 291500Z 32008KT CAVOK 17/07 Q1019 R16R/CLRD70 NOSIG,UTAK,2017-04-29T15:00:00Z,40.05,53.0,17.0,7.0,320,8,,6.21,30.088583,,,,,,TRUE,,,,,CAVOK,,,,,,,,VFR,,,,,,,,,,,,METAR,85.0
UTAA 291500Z 10015KT 9999 SCT100 BKN233 21/M03 Q1022 R88/CLRD70 NOSIG,UTAA,2017-04-29T15:00:00Z,37.98,58.37,21.0,-3.0,100,15,,6.21,30.177166,,,,,,TRUE,,,,,SCT,10000,BKN,23300,,,,,VFR,,,,,,,,,,,,METAR,210.0
WSAP 291500Z 36001KT 9999 FEW018 BKN300 28/25 Q1011,WSAP,2017-04-29T15:00:00Z,1.37,103.92,28.0,25.0,360,1,,6.21,29.852362,,,,,,,,,,,FEW,1800,BKN,30000,,,,,VFR,,,,,,,,,,,,METAR,32.0
VOBG 291500Z 12004KT 5000 -TSRA SCT015 SCT020 FEW025CB 22/19 Q1017,VOBG,2017-04-29T15:00:00Z,12.95,77.63,22.0,19.0,120,4,,3.11,30.029528,,,,,,,,,,-TSRA,SCT,1500,SCT,2000,FEW,2500,,,MVFR,,,,,,,,,,,,METAR,897.0
NCPY 291500Z AUTO 02006KT //// ////// 27/25 Q1009,NCPY,2017-04-29T15:00:00Z,-9.02,-158.07,27.0,25.0,20,6,,,29.793306,,,TRUE,,,,,,,,,,,,,,,,,,,,,,,,,,,,METAR,2.0
NCMH 291500Z AUTO NIL,NCMH,2017-04-29T15:00:00Z,-10.38,-161.0,,,,,,,,,,TRUE,,,,,,,,,,,,,,,,,,,,,,,,,,,,METAR,0.0
NCRG 291500Z 35013KT 9999 -DZ SCT012 BKN040 OVC090 26/25 Q1007,NCRG,2017-04-29T15:00:00Z,-21.2,-159.82,26.0,25.0,350,13,,6.21,29.734253,,,,,,,,,,-DZ,SCT,1200,BKN,4000,OVC,9000,,,VFR,,,,,,,,,,,,METAR,7.0
TLPC 291500Z 11012KT 9999 BKN028 29/23 Q1017 NOSIG,TLPC,2017-04-29T15:00:00Z,14.02,-61.0,29.0,23.0,110,12,,6.21,30.029528,,,,,,TRUE,,,,,BKN,2800,,,,,,,MVFR,,,,,,,,,,,,METAR,2.0
KVRB 291500Z 12015KT 10SM FEW024 29/21 A3018 RMK AO2 T02890211,KVRB,2017-04-29T15:00:00Z,27.65,-80.42,28.9,21.1,120,15,,10.0,30.180119,,,,TRUE,,,,,,,FEW,2400,,,,,,,VFR,,,,,,,,,,,,METAR,10.0
KPIE 291500Z 13017G24KT 10SM FEW024 BKN030 29/21 A3012 RMK AO2 T02940206,KPIE,2017-04-29T15:00:00Z,27.92,-82.68,29.4,20.6,130,17,24,10.0,30.121063,,,,TRUE,,,,,,,FEW,2400,BKN,3000,,,,,MVFR,,,,,,,,,,,,METAR,4.0
KLAW 291500Z 01020G25KT 4SM -RA BR FEW009 OVC018 09/09 A2964 RMK AO2 LTG DSNT N AND NW P0000 T00940089,KLAW,2017-04-29T15:00:00Z,34.55,-98.42,9.4,8.9,10,20,25,4.0,29.639763,,,,TRUE,,,,,,-RA BR,FEW,900,OVC,1800,,,,,MVFR,,,,,,0.005,,,,,,METAR,337.0
KHAO 291500Z AUTO 10005KT 9SM -RA FEW016 BKN040 OVC085 18/17 A3010 RMK AO2 LTG DSNT E AND SE TSE1454 P0000 T01780172,KHAO,2017-04-29T15:00:00Z,39.37,-84.52,17.8,17.2,100,5,,9.0,30.100393,,,TRUE,TRUE,,,,,,-RA,FEW,1600,BKN,4000,OVC,8500,,,VFR,,,,,,0.005,,,,,,METAR,188.0
KBVO 291500Z AUTO 02015G24KT 10SM OVC010 11/09 A2968 RMK AO2 CIG 007V013 T01060094 TSNO,KBVO,2017-04-29T15:00:00Z,36.77,-96.02,10.6,9.4,20,15,24,10.0,29.681103,,,TRUE,TRUE,,,TRUE,,,,OVC,1000,,,,,,,MVFR,,,,,,,,,,,,METAR,210.0
TAPA 291500Z 08012KT 9999 SCT020 28/22 Q1018 NOSIG,TAPA,2017-04-29T15:00:00Z,17.12,-61.78,28.0,22.0,80,12,,6.21,30.059055,,,,,,TRUE,,,,,SCT,2000,,,,,,,VFR,,,,,,,,,,,,METAR,14.0
KNEL 291500Z AUTO 25011KT 10SM CLR A3000 RMK AO2 SLPNO 60005 51034 $,KNEL,2017-04-29T15:00:00Z,40.02,-74.33,,,250,11,,10.0,30.0,,,TRUE,TRUE,TRUE,,,,,,CLR,,,,,,,,VFR,3.4,,,,,,0.05,,,,,SPECI,31.0
SESA 291500Z 24004KT 9999 BKN040 26/23 Q1012,SESA,2017-04-29T15:00:00Z,-2.2,-80.97,26.0,23.0,240,4,,6.21,29.88189,,,,,,,,,,,BKN,4000,,,,,,,VFR,,,,,,,,,,,,METAR,8.0
SBMQ 291500Z 03005KT 9999 SCT017 FEW023TCU BKN100 33/25 Q1013,SBMQ,2017-04-29T15:00:00Z,0.05,-51.07,33.0,25.0,30,5,,6.21,29.911417,,,,,,,,,,,SCT,1700,FEW,2300,BKN,10000,,,VFR,,,,,,,,,,,,METAR,15.0
SBPB 291500Z 12006KT 9999 SCT017 32/25 Q1011,SBPB,2017-04-29T15:00:00Z,-2.92,-41.75,32.0,25.0,120,6,,6.21,29.852362,,,,,,,,,,,SCT,1700,,,,,,,VFR,,,,,,,,,,,,METAR,5.0
WSSL 291500Z VRB01KT 9999 FEW025 BKN300 27/25 Q1011 RMK 1430Z Q1011,WSSL,2017-04-29T15:00:00Z,1.42,103.87,27.0,25.0,0,1,,6.21,29.852362,,,,,,,,,,,FEW,2500,BKN,30000,,,,,VFR,,,,,,,,,,,,METAR,14.0
GQPP 291500Z 32015KT 290V350 8000 NSC 24/17 Q1015 NOSIG,GQPP,2017-04-29T15:00:00Z,20.92,-17.02,24.0,17.0,320,15,,4.97,29.970472,,,,,,TRUE,,,,,CLR,,,,,,,,MVFR,,,,,,,,,,,,METAR,3.0
SBSN 291500Z 06002KT 9999 SCT015 BKN100 28/24 Q1015,SBSN,2017-04-29T15:00:00Z,-2.42,-54.78,28.0,24.0,60,2,,6.21,29.970472,,,,,,,,,,,SCT,1500,BKN,10000,,,,,VFR,,,,,,,,,,,,METAR,72.0
SBPL 291500Z 17014KT 9999 SCT035 30/18 Q1015,SBPL,2017-04-29T15:00:00Z,-9.37,-40.57,30.0,18.0,170,14,,6.21,29.970472,,,,,,,,,,,SCT,3500,,,,,,,VFR,,,,,,,,,,,,METAR,375.0
SETN 291500Z 24004KT 190V330 9999 FEW023 29/25 Q1011 A2986,SETN,2017-04-29T15:00:00Z,0.98,-79.63,29.0,25.0,240,4,,6.21,29.852362,,,,,,,,,,,FEW,2300,,,,,,,VFR,,,,,,,,,,,,METAR,10.0
SERB 291500Z 00000KT 9999 BKN023 14/12 Q1031,SERB,2017-04-29T15:00:00Z,-1.62,-78.67,14.0,12.0,0,0,,6.21,30.442913,,,,,,,,,,,BKN,2300,,,,,,,MVFR,,,,,,,,,,,,METAR,2796.0
SBCY 291500Z 22004KT CAVOK 28/18 Q1017,SBCY,2017-04-29T15:00:00Z,-15.65,-56.12,28.0,18.0,220,4,,6.21,30.029528,,,,,,,,,,,CAVOK,,,,,,,,VFR,,,,,,,,,,,,METAR,182.0
SBFI 291500Z 09004KT CAVOK 20/13 Q1023,SBFI,2017-04-29T15:00:00Z,-25.6,-54.48,20.0,13.0,90,4,,6.21,30.206694,,,,,,,,,,,CAVOK,,,,,,,,VFR,,,,,,,,,,,,METAR,243.0
SUSO 291500Z 04005KT CAVOK 22/11 Q1023,SUSO,2017-04-29T15:00:00Z,-31.43,-57.98,22.0,11.0,40,5,,6.21,30.206694,,,,,,,,,,,CAVOK,,,,,,,,VFR,,,,,,,,,,,,METAR,34.0
SUDU 291500Z 28005KT CAVOK 21/12 Q1022,SUDU,2017-04-29T15:00:00Z,-33.35,-56.5,21.0,12.0,280,5,,6.21,30.177166,,,,,,,,,,,CAVOK,,,,,,,,VFR,,,,,,,,,,,,METAR,93.0
SUCA 291500Z XXXXXKT CAVOK 22/10 Q1020,SUCA,2017-04-29T15:00:00Z,-34.45,-57.77,22.0,10.0,,,,6.21,30.11811,,,,,,,,,,,CAVOK,,,,,,,,VFR,,,,,,,,,,,,METAR,23.0
SULS 291500Z 31006KT CAVOK 22/13 Q1021,SULS,2017-04-29T15:00:00Z,-34.87,-55.1,22.0,13.0,310,6,,6.21,30.147638,,,,,,,,,,,CAVOK,,,,,,,,VFR,,,,,,,,,,,,METAR,30.0
SUAA 291500Z 30008KT CAVOK 21/13 Q1022,SUAA,2017-04-29T15:00:00Z,-34.77,-56.25,21.0,13.0,300,8,,6.21,30.177166,,,,,,,,,,,CAVOK,,,,,,,,VFR,,,,,,,,,,,,METAR,54.0
SVBM 291500Z 11016KT 9999 SCT016 BKN300 28/18 Q1017,SVBM,2017-04-29T15:00:00Z,10.05,-69.37,28.0,18.0,110,16,,6.21,30.029528,,,,,,,,,,,SCT,1600,BKN,30000,,,,,VFR,,,,,,,,,,,,METAR,614.0
SBCZ 291500Z 12005KT 9999 OVC012 22/20 Q1018,SBCZ,2017-04-29T15:00:00Z,-7.62,-72.77,22.0,20.0,120,5,,6.21,30.059055,,,,,,,,,,,OVC,1200,,,,,,,MVFR,,,,,,,,,,,,METAR,170.0
KJLN 291500Z COR 36009KT 3/4SM +TSRA BR OVC005 14/14 A2966 RMK AO2 LTG DSNT ALQDS FRQ LTGIC OHD TS OHD MOV NE P0028 T01390139,KJLN,2017-04-29T15:00:00Z,37.15,-94.5,13.9,13.9,360,9,,0.75,29.660433,,TRUE,,TRUE,,,,,,+TSRA BR,OVC,500,,,,,,,LIFR,,,,,,0.28,,,,,,SPECI,299.0
SBCP 291500Z 24008KT 9999 FEW020 OVC090 24/20 Q1021,SBCP,2017-04-29T15:00:00Z,-21.7,-41.3,24.0,20.0,240,8,,6.21,30.147638,,,,,,,,,,,FEW,2000,OVC,9000,,,,,VFR,,,,,,,,,,,,METAR,11.0
YWHA 291500Z AUTO 27004KT //// // NCD 11/10 Q1023,YWHA,2017-04-29T15:00:00Z,-33.07,137.52,11.0,10.0,270,4,,,30.206694,,,TRUE,,,,,,,,CLR,,,,,,,,,,,,,,,,,,,,METAR,13.0
YWGT 291500Z AUTO 00000KT 9999 // NCD 08/07 Q1022,YWGT,2017-04-29T15:00:00Z,-36.42,146.3,8.0,7.0,0,0,,6.21,30.177166,,,TRUE,,,,,,,,CLR,,,,,,,,VFR,,,,,,,,,,,,METAR,153.0
YTRE 291500Z AUTO 25005KT //// // ////// 12/12 Q1020,YTRE,2017-04-29T15:00:00Z,-31.88,152.52,12.0,12.0,250,5,,,30.11811,,,TRUE,,,,,,,,,,,,,,,,,,,,,,,,,,,,METAR,12.0
YTNK 291500Z AUTO 10007KT 9999 // NCD 17/M02 Q1018,YTNK,2017-04-29T15:00:00Z,-19.63,134.18,17.0,-2.0,100,7,,6.21,30.059055,,,TRUE,,,,,,,,CLR,,,,,,,,VFR,,,,,,,,,,,,METAR,377.0
YTEF 291500Z AUTO 15008KT 9999 // NCD 22/04 Q1017,YTEF,2017-04-29T15:00:00Z,-21.72,122.23,22.0,4.0,150,8,,6.21,30.029528,,,TRUE,,,,,,,,CLR,,,,,,,,VFR,,,,,,,,,,,,METAR,296.0
SBTE 291500Z 17005KT 9999 BKN030 31/26 Q1012,SBTE,2017-04-29T15:00:00Z,-5.03,-42.82,31.0,26.0,170,5,,6.21,29.88189,,,,,,,,,,,BKN,3000,,,,,,,MVFR,,,,,,,,,,,,METAR,69.0
SBJP 291500Z 13012KT 9999 BKN030 30/22 Q1013,SBJP,2017-04-29T15:00:00Z,-7.15,-34.95,30.0,22.0,130,12,,6.21,29.911417,,,,,,,,,,,BKN,3000,,,,,,,MVFR,,,,,,,,,,,,METAR,66.0
OTHH 291500Z 04008KT CAVOK 32/12 Q1008 NOSIG,OTHH,2017-04-29T15:00:00Z,25.25,51.6,32.0,12.0,40,8,,6.21,29.763779,,,,,,TRUE,,,,,CAVOK,,,,,,,,VFR,,,,,,,,,,,,METAR,0.0
OTBD 291500Z 03006KT CAVOK 33/11 Q1008 NOSIG,OTBD,2017-04-29T15:00:00Z,25.25,51.57,33.0,11.0,30,6,,6.21,29.763779,,,,,,TRUE,,,,,CAVOK,,,,,,,,VFR,,,,,,,,,,,,METAR,10.0
FQTT 291500Z 12005KT 9999 FEW020 29/14 Q1018,FQTT,2017-04-29T15:00:00Z,-16.1,33.62,29.0,14.0,120,5,,6.21,30.059055,,,,,,,,,,,FEW,2000,,,,,,,VFR,,,,,,,,,,,,METAR,160.0
OMSJ 291500Z 35005KT CAVOK 32/20 Q1009,OMSJ,2017-04-29T15:00:00Z,25.32,55.52,32.0,20.0,350,5,,6.21,29.793306,,,,,,,,,,,CAVOK,,,,,,,,VFR,,,,,,,,,,,,METAR,33.0
OMRK 291500Z 34006KT CAVOK 32/14 Q1009 A2980,OMRK,2017-04-29T15:00:00Z,25.62,55.92,32.0,14.0,340,6,,6.21,29.793306,,,,,,,,,,,CAVOK,,,,,,,,VFR,,,,,,,,,,,,METAR,31.0
OMFJ 291500Z 10004KT 7000 NSC 33/22 Q1008 A2979,OMFJ,2017-04-29T15:00:00Z,25.1,56.32,33.0,22.0,100,4,,4.35,29.763779,,,,,,,,,,,CLR,,,,,,,,MVFR,,,,,,,,,,,,METAR,28.0
OMDW 291500Z 33010KT 8000 NSC 32/18 Q1009 NOSIG,OMDW,2017-04-29T15:00:00Z,24.9,55.17,32.0,18.0,330,10,,4.97,29.793306,,,,,,TRUE,,,,,CLR,,,,,,,,MVFR,,,,,,,,,,,,METAR,25.0
OMDB 291500Z 35009KT 320V030 CAVOK 32/20 Q1008 NOSIG,OMDB,2017-04-29T15:00:00Z,25.25,55.37,32.0,20.0,350,9,,6.21,29.763779,,,,,,TRUE,,,,,CAVOK,,,,,,,,VFR,,,,,,,,,,,,METAR,5.0
OMAD 291500Z 35007KT 320V020 CAVOK 32/21 Q1007 NOSIG,OMAD,2017-04-29T15:00:00Z,24.42,54.47,32.0,21.0,350,7,,6.21,29.734253,,,,,,TRUE,,,,,CAVOK,,,,,,,,VFR,,,,,,,,,,,,METAR,3.0
OMAA 291500Z 34010KT 8000 NSC 33/16 Q1007 NOSIG,OMAA,2017-04-29T15:00:00Z,24.42,54.63,33.0,16.0,340,10,,4.97,29.734253,,,,,,TRUE,,,,,CLR,,,,,,,,MVFR,,,,,,,,,,,,METAR,27.0
YCCY 291500Z AUTO 14007KT //// // ////// 15/M03 Q1016,YCCY,2017-04-29T15:00:00Z,-20.67,140.5,15.0,-3.0,140,7,,,30.0,,,TRUE,,,,,,,,,,,,,,,,,,,,,,,,,,,,METAR,570.0
YCBP 291500Z AUTO 09006KT 9999 // NCD 14/07 Q1022 PRESENT WEATHER SENSOR US,YCBP,2017-04-29T15:00:00Z,-29.03,134.72,14.0,7.0,90,6,,6.21,30.177166,,,TRUE,,,,,,,,CLR,,,,,,,,VFR,,,,,,,,,,,,METAR,226.0
YCBB 291500Z AUTO 22006KT //// // ////// 09/07 Q1021,YCBB,2017-04-29T15:00:00Z,-31.33,149.27,9.0,7.0,220,6,,,30.147638,,,TRUE,,,,,,,,,,,,,,,,,,,,,,,,,,,,METAR,645.0
YCBA 291500Z AUTO 00000KT 9999 // NCD 07/06 Q1023,YCBA,2017-04-29T15:00:00Z,-31.53,145.8,7.0,6.0,0,0,,6.21,30.206694,,,TRUE,,,,,,,,CLR,,,,,,,,VFR,,,,,,,,,,,,METAR,221.0
YCAS 291500Z AUTO 29004KT //// // ////// 12/11 Q1019,YCAS,2017-04-29T15:00:00Z,-28.88,153.07,12.0,11.0,290,4,,,30.088583,,,TRUE,,,,,,,,,,,,,,,,,,,,,,,,,,,,METAR,26.0
YCAR 291500Z AUTO 18008KT 9999 // NCD 21/16 Q1016,YCAR,2017-04-29T15:00:00Z,-24.88,113.67,21.0,16.0,180,8,,6.21,30.0,,,TRUE,,,,,,,,CLR,,,,,,,,VFR,,,,,,,,,,,,METAR,8.0
YBWX 291500Z AUTO 35004KT //// // ////// 24/19 Q1016,YBWX,2017-04-29T15:00:00Z,-20.88,115.4,24.0,19.0,350,4,,,30.0,,,TRUE,,,,,,,,,,,,,,,,,,,,,,,,,,,,METAR,6.0
YBWP 291500Z AUTO 12001KT 9999 // NCD 23/20 Q1013,YBWP,2017-04-29T15:00:00Z,-12.68,141.92,23.0,20.0,120,1,,6.21,29.911417,,,TRUE,,,,,,,,CLR,,,,,,,,VFR,,,,,,,,,,,,METAR,12.0
YBUD 291500Z AUTO 19006KT 9999 // NCD 16/14 Q1017,YBUD,2017-04-29T15:00:00Z,-24.9,152.32,16.0,14.0,190,6,,6.21,30.029528,,,TRUE,,,,,,,,CLR,,,,,,,,VFR,,,,,,,,,,,,METAR,82.0
SBRJ 291500Z 33005KT 9999 FEW012 SCT025 BKN070 23/18 Q1022,SBRJ,2017-04-29T15:00:00Z,-22.88,-43.17,23.0,18.0,330,5,,6.21,30.177166,,,,,,,,,,,FEW,1200,SCT,2500,BKN,7000,,,VFR,,,,,,,,,,,,METAR,3.0
YMAY 291500Z AUTO 00000KT 9999 // NCD 08/08 Q1022,YMAY,2017-04-29T15:00:00Z,-36.07,146.93,8.0,8.0,0,0,,6.21,30.177166,,,TRUE,,,,,,,,CLR,,,,,,,,VFR,,,,,,,,,,,,METAR,171.0
SKPE 291500Z 30004KT 9999 SCT016TCU 25/19 A3009 RMK TCU/E,SKPE,2017-04-29T15:00:00Z,4.82,-75.73,25.0,19.0,300,4,,6.21,30.088583,,,,,,,,,,,SCT,1600,,,,,,,VFR,,,,,,,,,,,,METAR,1346.0
SKBG 291500Z 04004KT 9999 SCT015 27/20 A3003,SKBG,2017-04-29T15:00:00Z,7.13,-73.18,27.0,20.0,40,4,,6.21,30.029528,,,,,,,,,,,SCT,1500,,,,,,,VFR,,,,,,,,,,,,METAR,1189.0
SKSP 291500Z 07012KT 040V100 9999 FEW017 SCT200 30/24 A2992 REDZ,SKSP,2017-04-29T15:00:00Z,12.57,-81.72,30.0,24.0,70,12,,6.21,29.920275,,,,,,,,,,,FEW,1700,SCT,20000,,,,,VFR,,,,,,,,,,,,METAR,-2.0
SKRG 291500Z 14006KT 9999 FEW015 BKN200 20/13 A3032,SKRG,2017-04-29T15:00:00Z,6.17,-75.42,20.0,13.0,140,6,,6.21,30.318897,,,,,,,,,,,FEW,1500,BKN,20000,,,,,VFR,,,,,,,,,,,,METAR,2137.0
SKLT 291500Z 19005KT 9999 BKN012 BKN080 24/22 A3003 RMK AD OPER IMC,SKLT,2017-04-29T15:00:00Z,-4.2,-69.93,24.0,22.0,190,5,,6.21,30.029528,,,,,,,,,,,BKN,1200,BKN,8000,,,,,MVFR,,,,,,,,,,,,METAR,84.0
SKCC 291500Z 14014KT 9999 SCT020 BKN090 30/20 A2992,SKCC,2017-04-29T15:00:00Z,7.92,-72.52,30.0,20.0,140,14,,6.21,29.920275,,,,,,,,,,,SCT,2000,BKN,9000,,,,,VFR,,,,,,,,,,,,METAR,317.0
SKCG 291500Z 310007KT 9999 FEW025 33/27 A2981,SKCG,2017-04-29T15:00:00Z,10.43,-75.52,33.0,27.0,310,7,,6.21,29.811024,,,,,,,,,,,FEW,2500,,,,,,,VFR,,,,,,,,,,,,METAR,1.0
SKCL 291500Z 31003KT 9000 FEW040 BKN100 27/23 A3002 RMK / HZ,SKCL,2017-04-29T15:00:00Z,3.53,-76.37,27.0,23.0,310,3,,5.59,30.02067,,,,,,,,,,,FEW,4000,BKN,10000,,,,,VFR,,,,,,,,,,,,METAR,969.0
SKBO 291500Z 09004KT 9999 VCSH BKN020 SCT070 17/10 A3038 RMKVCSH/E/SE,SKBO,2017-04-29T15:00:00Z,4.7,-74.12,17.0,10.0,90,4,,6.21,30.380905,,,,,,,,,,VCSH,BKN,2000,SCT,7000,,,,,MVFR,,,,,,,,,,,,METAR,2548.0
SBCT 291500Z 09007KT 9999 BKN027 16/09 Q1026,SBCT,2017-04-29T15:00:00Z,-25.52,-49.17,16.0,9.0,90,7,,6.21,30.295275,,,,,,,,,,,BKN,2700,,,,,,,MVFR,,,,,,,,,,,,METAR,908.0
SMZO 291500Z 06010KT 9999 VCSH SCT010 FEW018CB SCT020 26/23 Q1014 TEMPO TL1520 4000 SHRA,SMZO,2017-04-29T15:00:00Z,5.82,-55.18,26.0,23.0,60,10,,6.21,29.940945,,,,,,,,,,VCSH,SCT,1000,FEW,1800,SCT,2000,,,VFR,,,,,,,,,,,,METAR,10.0
SMJP 291500Z 04006KT 6000 -SHRA SCT012 FEW015CB BKN025 26/25 Q1015 NOSIG,SMJP,2017-04-29T15:00:00Z,5.45,-55.17,26.0,25.0,40,6,,3.73,29.970472,,,,,,TRUE,,,,-SHRA,SCT,1200,FEW,1500,BKN,2500,,,MVFR,,,,,,,,,,,,METAR,16.0
NFTF 291500Z 00000KT 9999 FEW016 22/17 Q1013,NFTF,2017-04-29T15:00:00Z,-21.23,-175.15,22.0,17.0,0,0,,6.21,29.911417,,,,,,,,,,,FEW,1600,,,,,,,VFR,,,,,,,,,,,,METAR,38.0
NFTV 291500Z 00000KT 9999 FEW017 25/20 Q1011,NFTV,2017-04-29T15:00:00Z,-18.58,-173.97,25.0,20.0,0,0,,6.21,29.852362,,,,,,,,,,,FEW,1700,,,,,,,VFR,,,,,,,,,,,,METAR,71.0
SPYL 291500Z 13011KT CAVOK 28/20 Q1012 RMK BIRD HAZARD RWY 17/35 PP000,SPYL,2017-04-29T15:00:00Z,-4.57,-81.25,28.0,20.0,130,11,,6.21,29.88189,,,,,,,,,,,CAVOK,,,,,,,,VFR,,,,,,,,,,,,METAR,90.0
SPTU 291500Z /////KT 9999 SCT030 25/18 Q1017 RMK BIRD HAZARD RWY 01/19 PP000,SPTU,2017-04-29T15:00:00Z,-12.62,-69.2,25.0,18.0,,,,6.21,30.029528,,,,,,,,,,,SCT,3000,,,,,,,VFR,,,,,,,,,,,,METAR,266.0
SPST 291500Z 10003KT 9999 SCT020 BKN080 26/22 Q1017 RMK BIRD HAZARD RWY 17/35 PP000,SPST,2017-04-29T15:00:00Z,-6.52,-76.37,26.0,22.0,100,3,,6.21,30.029528,,,,,,,,,,,SCT,2000,BKN,8000,,,,,VFR,,,,,,,,,,,,METAR,282.0
SPMS 291500Z 14004KT 9999 SCT014 SCT100 25/22 Q1020 RMK BIRD HAZARD RWY 09/27 PP000,SPMS,2017-04-29T15:00:00Z,-5.9,-76.12,25.0,22.0,140,4,,6.21,30.11811,,,,,,,,,,,SCT,1400,SCT,10000,,,,,VFR,,,,,,,,,,,,METAR,179.0
SPME 291500Z /////KT 9999 SCT015 30/22 Q1011 RMK BIRD HAZARD RWY 32/14 PP000,SPME,2017-04-29T15:00:00Z,-3.53,-80.4,30.0,22.0,,,,6.21,29.852362,,,,,,,,,,,SCT,1500,,,,,,,VFR,,,,,,,,,,,,METAR,27.0
SPLO 291500Z 16009KT CAVOK 22/17 Q1014 RMK PP000,SPLO,2017-04-29T15:00:00Z,-17.7,-71.35,22.0,17.0,160,9,,6.21,29.940945,,,,,,,,,,,CAVOK,,,,,,,,VFR,,,,,,,,,,,,METAR,9.0
SPJL 291500Z VRB01KT 9999 SCT010 SCT080 10/05 Q1039 RMK PP000,SPJL,2017-04-29T15:00:00Z,-15.47,-70.15,10.0,5.0,0,1,,6.21,30.679134,,,,,,,,,,,SCT,1000,SCT,8000,,,,,VFR,,,,,,,,,,,,METAR,3827.0
SPJI 291500Z 00000KT 9999 0VC020 26/23 Q1026 RMK PP000,SPJI,2017-04-29T15:00:00Z,-7.17,-76.72,26.0,23.0,0,0,,6.21,30.295275,,,,,,,,,,,,,,,,,,,,,,,,,,,,,,,METAR,363.0
SPHY 291500Z /////KT 6000 -DZ BCFG BKN012 OVC050 06/05 Q1035 RMK BIRD HAZARD RWY03/21 PPTRZ,SPHY,2017-04-29T15:00:00Z,-13.7,-73.35,6.0,5.0,,,,3.73,30.561024,,,,,,,,,,BCFG -DZ,BKN,1200,OVC,5000,,,,,MVFR,,,,,,,,,,,,METAR,3548.0
SPHO 291500Z VRB02KT 9000 BCFG SCT012 BKN090 14/12 Q1033 RMK PP000,SPHO,2017-04-29T15:00:00Z,-13.17,-74.22,14.0,12.0,0,2,,5.59,30.501968,,,,,,,,,,BCFG,SCT,1200,BKN,9000,,,,,VFR,,,,,,,,,,,,METAR,2749.0
SPGM 291500Z /////KT 9999 SCT040 27/20 Q1019 RMK BIRD HAZARD RWY19 PP000,SPGM,2017-04-29T15:00:00Z,-9.28,-76.0,27.0,20.0,,,,6.21,30.088583,,,,,,,,,,,SCT,4000,,,,,,,VFR,,,,,,,,,,,,METAR,665.0
SPCL 291500Z 12006KT 9999 SCT018 BKN070 24/19 Q1019 RMK PP000,SPCL,2017-04-29T15:00:00Z,-8.38,-74.58,24.0,19.0,120,6,,6.21,30.088583,,,,,,,,,,,SCT,1800,BKN,7000,,,,,VFR,,,,,,,,,,,,METAR,149.0
SBRP 291500Z 12008KT 9999 SCT030 26/19 Q1019,SBRP,2017-04-29T15:00:00Z,-21.12,-47.77,26.0,19.0,120,8,,6.21,30.088583,,,,,,,,,,,SCT,3000,,,,,,,VFR,,,,,,,,,,,,METAR,549.0
SEAM 291500Z 00000KT 9999 SCT012 BKN100 14/12 Q1030,SEAM,2017-04-29T15:00:00Z,-1.18,-78.57,14.0,12.0,0,0,,6.21,30.413385,,,,,,,,,,,SCT,1200,BKN,10000,,,,,VFR,,,,,,,,,,,,METAR,2520.0
SBUG 291500Z 08006KT CAVOK 21/09 Q1024,SBUG,2017-04-29T15:00:00Z,-29.77,-57.02,21.0,9.0,80,6,,6.21,30.236221,,,,,,,,,,,CAVOK,,,,,,,,VFR,,,,,,,,,,,,METAR,74.0
SKBQ 291500Z VRB02KT CAVOK 33/25 A2982,SKBQ,2017-04-29T15:00:00Z,10.9,-74.77,33.0,25.0,0,2,,6.21,29.819881,,,,,,,,,,,CAVOK,,,,,,,,VFR,,,,,,,,,,,,METAR,10.0
SBPA 291500Z 29004KT 210V320 CAVOK 19/11 Q1025,SBPA,2017-04-29T15:00:00Z,-30.0,-51.17,19.0,11.0,290,4,,6.21,30.265747,,,,,,,,,,,CAVOK,,,,,,,,VFR,,,,,,,,,,,,METAR,3.0
SCCH 291500Z 21009KT CAVOK 15/10 Q1017,SCCH,2017-04-29T15:00:00Z,-36.57,-72.02,15.0,10.0,210,9,,6.21,30.029528,,,,,,,,,,,CAVOK,,,,,,,,VFR,,,,,,,,,,,,METAR,148.0
SCTN 291500Z 36014KT 1500 +DZ FEW005 OVC015 12/12 Q1017,SCTN,2017-04-29T15:00:00Z,-42.92,-72.7,12.0,12.0,360,14,,0.93,30.029528,,,,,,,,,,+DZ,FEW,500,OVC,1500,,,,,LIFR,,,,,,,,,,,,METAR,4.0
SCPQ 291500Z 35016KT 3500 -SHRA BR FEW002 OVC007 13/12 Q1016,SCPQ,2017-04-29T15:00:00Z,-42.33,-73.72,13.0,12.0,350,16,,2.17,30.0,,,,,,,,,,-SHRA BR,FEW,200,OVC,700,,,,,IFR,,,,,,,,,,,,METAR,5.0
SCIP 291500Z 22007KT 180V280 9999 SCT017 BKN030 21/17 Q1011 NOSIG,SCIP,2017-04-29T15:00:00Z,-27.17,-109.43,21.0,17.0,220,7,,6.21,29.852362,,,,,,TRUE,,,,,SCT,1700,BKN,3000,,,,,MVFR,,,,,,,,,,,,METAR,69.0
SCEL 291500Z 02003KT 340V110 CAVOK 19/01 Q1016 NOSIG,SCEL,2017-04-29T15:00:00Z,-33.37,-70.77,19.0,1.0,20,3,,6.21,30.0,,,,,,TRUE,,,,,CAVOK,,,,,,,,VFR,,,,,,,,,,,,METAR,476.0
SCCI 291500Z 27015KT 9999 FEW030 08/02 Q0994 NOSIG,SCCI,2017-04-29T15:00:00Z,-53.0,-70.83,8.0,2.0,270,15,,6.21,29.350393,,,,,,TRUE,,,,,FEW,3000,,,,,,,VFR,,,,,,,,,,,,METAR,37.0
SCTE 291500Z 01013KT 9999 OVC030 14/11 Q1019 NOSIG,SCTE,2017-04-29T15:00:00Z,-41.42,-73.07,14.0,11.0,10,13,,6.21,30.088583,,,,,,TRUE,,,,,OVC,3000,,,,,,,MVFR,,,,,,,,,,,,METAR,86.0
SCQP 291500Z 12005KT 080V150 9999 OVC010 13/12 Q1020,SCQP,2017-04-29T15:00:00Z,-38.92,-72.65,13.0,12.0,120,5,,6.21,30.11811,,,,,,,,,,,OVC,1000,,,,,,,MVFR,,,,,,,,,,,,METAR,97.0
SCJO 291500Z 33004KT 5000 BR BKN009 12/09 Q1020,SCJO,2017-04-29T15:00:00Z,-40.6,-73.03,12.0,9.0,330,4,,3.11,30.11811,,,,,,,,,,BR,BKN,900,,,,,,,IFR,,,,,,,,,,,,METAR,65.0
SCSE 291500Z 28007KT 0100 FG VV000 11/10 Q1015,SCSE,2017-04-29T15:00:00Z,-29.92,-71.2,11.0,10.0,280,7,,0.06,29.970472,,,,,,,,,,FG,OVX,0,,,,,,,LIFR,,,,,,,,,,,0,METAR,146.0
SCDA 291500Z 23008KT CAVOK 20/13 Q1015,SCDA,2017-04-29T15:00:00Z,-20.52,-70.17,20.0,13.0,230,8,,6.21,29.970472,,,,,,,,,,,CAVOK,,,,,,,,VFR,,,,,,,,,,,,METAR,52.0
SCAT 291500Z 35009KT 7000 OVC005 13/11 Q1017,SCAT,2017-04-29T15:00:00Z,-27.27,-70.77,13.0,11.0,350,9,,4.35,30.029528,,,,,,,,,,,OVC,500,,,,,,,IFR,,,,,,,,,,,,METAR,204.0
SCIE 291500Z 20005KT 150V240 CAVOK 15/12 Q1018,SCIE,2017-04-29T15:00:00Z,-36.77,-73.07,15.0,12.0,200,5,,6.21,30.059055,,,,,,,,,,,CAVOK,,,,,,,,VFR,,,,,,,,,,,,METAR,16.0
SCBA 291500Z 29030G43KT 9999 SCT040 14/08 Q1005,SCBA,2017-04-29T15:00:00Z,-45.92,-71.67,14.0,8.0,290,30,43,6.21,29.675198,,,,,,,,,,,SCT,4000,,,,,,,VFR,,,,,,,,,,,,METAR,524.0
SCAR 291500Z 24004KT 9999 OVC023 21/15 Q1014,SCAR,2017-04-29T15:00:00Z,-18.35,-70.32,21.0,15.0,240,4,,6.21,29.940945,,,,,,,,,,,OVC,2300,,,,,,,MVFR,,,,,,,,,,,,METAR,59.0
SCFA 291500Z 21009KT 9999 BKN021 16/12 Q1015 NOSIG,SCFA,2017-04-29T15:00:00Z,-23.42,-70.42,16.0,12.0,210,9,,6.21,29.970472,,,,,,TRUE,,,,,BKN,2100,,,,,,,MVFR,,,,,,,,,,,,METAR,120.0
UBBY 291500Z 14006KT 9999 FEW045CB BKN050 18/10 Q1021 R33/////// NOSIG RMK MT OP,UBBY,2017-04-29T15:00:00Z,41.57,46.67,18.0,10.0,140,6,,6.21,30.147638,,,,,,TRUE,,,,,FEW,4500,BKN,5000,,,,,VFR,,,,,,,,,,,,METAR,390.0
SEMC 291500Z 04004KT 9999 SCT023 BKN100 22/20 Q1020,SEMC,2017-04-29T15:00:00Z,-2.3,-78.12,22.0,20.0,40,4,,6.21,30.11811,,,,,,,,,,,SCT,2300,BKN,10000,,,,,VFR,,,,,,,,,,,,METAR,1052.0
SESM 291500Z 33002KT 9999 SCT040 BKN100 22/19 Q1020 A3014,SESM,2017-04-29T15:00:00Z,-1.5,-78.07,22.0,19.0,330,2,,6.21,30.11811,,,,,,,,,,,SCT,4000,BKN,10000,,,,,VFR,,,,,,,,,,,,METAR,1056.0
SEST 291500Z 13007KT 9999 SCT020 BKN330 28/25 Q1011 A2987,SEST,2017-04-29T15:00:00Z,-0.9,-89.58,28.0,25.0,130,7,,6.21,29.852362,,,,,,,,,,,SCT,2000,BKN,33000,,,,,VFR,,,,,,,,,,,,METAR,6.0
SENL 291500Z 32004KT 9999 FEW013 BKN100 25/22 Q1017,SENL,2017-04-29T15:00:00Z,0.1,-76.87,25.0,22.0,320,4,,6.21,30.029528,,,,,,,,,,,FEW,1300,BKN,10000,,,,,VFR,,,,,,,,,,,,METAR,293.0
SECA 291500Z 01002KT 9999 BKN040 22/18 Q1019,SECA,2017-04-29T15:00:00Z,-4.0,-79.37,22.0,18.0,10,2,,6.21,30.088583,,,,,,,,,,,BKN,4000,,,,,,,VFR,,,,,,,,,,,,METAR,1121.0
SECU 291500Z 01005KT 9999 BKN030 BKN100 17/12 Q1028,SECU,2017-04-29T15:00:00Z,-2.87,-78.97,17.0,12.0,10,5,,6.21,30.35433,,,,,,,,,,,BKN,3000,BKN,10000,,,,,MVFR,,,,,,,,,,,,METAR,2531.0
SERO 291500Z 34003KT 300V030 9999 FEW016 29/27 Q1011,SERO,2017-04-29T15:00:00Z,-3.43,-79.98,29.0,27.0,340,3,,6.21,29.852362,,,,,,,,,,,FEW,1600,,,,,,,VFR,,,,,,,,,,,,METAR,51.0
SEGU 291500Z 13003KT 050V170 9999 FEW023 29/22 Q1011 NOSIG RMK A2986,SEGU,2017-04-29T15:00:00Z,-2.13,-79.87,29.0,22.0,130,3,,6.21,29.852362,,,,,,TRUE,,,,,FEW,2300,,,,,,,VFR,,,,,,,,,,,,METAR,9.0
SELT 291500Z 18015KT 9999 SCT013 BKN023 14/14 Q1031,SELT,2017-04-29T15:00:00Z,-0.92,-78.62,14.0,14.0,180,15,,6.21,30.442913,,,,,,,,,,,SCT,1300,BKN,2300,,,,,MVFR,,,,,,,,,,,,METAR,2785.0
SBAR 291500Z 15014KT 9999 SCT015 SCT070 29/23 Q1014,SBAR,2017-04-29T15:00:00Z,-10.97,-37.07,29.0,23.0,150,14,,6.21,29.940945,,,,,,,,,,,SCT,1500,SCT,7000,,,,,VFR,,,,,,,,,,,,METAR,9.0
SEQM 291500Z 16003KT 080V220 9999 SCT026 SCT300 18/10 Q1027 NOSIG RMK A3032,SEQM,2017-04-29T15:00:00Z,-0.12,-78.35,18.0,10.0,160,3,,6.21,30.324802,,,,,,TRUE,,,,,SCT,2600,SCT,30000,,,,,VFR,,,,,,,,,,,,METAR,2400.0
FQNP 291500Z 19006KT 9999 SCT020 27/18 Q1019,FQNP,2017-04-29T15:00:00Z,-15.08,39.27,27.0,18.0,190,6,,6.21,30.088583,,,,,,,,,,,SCT,2000,,,,,,,VFR,,,,,,,,,,,,METAR,441.0
MYNN 291500Z 08013KT 9999 BKN020TCU 29/22 A3016 RMK TCU OVHD/ALQDS,MYNN,2017-04-29T15:00:00Z,25.03,-77.47,29.0,22.0,80,13,,6.21,30.159449,,,,,,,,,,,BKN,2000,,,,,,,MVFR,,,,,,,,,,,,METAR,3.0
SYCJ 291500Z 13006KT 9000 RA FEW011CB BKN012 BKN070 25/24 Q1015 CB S-W NOSIG,SYCJ,2017-04-29T15:00:00Z,6.5,-58.25,25.0,24.0,130,6,,5.59,29.970472,,,,,,TRUE,,,,RA,FEW,1100,BKN,1200,BKN,7000,,,MVFR,,,,,,,,,,,,METAR,30.0
SPTN 291500Z 21004KT 130V270 9999 BKN040 20/15 Q1016 RMK PP000,SPTN,2017-04-29T15:00:00Z,-18.07,-70.28,20.0,15.0,210,4,,6.21,30.0,,,,,,,,,,,BKN,4000,,,,,,,VFR,,,,,,,,,,,,METAR,458.0
SPSO 291500Z 27003KT 3000 BR SCT004 OVC007 20/19 Q1014 RMK BIRD HAZARD RWY 22 /04 PP000,SPSO,2017-04-29T15:00:00Z,-13.73,-76.22,20.0,19.0,270,3,,1.86,29.940945,,,,,,,,,,BR,SCT,400,OVC,700,,,,,IFR,,,,,,,,,,,,METAR,10.0
SPRU 291500Z 16009KT 8000 SCT150 21/18 Q1013 RMK BR PP000,SPRU,2017-04-29T15:00:00Z,-8.08,-79.12,21.0,18.0,160,9,,4.97,29.911417,,,,,,,,,,,SCT,15000,,,,,,,MVFR,,,,,,,,,,,,METAR,30.0
SPQU 291500Z VRB03KT 9999 FEW100 SCT150 21/00 Q1028 NOSIG RMK PP000,SPQU,2017-04-29T15:00:00Z,-16.33,-71.57,21.0,0.0,0,3,,6.21,30.35433,,,,,,TRUE,,,,,FEW,10000,SCT,15000,,,,,VFR,,,,,,,,,,,,METAR,2554.0
SPQT 291500Z 17007KT 100V230 9999 BKN020 SCT100 27/22 Q1016 NOSIG RMK BIRD HAZARD PP000,SPQT,2017-04-29T15:00:00Z,-3.78,-73.32,27.0,22.0,170,7,,6.21,30.0,,,,,,TRUE,,,,,BKN,2000,SCT,10000,,,,,MVFR,,,,,,,,,,,,METAR,126.0
SPHI 291500Z VRB03KT CAVOK 25/20 Q1012 RMK PP000,SPHI,2017-04-29T15:00:00Z,-6.77,-79.82,25.0,20.0,0,3,,6.21,29.88189,,,,,,,,,,,CAVOK,,,,,,,,VFR,,,,,,,,,,,,METAR,34.0
SBCJ 291500Z 00000KT 9999 SCT017 27/22 Q1017,SBCJ,2017-04-29T15:00:00Z,-6.12,-50.0,27.0,22.0,0,0,,6.21,30.029528,,,,,,,,,,,SCT,1700,,,,,,,VFR,,,,,,,,,,,,METAR,621.0
OEMA 291500Z 30008KT CAVOK 36/M13 Q1012 NOSIG,OEMA,2017-04-29T15:00:00Z,24.55,39.7,36.0,-13.0,300,8,,6.21,29.88189,,,,,,TRUE,,,,,CAVOK,,,,,,,,VFR,,,,,,,,,,,,METAR,631.0
OEJN 291500Z 21010KT 9999 SCT040 SCT100 30/19 Q1009 NOSIG,OEJN,2017-04-29T15:00:00Z,21.68,39.15,30.0,19.0,210,10,,6.21,29.793306,,,,,,TRUE,,,,,SCT,4000,SCT,10000,,,,,VFR,,,,,,,,,,,,METAR,15.0
OEDR 291500Z 09007KT 5000 DU NSC 35/15 Q1006 NOSIG,OEDR,2017-04-29T15:00:00Z,26.27,50.17,35.0,15.0,90,7,,3.11,29.704725,,,,,,TRUE,,,,DU,CLR,,,,,,,,MVFR,,,,,,,,,,,,METAR,17.0
OEDF 291500Z 07009KT 7000 NSC 35/09 Q1007 NOSIG,OEDF,2017-04-29T15:00:00Z,26.47,49.8,35.0,9.0,70,9,,4.35,29.734253,,,,,,TRUE,,,,,CLR,,,,,,,,MVFR,,,,,,,,,,,,METAR,22.0
ORER 291500Z 33005KT CAVOK 26/12 Q1012 NOSIG,ORER,2017-04-29T15:00:00Z,36.23,43.97,26.0,12.0,330,5,,6.21,29.88189,,,,,,TRUE,,,,,CAVOK,,,,,,,,VFR,,,,,,,,,,,,METAR,409.0
ORNI 291500Z 01006KT 8000 NSC 38/M01 Q1007 NOSIG,ORNI,2017-04-29T15:00:00Z,31.98,44.4,38.0,-1.0,10,6,,4.97,29.734253,,,,,,TRUE,,,,,CLR,,,,,,,,MVFR,,,,,,,,,,,,METAR,53.0
ORMM 291500Z 12016KT 3000 DU NSC 36/10 Q1007 NOSIG,ORMM,2017-04-29T15:00:00Z,30.57,47.67,36.0,10.0,120,16,,1.86,29.734253,,,,,,TRUE,,,,DU,CLR,,,,,,,,IFR,,,,,,,,,,,,METAR,2.0
SBCR 291500Z 35003KT CAVOK 26/16 Q1018,SBCR,2017-04-29T15:00:00Z,-19.0,-57.67,26.0,16.0,350,3,,6.21,30.059055,,,,,,,,,,,CAVOK,,,,,,,,VFR,,,,,,,,,,,,METAR,141.0
SBGR 291500Z 05009KT 9999 BKN021 20/15 Q1024,SBGR,2017-04-29T15:00:00Z,-23.42,-46.47,20.0,15.0,50,9,,6.21,30.236221,,,,,,,,,,,BKN,2100,,,,,,,MVFR,,,,,,,,,,,,METAR,750.0
MRPV 291500Z 07016KT CAVOK 26/16 A3003 NOSIG,MRPV,2017-04-29T15:00:00Z,9.95,-84.15,26.0,16.0,70,16,,6.21,30.029528,,,,,,TRUE,,,,,CAVOK,,,,,,,,VFR,,,,,,,,,,,,METAR,994.0
TQPF 291500Z 08014KT 9999 FEW020 29/21 Q1020,TQPF,2017-04-29T15:00:00Z,18.18,-63.03,29.0,21.0,80,14,,6.21,30.11811,,,,,,,,,,,FEW,2000,,,,,,,VFR,,,,,,,,,,,,METAR,31.0
SBVT 291500Z 21011KT 9999 FEW007 BKN016 BKN020 24/20 Q1020,SBVT,2017-04-29T15:00:00Z,-20.27,-40.27,24.0,20.0,210,11,,6.21,30.11811,,,,,,,,,,,FEW,700,BKN,1600,BKN,2000,,,MVFR,,,,,,,,,,,,METAR,4.0
SBNF 291500Z 23007KT CAVOK 22/13 Q1024,SBNF,2017-04-29T15:00:00Z,-26.88,-48.65,22.0,13.0,230,7,,6.21,30.236221,,,,,,,,,,,CAVOK,,,,,,,,VFR,,,,,,,,,,,,METAR,5.0
SBGL 291500Z 07001KT 9999 FEW015 BKN040 21/17 Q1022,SBGL,2017-04-29T15:00:00Z,-22.82,-43.25,21.0,17.0,70,1,,6.21,30.177166,,,,,,,,,,,FEW,1500,BKN,4000,,,,,VFR,,,,,,,,,,,,METAR,6.0
SBKP 291500Z 12011KT 9999 BKN033 21/// Q1022,SBKP,2017-04-29T15:00:00Z,-23.0,-47.12,,,120,11,,6.21,30.177166,,,,,,,,,,,BKN,3300,,,,,,,VFR,,,0.0,,,,,,,,,METAR,661.0
AGGH 291500Z 20003KT 9999 FEW014 SCT029 25/24 Q1009,AGGH,2017-04-29T15:00:00Z,-9.42,160.05,25.0,24.0,200,3,,6.21,29.793306,,,,,,,,,,,FEW,1400,SCT,2900,,,,,VFR,,,,,,,,,,,,METAR,9.0
MDAB 291500Z 03004KT 8000 -RA FEW014CB BKN016 BKN070 23/23 Q1018 CB/E/SE,MDAB,2017-04-29T15:00:00Z,19.2,-69.43,23.0,23.0,30,4,,4.97,30.059055,,,,,,,,,,-RA,FEW,1400,BKN,1600,BKN,7000,,,MVFR,,,,,,,,,,,,METAR,35.0
MDCY 291500Z 06006KT 9999 SCT018 SCT070 27/24 Q1017,MDCY,2017-04-29T15:00:00Z,19.27,-69.73,27.0,24.0,60,6,,6.21,30.029528,,,,,,,,,,,SCT,1800,SCT,7000,,,,,VFR,,,,,,,,,,,,METAR,10.0
MDSD 291500Z 11010KT 9999 FEW017CB SCT018 29/24 Q1016 CB/NE/SE/S/SW,MDSD,2017-04-29T15:00:00Z,18.42,-69.67,29.0,24.0,110,10,,6.21,30.0,,,,,,,,,,,FEW,1700,SCT,1800,,,,,VFR,,,,,,,,,,,,METAR,18.0
MDJB 291500Z 06005KT 9999 BKN018 BKN070 28/24 Q1018,MDJB,2017-04-29T15:00:00Z,18.57,-69.98,28.0,24.0,60,5,,6.21,30.059055,,,,,,,,,,,BKN,1800,BKN,7000,,,,,MVFR,,,,,,,,,,,,METAR,30.0
MDBH 291500Z 13018KT 9999 FEW20CB FEW023 SCT100 29/24 Q1017 CB/S,MDBH,2017-04-29T15:00:00Z,18.25,-71.12,29.0,24.0,130,18,,6.21,30.029528,,,,,,,,,,,FEW,2300,SCT,10000,,,,,VFR,,,,,,,,,,,,METAR,3.0
MDPC 291500Z 10012KT 8000 VCSH SCT016 BKN070 26/24 Q1018,MDPC,2017-04-29T15:00:00Z,18.57,-68.37,26.0,24.0,100,12,,4.97,30.059055,,,,,,,,,,VCSH,SCT,1600,BKN,7000,,,,,MVFR,,,,,,,,,,,,METAR,12.0
MDST 291500Z 13016KT 9999 BKN020 SCT070 27/23 Q1018,MDST,2017-04-29T15:00:00Z,19.4,-70.6,27.0,23.0,130,16,,6.21,30.059055,,,,,,,,,,,BKN,2000,SCT,7000,,,,,MVFR,,,,,,,,,,,,METAR,184.0
MDPP 291500Z 08006KT 9999 BKN016 25/24 Q1018,MDPP,2017-04-29T15:00:00Z,19.75,-70.57,25.0,24.0,80,6,,6.21,30.059055,,,,,,,,,,,BKN,1600,,,,,,,MVFR,,,,,,,,,,,,METAR,5.0
PLCH 291500Z VRB01KT 9999 SCT018 BKN040 27/24 Q1008,PLCH,2017-04-29T15:00:00Z,1.98,-157.35,27.0,24.0,0,1,,6.21,29.763779,,,,,,,,,,,SCT,1800,BKN,4000,,,,,VFR,,,,,,,,,,,,METAR,3.0
TKPK 291500Z 06014KT 9999 FEW018 28/22 Q1018,TKPK,2017-04-29T15:00:00Z,17.3,-62.72,28.0,22.0,60,14,,6.21,30.059055,,,,,,,,,,,FEW,1800,,,,,,,VFR,,,,,,,,,,,,METAR,48.0
SBGO 291500Z 05008KT 340V120 9999 SCT030 29/17 Q1019,SBGO,2017-04-29T15:00:00Z,-16.62,-49.22,29.0,17.0,50,8,,6.21,30.088583,,,,,,,,,,,SCT,3000,,,,,,,VFR,,,,,,,,,,,,METAR,747.0
SBNT 291500Z 15015KT 9999 SCT025 FEW027TCU SCT040 31/22 Q1012,SBNT,2017-04-29T15:00:00Z,-5.92,-35.25,31.0,22.0,150,15,,6.21,29.88189,,,,,,,,,,,SCT,2500,FEW,2700,SCT,4000,,,VFR,,,,,,,,,,,,METAR,49.0
SBCF 291500Z 09011KT 9999 SCT025 BKN100 22/17 Q1022,SBCF,2017-04-29T15:00:00Z,-19.63,-43.97,22.0,17.0,90,11,,6.21,30.177166,,,,,,,,,,,SCT,2500,BKN,10000,,,,,VFR,,,,,,,,,,,,METAR,828.0
OJAM 291500Z 30008KT 4000 HZ NSC 25/M03 Q1013 NOSIG,OJAM,2017-04-29T15:00:00Z,31.97,35.97,25.0,-3.0,300,8,,2.49,29.911417,,,,,,TRUE,,,,HZ,CLR,,,,,,,,IFR,,,,,,,,,,,,METAR,773.0
LRCT 291500Z 34012KT 9999 -SHRA FEW020CB OVC060 13/08 Q1013 BLU BLU,LRCT,2017-04-29T15:00:00Z,46.5,23.88,13.0,8.0,340,12,,6.21,29.911417,,,,,,,,,,-SHRA,FEW,2000,OVC,6000,,,,,VFR,,,,,,,,,,,,METAR,331.0
FNLU 291500Z 27011KT 9999 FEW020 FEW023TCU SCT100 30/23 Q1009,FNLU,2017-04-29T15:00:00Z,-8.83,13.22,30.0,23.0,270,11,,6.21,29.793306,,,,,,,,,,,FEW,2000,FEW,2300,SCT,10000,,,VFR,,,,,,,,,,,,METAR,70.0
SPJC 291500Z 21009KT 8000 OVC009 21/18 Q1015 NOSIG RMK PP000,SPJC,2017-04-29T15:00:00Z,-12.02,-77.12,21.0,18.0,210,9,,4.97,29.970472,,,,,,TRUE,,,,,OVC,900,,,,,,,IFR,,,,,,,,,,,,METAR,13.0
NGFU 291500Z 30006KT 9999 FEW020TCU 28/24 Q1008,NGFU,2017-04-29T15:00:00Z,-8.52,179.22,28.0,24.0,300,6,,6.21,29.763779,,,,,,,,,,,FEW,2000,,,,,,,VFR,,,,,,,,,,,,METAR,1.0
SBLO 291500Z 12006KT CAVOK 22/13 Q1022,SBLO,2017-04-29T15:00:00Z,-23.32,-51.12,22.0,13.0,120,6,,6.21,30.177166,,,,,,,,,,,CAVOK,,,,,,,,VFR,,,,,,,,,,,,METAR,570.0
SBMA 291500Z 22003KT 9999 SCT017 FEW023TCU 29/25 Q1014,SBMA,2017-04-29T15:00:00Z,-5.37,-49.13,29.0,25.0,220,3,,6.21,29.940945,,,,,,,,,,,SCT,1700,FEW,2300,,,,,VFR,,,,,,,,,,,,METAR,102.0
SBFL 291500Z 34007KT CAVOK 21/09 Q1024,SBFL,2017-04-29T15:00:00Z,-27.67,-48.53,21.0,9.0,340,7,,6.21,30.236221,,,,,,,,,,,CAVOK,,,,,,,,VFR,,,,,,,,,,,,METAR,5.0
UBBL 291500Z 14008KT 9999 NSC 14/12 Q1019 R33/CLRD// RMK MT OP,UBBL,2017-04-29T15:00:00Z,38.75,48.82,14.0,12.0,140,8,,6.21,30.088583,,,,,,,,,,,CLR,,,,,,,,VFR,,,,,,,,,,,,METAR,10.0
UBBQ 291500Z 18008KT 9999 OVC036 17/11 Q1019 R34/////// NOSIG RMK MT OBSC,UBBQ,2017-04-29T15:00:00Z,40.82,47.72,17.0,11.0,180,8,,6.21,30.088583,,,,,,TRUE,,,,,OVC,3600,,,,,,,VFR,,,,,,,,,,,,METAR,338.0
NFFN 291500Z 06004KT 9999 FEW025 24/22 Q1009 NOSIG,NFFN,2017-04-29T15:00:00Z,-17.75,177.45,24.0,22.0,60,4,,6.21,29.793306,,,,,,TRUE,,,,,FEW,2500,,,,,,,VFR,,,,,,,,,,,,METAR,18.0
MWCB 291500Z 11012KT 9999 VCSH SCT016CB BKN030 29/25 Q1017,MWCB,2017-04-29T15:00:00Z,19.68,-79.88,29.0,25.0,110,12,,6.21,30.029528,,,,,,,,,,VCSH,SCT,1600,BKN,3000,,,,,MVFR,,,,,,,,,,,,METAR,2.0
MWCR 291500Z 11010KT 9999 FEW025 31/25 Q1016,MWCR,2017-04-29T15:00:00Z,19.3,-81.37,31.0,25.0,110,10,,6.21,30.0,,,,,,,,,,,FEW,2500,,,,,,,VFR,,,,,,,,,,,,METAR,3.0
GVSV 291500Z 06020G35KT 9999 FEW020 SCT200 28/18 Q1016 NOSIG,GVSV,2017-04-29T15:00:00Z,16.83,-25.07,28.0,18.0,60,20,35,6.21,30.0,,,,,,TRUE,,,,,FEW,2000,SCT,20000,,,,,VFR,,,,,,,,,,,,METAR,20.0
FIMR 291500Z 12010KT 9999 SCT017 26/22 Q1017,FIMR,2017-04-29T15:00:00Z,-19.75,63.37,26.0,22.0,120,10,,6.21,30.029528,,,,,,,,,,,SCT,1700,,,,,,,VFR,,,,,,,,,,,,METAR,31.0
GVNP 291500Z 02019KT 9999 FEW023 SCT200 27/17 Q1016 NOSIG,GVNP,2017-04-29T15:00:00Z,14.95,-23.48,27.0,17.0,20,19,,6.21,30.0,,,,,,TRUE,,,,,FEW,2300,SCT,20000,,,,,VFR,,,,,,,,,,,,METAR,70.0
SBTC 291500Z 21008KT 9999 SCT020 29/23 Q1017,SBTC,2017-04-29T15:00:00Z,-15.35,-38.98,29.0,23.0,210,8,,6.21,30.029528,,,,,,,,,,,SCT,2000,,,,,,,VFR,,,,,,,,,,,,METAR,6.0
SBPJ 291500Z 18007KT 9999 FEW025 FEW033TCU 30/24 Q1014,SBPJ,2017-04-29T15:00:00Z,-10.28,-48.37,30.0,24.0,180,7,,6.21,29.940945,,,,,,,,,,,FEW,2500,FEW,3300,,,,,VFR,,,,,,,,,,,,METAR,236.0
SBAN 291500Z 09013KT 9999 SCT020 26/14 Q1021,SBAN,2017-04-29T15:00:00Z,-16.22,-48.97,26.0,14.0,90,13,,6.21,30.147638,,,,,,,,,,,SCT,2000,,,,,,,VFR,,,,,,,,,,,,METAR,1137.0
HKML 291500Z 19020KT 9999 FEW021 BKN080 27/23 Q1012,HKML,2017-04-29T15:00:00Z,-3.22,40.1,27.0,23.0,190,20,,6.21,29.88189,,,,,,,,,,,FEW,2100,BKN,8000,,,,,VFR,,,,,,,,,,,,METAR,23.0
CWOE 291500Z AUTO 12007KT 05/01 RMK AO1 SOG 00 3006 SLP237 T00450010,CWOE,2017-04-29T15:00:00Z,49.12,-110.47,4.5,1.0,120,7,,,,1023.7,,TRUE,TRUE,,,,,,,,,,,,,,,,,,,,,,,,,,,METAR,935.0
CZPS 291500Z AUTO 29004KT 04/01 RMK AO1 T00440006,CZPS,2017-04-29T15:00:00Z,52.43,-113.6,4.4,0.6,290,4,,,,,,TRUE,TRUE,,,,,,,,,,,,,,,,,,,,,,,,,,,METAR,965.0
CZOL 291500Z AUTO 25002KT 07/02 RMK AO1 T00650017,CZOL,2017-04-29T15:00:00Z,53.65,-113.35,6.5,1.7,250,2,,,,,,TRUE,TRUE,,,,,,,,,,,,,,,,,,,,,,,,,,,METAR,665.0
CXVM 291500Z AUTO 15003KT 05/00 RMK AO1 T00510000,CXVM,2017-04-29T15:00:00Z,53.35,-110.88,5.1,0.0,150,3,,,,,,TRUE,TRUE,,,,,,,,,,,,,,,,,,,,,,,,,,,METAR,623.0
CXSP 291500Z AUTO 16006KT 06/M01 RMK AO1 T00601012,CXSP,2017-04-29T15:00:00Z,54.02,-111.27,6.0,-1.2,160,6,,,,,,TRUE,TRUE,,,,,,,,,,,,,,,,,,,,,,,,,,,METAR,649.0
CXPL 291500Z AUTO 16006KT 06/M01 RMK AO1 T00561010,CXPL,2017-04-29T15:00:00Z,51.13,-111.7,5.6,-1.0,160,6,,,,,,TRUE,TRUE,,,,,,,,,,,,,,,,,,,,,,,,,,,METAR,750.0
CXOL 291500Z AUTO 31007KT 06/02 RMK AO1 T00600018,CXOL,2017-04-29T15:00:00Z,51.77,-114.08,6.0,1.8,310,7,,,,,,TRUE,TRUE,,,,,,,,,,,,,,,,,,,,,,,,,,,METAR,1046.0
CXMO 291500Z AUTO 22005KT 03/M01 RMK AO1 T00311006,CXMO,2017-04-29T15:00:00Z,51.67,-112.68,3.1,-0.6,220,5,,,,,,TRUE,TRUE,,,,,,,,,,,,,,,,,,,,,,,,,,,METAR,836.0
CXMG 291500Z AUTO 28001KT 04/M00 RMK AO1 T00411004,CXMG,2017-04-29T15:00:00Z,56.97,-117.45,4.1,-0.4,280,1,,,,,,TRUE,TRUE,,,,,,,,,,,,,,,,,,,,,,,,,,,METAR,457.0
CXHD 291500Z AUTO 18007KT 04/M00 RMK AO1 T00411001,CXHD,2017-04-29T15:00:00Z,53.18,-112.25,4.1,-0.1,180,7,,,,,,TRUE,TRUE,,,,,,,,,,,,,,,,,,,,,,,,,,,METAR,688.0
CPRY 291500Z AUTO 26012KT 07/02 RMK AO1 T00720020,CPRY,2017-04-29T15:00:00Z,49.48,-112.68,7.2,2.0,260,12,,,,,,TRUE,TRUE,,,,,,,,,,,,,,,,,,,,,,,,,,,METAR,937.0
CXCS 291500Z AUTO 19004KT 04/M01 RMK AO1 T00431009,CXCS,2017-04-29T15:00:00Z,51.93,-110.72,4.3,-0.9,190,4,,,,,,TRUE,TRUE,,,,,,,,,,,,,,,,,,,,,,,,,,,METAR,772.0
CXBA 291500Z AUTO 17002KT 06/01 RMK AO1 T00560011,CXBA,2017-04-29T15:00:00Z,52.12,-110.1,5.6,1.1,170,2,,,,,,TRUE,TRUE,,,,,,,,,,,,,,,,,,,,,,,,,,,METAR,687.0
CXAJ 291500Z AUTO 21005KT 05/M01 RMK AO1 T00461008,CXAJ,2017-04-29T15:00:00Z,54.77,-112.82,4.6,-0.8,210,5,,,,,,TRUE,TRUE,,,,,,,,,,,,,,,,,,,,,,,,,,,METAR,574.0
CXAG 291500Z AUTO 19005KT 04/01 RMK AO1 T00400008,CXAG,2017-04-29T15:00:00Z,53.92,-112.28,4.0,0.8,190,5,,,,,,TRUE,TRUE,,,,,,,,,,,,,,,,,,,,,,,,,,,METAR,625.0
CXMM 291500Z AUTO 25003KT 09/M01 RMK AO1 SOG 02 8001 SLP186 T00931013,CXMM,2017-04-29T15:00:00Z,56.65,-111.22,9.3,-1.3,250,3,,,,1018.6,,TRUE,TRUE,,,,,,,,,,,,,,,,,,,,,,,,,,,METAR,369.0
SBYS 291500Z 19006KT 9999 BKN030 22/16 Q1022,SBYS,2017-04-29T15:00:00Z,-21.97,-47.32,22.0,16.0,190,6,,6.21,30.177166,,,,,,,,,,,BKN,3000,,,,,,,MVFR,,,,,,,,,,,,METAR,598.0
SBUR 291500Z 02004KT 9999 BKN030 25/18 Q1020,SBUR,2017-04-29T15:00:00Z,-19.77,-47.97,25.0,18.0,20,4,,6.21,30.11811,,,,,,,,,,,BKN,3000,,,,,,,MVFR,,,,,,,,,,,,METAR,807.0
SBUL 291500Z 02009KT 9999 BKN023 FEW025TCU 25/18 Q1021,SBUL,2017-04-29T15:00:00Z,-18.87,-48.22,25.0,18.0,20,9,,6.21,30.147638,,,,,,,,,,,BKN,2300,FEW,2500,,,,,MVFR,,,,,,,,,,,,METAR,922.0
SBTA 291500Z 08008KT 8000 FEW012 BKN017 BKN070 22/16 Q1023,SBTA,2017-04-29T15:00:00Z,-23.03,-45.5,22.0,16.0,80,8,,4.97,30.206694,,,,,,,,,,,FEW,1200,BKN,1700,BKN,7000,,,MVFR,,,,,,,,,,,,METAR,586.0
SBST 291500Z 15005KT 9999 OVC040 22/18 Q1022,SBST,2017-04-29T15:00:00Z,-23.92,-46.28,22.0,18.0,150,5,,6.21,30.177166,,,,,,,,,,,OVC,4000,,,,,,,VFR,,,,,,,,,,,,METAR,3.0
SBSR 291500Z 16003KT 9999 SCT025 25/18 Q1020,SBSR,2017-04-29T15:00:00Z,-20.8,-49.4,25.0,18.0,160,3,,6.21,30.11811,,,,,,,,,,,SCT,2500,,,,,,,VFR,,,,,,,,,,,,METAR,543.0
SBSC 291500Z 20004KT 9999 -RA FEW014 BKN017 OVC027 21/19 Q1022,SBSC,2017-04-29T15:00:00Z,-22.92,-43.72,21.0,19.0,200,4,,6.21,30.177166,,,,,,,,,,-RA,FEW,1400,BKN,1700,OVC,2700,,,MVFR,,,,,,,,,,,,METAR,3.0
SBPR 291500Z 11009KT 9999 BKN018 BKN080 23/17 Q1023,SBPR,2017-04-29T15:00:00Z,-19.9,-43.98,23.0,17.0,110,9,,6.21,30.206694,,,,,,,,,,,BKN,1800,BKN,8000,,,,,MVFR,,,,,,,,,,,,METAR,927.0
SBPC 291500Z 13005KT 9999 BKN009 21/19 Q1025,SBPC,2017-04-29T15:00:00Z,-21.85,-46.57,21.0,19.0,130,5,,6.21,30.265747,,,,,,,,,,,BKN,900,,,,,,,IFR,,,,,,,,,,,,METAR,1260.0
SBMT 291500Z 11009KT 9999 BKN023 19/14 Q1024,SBMT,2017-04-29T15:00:00Z,-23.52,-46.62,19.0,14.0,110,9,,6.21,30.236221,,,,,,,,,,,BKN,2300,,,,,,,MVFR,,,,,,,,,,,,METAR,722.0
SBMK 291500Z 08012KT 040V110 9999 SCT045 28/14 Q1019,SBMK,2017-04-29T15:00:00Z,-16.7,-43.82,28.0,14.0,80,12,,6.21,30.088583,,,,,,,,,,,SCT,4500,,,,,,,VFR,,,,,,,,,,,,METAR,646.0
SBME 291500Z 31003KT 9999 FEW030 OVC090 26/19 Q1021,SBME,2017-04-29T15:00:00Z,-22.35,-41.77,26.0,19.0,310,3,,6.21,30.147638,,,,,,,,,,,FEW,3000,OVC,9000,,,,,VFR,,,,,,,,,,,,METAR,2.0
SBLS 291500Z 15014KT 9999 BKN015 SCT033 BKN070 22/18 Q1022,SBLS,2017-04-29T15:00:00Z,-19.67,-43.88,22.0,18.0,150,14,,6.21,30.177166,,,,,,,,,,,BKN,1500,SCT,3300,BKN,7000,,,MVFR,,,,,,,,,,,,METAR,852.0
SBJR 291500Z 34002KT 9999 FEW010 SCT045 BKN070 23/19 Q1022,SBJR,2017-04-29T15:00:00Z,-22.97,-43.37,23.0,19.0,340,2,,6.21,30.177166,,,,,,,,,,,FEW,1000,SCT,4500,BKN,7000,,,VFR,,,,,,,,,,,,METAR,3.0
SBJF 291500Z 00000KT 2000 BR BKN004 BKN011 16/15 Q1025,SBJF,2017-04-29T15:00:00Z,-21.77,-43.38,16.0,15.0,0,0,,1.24,30.265747,,,,,,,,,,BR,BKN,400,BKN,1100,,,,,LIFR,,,,,,,,,,,,METAR,939.0
SBIP 291500Z 20007KT 9999 FEW020 OVC070 23/19 Q1020,SBIP,2017-04-29T15:00:00Z,-19.47,-42.48,23.0,19.0,200,7,,6.21,30.11811,,,,,,,,,,,FEW,2000,OVC,7000,,,,,VFR,,,,,,,,,,,,METAR,239.0
SBGW 291500Z 04003KT 350V080 8000 SCT011 OVC025 20/16 Q1024,SBGW,2017-04-29T15:00:00Z,-22.77,-45.2,20.0,16.0,40,3,,4.97,30.236221,,,,,,,,,,,SCT,1100,OVC,2500,,,,,MVFR,,,,,,,,,,,,METAR,533.0
SBFS 291500Z /////KT 9999 SCT015 OVC025 ///// Q////,SBFS,2017-04-29T15:00:00Z,-22.02,-41.07,,,,,,6.21,,,,,,,,,,,,SCT,1500,OVC,2500,,,,,MVFR,,,,,,,,,,,,METAR,3.0
SBES 291500Z 21005KT 9999 FEW024 BKN085 24/18 Q1022,SBES,2017-04-29T15:00:00Z,-22.82,-42.1,24.0,18.0,210,5,,6.21,30.177166,,,,,,,,,,,FEW,2400,BKN,8500,,,,,VFR,,,,,,,,,,,,METAR,11.0
SBDN 291500Z 11007KT CAVOK 23/11 Q1021,SBDN,2017-04-29T15:00:00Z,-22.18,-51.43,23.0,11.0,110,7,,6.21,30.147638,,,,,,,,,,,CAVOK,,,,,,,,VFR,,,,,,,,,,,,METAR,435.0
SBBU 291500Z 09007KT CAVOK 24/19 Q1021,SBBU,2017-04-29T15:00:00Z,-22.32,-49.07,24.0,19.0,90,7,,6.21,30.147638,,,,,,,,,,,CAVOK,,,,,,,,VFR,,,,,,,,,,,,METAR,590.0
SBBQ 291500Z 11006KT 2500 -DZ OVC006 16/13 Q1026,SBBQ,2017-04-29T15:00:00Z,-21.25,-43.77,16.0,13.0,110,6,,1.55,30.295275,,,,,,,,,,-DZ,OVC,600,,,,,,,IFR,,,,,,,,,,,,METAR,1171.0
SBBH 291500Z 10012KT 9999 SCT025 BKN090 22/16 Q1022,SBBH,2017-04-29T15:00:00Z,-19.85,-43.95,22.0,16.0,100,12,,6.21,30.177166,,,,,,,,,,,SCT,2500,BKN,9000,,,,,VFR,,,,,,,,,,,,METAR,785.0
SBAF 291500Z 05002KT 6000 SCT020 OVC040 21/18 Q1023,SBAF,2017-04-29T15:00:00Z,-22.87,-43.37,21.0,18.0,50,2,,3.73,30.206694,,,,,,,,,,,SCT,2000,OVC,4000,,,,,MVFR,,,,,,,,,,,,METAR,34.0
ORSU 291500Z 31008KT 7000 NSC 23/13 Q1013,ORSU,2017-04-29T15:00:00Z,35.57,45.32,23.0,13.0,310,8,,4.35,29.911417,,,,,,,,,,,CLR,,,,,,,,MVFR,,,,,,,,,,,,METAR,761.0
SBCB 291500Z 30006KT 9999 FEW015 BKN060 24/20 Q1022,SBCB,2017-04-29T15:00:00Z,-22.92,-42.08,24.0,20.0,300,6,,6.21,30.177166,,,,,,,,,,,FEW,1500,BKN,6000,,,,,VFR,,,,,,,,,,,,METAR,4.0
SBPK 291500Z 22009KT CAVOK 25/10 Q1023,SBPK,2017-04-29T15:00:00Z,-31.72,-52.33,25.0,10.0,220,9,,6.21,30.206694,,,,,,,,,,,CAVOK,,,,,,,,VFR,,,,,,,,,,,,METAR,13.0
GVAC 291500Z 02014KT 9999 BKN013 BKN200 27/18 Q1016 NOSIG,GVAC,2017-04-29T15:00:00Z,16.72,-22.93,27.0,18.0,20,14,,6.21,30.0,,,,,,TRUE,,,,,BKN,1300,BKN,20000,,,,,MVFR,,,,,,,,,,,,METAR,55.0
SBSL 291500Z 05004KT 9999 -RA BKN015 OVC080 26/24 Q1013,SBSL,2017-04-29T15:00:00Z,-2.6,-44.22,26.0,24.0,50,4,,6.21,29.911417,,,,,,,,,,-RA,BKN,1500,OVC,8000,,,,,MVFR,,,,,,,,,,,,METAR,53.0
GBYD 291500Z 28010KT CAVOK 33/15 Q1010,GBYD,2017-04-29T15:00:00Z,13.33,-16.65,33.0,15.0,280,10,,6.21,29.822834,,,,,,,,,,,CAVOK,,,,,,,,VFR,,,,,,,,,,,,METAR,36.0
FQCH 291500Z 16010KT 9999 FEW015 BKN020 21/17 Q1024,FQCH,2017-04-29T15:00:00Z,-19.15,33.43,21.0,17.0,160,10,,6.21,30.236221,,,,,,,,,,,FEW,1500,BKN,2000,,,,,MVFR,,,,,,,,,,,,METAR,732.0
OPSK 291500Z 23004KT 4000 HZ NSC 33/09 Q1003 NOSIG,OPSK,2017-04-29T15:00:00Z,27.72,68.8,33.0,9.0,230,4,,2.49,29.616142,,,,,,TRUE,,,,HZ,CLR,,,,,,,,IFR,,,,,,,,,,,,METAR,58.0
CWMZ 291500Z AUTO 32021KT 02/M04 RMK AO1 PK WND 32026/1444 SLP216 T00231035 53019,CWMZ,2017-04-29T15:00:00Z,45.02,-80.37,2.3,-3.5,320,21,,,,1021.6,,TRUE,TRUE,,,,,,,,,,,,,,,,1.9,,,,,,,,,,,METAR,191.0
CWEF 291500Z AUTO 25015KT 06/06 RMK AO1 PK WND 25018/1457 SLP066 T00620057 58024,CWEF,2017-04-29T15:00:00Z,47.22,-60.12,6.2,5.7,250,15,,,,1006.6,,TRUE,TRUE,,,,,,,,,,,,,,,,-2.4,,,,,,,,,,,METAR,26.0
CZMU 291500Z AUTO 22006KT 04/M00 RMK AO1 T00351001,CZMU,2017-04-29T15:00:00Z,53.57,-112.3,3.5,-0.1,220,6,,,,,,TRUE,TRUE,,,,,,,,,,,,,,,,,,,,,,,,,,,METAR,683.0
CXVW 291500Z AUTO 24010KT 06/M01 RMK AO1 T00561011,CXVW,2017-04-29T15:00:00Z,55.1,-117.2,5.6,-1.1,240,10,,,,,,TRUE,TRUE,,,,,,,,,,,,,,,,,,,,,,,,,,,METAR,698.0
CWKK 291500Z AUTO 31009KT M01/M06 RMK AO1 SOG 05 1021 SLP273 T10081056,CWKK,2017-04-29T15:00:00Z,49.72,-88.33,-0.8,-5.6,310,9,,,,1027.3,,TRUE,TRUE,,,,,,,,,,,,,,,,,,,,,,,,,,,METAR,260.0
CWCI 291500Z AUTO 33008KT 03/M02 RMK AO1 SLP268 T00331023 51038,CWCI,2017-04-29T15:00:00Z,47.32,-85.82,3.3,-2.3,330,8,,,,1026.8,,TRUE,TRUE,,,,,,,,,,,,,,,,3.8,,,,,,,,,,,METAR,187.0
CWPS 291500Z AUTO 01015KT 08/05 RMK AO1 PK WND 00020/1423 SLP192 T00780046 51017,CWPS,2017-04-29T15:00:00Z,42.57,-80.03,7.8,4.6,10,15,,,,1019.2,,TRUE,TRUE,,,,,,,,,,,,,,,,1.7,,,,,,,,,,,METAR,175.0
CWNL 291500Z AUTO 34009G15KT 05/M02 RMK AO1 PK WND 35019/1416 SLP236 T00451015 53013,CWNL,2017-04-29T15:00:00Z,45.62,-82.97,4.5,-1.5,340,9,15,,,1023.6,,TRUE,TRUE,,,,,,,,,,,,,,,,1.3,,,,,,,,,,,METAR,183.0
CWZN 291500Z AUTO 23011KT 03/03 RMK AO1 SLP051 T00290027 58013,CWZN,2017-04-29T15:00:00Z,47.37,-55.8,2.9,2.7,230,11,,,,1005.1,,TRUE,TRUE,,,,,,,,,,,,,,,,-1.3,,,,,,,,,,,METAR,64.0
CWDA 291500Z AUTO 29016G22KT 09/06 RMK AO1 PK WND 28025/1448 SLP988 T00870058 56031,CWDA,2017-04-29T15:00:00Z,50.72,-56.12,8.7,5.8,290,16,22,,,998.8,,TRUE,TRUE,,,,,,,,,,,,,,,,-3.1,,,,,,,,,,,METAR,29.0
LFVP 291500Z 27017KT 2200 BR BKN003 09/08 Q1007 NOSIG,LFVP,2017-04-29T15:00:00Z,46.77,-56.18,9.0,8.0,270,17,,1.37,29.734253,,,,,,TRUE,,,,BR,BKN,300,,,,,,,LIFR,,,,,,,,,,,,METAR,8.0
OKBK 291500Z 13010KT 2000 -HZ NSC 33/12 Q1007 NOSIG,OKBK,2017-04-29T15:00:00Z,29.22,47.97,33.0,12.0,130,10,,1.24,29.734253,,,,,,TRUE,,,,-HZ,CLR,,,,,,,,IFR,,,,,,,,,,,,METAR,55.0
SBSJ 291500Z 05003KT 9999 SCT020 BKN080 20/15 Q1024,SBSJ,2017-04-29T15:00:00Z,-23.22,-45.87,20.0,15.0,50,3,,6.21,30.236221,,,,,,,,,,,SCT,2000,BKN,8000,,,,,VFR,,,,,,,,,,,,METAR,646.0
NFNA 291500Z 00000KT 9999 FEW020 23/23 Q1010,NFNA,2017-04-29T15:00:00Z,-18.05,178.57,23.0,23.0,0,0,,6.21,29.822834,,,,,,,,,,,FEW,2000,,,,,,,VFR,,,,,,,,,,,,METAR,5.0
GVBA 291500Z 02016KT 9999 SCT014 BKN200 26/17 Q1017 NOSIG,GVBA,2017-04-29T15:00:00Z,16.13,-22.88,26.0,17.0,20,16,,6.21,30.029528,,,,,,TRUE,,,,,SCT,1400,BKN,20000,,,,,VFR,,,,,,,,,,,,METAR,22.0
SBCG 291500Z 13010KT CAVOK 24/16 Q1021,SBCG,2017-04-29T15:00:00Z,-20.47,-54.67,24.0,16.0,130,10,,6.21,30.147638,,,,,,,,,,,CAVOK,,,,,,,,VFR,,,,,,,,,,,,METAR,567.0
MYGF 291500Z 13013KT 9999 BKN020 27/22 A3016,MYGF,2017-04-29T15:00:00Z,26.55,-78.7,27.0,22.0,130,13,,6.21,30.159449,,,,,,,,,,,BKN,2000,,,,,,,MVFR,,,,,,,,,,,,METAR,2.0
MPTO 291500Z 17004KT 8000 SCT018CB BKN090 30/26 Q1011 NOSIG,MPTO,2017-04-29T15:00:00Z,9.05,-79.37,30.0,26.0,170,4,,4.97,29.852362,,,,,,TRUE,,,,,SCT,1800,BKN,9000,,,,,MVFR,,,,,,,,,,,,METAR,45.0
BIIS 291500Z 01014G25KT 330V060 9999 FEW040 07/M03 Q1002 RMK ARNARNES 120GR MAGN 15KT,BIIS,2017-04-29T15:00:00Z,66.05,-23.13,7.0,-3.0,10,14,25,6.21,29.586615,,,,,,,,,,,FEW,4000,,,,,,,VFR,,,,,,,,,,,,METAR,3.0
MRLM 291500Z 11003KT 9999 SCT030 31/25 A2988,MRLM,2017-04-29T15:00:00Z,9.97,-83.03,31.0,25.0,110,3,,6.21,29.878937,,,,,,,,,,,SCT,3000,,,,,,,VFR,,,,,,,,,,,,METAR,2.0
SBFZ 291500Z 12010KT 9999 SCT023 30/24 Q1011,SBFZ,2017-04-29T15:00:00Z,-3.77,-38.52,30.0,24.0,120,10,,6.21,29.852362,,,,,,,,,,,SCT,2300,,,,,,,VFR,,,,,,,,,,,,METAR,25.0
SBPV 291500Z 17006KT 9999 BKN020 SCT100 28/21 Q1015,SBPV,2017-04-29T15:00:00Z,-8.72,-63.9,28.0,21.0,170,6,,6.21,29.970472,,,,,,,,,,,BKN,2000,SCT,10000,,,,,MVFR,,,,,,,,,,,,METAR,88.0
MRLB 291500Z 30003KT 9999 FEW030 BKN250 30/24 A2986 NOSIG,MRLB,2017-04-29T15:00:00Z,10.6,-85.55,30.0,24.0,300,3,,6.21,29.861221,,,,,,TRUE,,,,,FEW,3000,BKN,25000,,,,,VFR,,,,,,,,,,,,METAR,82.0
SBPS 291500Z VRB07KT 9999 BKN021 27/23 Q1017,SBPS,2017-04-29T15:00:00Z,-16.43,-39.07,27.0,23.0,0,7,,6.21,30.029528,,,,,,,,,,,BKN,2100,,,,,,,MVFR,,,,,,,,,,,,METAR,51.0
SCVM 291500Z 33004KT CAVOK 21/10 Q1014,SCVM,2017-04-29T15:00:00Z,-32.95,-71.48,21.0,10.0,330,4,,6.21,29.940945,,,,,,,,,,,CAVOK,,,,,,,,VFR,,,,,,,,,,,,METAR,141.0
UBEE 291500Z 19005KT 9999 SCT043 OVC100 20/11 Q1018 R30/CLRD// NOSIG,UBEE,2017-04-29T15:00:00Z,40.63,47.15,20.0,11.0,190,5,,6.21,30.059055,,,,,,TRUE,,,,,SCT,4300,OVC,10000,,,,,VFR,,,,,,,,,,,,METAR,15.0
BIVM 291500Z 12020G30KT 9999 VCSH FEW015 SCT030 06/03 Q1000,BIVM,2017-04-29T15:00:00Z,63.42,-20.27,6.0,3.0,120,20,30,6.21,29.52756,,,,,,,,,,VCSH,FEW,1500,SCT,3000,,,,,VFR,,,,,,,,,,,,METAR,124.0
SBRF 291500Z 14012KT 9999 SCT023 SCT050 30/25 Q1013,SBRF,2017-04-29T15:00:00Z,-8.13,-34.92,30.0,25.0,140,12,,6.21,29.911417,,,,,,,,,,,SCT,2300,SCT,5000,,,,,VFR,,,,,,,,,,,,METAR,19.0
SBEG 291500Z 34003KT 9999 BKN015 BKN100 27/24 Q1015,SBEG,2017-04-29T15:00:00Z,-3.02,-60.03,27.0,24.0,340,3,,6.21,29.970472,,,,,,,,,,,BKN,1500,BKN,10000,,,,,MVFR,,,,,,,,,,,,METAR,2.0
SBSV 291500Z 14011KT 9999 SCT023 30/22 Q1016,SBSV,2017-04-29T15:00:00Z,-12.9,-38.32,30.0,22.0,140,11,,6.21,30.0,,,,,,,,,,,SCT,2300,,,,,,,VFR,,,,,,,,,,,,METAR,6.0
MHTG 291500Z 03006KT 8000 BKN024TCU 28/20 Q1019 A3009 NOSIG,MHTG,2017-04-29T15:00:00Z,14.07,-87.22,28.0,20.0,30,6,,4.97,30.088583,,,,,,TRUE,,,,,BKN,2400,,,,,,,MVFR,,,,,,,,,,,,METAR,1004.0
MHLM 291500Z 19008KT 9999 FEW030 34/25 Q1010 A2983 NOSIG,MHLM,2017-04-29T15:00:00Z,15.45,-87.93,34.0,25.0,190,8,,6.21,29.822834,,,,,,TRUE,,,,,FEW,3000,,,,,,,VFR,,,,,,,,,,,,METAR,26.0
MHLC 291500Z 32003KT 5000 FU FEW030 SCT200 32/26 Q1011 A2986 NOSIG,MHLC,2017-04-29T15:00:00Z,15.75,-86.85,32.0,26.0,320,3,,3.11,29.852362,,,,,,TRUE,,,,FU,FEW,3000,SCT,20000,,,,,MVFR,,,,,,,,,,,,METAR,15.0
MHRO 291500Z 09020KT CAVOK 29/23 Q1011 A2986 NOSIG,MHRO,2017-04-29T15:00:00Z,16.32,-86.53,29.0,23.0,90,20,,6.21,29.852362,,,,,,TRUE,,,,,CAVOK,,,,,,,,VFR,,,,,,,,,,,,METAR,5.0
MBPV 291500Z 11011KT 9999 SCT015 29/22 Q1019,MBPV,2017-04-29T15:00:00Z,21.77,-72.27,29.0,22.0,110,11,,6.21,30.088583,,,,,,,,,,,SCT,1500,,,,,,,VFR,,,,,,,,,,,,METAR,5.0
SBMN 291500Z 17003KT 9999 SCT015 BKN100 28/24 Q1015,SBMN,2017-04-29T15:00:00Z,-3.13,-59.97,28.0,24.0,170,3,,6.21,29.970472,,,,,,,,,,,SCT,1500,BKN,10000,,,,,VFR,,,,,,,,,,,,METAR,84.0
OSKL 291500Z 28006KT 9999 FEW026 25/12 Q1011,OSKL,2017-04-29T15:00:00Z,37.03,41.2,25.0,12.0,280,6,,6.21,29.852362,,,,,,,,,,,FEW,2600,,,,,,,VFR,,,,,,,,,,,,METAR,455.0
OSLK 291500Z 25006KT CAVOK 22/17 Q1012,OSLK,2017-04-29T15:00:00Z,35.4,35.95,22.0,17.0,250,6,,6.21,29.88189,,,,,,,,,,,CAVOK,,,,,,,,VFR,,,,,,,,,,,,METAR,48.0
OSDI 291500Z 14004KT CAVOK 29/08 Q1011,OSDI,2017-04-29T15:00:00Z,33.42,36.52,29.0,8.0,140,4,,6.21,29.852362,,,,,,,,,,,CAVOK,,,,,,,,VFR,,,,,,,,,,,,METAR,605.0
TUPJ 291500Z 09010KT 060V120 9999 SCT017 29/21 Q1019 RMK A3010,TUPJ,2017-04-29T15:00:00Z,18.43,-64.52,29.0,21.0,90,10,,6.21,30.088583,,,,,,,,,,,SCT,1700,,,,,,,VFR,,,,,,,,,,,,METAR,4.0
SBSP 291500Z 08007KT 9999 OVC022 19/13 Q1024,SBSP,2017-04-29T15:00:00Z,-23.62,-46.63,19.0,13.0,80,7,,6.21,30.236221,,,,,,,,,,,OVC,2200,,,,,,,MVFR,,,,,,,,,,,,METAR,803.0
SBBR 291500Z 06011KT 9999 SCT030 26/18 Q1021,SBBR,2017-04-29T15:00:00Z,-15.87,-47.92,26.0,18.0,60,11,,6.21,30.147638,,,,,,,,,,,SCT,3000,,,,,,,VFR,,,,,,,,,,,,METAR,1061.0
SBBV 291500Z 09009KT 9999 BKN025 BKN070 30/23 Q1015,SBBV,2017-04-29T15:00:00Z,2.85,-60.7,30.0,23.0,90,9,,6.21,29.970472,,,,,,,,,,,BKN,2500,BKN,7000,,,,,MVFR,,,,,,,,,,,,METAR,140.0
OJAI 291500Z 24007KT CAVOK 26/M07 Q1013 NOSIG,OJAI,2017-04-29T15:00:00Z,31.72,36.0,26.0,-7.0,240,7,,6.21,29.911417,,,,,,TRUE,,,,,CAVOK,,,,,,,,VFR,,,,,,,,,,,,METAR,730.0
MGGT 291500Z 18008KT 9999 FEW020 24/15 Q1025 A3027,MGGT,2017-04-29T15:00:00Z,14.57,-90.53,24.0,15.0,180,8,,6.21,30.265747,,,,,,,,,,,FEW,2000,,,,,,,VFR,,,,,,,,,,,,METAR,1509.0
VRMM 291500Z 30005KT 9999 FEW019 30/25 Q1011 NOSIG,VRMM,2017-04-29T15:00:00Z,4.2,73.52,30.0,25.0,300,5,,6.21,29.852362,,,,,,TRUE,,,,,FEW,1900,,,,,,,VFR,,,,,,,,,,,,METAR,2.0
VEGT 291500Z 05004KT 4000 BR FEW020 SCT100 26/22 Q1009 NOSIG,VEGT,2017-04-29T15:00:00Z,26.1,91.58,26.0,22.0,50,4,,2.49,29.793306,,,,,,TRUE,,,,BR,FEW,2000,SCT,10000,,,,,IFR,,,,,,,,,,,,METAR,54.0
VAID 291500Z 02004KT 6000 FEW020 33/09 Q1011 NOSIG,VAID,2017-04-29T15:00:00Z,22.72,75.78,33.0,9.0,20,4,,3.73,29.852362,,,,,,TRUE,,,,,FEW,2000,,,,,,,MVFR,,,,,,,,,,,,METAR,567.0
VIGR 291500Z 00000KT 4000HZ FEW020 SCT060 33/17 Q1006,VIGR,2017-04-29T15:00:00Z,26.28,78.22,33.0,17.0,0,0,,,29.704725,,,,,,,,,,HZ,FEW,2000,SCT,6000,,,,,,,,,,,,,,,,,METAR,189.0
VAJB 291500Z 23004KT 6000 SCT200 34/08 Q1009,VAJB,2017-04-29T15:00:00Z,23.18,80.05,34.0,8.0,230,4,,3.73,29.793306,,,,,,,,,,,SCT,20000,,,,,,,MVFR,,,,,,,,,,,,METAR,494.0
HTSU 291500Z 08005KT 9999 SCT020 FEW021CB 20/15 Q1022 RESHRA,HTSU,2017-04-29T15:00:00Z,-7.95,31.67,20.0,15.0,80,5,,6.21,30.177166,,,,,,,,,,,SCT,2000,FEW,2100,,,,,VFR,,,,,,,,,,,,METAR,1804.0
HTMT 291500Z 16014KT 9999 FEW020 FEW021CB BKN080 25/22 Q1015,HTMT,2017-04-29T15:00:00Z,-10.27,40.17,25.0,22.0,160,14,,6.21,29.970472,,,,,,,,,,,FEW,2000,FEW,2100,BKN,8000,,,VFR,,,,,,,,,,,,METAR,113.0
HTTB 291500Z 08012KT 9999 SCT024 FEW026CB 28/16 Q1018,HTTB,2017-04-29T15:00:00Z,-5.07,32.82,28.0,16.0,80,12,,6.21,30.059055,,,,,,,,,,,SCT,2400,FEW,2600,,,,,VFR,,,,,,,,,,,,METAR,1190.0
HTSO 291500Z 16005KT 9999 FEW022 FEW024CB SCT080 22/16 Q1022,HTSO,2017-04-29T15:00:00Z,-10.67,35.57,22.0,16.0,160,5,,6.21,30.177166,,,,,,,,,,,FEW,2200,FEW,2400,SCT,8000,,,VFR,,,,,,,,,,,,METAR,1067.0
HTMW 291500Z 36010KT 9999 SCT023 FEW024CB BKN100 25/20 Q1016 NOSIG,HTMW,2017-04-29T15:00:00Z,-2.47,32.92,25.0,20.0,360,10,,6.21,30.0,,,,,,TRUE,,,,,SCT,2300,FEW,2400,BKN,10000,,,VFR,,,,,,,,,,,,METAR,1140.0
HTMU 291500Z 00000KT 9999 FEW022 FEW023CB BKN100 23/18 Q1018,HTMU,2017-04-29T15:00:00Z,-1.5,33.78,23.0,18.0,0,0,,6.21,30.059055,,,,,,,,,,,FEW,2200,FEW,2300,BKN,10000,,,VFR,,,,,,,,,,,,METAR,1147.0
HTMG 291500Z 00000KT 9999 BKN025 25/21 Q1017,HTMG,2017-04-29T15:00:00Z,-6.82,37.63,25.0,21.0,0,0,,6.21,30.029528,,,,,,,,,,,BKN,2500,,,,,,,MVFR,,,,,,,,,,,,METAR,526.0
HTKA 291500Z 21008KT 9999 FEW023 FEW024CB 27/19 Q1018,HTKA,2017-04-29T15:00:00Z,-4.87,29.67,27.0,19.0,210,8,,6.21,30.059055,,,,,,,,,,,FEW,2300,FEW,2400,,,,,VFR,,,,,,,,,,,,METAR,885.0
HTIR 291500Z 18010KT 9999 SCT020 21/13 Q1022,HTIR,2017-04-29T15:00:00Z,-7.67,35.75,21.0,13.0,180,10,,6.21,30.177166,,,,,,,,,,,SCT,2000,,,,,,,VFR,,,,,,,,,,,,METAR,1428.0
HTDO 291500Z 10005KT 9999 BKN030 FEW031CB 25/18 Q1020 NOSIG,HTDO,2017-04-29T15:00:00Z,-6.17,35.77,25.0,18.0,100,5,,6.21,30.11811,,,,,,TRUE,,,,,BKN,3000,FEW,3100,,,,,MVFR,,,,,,,,,,,,METAR,1120.0
HTBU 291500Z 00000KT 9999 SCT020 FEW022CB BKN080 24/19 Q1016,HTBU,2017-04-29T15:00:00Z,-1.32,31.82,24.0,19.0,0,0,,6.21,30.0,,,,,,,,,,,SCT,2000,FEW,2200,BKN,8000,,,VFR,,,,,,,,,,,,METAR,1137.0
HTAR 291500Z 14007KT 9999 FEW023CB BKN025 18/18 Q1018 REDZ,HTAR,2017-04-29T15:00:00Z,-3.37,36.63,18.0,18.0,140,7,,6.21,30.059055,,,,,,,,,,,FEW,2300,BKN,2500,,,,,MVFR,,,,,,,,,,,,METAR,1387.0
HTZA 291500Z 16011KT 8000 RA BKN014 FEW016CB OVC070 24/23 Q1014 NOSIG,HTZA,2017-04-29T15:00:00Z,-6.22,39.22,24.0,23.0,160,11,,4.97,29.940945,,,,,,TRUE,,,,RA,BKN,1400,FEW,1600,OVC,7000,,,MVFR,,,,,,,,,,,,SPECI,15.0
HTKJ 291500Z 08008KT 9999 BKN033 FEW034CB 24/19 Q1017 NOSIG,HTKJ,2017-04-29T15:00:00Z,-3.42,37.07,24.0,19.0,80,8,,6.21,30.029528,,,,,,TRUE,,,,,BKN,3300,FEW,3400,,,,,VFR,,,,,,,,,,,,SPECI,896.0
HTDA 291500Z 16008KT 8000 SCT002 BKN010 23/23 Q1015 NOSIG,HTDA,2017-04-29T15:00:00Z,-6.88,39.2,23.0,23.0,160,8,,4.97,29.970472,,,,,,TRUE,,,,,SCT,200,BKN,1000,,,,,MVFR,,,,,,,,,,,,SPECI,55.0
HETR 291500Z 00000KT 9999 SCT025 BKN200 30/17 Q1006,HETR,2017-04-29T15:00:00Z,28.22,33.65,30.0,17.0,0,0,,6.21,29.704725,,,,,,,,,,,SCT,2500,BKN,20000,,,,,VFR,,,,,,,,,,,,METAR,35.0
SBFN 291500Z 13014KT 9999 SCT020 31/25 Q1012,SBFN,2017-04-29T15:00:00Z,-3.85,-32.42,31.0,25.0,130,14,,6.21,29.88189,,,,,,,,,,,SCT,2000,,,,,,,VFR,,,,,,,,,,,,METAR,56.0
GMTT 291500Z 26006KT 220V300 8000 FEW006 SCT016 BKN200 20/14 Q1014 NOSIG,GMTT,2017-04-29T15:00:00Z,35.72,-5.9,20.0,14.0,260,6,,4.97,29.940945,,,,,,TRUE,,,,,FEW,600,SCT,1600,BKN,20000,,,MVFR,,,,,,,,,,,,METAR,21.0
DIBK 291500Z 16008KT 9999 BKN013 31/24 Q1013 NOSIG,DIBK,2017-04-29T15:00:00Z,7.72,-5.07,31.0,24.0,160,8,,6.21,29.911417,,,,,,TRUE,,,,,BKN,1300,,,,,,,MVFR,,,,,,,,,,,,SPECI,376.0
OJAQ 291500Z 36008KT NSC 32/02 Q1008 NOSIG,OJAQ,2017-04-29T15:00:00Z,29.62,35.02,32.0,2.0,360,8,,,29.763779,,,,,,TRUE,,,,,CLR,,,,,,,,,,,,,,,,,,,,METAR,51.0
CXWM 291500Z AUTO 26010KT 07/02 RMK AO1 T00740015,CXWM,2017-04-29T15:00:00Z,49.5,-112.12,7.4,1.5,260,10,,,,,,TRUE,TRUE,,,,,,,,,,,,,,,,,,,,,,,,,,,METAR,944.0
CXTH 291500Z AUTO 25011KT 06/M00 RMK AO1 T00611004,CXTH,2017-04-29T15:00:00Z,53.63,-111.68,6.1,-0.4,250,11,,,,,,TRUE,TRUE,,,,,,,,,,,,,,,,,,,,,,,,,,,METAR,678.0
CXFM 291500Z AUTO 20008KT 07/02 RMK AO1 T00650021,CXFM,2017-04-29T15:00:00Z,49.48,-111.48,6.5,2.1,200,8,,,,,,TRUE,TRUE,,,,,,,,,,,,,,,,,,,,,,,,,,,METAR,881.0
CXDB 291500Z AUTO 25010KT 05/01 RMK AO1 T00450008,CXDB,2017-04-29T15:00:00Z,49.05,-112.82,4.5,0.8,250,10,,,,,,TRUE,TRUE,,,,,,,,,,,,,,,,,,,,,,,,,,,METAR,1310.0
CXAK 291500Z AUTO 24006KT 05/01 RMK AO1 T00500007,CXAK,2017-04-29T15:00:00Z,52.35,-112.6,5.0,0.7,240,6,,,,,,TRUE,TRUE,,,,,,,,,,,,,,,,,,,,,,,,,,,METAR,795.0
CWLB 291500Z AUTO 19003KT 05/M02 RMK AO1 SOG 01 8005 SLP204 T00481020,CWLB,2017-04-29T15:00:00Z,54.77,-112.02,4.8,-2.0,190,3,,,,1020.4,,TRUE,TRUE,,,,,,,,,,,,,,,,,,,,,,,,,,,METAR,567.0
FQMA 291500Z 15007KT 9999 BKN020 24/20 Q1025 NOSIG,FQMA,2017-04-29T15:00:00Z,-25.92,32.57,24.0,20.0,150,7,,6.21,30.265747,,,,,,TRUE,,,,,BKN,2000,,,,,,,MVFR,,,,,,,,,,,,METAR,44.0
HKNW 291500Z 19007KT 9999 FEW024CB BKN025 21/16 Q1021,HKNW,2017-04-29T15:00:00Z,-1.32,36.82,21.0,16.0,190,7,,6.21,30.147638,,,,,,,,,,,FEW,2400,BKN,2500,,,,,MVFR,,,,,,,,,,,,METAR,1679.0
FQBR 291500Z /////KT 9999 SCT018 BKN030 25/21 Q1018,FQBR,2017-04-29T15:00:00Z,-19.8,34.88,25.0,21.0,,,,6.21,30.059055,,,,,,,,,,,SCT,1800,BKN,3000,,,,,MVFR,,,,,,,,,,,,SPECI,16.0
CWWL 291500Z AUTO 15024G34KT 06/04 RMK AO1 6PAST HR 6052 PK WND 15034/1458 SLP123 P0002 T00640043 50006,CWWL,2017-04-29T15:00:00Z,53.5,-130.63,6.4,4.3,150,24,34,,,1012.3,,TRUE,TRUE,,,,,,,,,,,,,,,,0.6,,,,,0.02,,,,,,METAR,17.0
CWME 291500Z AUTO 07009G15KT 08/04 RMK AO1 PK WND 05019/1409 T00770039,CWME,2017-04-29T15:00:00Z,52.18,-127.47,7.7,3.9,70,9,15,,,,,TRUE,TRUE,,,,,,,,,,,,,,,,,,,,,,,,,,,METAR,32.0
CWRU 291500Z AUTO 12023G29KT 05/ RMK AO1 0PAST HR PRESFR 8088 PK WND 12029/1453 SLP103 P0012 T0050 50066,CWRU,2017-04-29T15:00:00Z,50.12,-127.93,5.0,,120,23,29,,,1010.3,,TRUE,TRUE,,,,,,,,,,,,,,,,6.6,,,,,0.12,,,,,,METAR,98.0
CWQS 291500Z AUTO 08009G16KT 06/04 RMK AO1 4PAST HR 6059 PK WND 09019/1429 SLP068 P0005 T00580038 50016,CWQS,2017-04-29T15:00:00Z,53.32,-132.77,5.8,3.8,80,9,16,,,1006.8,,TRUE,TRUE,,,,,,,,,,,,,,,,1.6,,,,,0.05,,,,,,METAR,14.0
CXNP 291500Z AUTO 22007KT 15/12 RMK AO1 SLP106 T01470121 56022,CXNP,2017-04-29T15:00:00Z,45.75,-64.23,14.7,12.1,220,7,,,,1010.6,,TRUE,TRUE,,,,,,,,,,,,,,,,-2.2,,,,,,,,,,,METAR,20.0
CWJO 291500Z AUTO 30017G24KT 09/02 RMK AO1 8003 PK WND 31024/1427 SLP082 T00920017 50010,CWJO,2017-04-29T15:00:00Z,48.43,-71.15,9.2,1.7,300,17,24,,,1008.2,,TRUE,TRUE,,,,,,,,,,,,,,,,1.0,,,,,,,,,,,METAR,133.0
CXYH 291500Z AUTO 02/M03 RMK AO1 SOG 01 0000 SLP161 T00211032,CXYH,2017-04-29T15:00:00Z,61.25,-123.75,2.1,-3.2,,,,,,1016.1,,TRUE,TRUE,,,,,,,,,,,,,,,,,,,,,,,,,,,METAR,204.0
CXPA 291500Z AUTO 29004KT 07/00 RMK AO1 T00650000,CXPA,2017-04-29T15:00:00Z,55.62,-118.3,6.5,0.0,290,4,,,,,,TRUE,TRUE,,,,,,,,,,,,,,,,,,,,,,,,,,,METAR,621.0
CXOY 291500Z AUTO 20009KT 06/M01 RMK AO1 T00561012,CXOY,2017-04-29T15:00:00Z,51.38,-110.35,5.6,-1.2,200,9,,,,,,TRUE,TRUE,,,,,,,,,,,,,,,,,,,,,,,,,,,METAR,767.0
CXKM 291500Z AUTO 19007KT 06/01 RMK AO1 5PAST HR M P0002 T00570005 50011,CXKM,2017-04-29T15:00:00Z,52.82,-111.85,5.7,0.5,190,7,,,,,,TRUE,TRUE,,,,,,,,,,,,,,,,1.1,,,,,0.02,,,,,,METAR,675.0
CXHR 291500Z AUTO 25007KT 06/01 RMK AO1 T00550011,CXHR,2017-04-29T15:00:00Z,51.18,-112.5,5.5,1.1,250,7,,,,,,TRUE,TRUE,,,,,,,,,,,,,,,,,,,,,,,,,,,METAR,971.0
CXDP 291500Z AUTO 20005KT 06/04 RMK AO1 T00560043 50009,CXDP,2017-04-29T15:00:00Z,54.32,-113.95,5.6,4.3,200,5,,,,,,TRUE,TRUE,,,,,,,,,,,,,,,,0.9,,,,,,,,,,,METAR,614.0
CXBR 291500Z AUTO 26008KT 07/01 RMK AO1 T00660009,CXBR,2017-04-29T15:00:00Z,49.62,-113.82,6.6,0.9,260,8,,,,,,TRUE,TRUE,,,,,,,,,,,,,,,,,,,,,,,,,,,METAR,1073.0
CXAF 291500Z AUTO 17003KT 02/M01 RMK AO1 T00231006,CXAF,2017-04-29T15:00:00Z,54.28,-112.97,2.3,-0.6,170,3,,,,,,TRUE,TRUE,,,,,,,,,,,,,,,,,,,,,,,,,,,METAR,664.0
CWVU 291500Z AUTO 16016G22KT 07/07 RMK AO1 PK WND 17023/1422 SLP132 T00740070 58015,CWVU,2017-04-29T15:00:00Z,44.28,-66.33,7.4,7.0,160,16,22,,,1013.2,,TRUE,TRUE,,,,,,,,,,,,,,,,-1.5,,,,,,,,,,,METAR,16.0
CZEV 291500Z AUTO 08004KT M06/M11 RMK AO1 SOG 39 8003 SLP221 T10621109,CZEV,2017-04-29T15:00:00Z,68.32,-133.52,-6.2,-10.9,80,4,,,,1022.1,,TRUE,TRUE,,,,,,,,,,,,,,,,,,,,,,,,,,,SPECI,103.0
CWHP 291500Z AUTO 25012KT 02/02 RMK AO1 SLP057 T00160016 55022,CWHP,2017-04-29T15:00:00Z,49.07,-61.7,1.6,1.6,250,12,,,,1005.7,,TRUE,TRUE,,,,,,,,,,,,,,,,-2.2,,,,,,,,,,,METAR,4.0
CWWX 291500Z AUTO 34011KT 05/M01 RMK AO1 PK WND 01017/1412 SLP225 T00471014 53014,CWWX,2017-04-29T15:00:00Z,45.32,-81.73,4.7,-1.4,340,11,,,,1022.5,,TRUE,TRUE,,,,,,,,,,,,,,,,1.4,,,,,,,,,,,METAR,181.0
CXSC 291500Z AUTO 13007KT 07/M01 RMK AO1 T00701010 50009,CXSC,2017-04-29T15:00:00Z,50.3,-110.08,7.0,-1.0,130,7,,,,,,TRUE,TRUE,,,,,,,,,,,,,,,,0.9,,,,,,,,,,,METAR,800.0
CWZV 291500Z AUTO 14038G47KT 05/ RMK AO1 5PAST HR PRESFR 6074 PK WND 14047/1454 SLP081 P0002 T0052 50032,CWZV,2017-04-29T15:00:00Z,51.93,-131.02,5.2,,140,38,47,,,1008.1,,TRUE,TRUE,,,,,,,,,,,,,,,,3.2,,,,,0.02,,,,,,METAR,92.0
CWZL 291500Z AUTO 16029G38KT 06/04 RMK AO1 PK WND 15038/1458 SLP097 T00560035 56057,CWZL,2017-04-29T15:00:00Z,53.03,-131.6,5.6,3.5,160,29,38,,,1009.7,,TRUE,TRUE,,,,,,,,,,,,,,,,-5.7,,,,,,,,,,,METAR,17.0
CXTV 291500Z AUTO 02002KT M10/M12 RMK AO1 SLP219 T11001121 58002,CXTV,2017-04-29T15:00:00Z,68.75,-133.5,-10.0,-12.1,20,2,,,,1021.9,,TRUE,TRUE,,,,,,,,,,,,,,,,-0.2,,,,,,,,,,,METAR,85.0
CWDT 291500Z AUTO 29011KT 03/M02 RMK AO1 25 3015 SLP084 T00301021,CWDT,2017-04-29T15:00:00Z,49.88,-71.25,3.0,-2.1,290,11,,,,1008.4,,TRUE,TRUE,,,,,,,,,,,,,,,,,,,,,,,,,,,METAR,399.0
CXWB 291500Z AUTO 30022KT M18/M22 RMK AO1 PK WND 30026/1455 SLP216 T11791216 58011,CXWB,2017-04-29T15:00:00Z,65.88,-89.45,-17.9,-21.6,300,22,,,,1021.6,,TRUE,TRUE,,,,,,,,,,,,,,,,-1.1,,,,,,,,,,,METAR,18.0
CXCD 291500Z AUTO 23002KT 05/02 RMK AO1 T00450021,CXCD,2017-04-29T15:00:00Z,56.32,-119.75,4.5,2.1,230,2,,,,,,TRUE,TRUE,,,,,,,,,,,,,,,,,,,,,,,,,,,METAR,630.0
HESG 291500Z 24013KT 3000 SA NSC 40/M05 Q1004 NOSIG,HESG,2017-04-29T15:00:00Z,26.33,31.75,40.0,-5.0,240,13,,1.86,29.64567,,,,,,TRUE,,,,SA,CLR,,,,,,,,IFR,,,,,,,,,,,,METAR,70.0
HESC 291500Z 29005KT CAVOK 27/02 Q1017 NOSIG,HESC,2017-04-29T15:00:00Z,28.68,34.07,27.0,2.0,290,5,,6.21,30.029528,,,,,,TRUE,,,,,CAVOK,,,,,,,,VFR,,,,,,,,,,,,METAR,1332.0
HEBL 291500Z 20012KT CAVOK 40/04 Q1006 NOSIG,HEBL,2017-04-29T15:00:00Z,22.38,31.62,40.0,4.0,200,12,,6.21,29.704725,,,,,,TRUE,,,,,CAVOK,,,,,,,,VFR,,,,,,,,,,,,METAR,188.0
HEBA 291500Z 35015KT CAVOK 25/08 Q1012 NOSIG,HEBA,2017-04-29T15:00:00Z,30.92,29.7,25.0,8.0,350,15,,6.21,29.88189,,,,,,TRUE,,,,,CAVOK,,,,,,,,VFR,,,,,,,,,,,,METAR,54.0
HEAT 291500Z 33014KT CAVOK 38/04 Q1006 NOSIG,HEAT,2017-04-29T15:00:00Z,27.05,31.02,38.0,4.0,330,14,,6.21,29.704725,,,,,,TRUE,,,,,CAVOK,,,,,,,,VFR,,,,,,,,,,,,METAR,70.0
HESH 291500Z 03010KT CAVOK 30/04 Q1007 NOSIG,HESH,2017-04-29T15:00:00Z,27.97,34.38,30.0,4.0,30,10,,6.21,29.734253,,,,,,TRUE,,,,,CAVOK,,,,,,,,VFR,,,,,,,,,,,,METAR,50.0
HEPS 291500Z 35012KT CAVOK 23/18 Q1012 NOSIG,HEPS,2017-04-29T15:00:00Z,31.28,32.25,23.0,18.0,350,12,,6.21,29.88189,,,,,,TRUE,,,,,CAVOK,,,,,,,,VFR,,,,,,,,,,,,METAR,6.0
HEGN 291500Z 14005KT CAVOK 27/16 Q1007 NOSIG,HEGN,2017-04-29T15:00:00Z,27.18,33.8,27.0,16.0,140,5,,6.21,29.734253,,,,,,TRUE,,,,,CAVOK,,,,,,,,VFR,,,,,,,,,,,,METAR,14.0
HEAR 291500Z 01009KT CAVOK 24/15 Q1011 NOSIG,HEAR,2017-04-29T15:00:00Z,31.07,33.82,24.0,15.0,10,9,,6.21,29.852362,,,,,,TRUE,,,,,CAVOK,,,,,,,,VFR,,,,,,,,,,,,METAR,32.0
HESN 291500Z 16015KT CAVOK 38/04 Q1005 NOSIG,HESN,2017-04-29T15:00:00Z,23.97,32.82,38.0,4.0,160,15,,6.21,29.675198,,,,,,TRUE,,,,,CAVOK,,,,,,,,VFR,,,,,,,,,,,,METAR,194.0
HELX 291500Z 25012KT 4000 SA NSC 40/10 Q1003 BECMG 6000,HELX,2017-04-29T15:00:00Z,25.67,32.7,40.0,10.0,250,12,,2.49,29.616142,,,,,,,,,,SA,CLR,,,,,,,,IFR,,,,,,,,,,,,SPECI,88.0
HEMM 291500Z 01008KT CAVOK 23/11 Q1013 NOSIG,HEMM,2017-04-29T15:00:00Z,31.32,27.22,23.0,11.0,10,8,,6.21,29.911417,,,,,,TRUE,,,,,CAVOK,,,,,,,,VFR,,,,,,,,,,,,METAR,30.0
CWIX 291500Z AUTO 31016KT 07/M01 RMK AO1 23 1012 SLP082 T00701009,CWIX,2017-04-29T15:00:00Z,48.6,-71.72,7.0,-0.9,310,16,,,,1008.2,,TRUE,TRUE,,,,,,,,,,,,,,,,,,,,,,,,,,,METAR,113.0
CZFS 291500Z AUTO 32011KT 02/M03 RMK AO1 SOG 03 6002 SLP170 T00231030,CZFS,2017-04-29T15:00:00Z,61.77,-121.23,2.3,-3.0,320,11,,,,1017.0,,TRUE,TRUE,,,,,,,,,,,,,,,,,,,,,,,,,,,METAR,168.0
KGTB 291459Z 25014KT 10SM BKN075 15/07 A3001 RMK AO2 DZE1457 SLP164 $,KGTB,2017-04-29T14:59:00Z,44.07,-75.72,15.0,7.0,250,14,,10.0,30.008858,1016.4,,,TRUE,TRUE,,,,,,BKN,7500,,,,,,,VFR,,,,,,,,,,,,METAR,207.0
KNGU 291459Z 26012KT 7SM SCT023 BKN280 27/22 A3018 RMK AO2 SLP219 T02720217 53002,KNGU,2017-04-29T14:59:00Z,36.92,-76.27,27.2,21.7,260,12,,7.0,30.180119,1021.9,,,TRUE,,,,,,,SCT,2300,BKN,28000,,,,,VFR,0.2,,,,,,,,,,,SPECI,5.0
KNOZ 291459Z AUTO 35014G21KT 10SM CLR A2999 RMK AO2 SLPNO 51027 $,KNOZ,2017-04-29T14:59:00Z,,,,,350,14,21,10.0,29.991142,,,TRUE,TRUE,TRUE,,,,,,CLR,,,,,,,,VFR,2.7,,,,,,,,,,,SPECI,
ETIH 291459Z AUTO 20004KT 9999 FEW060 OVC080 10/03 A3003 RMK AO2 SLP183 57006,ETIH,2017-04-29T14:59:00Z,49.22,11.82,10.0,3.0,200,4,,6.21,30.029528,1018.3,,TRUE,TRUE,,,,,,,FEW,6000,OVC,8000,,,,,VFR,-0.6,,,,,,,,,,,METAR,442.0
ETIC 291459Z AUTO 25005KT 9999 SCT049 BKN075 11/01 A3001 RMK AO2 SLP176 T01060008 57005 $,ETIC,2017-04-29T14:59:00Z,49.7,11.93,10.6,0.8,250,5,,6.21,30.008858,1017.6,,TRUE,TRUE,TRUE,,,,,,SCT,4900,BKN,7500,,,,,VFR,-0.5,,,,,,,,,,,METAR,415.0
ETIK 291458Z AUTO 00000KT 9999 SCT049 SCT070 13/02 A3003 RMK AO2 SLP175 T01250020 58006,ETIK,2017-04-29T14:58:00Z,49.47,10.37,12.5,2.0,0,0,,6.21,30.029528,1017.5,,TRUE,TRUE,,,,,,,SCT,4900,SCT,7000,,,,,VFR,-0.6,,,,,,,,,,,METAR,325.0
EGVA 291458Z AUTO 16012KT 9999 OVC050 13/03 A2988 RMK AO2 SLP123 T01280033 57022 $,EGVA,2017-04-29T14:58:00Z,51.67,-1.77,12.8,3.3,160,12,,6.21,29.878937,1012.3,,TRUE,TRUE,TRUE,,,,,,OVC,5000,,,,,,,VFR,-2.2,,,,,,,,,,,METAR,87.0
EGUN 291458Z AUTO 17009KT 9999 BKN060 14/06 A2993 RMK AO2 SLP139 T01410055 57013,EGUN,2017-04-29T14:58:00Z,52.37,0.47,14.1,5.5,170,9,,6.21,29.929134,1013.9,,TRUE,TRUE,,,,,,,BKN,6000,,,,,,,VFR,-1.3,,,,,,,,,,,METAR,10.0
EGUL 291458Z AUTO 18011KT 9999 FEW050 OVC060 14/04 A2992 RMK AO2 SLP135 T01440043 57013,EGUL,2017-04-29T14:58:00Z,52.42,0.57,14.4,4.3,180,11,,6.21,29.920275,1013.5,,TRUE,TRUE,,,,,,,FEW,5000,OVC,6000,,,,,VFR,-1.3,,,,,,,,,,,METAR,10.0
KLUF 291458Z AUTO 34010KT 10SM CLR 17/M05 A2993 RMK AO2 SLP128 T01711055 52023 $,KLUF,2017-04-29T14:58:00Z,33.52,-112.37,17.1,-5.5,340,10,,10.0,29.929134,1012.8,,TRUE,TRUE,TRUE,,,,,,CLR,,,,,,,,VFR,2.3,,,,,,,,,,,SPECI,332.0
KSKA 291458Z 19007KT 10SM CLR 06/03 A3022 RMK AO2A SLP243 T00620028 50005,KSKA,2017-04-29T14:58:00Z,47.62,-117.65,6.2,2.8,190,7,,10.0,30.221457,1024.3,,,TRUE,,,,,,,CLR,,,,,,,,VFR,0.5,,,,,,,,,,,SPECI,750.0
KAPG 291458Z AUTO 23014G18KT 10SM FEW320 24/19 A3008 RMK AO2 SLP189 T02410189 50005,KAPG,2017-04-29T14:58:00Z,39.47,-76.17,24.1,18.9,230,14,18,10.0,30.079725,1018.9,,TRUE,TRUE,,,,,,,FEW,32000,,,,,,,VFR,0.5,,,,,,,,,,,SPECI,18.0
KFTG 291458Z 36013G18KT 1SM -SN OVC004 M01/M01 A3014,KFTG,2017-04-29T14:58:00Z,39.78,-104.55,-1.0,-1.0,360,13,18,1.0,30.138779,,,,,,,,,,-SN,OVC,400,,,,,,,LIFR,,,,,,,,,,,,METAR,1675.0
KVOK 291458Z 05009KT 10SM BKN150 BKN200 06/M02 A3025 RMK AO2A SLP253 55002,KVOK,2017-04-29T14:58:00Z,43.92,-90.27,6.0,-2.0,50,9,,10.0,30.250984,1025.3,,,TRUE,,,,,,,BKN,15000,BKN,20000,,,,,VFR,-0.2,,,,,,,,,,,SPECI,277.0
KEDW 291458Z 04008KT 90SM CLR 14/M12 A3012 RMK AO2A SLP190 T01371116 52016,KEDW,2017-04-29T14:58:00Z,34.88,-117.87,13.7,-11.6,40,8,,90.0,30.121063,1019.0,,,TRUE,,,,,,,CLR,,,,,,,,VFR,1.6,,,,,,,,,,,SPECI,702.0
KBKF 291458Z 02009KT 1 3/4SM -SN BR BKN006 OVC012 M02/M02 A3014 RMK AO2A SLP223 P0001 60003 T10231025 50012,KBKF,2017-04-29T14:58:00Z,39.72,-104.75,-2.3,-2.5,20,9,,1.75,30.138779,1022.3,,,TRUE,,,,,,-SN BR,BKN,600,OVC,1200,,,,,IFR,1.2,,,,,0.01,,,,,,SPECI,1726.0
PAIW 291458Z AUTO 04006KT 6SM -SN BR FEW008 BKN050 OVC065 M01/M02 A2997 RMK AO2 SNB50 SLP149 P0000 60000 T10061017 50001 FZRANO,PAIW,2017-04-29T14:58:00Z,65.62,-168.1,-0.6,-1.7,40,6,,6.0,29.970472,1014.9,,TRUE,TRUE,,,,TRUE,,-SN BR,FEW,800,BKN,5000,OVC,6500,,,VFR,0.1,,,,,0.005,,,,,,SPECI,7.0
KSLI 291458Z 06012G25KT 10SM CLR 22/M08 A2998 RMK AO2A SLP155 T02191081 52023,KSLI,2017-04-29T14:58:00Z,33.77,-118.03,21.9,-8.1,60,12,25,10.0,29.97933,1015.5,,,TRUE,,,,,,,CLR,,,,,,,,VFR,2.3,,,,,,,,,,,SPECI,11.0
KMMT 291458Z 16009KT 10SM SCT022 OVC300 27/21 A3021 RMK AO2A SLP230 T02710206 50002 $,KMMT,2017-04-29T14:58:00Z,33.92,-80.78,27.1,20.6,160,9,,10.0,30.209646,1023.0,,,TRUE,TRUE,,,,,,SCT,2200,OVC,30000,,,,,VFR,0.2,,,,,,,,,,,SPECI,77.0
KMGE 291458Z 17007KT 10SM SCT060 BKN250 26/19 A3016 RMK AO2A SLP204 T02640189 $,KMGE,2017-04-29T14:58:00Z,33.92,-84.52,26.4,18.9,170,7,,10.0,30.159449,1020.4,,,TRUE,TRUE,,,,,,SCT,6000,BKN,25000,,,,,VFR,,,,,,,,,,,,SPECI,326.0
KEUF 291458Z AUTO 16006KT 10SM FEW075 28/22 A3011 RMK AO2 SLP194 T02830222 50016,KEUF,2017-04-29T14:58:00Z,31.95,-85.13,28.3,22.2,160,6,,10.0,30.109253,1019.4,,TRUE,TRUE,,,,,,,FEW,7500,,,,,,,VFR,1.6,,,,,,,,,,,SPECI,87.0
KVAD 291458Z 15010G15KT 10SM FEW027 SCT170 SCT210 28/20 A3015 RMK AO2A SLP210 T02810201 51013 $,KVAD,2017-04-29T14:58:00Z,30.97,-83.2,28.1,20.1,150,10,15,10.0,30.15059,1021.0,,,TRUE,TRUE,,,,,,FEW,2700,SCT,17000,SCT,21000,,,VFR,1.3,,,,,,,,,,,SPECI,71.0
KTTS 291458Z AUTO 14011KT 10SM BKN020 27/22 A3019 RMK AO2 SLP228 T02710218 52011 $,KTTS,2017-04-29T14:58:00Z,28.62,-80.72,27.1,21.8,140,11,,10.0,30.188976,1022.8,,TRUE,TRUE,TRUE,,,,,,BKN,2000,,,,,,,MVFR,1.1,,,,,,,,,,,SPECI,3.0
KMXF 291458Z AUTO 15012KT 10SM BKN022 BKN027 27/21 A3009 RMK AO2 SLP191 T02690213 52014,KMXF,2017-04-29T14:58:00Z,32.37,-86.37,26.9,21.3,150,12,,10.0,30.088583,1019.1,,TRUE,TRUE,,,,,,,BKN,2200,BKN,2700,,,,,MVFR,1.4,,,,,,,,,,,SPECI,51.0
KDLF 291458Z 14009KT 10SM BKN016 24/22 A2959 RMK AO2A SLP008 T02430215 52017,KDLF,2017-04-29T14:58:00Z,29.37,-100.77,24.3,21.5,140,9,,10.0,29.589567,1000.8,,,TRUE,,,,,,,BKN,1600,,,,,,,MVFR,1.7,,,,,,,,,,,SPECI,330.0
PFSH 291458Z AUTO 05005KT 10SM OVC100 M01/M02 A2994 RMK AO2 SLP154 T10111017 56003 FZRANO,PFSH,2017-04-29T14:58:00Z,64.37,-161.22,-1.1,-1.7,50,5,,10.0,29.940945,1015.4,,TRUE,TRUE,,,,TRUE,,,OVC,10000,,,,,,,VFR,-0.3,,,,,,,,,,,SPECI,7.0
PFNO 291458Z AUTO 08004KT 10SM OVC080 02/M02 A2999 RMK AO2 SLP158 T00171022 58000 FZRANO,PFNO,2017-04-29T14:58:00Z,66.82,-161.02,1.7,-2.2,80,4,,10.0,29.991142,1015.8,,TRUE,TRUE,,,,TRUE,,,OVC,8000,,,,,,,VFR,0.0,,,,,,,,,,,SPECI,17.0
KMEI 291458Z 17012G21KT 10SM OVC022 26/22 A2998 RMK AO2 SLP149 T02610222 51012,KMEI,2017-04-29T14:58:00Z,32.33,-88.75,26.1,22.2,170,12,21,10.0,29.97933,1014.9,,,TRUE,,,,,,,OVC,2200,,,,,,,MVFR,1.2,,,,,,,,,,,SPECI,89.0
KSVN 291458Z AUTO 16008KT 7SM FEW021 28/25 A3019 RMK AO2 SLP226 T02800247 50010,KSVN,2017-04-29T14:58:00Z,32.02,-81.15,28.0,24.7,160,8,,7.0,30.188976,1022.6,,TRUE,TRUE,,,,,,,FEW,2100,,,,,,,VFR,1.0,,,,,,,,,,,SPECI,13.0
KHRT 291458Z AUTO 12014G20KT 10SM -DZ OVC009 26/21 A3006 RMK AO2 DZB08 SLP181 P0000 60000 T02620211 53005 $,KHRT,2017-04-29T14:58:00Z,30.42,-86.67,26.2,21.1,120,14,20,10.0,30.059055,1018.1,,TRUE,TRUE,TRUE,,,,,-DZ,OVC,900,,,,,,,IFR,0.5,,,,,0.005,,,,,,SPECI,12.0
KSXS 291458Z AUTO 18010KT 10SM OVC017 26/22 A3010 RMK AO2 SLP191 T02620216 52010,KSXS,2017-04-29T14:58:00Z,31.37,-85.85,26.2,21.6,180,10,,10.0,30.100393,1019.1,,TRUE,TRUE,,,,,,,OVC,1700,,,,,,,MVFR,1.0,,,,,,,,,,,SPECI,122.0
KLTS 291458Z AUTO 36013KT 10SM OVC009 10/08 A2968 RMK AO2 PK WND 02036/02 RAE39DZB39E44 TSE06TSB14E32 SLP044 P0002 60036 T00960079 52033 VISNO RWY17L $,KLTS,2017-04-29T14:58:00Z,34.67,-99.27,9.6,7.9,360,13,,10.0,29.681103,1004.4,,TRUE,TRUE,TRUE,,,,,,OVC,900,,,,,,,IFR,3.3,,,,,0.02,,,,,,SPECI,420.0
KHUA 291458Z AUTO 19011G23KT 10SM CLR 27/20 A3002 RMK AO2 SLP160 T02720198 50003,KHUA,2017-04-29T14:58:00Z,34.68,-86.68,27.2,19.8,190,11,23,10.0,30.02067,1016.0,,TRUE,TRUE,,,,,,,CLR,,,,,,,,VFR,0.3,,,,,,,,,,,SPECI,209.0
KHST 291458Z AUTO 10011G20KT 10SM FEW027 28/22 A3014 RMK AO2 SLP210 T02830224 52010,KHST,2017-04-29T14:58:00Z,25.47,-80.37,28.3,22.4,100,11,20,10.0,30.138779,1021.0,,TRUE,TRUE,,,,,,,FEW,2700,,,,,,,VFR,1.0,,,,,,,,,,,SPECI,2.0
KGSB 291458Z AUTO 20011KT 10SM FEW024 28/23 A3020 RMK AO2 SLP229 T02760233 50001,KGSB,2017-04-29T14:58:00Z,35.32,-77.97,27.6,23.3,200,11,,10.0,30.200787,1022.9,,TRUE,TRUE,,,,,,,FEW,2400,,,,,,,VFR,0.1,,,,,,,,,,,SPECI,33.0
KGRK 291458Z AUTO 16019G31KT 7SM FEW026 27/20 A2958 RMK AO2 PK WND 15034/26 SLP006 60000 T02650204 50003,KGRK,2017-04-29T14:58:00Z,31.07,-97.83,26.5,20.4,160,19,31,7.0,29.58071,1000.6,,TRUE,TRUE,,,,,,,FEW,2600,,,,,,,VFR,0.3,,,,,,,,,,,SPECI,309.0
KCEF 291458Z 21007KT 10SM FEW060 BKN150 BKN200 24/11 A2994 RMK SLP143 T02400109 57007,KCEF,2017-04-29T14:58:00Z,42.2,-72.52,24.0,10.9,210,7,,10.0,29.940945,1014.3,,,,,,,,,,FEW,6000,BKN,15000,BKN,20000,,,VFR,-0.7,,,,,,,,,,,SPECI,75.0
RJTY 291458Z AUTO 00000KT 10SM CLR 12/06 A2978 RMK AO2 SLP086 T01170062 402240087 52009,RJTY,2017-04-29T14:58:00Z,35.75,139.33,11.7,6.2,0,0,,10.0,29.778543,1008.6,,TRUE,TRUE,,,,,,,CLR,,,,,,,,VFR,0.9,,,22.4,8.7,,,,,,,METAR,139.0
PFKT 291458Z AUTO 00000KT 10SM BKN050 OVC065 01/00 A2996 RMK AO2 RAE1359 SLP145 60000 T00110000 58004 FZRANO,PFKT,2017-04-29T14:58:00Z,65.33,-166.47,1.1,0.0,0,0,,10.0,29.958662,1014.5,,TRUE,TRUE,,,,TRUE,,,BKN,5000,OVC,6500,,,,,VFR,-0.4,,,,,,0.005,,,,,METAR,9.0
PFEL 291458Z AUTO 35006KT 10SM BKN046 OVC080 04/00 A2994 RMK AO2 SLP145 T00440000 56003,PFEL,2017-04-29T14:58:00Z,64.62,-162.27,4.4,0.0,350,6,,10.0,29.940945,1014.5,,TRUE,TRUE,,,,,,,BKN,4600,OVC,8000,,,,,VFR,-0.3,,,,,,,,,,,METAR,49.0
PAWM 291458Z AUTO 01005KT 10SM BKN040 BKN048 OVC085 03/00 A2992 RMK AO2 RAE06 SLP145 P0000 60000 T00280000 58003,PAWM,2017-04-29T14:58:00Z,64.68,-163.42,2.8,0.0,10,5,,10.0,29.920275,1014.5,,TRUE,TRUE,,,,,,,BKN,4000,BKN,4800,OVC,8500,,,VFR,-0.3,,,,,0.005,0.005,,,,,METAR,82.0
PATE 291458Z AUTO 10SM BKN048 A2993 RMK AO2 SLPNO 6//// 58007 FZRANO PNO $,PATE,2017-04-29T14:58:00Z,65.23,-166.33,,,,,,10.0,29.929134,,,TRUE,TRUE,TRUE,,,TRUE,,,BKN,4800,,,,,,,VFR,-0.7,,,,,,,,,,,SPECI,90.0
OTBH 291458Z 06006KT 8000 HZ SCT200 36/07 A2978 RMK AO2A SLP085 T03570066 55003 $,OTBH,2017-04-29T14:58:00Z,25.12,51.32,35.7,6.6,60,6,,4.97,29.778543,1008.5,,,TRUE,TRUE,,,,,HZ,SCT,20000,,,,,,,MVFR,-0.3,,,,,,,,,,,METAR,40.0
KWRB 291458Z AUTO 12007KT 10SM FEW055 27/22 A3016 RMK AO2 SLP213 T02650217 51012,KWRB,2017-04-29T14:58:00Z,32.62,-83.58,26.5,21.7,120,7,,10.0,30.159449,1021.3,,TRUE,TRUE,,,,,,,FEW,5500,,,,,,,VFR,1.2,,,,,,,,,,,SPECI,90.0
KSSC 291458Z AUTO 17009KT 10SM CLR 27/21 A3019 RMK AO2 SLP223 T02720208 50001 $,KSSC,2017-04-29T14:58:00Z,33.97,-80.47,27.2,20.8,170,9,,10.0,30.188976,1022.3,,TRUE,TRUE,TRUE,,,,,,CLR,,,,,,,,VFR,0.1,,,,,,,,,,,SPECI,74.0
KPOE 291458Z AUTO 15016G24KT 9SM OVC016 26/23 A2977 RMK AO2 PK WND 14028/12 LTG DSNT SW-W SLP080 T02590225 55000,KPOE,2017-04-29T14:58:00Z,31.05,-93.2,25.9,22.5,150,16,24,9.0,29.769686,1008.0,,TRUE,TRUE,,,,,,,OVC,1600,,,,,,,MVFR,0.0,,,,,,,,,,,SPECI,101.0
KMCF 291458Z AUTO 13015KT 10SM FEW025 29/23 A3012 RMK AO2 SLP203 T02940230 50001 $,KMCF,2017-04-29T14:58:00Z,27.85,-82.52,29.4,23.0,130,15,,10.0,30.121063,1020.3,,TRUE,TRUE,TRUE,,,,,,FEW,2500,,,,,,,VFR,0.1,,,,,,,,,,,SPECI,4.0
KLSF 291458Z AUTO 18005KT 3SM HZ SCT055 SCT070 27/22 A3013 RMK AO2 SLP204 T02740219 51013 $,KLSF,2017-04-29T14:58:00Z,32.32,-84.97,27.4,21.9,180,5,,3.0,30.129921,1020.4,,TRUE,TRUE,TRUE,,,,,HZ,SCT,5500,SCT,7000,,,,,MVFR,1.3,,,,,,,,,,,METAR,71.0
KEGI 291458Z AUTO 15016G24KT 10SM SCT021 27/21 A3007 RMK AO2 SLP183 T02710212 52008 $,KEGI,2017-04-29T14:58:00Z,30.63,-86.52,27.1,21.2,150,16,24,10.0,30.070866,1018.3,,TRUE,TRUE,TRUE,,,,,,SCT,2100,,,,,,,VFR,0.8,,,,,,,,,,,METAR,59.0
KBIF 291458Z 14014KT 10SM SCT046 OVC065 07/03 A2984 RMK AO2A RAE1358RAB1358E37 PRESFR SLPNO P0006 60010 50004,KBIF,2017-04-29T14:58:00Z,31.85,-106.38,7.0,3.0,140,14,,10.0,29.840551,,,,TRUE,,,,,,,SCT,4600,OVC,6500,,,,,VFR,0.4,,,,,0.06,0.1,,,,,METAR,1203.0
KBAD 291458Z AUTO 16013G21KT 10SM SCT025 26/22 A2971 RMK AO2 SLP062 T02560223 50002 $,KBAD,2017-04-29T14:58:00Z,32.5,-93.67,25.6,22.3,160,13,21,10.0,29.71063,1006.2,,TRUE,TRUE,TRUE,,,,,,SCT,2500,,,,,,,VFR,0.2,,,,,,,,,,,SPECI,51.0
PGUA 291458Z AUTO 11005KT 10SM CLR 26/24 A2994 RMK AO2 SLP129 T02560235 57008 $,PGUA,2017-04-29T14:58:00Z,13.57,144.92,25.6,23.5,110,5,,10.0,29.940945,1012.9,,TRUE,TRUE,TRUE,,,,,,CLR,,,,,,,,VFR,-0.8,,,,,,,,,,,METAR,187.0
PAEI 291458Z VRB04KT 10SM BKN110 02/00 A3000 RMK AO2A SLP166 T00161003 52002 $,PAEI,2017-04-29T14:58:00Z,64.67,-147.1,1.6,-0.3,0,4,,10.0,30.0,1016.6,,,TRUE,TRUE,,,,,,BKN,11000,,,,,,,VFR,0.2,,,,,,,,,,,METAR,167.0
KINS 291458Z AUTO 00000KT 10SM CLR 10/M07 A3015 RMK AO2 SLP190 T00991073 53014 $,KINS,2017-04-29T14:58:00Z,36.58,-115.67,9.9,-7.3,0,0,,10.0,30.15059,1019.0,,TRUE,TRUE,TRUE,,,,,,CLR,,,,,,,,VFR,1.4,,,,,,,,,,,METAR,955.0
KFHU 291458Z AUTO 30010G16KT 10SM CLR 11/M12 A2996 RMK AO2 SLP097 T01111117 52025,KFHU,2017-04-29T14:58:00Z,31.58,-110.35,11.1,-11.7,300,10,16,10.0,29.958662,1009.7,,TRUE,TRUE,,,,,,,CLR,,,,,,,,VFR,2.5,,,,,,,,,,,METAR,1438.0
KPOB 291458Z AUTO 24011KT 10SM SCT050 28/21 A3020 RMK AO2 SLP228 T02750206 55002 $,KPOB,2017-04-29T14:58:00Z,35.17,-79.02,27.5,20.6,240,11,,10.0,30.200787,1022.8,,TRUE,TRUE,TRUE,,,,,,SCT,5000,,,,,,,VFR,-0.2,,,,,,,,,,,SPECI,66.0
KCOF 291458Z AUTO 14015KT 10SM CLR 29/22 A3018 RMK AO2 SLP224 T02860220 52011 $,KCOF,2017-04-29T14:58:00Z,28.23,-80.6,28.6,22.0,140,15,,10.0,30.180119,1022.4,,TRUE,TRUE,TRUE,,,,,,CLR,,,,,,,,VFR,1.1,,,,,,,,,,,METAR,3.0
KBIX 291458Z AUTO 15011G17KT 10SM OVC010 26/23 A2999 RMK AO2 OVC V BKN SLP158 T02610234 52014,KBIX,2017-04-29T14:58:00Z,30.42,-88.92,26.1,23.4,150,11,17,10.0,29.991142,1015.8,,TRUE,TRUE,,,,,,,OVC,1000,,,,,,,MVFR,1.4,,,,,,,,,,,SPECI,10.0
RODN 291458Z AUTO 06004KT 10SM CLR 12/11 A3000 RMK AO2 SLP166 T01170111 402350099 50006,RODN,2017-04-29T14:58:00Z,26.35,127.77,11.7,11.1,60,4,,10.0,30.0,1016.6,,TRUE,TRUE,,,,,,,CLR,,,,,,,,VFR,0.6,,,23.5,9.9,,,,,,,METAR,45.0
RKSG 291458Z AUTO 19004KT 10SM CLR 16/06 A2974 RMK AO2 SLP074 T01560063 50009 $,RKSG,2017-04-29T14:58:00Z,36.97,127.02,15.6,6.3,190,4,,10.0,29.740158,1007.4,,TRUE,TRUE,TRUE,,,,,,CLR,,,,,,,,VFR,0.9,,,,,,,,,,,METAR,16.0
RKJK 291458Z AUTO 20014KT 10SM CLR 18/10 A2975 RMK AO2 SLP079 T01760102 402120095 52008 $,RKJK,2017-04-29T14:58:00Z,35.9,126.62,17.6,10.2,200,14,,10.0,29.749016,1007.9,,TRUE,TRUE,TRUE,,,,,,CLR,,,,,,,,VFR,0.8,,,21.2,9.5,,,,,,,METAR,9.0
PAED 291458Z AUTO 30005KT 10SM CLR 03/01 A3003 RMK AO2 SLP166 T00260009 57009,PAED,2017-04-29T14:58:00Z,61.25,-149.8,2.6,0.9,300,5,,10.0,30.029528,1016.6,,TRUE,TRUE,,,,,,,CLR,,,,,,,,VFR,-0.9,,,,,,,,,,,METAR,59.0
KWRI 291458Z AUTO 26008KT 10SM FEW200 25/19 A2998 RMK AO2 PRESFR SLP151 60000 T02460190 58001 $,KWRI,2017-04-29T14:58:00Z,40.02,-74.58,24.6,19.0,260,8,,10.0,29.97933,1015.1,,TRUE,TRUE,TRUE,,,,,,FEW,20000,,,,,,,VFR,-0.1,,,,,,,,,,,SPECI,41.0
KTCM 291458Z AUTO 00000KT 10SM BKN110 07/07 A3029 RMK AO2 SLP262 T00700067 55005 $,KTCM,2017-04-29T14:58:00Z,47.12,-122.47,7.0,6.7,0,0,,10.0,30.28937,1026.2,,TRUE,TRUE,TRUE,,,,,,BKN,11000,,,,,,,VFR,-0.5,,,,,,,,,,,SPECI,98.0
KPSM 291458Z 24009KT 10SM FEW120 SCT180 BKN250 25/09 A2989 RMK AO2A SLP123 T02510094 57016,KPSM,2017-04-29T14:58:00Z,43.07,-70.82,25.1,9.4,240,9,,10.0,29.890747,1012.3,,,TRUE,,,,,,,FEW,12000,SCT,18000,BKN,25000,,,VFR,-1.6,,,,,,,,,,,SPECI,31.0
KMTC 291458Z 01013KT 10SM OVC050 08/01 A3015 RMK AO2A SLP216 T00770014 51014,KMTC,2017-04-29T14:58:00Z,42.62,-82.82,7.7,1.4,10,13,,10.0,30.15059,1021.6,,,TRUE,,,,,,,OVC,5000,,,,,,,VFR,1.4,,,,,,,,,,,METAR,177.0
KHMN 291458Z AUTO 17010KT 10SM FEW090 08/05 A2987 RMK AO2 SLP070 T00750048 50011 $,KHMN,2017-04-29T14:58:00Z,32.85,-106.08,7.5,4.8,170,10,,10.0,29.870079,1007.0,,TRUE,TRUE,TRUE,,,,,,FEW,9000,,,,,,,VFR,1.1,,,,,,,,,,,METAR,1248.0
K9L2 291458Z AUTO 06005KT 10SM CLR 15/M12 A3013 RMK AO2 SLP191 T01471117 53018,K9L2,2017-04-29T14:58:00Z,34.97,-117.87,14.7,-11.7,60,5,,10.0,30.129921,1019.1,,TRUE,TRUE,,,,,,,CLR,,,,,,,,VFR,1.8,,,,,,,,,,,METAR,701.0
PWAK 291458Z AUTO 07015KT 9999 CLR 26/22 A3001 RMK AO2 SLP169 T02600216 57013 $,PWAK,2017-04-29T14:58:00Z,19.28,166.65,26.0,21.6,70,15,,6.21,30.008858,1016.9,,TRUE,TRUE,TRUE,,,,,,CLR,,,,,,,,VFR,-1.3,,,,,,,,,,,METAR,4.0
PAFB 291458Z AUTO 00000KT 9SM OVC070 01/M01 A3000 RMK AO2 SLP164 T00091010 53001,PAFB,2017-04-29T14:58:00Z,64.83,-147.62,0.9,-1.0,0,0,,9.0,30.0,1016.4,,TRUE,TRUE,,,,,,,OVC,7000,,,,,,,VFR,0.1,,,,,,,,,,,METAR,137.0
MHSC 291458Z AUTO 19006KT 9999 CLR 31/21 A2997 RMK AO2 SLP100 T03050206 50003 $,MHSC,2017-04-29T14:58:00Z,14.37,-87.62,30.5,20.6,190,6,,6.21,29.970472,1010.0,,TRUE,TRUE,TRUE,,,,,,CLR,,,,,,,,VFR,0.3,,,,,,,,,,,METAR,626.0
KSUU 291458Z AUTO 01008KT 10SM CLR 17/02 A3009 RMK AO2 SLP196 T01680019 52014 $,KSUU,2017-04-29T14:58:00Z,38.27,-121.92,16.8,1.9,10,8,,10.0,30.088583,1019.6,,TRUE,TRUE,TRUE,,,,,,CLR,,,,,,,,VFR,1.4,,,,,,,,,,,SPECI,19.0
KRCA 291458Z AUTO 36006KT 10SM OVC110 05/M04 A3029 RMK AO2 SLP276 T00521040 51026,KRCA,2017-04-29T14:58:00Z,44.13,-103.08,5.2,-4.0,360,6,,10.0,30.28937,1027.6,,TRUE,TRUE,,,,,,,OVC,11000,,,,,,,VFR,2.6,,,,,,,,,,,SPECI,999.0
KGFA 291458Z AUTO 23013KT 10SM CLR 07/02 A3020 RMK AO2 SLP252 T00700023 52006 TSNO $,KGFA,2017-04-29T14:58:00Z,47.5,-111.17,7.0,2.3,230,13,,10.0,30.200787,1025.2,,TRUE,TRUE,TRUE,,TRUE,,,,CLR,,,,,,,,VFR,0.6,,,,,,,,,,,METAR,1075.0
K1YT 291458Z AUTO 35003KT 10SM CLR 05/00 A3023 RMK AO2 SLPNO T00501001 51003 $,K1YT,2017-04-29T14:58:00Z,46.67,-120.45,5.0,-0.1,350,3,,10.0,30.230314,,,TRUE,TRUE,TRUE,,,,,,CLR,,,,,,,,VFR,0.3,,,,,,,,,,,METAR,438.0
KMUI 291458Z AUTO 23011KT 10SM FEW180 23/17 A2999 RMK AO2 SLP156 P0001 60001 T02300170 58020 $,KMUI,2017-04-29T14:58:00Z,40.42,-76.57,23.0,17.0,230,11,,10.0,29.991142,1015.6,,TRUE,TRUE,TRUE,,,,,,FEW,18000,,,,,,,VFR,-2.0,,,,,0.01,0.01,,,,,METAR,149.0
KMIB 291458Z AUTO 25008KT 10SM CLR 13/M03 A3023 RMK AO2 SLP251 T01271030 52009,KMIB,2017-04-29T14:58:00Z,48.42,-101.33,12.7,-3.0,250,8,,10.0,30.230314,1025.1,,TRUE,TRUE,,,,,,,CLR,,,,,,,,VFR,0.9,,,,,,,,,,,METAR,508.0
KHOP 291458Z AUTO 19005KT 10SM BKN025 26/20 A3000 RMK AO2 CIG 025V031 BKN V SCT SLP155 T02610203 52020,KHOP,2017-04-29T14:58:00Z,36.67,-87.5,26.1,20.3,190,5,,10.0,30.0,1015.5,,TRUE,TRUE,,,,,,,BKN,2500,,,,,,,MVFR,2.0,,,,,,,,,,,METAR,174.0
KGXF 291458Z AUTO 30004KT 9SM CLR 18/M10 A2994 RMK AO2 SLP130 T01841096 52023,KGXF,2017-04-29T14:58:00Z,32.87,-112.72,18.4,-9.6,300,4,,9.0,29.940945,1013.0,,TRUE,TRUE,,,,,,,CLR,,,,,,,,VFR,2.3,,,,,,,,,,,METAR,262.0
KGUS 291458Z AUTO 06008KT 7SM -RA OVC008 12/12 A3008 RMK AO2 RAE1358DZB1358E04DZB07E10RAB10E21DZB21E24RAB24 SLP190 P0002 60010 T01210121 50016,KGUS,2017-04-29T14:58:00Z,40.63,-86.15,12.1,12.1,60,8,,7.0,30.079725,1019.0,,TRUE,TRUE,,,,,,-RA,OVC,800,,,,,,,IFR,1.6,,,,,0.02,0.1,,,,,METAR,247.0
KFAF 291458Z AUTO 26006KT 9SM BKN019 27/22 A3015 RMK AO2 BKN V OVC SLP213 T02660221 51006 $,KFAF,2017-04-29T14:58:00Z,37.12,-76.62,26.6,22.1,260,6,,9.0,30.15059,1021.3,,TRUE,TRUE,TRUE,,,,,,BKN,1900,,,,,,,MVFR,0.6,,,,,,,,,,,METAR,4.0
KBAB 291458Z AUTO 32009KT 10SM CLR 12/05 A3011 RMK AO2 SLP199 T01160048 53008 $,KBAB,2017-04-29T14:58:00Z,39.12,-121.42,11.6,4.8,320,9,,10.0,30.109253,1019.9,,TRUE,TRUE,TRUE,,,,,,CLR,,,,,,,,VFR,0.8,,,,,,,,,,,METAR,34.0
KROG 291458Z 16011G18KT 10SM -RA BKN023 OVC029 22/21 A2964 RMK AO2 LTG DSNT W-N TSE09 SLP025 P0008 60025 T02220206 56003,KROG,2017-04-29T14:58:00Z,36.37,-94.08,22.2,20.6,160,11,18,10.0,29.639763,1002.5,,,TRUE,,,,,,-RA,BKN,2300,OVC,2900,,,,,MVFR,-0.3,,,,,0.08,0.25,,,,,METAR,415.0
KRDR 291458Z AUTO 21005KT 10SM CLR 09/M07 A3034 RMK AO2 SLP287 T00861068 52026,KRDR,2017-04-29T14:58:00Z,47.97,-97.4,8.6,-6.8,210,5,,10.0,30.339567,1028.7,,TRUE,TRUE,,,,,,,CLR,,,,,,,,VFR,2.6,,,,,,,,,,,SPECI,278.0
KMUO 291458Z AUTO 32013KT 10SM CLR 06/00 A3025 RMK AO2 SLP249 T00601002 52017 $,KMUO,2017-04-29T14:58:00Z,43.03,-115.87,6.0,-0.2,320,13,,10.0,30.250984,1024.9,,TRUE,TRUE,TRUE,,,,,,CLR,,,,,,,,VFR,1.7,,,,,,,,,,,METAR,913.0
KLSV 291458Z AUTO 27012KT 10SM CLR 15/M06 A3009 RMK AO2 SLP180 T01511057 52017 $,KLSV,2017-04-29T14:58:00Z,36.22,-115.02,15.1,-5.7,270,12,,10.0,30.088583,1018.0,,TRUE,TRUE,TRUE,,,,,,CLR,,,,,,,,VFR,1.7,,,,,,,,,,,METAR,570.0
KDOV 291458Z AUTO 22013KT 10SM FEW200 26/26 A3006 RMK AO2 SLP182 T02610261 50014 $,KDOV,2017-04-29T14:58:00Z,39.12,-75.47,26.1,26.1,220,13,,10.0,30.059055,1018.2,,TRUE,TRUE,TRUE,,,,,,FEW,20000,,,,,,,VFR,1.4,,,,,,,,,,,METAR,9.0
KDMA 291458Z AUTO 26004KT 10SM CLR 14/M09 A2993 RMK AO2 SLP107 T01421090 52024 $,KDMA,2017-04-29T14:58:00Z,32.17,-110.87,14.2,-9.0,260,4,,10.0,29.929134,1010.7,,TRUE,TRUE,TRUE,,,,,,CLR,,,,,,,,VFR,2.4,,,,,,,,,,,METAR,824.0
KDAA 291458Z AUTO 27005KT 10SM CLR 28/17 A3010 RMK AO2 SLP196 T02800171 50005,KDAA,2017-04-29T14:58:00Z,38.72,-77.17,28.0,17.1,270,5,,10.0,30.100393,1019.6,,TRUE,TRUE,,,,,,,CLR,,,,,,,,VFR,0.5,,,,,,,,,,,METAR,21.0
KADW 291458Z AUTO 24004KT 10SM FEW140 SCT170 SCT210 26/19 A3010 RMK AO2 SLP198 T02640189 50011,KADW,2017-04-29T14:58:00Z,38.82,-76.87,26.4,18.9,240,4,,10.0,30.100393,1019.8,,TRUE,TRUE,,,,,,,FEW,14000,SCT,17000,SCT,21000,,,VFR,1.1,,,,,,,,,,,METAR,86.0
ETAR 291458Z 00000KT 9999 FEW050 15/00 A2999 RMK AO2A SLP162 T01481005 57012 $,ETAR,2017-04-29T14:58:00Z,49.42,7.58,14.8,-0.5,0,0,,6.21,29.991142,1016.2,,,TRUE,TRUE,,,,,,FEW,5000,,,,,,,VFR,-1.2,,,,,,,,,,,METAR,238.0
ETAD 291458Z AUTO 13007KT 9999 CLR 14/M02 A2999 RMK AO2 SLP153 T01361023 57012 TSNO $,ETAD,2017-04-29T14:58:00Z,49.98,6.7,13.6,-2.3,130,7,,6.21,29.991142,1015.3,,TRUE,TRUE,TRUE,,TRUE,,,,CLR,,,,,,,,VFR,-1.2,,,,,,,,,,,METAR,365.0
BGTL 291458Z AUTO 00000KT 9999 CLR M12/M18 A3002 RMK AO2 SLP155 T11181178 57025,BGTL,2017-04-29T14:58:00Z,76.53,-68.7,-11.8,-17.8,0,0,,6.21,30.02067,1015.5,,TRUE,TRUE,,,,,,,CLR,,,,,,,,VFR,-2.5,,,,,,,,,,,METAR,77.0
ROTM 291458Z 00000KT 9999 SKC 18/03 A3002 RMK SLP151 STNPR29720 T01830033 402330161 54000,ROTM,2017-04-29T14:58:00Z,26.27,127.75,18.3,3.3,0,0,,6.21,30.02067,1015.1,,,,,,,,,,SKC,,,,,,,,VFR,,,,23.3,16.1,,,,,,,METAR,75.0
K4MR 291458Z AUTO 03023G31KT 6SM -SHSN OVC013 01/00 A2989 RMK AO2 PK WND 03031/48 SHSNE03SHRAB16E29SHSNB43 PRESFR SLP111 60007 T00111002 50015 $,K4MR,2017-04-29T14:58:00Z,34.3,-103.8,1.1,-0.2,30,23,31,6.0,29.890747,1011.1,,TRUE,TRUE,TRUE,,,,,-SHSN,OVC,1300,,,,,,,MVFR,1.5,,,,,,0.07,,,,,METAR,1326.0
ETOU 291458Z AUTO 00000KT 9999 CLR 15/M01 A3002 RMK AO2 SLP169 T01461009 57010,ETOU,2017-04-29T14:58:00Z,50.03,8.32,14.6,-0.9,0,0,,6.21,30.02067,1016.9,,TRUE,TRUE,,,,,,,CLR,,,,,,,,VFR,-1.0,,,,,,,,,,,METAR,141.0
KPVU 291458Z 20007KT 10SM FEW080 06/M03 A3014,KPVU,2017-04-29T14:58:00Z,40.22,-111.72,6.0,-3.0,200,7,,10.0,30.138779,,,,,,,,,,,FEW,8000,,,,,,,VFR,,,,,,,,,,,,METAR,1369.0
PKMR 291457Z 08015KT 15SM FEW015 SCT050 BKN120 OVC300 28/25 A2978 RMK SHRAB09E31 SLP086 60010 8/878 T02750245 57020,PKMR,2017-04-29T14:57:00Z,7.08,171.38,27.5,24.5,80,15,,15.0,29.778543,1008.6,,,,,,,,,,FEW,1500,SCT,5000,BKN,12000,OVC,30000,VFR,-2.0,,,,,,0.1,,,,,METAR,4.0
MMCZ 291457Z RTD 13022KT 8SM SCT015TCU 29/24 A2992 RMK SLP140 52010 916 8/200 SC,MMCZ,2017-04-29T14:57:00Z,20.52,-86.92,29.0,24.0,130,22,,8.0,29.920275,1014.0,,,,,,,,,,SCT,1500,,,,,,,VFR,1.0,,,,,,,,,,,METAR,5.0
KTNB 291457Z AUTO 21004KT 10SM CLR 23/16 A3028 RMK AO2,KTNB,2017-04-29T14:57:00Z,36.2,-81.65,23.0,16.0,210,4,,10.0,30.280512,,,TRUE,TRUE,,,,,,,CLR,,,,,,,,VFR,,,,,,,,,,,,METAR,911.0
KFLG 291457Z 35009KT 10SM CLR 04/M10 A2998 RMK AO2 SLP118 T00391100 51014,KFLG,2017-04-29T14:57:00Z,35.13,-111.67,3.9,-10.0,350,9,,10.0,29.97933,1011.8,,,TRUE,,,,,,,CLR,,,,,,,,VFR,1.4,,,,,,,,,,,METAR,2134.0
KNYL 291457Z AUTO 35016G21KT 10SM CLR 21/M07 A2998 RMK AO2 SLP149 T02111067 51023,KNYL,2017-04-29T14:57:00Z,32.63,-114.62,21.1,-6.7,350,16,21,10.0,29.97933,1014.9,,TRUE,TRUE,,,,,,,CLR,,,,,,,,VFR,2.3,,,,,,,,,,,SPECI,65.0
PAGH 291457Z AUTO 10010KT 10SM CLR 02/M06 A3002 RMK AO2 SLP195 T00171061 56001 FZRANO,PAGH,2017-04-29T14:57:00Z,66.88,-157.17,1.7,-6.1,100,10,,10.0,30.02067,1019.5,,TRUE,TRUE,,,,TRUE,,,CLR,,,,,,,,VFR,-0.1,,,,,,,,,,,METAR,60.0
PAGA 291457Z AUTO 15003KT 10SM -RA OVC023 04/03 A2998 RMK AO2 SLP158 P0000 60000 T00390033 53003,PAGA,2017-04-29T14:57:00Z,64.73,-156.93,3.9,3.3,150,3,,10.0,29.97933,1015.8,,TRUE,TRUE,,,,,,-RA,OVC,2300,,,,,,,MVFR,0.3,,,,,0.005,0.005,,,,,METAR,46.0
KNSI 291457Z AUTO 35013KT CLR A3001 RMK AO2 SLPNO 53024 PWINO $,KNSI,2017-04-29T14:57:00Z,33.22,-119.45,,,350,13,,,30.008858,,,TRUE,TRUE,TRUE,,,,TRUE,,CLR,,,,,,,,,2.4,,,,,,,,,,,SPECI,154.0
PHNG 291457Z 34014G22KT 7SM SCT015 BKN020 BKN040 21/19 A2987 RMK SLP109 T02060194,PHNG,2017-04-29T14:57:00Z,21.43,-157.77,20.6,19.4,340,14,22,7.0,29.870079,1010.9,,,,,,,,,,SCT,1500,BKN,2000,BKN,4000,,,MVFR,,,,,,,,,,,,SPECI,3.0
KGAD 291456Z AUTO 16009G14KT 10SM CLR A3009 RMK AO2 SLPNO 51007 FZRANO $,KGAD,2017-04-29T14:56:00Z,33.97,-86.07,,,160,9,14,10.0,30.088583,,,TRUE,TRUE,TRUE,,,TRUE,,,CLR,,,,,,,,VFR,0.7,,,,,,,,,,,SPECI,173.0
KGBD 291456Z AUTO 02021G26KT 7SM RA OVC005 05/04 A2988 RMK AO2 PK WND 02027/1402 SLP124 P0004 60013 T00500044 56009,KGBD,2017-04-29T14:56:00Z,38.35,-98.87,5.0,4.4,20,21,26,7.0,29.878937,1012.4,,TRUE,TRUE,,,,,,RA,OVC,500,,,,,,,IFR,-0.9,,,,,0.04,,,,,,SPECI,575.0
KGDV 291456Z AUTO 19004KT 10SM BKN085 10/01 A3027 RMK AO2 SLP261 T01000011 53011,KGDV,2017-04-29T14:56:00Z,47.12,-104.78,10.0,1.1,190,4,,10.0,30.268702,1026.1,,TRUE,TRUE,,,,,,,BKN,8500,,,,,,,VFR,1.1,,,,,,,,,,,SPECI,749.0
KOFF 291456Z AUTO 03013G23KT 10SM CLR 07/02 A3004 RMK AO2 RAB22E39RAB41 SLP182 P0000 60000 T00690020 58016 $,KOFF,2017-04-29T14:56:00Z,41.12,-95.92,6.9,2.0,30,13,23,10.0,30.041338,1018.2,,TRUE,TRUE,TRUE,,,,,,CLR,,,,,,,,VFR,-1.6,,,,,0.005,0.005,,,,,METAR,319.0
KPAM 291456Z AUTO 14018KT 10SM SCT020 28/22 A3010 RMK AO2 SLP196 T02770219 53012 $,KPAM,2017-04-29T14:56:00Z,30.07,-85.57,27.7,21.9,140,18,,10.0,30.100393,1019.6,,TRUE,TRUE,TRUE,,,,,,SCT,2000,,,,,,,VFR,1.2,,,,,,,,,,,METAR,5.0
KDVL 291456Z AUTO 15009KT 10SM CLR 08/M06 A3031 RMK AO2 SLP289 T00831061 52015,KDVL,2017-04-29T14:56:00Z,48.12,-98.92,8.3,-6.1,150,9,,10.0,30.31004,1028.9,,TRUE,TRUE,,,,,,,CLR,,,,,,,,VFR,1.5,,,,,,,,,,,SPECI,443.0
KEEN 291456Z AUTO 23008KT 10SM CLR 24/11 A2993 RMK AO2 SLP149 T02390106 58015,KEEN,2017-04-29T14:56:00Z,42.88,-72.27,23.9,10.6,230,8,,10.0,29.929134,1014.9,,TRUE,TRUE,,,,,,,CLR,,,,,,,,VFR,-1.5,,,,,,,,,,,SPECI,149.0
KEKQ 291456Z AUTO VRB04KT 10SM CLR 27/20 A3009 RMK AO2 SLP195 T02670200 50007,KEKQ,2017-04-29T14:56:00Z,36.85,-84.85,26.7,20.0,0,4,,10.0,30.088583,1019.5,,TRUE,TRUE,,,,,,,CLR,,,,,,,,VFR,0.7,,,,,,,,,,,SPECI,294.0
KENV 291456Z AUTO 31014KT 10SM CLR 08/M04 A3021 RMK AO2 SLP230 6//// T00781044 51019 PNO $,KENV,2017-04-29T14:56:00Z,40.72,-114.02,7.8,-4.4,310,14,,10.0,30.209646,1023.0,,TRUE,TRUE,TRUE,,,,,,CLR,,,,,,,,VFR,1.9,,,,,,,,,,,SPECI,1292.0
KEUL 291456Z AUTO 00000KT 10SM CLR 07/01 A3027 RMK AO2 SLP255 6//// T00720011 51014,KEUL,2017-04-29T14:56:00Z,43.62,-116.62,7.2,1.1,0,0,,10.0,30.268702,1025.5,,TRUE,TRUE,,,,,,,CLR,,,,,,,,VFR,1.4,,,,,,,,,,,SPECI,740.0
KESC 291456Z AUTO 36010G14KT 330V030 10SM CLR 06/M03 A3030 RMK AO2 SLP286 T00561033 51015,KESC,2017-04-29T14:56:00Z,45.75,-87.08,5.6,-3.3,360,10,14,10.0,30.301182,1028.6,,TRUE,TRUE,,,,,,,CLR,,,,,,,,VFR,1.5,,,,,,,,,,,SPECI,187.0
KGPZ 291456Z AUTO 15004KT 10SM CLR 07/M06 A3038 RMK AO2 SLP303 T00671056 53033,KGPZ,2017-04-29T14:56:00Z,47.22,-93.52,6.7,-5.6,150,4,,10.0,30.380905,1030.3,,TRUE,TRUE,,,,,,,CLR,,,,,,,,VFR,3.3,,,,,,,,,,,SPECI,413.0
KGUC 291456Z AUTO 06005KT 10SM CLR M01/M09 A2995 RMK AO2 SLP149 60000 T10061094 53013 FZRANO,KGUC,2017-04-29T14:56:00Z,38.52,-106.92,-0.6,-9.4,60,5,,10.0,29.949802,1014.9,,TRUE,TRUE,,,,TRUE,,,CLR,,,,,,,,VFR,1.3,,,,,,,,,,,SPECI,2339.0
KHEF 291456Z 19005KT 10SM 27/18 A3010 RMK AO2 SLP202 6//// T02720183 58001 PNO $,KHEF,2017-04-29T14:56:00Z,38.72,-77.52,27.2,18.3,190,5,,10.0,30.100393,1020.2,,,TRUE,TRUE,,,,,,,,,,,,,,,-0.1,,,,,,,,,,,SPECI,59.0
KHEZ 291456Z AUTO 17017G22KT 10SM BKN026 OVC038 27/22 A2987 RMK AO2 SLP117 T02720222 50012,KHEZ,2017-04-29T14:56:00Z,31.62,-91.3,27.2,22.2,170,17,22,10.0,29.870079,1011.7,,TRUE,TRUE,,,,,,,BKN,2600,OVC,3800,,,,,MVFR,1.2,,,,,,,,,,,SPECI,83.0
KHND 291456Z 36015KT 10SM CLR 15/M07 A3011 RMK AO2 SLP187 T01501067 53018,KHND,2017-04-29T14:56:00Z,35.98,-115.13,15.0,-6.7,360,15,,10.0,30.109253,1018.7,,,TRUE,,,,,,,CLR,,,,,,,,VFR,1.8,,,,,,,,,,,SPECI,749.0
KSMP 291456Z AUTO 24003KT 10SM CLR 01/01 A3020 RMK AO2 SLP248 T00060006 55002,KSMP,2017-04-29T14:56:00Z,47.28,-121.33,0.6,0.6,240,3,,10.0,30.200787,1024.8,,TRUE,TRUE,,,,,,,CLR,,,,,,,,VFR,-0.2,,,,,,,,,,,SPECI,1208.0
KVPS 291456Z 13019G24KT 10SM SCT014 BKN160 BKN200 26/22 A3007 RMK AO2A SLP188 T02640224 53008 $,KVPS,2017-04-29T14:56:00Z,30.47,-86.52,26.4,22.4,130,19,24,10.0,30.070866,1018.8,,,TRUE,TRUE,,,,,,SCT,1400,BKN,16000,BKN,20000,,,VFR,0.8,,,,,,,,,,,SPECI,26.0
KNSE 291456Z AUTO 15017KT 10SM -RA OVC019 26/22 A3006 RMK AO2 SLP162 P0000 60000 T02560217 51006 $,KNSE,2017-04-29T14:56:00Z,30.73,-87.02,25.6,21.7,150,17,,10.0,30.059055,1016.2,,TRUE,TRUE,TRUE,,,,,-RA,OVC,1900,,,,,,,MVFR,0.6,,,,,0.005,,,,,,SPECI,61.0
KISO 291456Z 23007KT 10SM BKN024 28/21 A3022 RMK AO2,KISO,2017-04-29T14:56:00Z,35.32,-77.62,28.0,21.0,230,7,,10.0,30.221457,,,,TRUE,,,,,,,BKN,2400,,,,,,,MVFR,,,,,,,,,,,,METAR,29.0
KHFF 291456Z AUTO 23010KT 10SM SCT048 28/20 A3020 RMK AO2 SLP239 T02810199 57003 $,KHFF,2017-04-29T14:56:00Z,35.02,-79.5,28.1,19.9,230,10,,10.0,30.200787,1023.9,,TRUE,TRUE,TRUE,,,,,,SCT,4800,,,,,,,VFR,-0.3,,,,,,,,,,,METAR,115.0
KAQV 291456Z AUTO 17008G21KT 130V220 10SM OVC021 26/22 A2976 RMK AO2 SLP074 T02610217 53004 $,KAQV,2017-04-29T14:56:00Z,31.4,-93.3,26.1,21.7,170,8,21,10.0,29.760826,1007.4,,TRUE,TRUE,TRUE,,,,,,OVC,2100,,,,,,,MVFR,0.4,,,,,,,,,,,METAR,111.0
KMEH 291456Z AUTO 00000KT 10SM CLR 02/M02 A3023 RMK AO2 SLP255 I3000 T00221022 55000,KMEH,2017-04-29T14:56:00Z,45.52,-118.42,2.2,-2.2,0,0,,10.0,30.230314,1025.5,,TRUE,TRUE,,,,,,,CLR,,,,,,,,VFR,0.0,,,,,,,,,,,METAR,1136.0
K8D3 291456Z AUTO 18009KT 08/M04 A3033 RMK AO1 SLP285 T00781044 50030,K8D3,2017-04-29T14:56:00Z,45.67,-96.98,7.8,-4.4,180,9,,,30.33071,1028.5,,TRUE,TRUE,,,,,,,,,,,,,,,,3.0,,,,,,,,,,,SPECI,354.0
MUGM 291456Z VRB04KT 9999 FEW035 FEW070 SCT250 30/23 A3004 RMK SLP173 T03000233 51007,MUGM,2017-04-29T14:56:00Z,19.9,-75.2,30.0,23.3,0,4,,6.21,30.041338,1017.3,,,,,,,,,,FEW,3500,FEW,7000,SCT,25000,,,VFR,0.7,,,,,,,,,,,METAR,17.0
KGRF 291456Z 17003KT 10SM BKN110 07/04 A3032 RMK AO2A SLP268 WND DATA ESTMD ALSTG/SLP ESTMD T00660042 57006,KGRF,2017-04-29T14:56:00Z,47.07,-122.57,6.6,4.2,170,3,,10.0,30.318897,1026.8,,,TRUE,,,,,,,BKN,11000,,,,,,,VFR,-0.6,,,,,,,,,,,METAR,92.0
PHSF 291456Z AUTO 12003KT 10SM CLR 08/05 A3017 RMK AO2 SLP114 T00790047 55000 $,PHSF,2017-04-29T14:56:00Z,19.77,-155.55,7.9,4.7,120,3,,10.0,30.171259,1011.4,,TRUE,TRUE,TRUE,,,,,,CLR,,,,,,,,VFR,0.0,,,,,,,,,,,METAR,1887.0
KGNA 291456Z AUTO 16006KT 04/00 A3038 RMK AO1 SLP297 T00390000 53036 $,KGNA,2017-04-29T14:56:00Z,47.75,-90.35,3.9,0.0,160,6,,,30.380905,1029.7,,TRUE,TRUE,TRUE,,,,,,,,,,,,,,,3.6,,,,,,,,,,,METAR,185.0
KNTU 291456Z 23012KT 8SM SCT022 BKN280 27/22 A3014 RMK AO2 SLP209 T02720217 58004,KNTU,2017-04-29T14:56:00Z,36.82,-76.02,27.2,21.7,230,12,,8.0,30.138779,1020.9,,,TRUE,,,,,,,SCT,2200,BKN,28000,,,,,VFR,-0.4,,,,,,,,,,,SPECI,7.0
KNUW 291456Z VRB04KT 10SM FEW060 BKN140 BKN220 09/05 A3033 RMK AO2 SLP269 T00890050 55001 $,KNUW,2017-04-29T14:56:00Z,48.35,-122.65,8.9,5.0,0,4,,10.0,30.33071,1026.9,,,TRUE,TRUE,,,,,,FEW,6000,BKN,14000,BKN,22000,,,VFR,-0.1,,,,,,,,,,,SPECI,14.0
KABH 291456Z AUTO 03019KT -SN BKN026 OVC034 A3007 RMK AO2 PK WND 03031/1409 SLPNO P0000 60000 53011 $,KABH,2017-04-29T14:56:00Z,38.75,-104.3,,,30,19,,,30.070866,,,TRUE,TRUE,TRUE,,,,,-SN,BKN,2600,OVC,3400,,,,,,1.1,,,,,0.005,0.005,,,,,METAR,1840.0
KVPZ 291456Z AUTO 01009KT 10SM OVC055 09/06 A3010 RMK AO2 SLP193 T00940061 50002 $,KVPZ,2017-04-29T14:56:00Z,41.45,-87.0,9.4,6.1,10,9,,10.0,30.100393,1019.3,,TRUE,TRUE,TRUE,,,,,,OVC,5500,,,,,,,VFR,0.2,,,,,,,,,,,METAR,231.0
KUKI 291456Z AUTO 00000KT 10SM CLR 09/06 A3019 RMK AO2 SLP218 T00890061 53011,KUKI,2017-04-29T14:56:00Z,39.12,-123.2,8.9,6.1,0,0,,10.0,30.188976,1021.8,,TRUE,TRUE,,,,,,,CLR,,,,,,,,VFR,1.1,,,,,,,,,,,METAR,187.0
KSLE 291456Z 15006KT 10SM CLR 07/03 A3031 RMK AO2 SLP263 T00670033 53002,KSLE,2017-04-29T14:56:00Z,44.9,-123.0,6.7,3.3,150,6,,10.0,30.31004,1026.3,,,TRUE,,,,,,,CLR,,,,,,,,VFR,0.2,,,,,,,,,,,METAR,59.0
KSHV 291456Z 16015G24KT 10SM OVC026 27/22 A2971 RMK AO2 PK WND 16028/1400 SLP057 T02670222 52004,KSHV,2017-04-29T14:56:00Z,32.45,-93.83,26.7,22.2,160,15,24,10.0,29.71063,1005.7,,,TRUE,,,,,,,OVC,2600,,,,,,,MVFR,0.4,,,,,,,,,,,METAR,83.0
KSFO 291456Z 36008KT 10SM FEW060 18/04 A3011 RMK AO2 SLP195 T01780044 53012,KSFO,2017-04-29T14:56:00Z,37.62,-122.37,17.8,4.4,360,8,,10.0,30.109253,1019.5,,,TRUE,,,,,,,FEW,6000,,,,,,,VFR,1.2,,,,,,,,,,,METAR,3.0
KSDF 291456Z 14005KT 10SM SCT049 BKN060 BKN110 21/18 A3008 RMK AO2 RAE04 SLP180 P0000 60004 T02060183 51034,KSDF,2017-04-29T14:56:00Z,38.18,-85.73,20.6,18.3,140,5,,10.0,30.079725,1018.0,,,TRUE,,,,,,,SCT,4900,BKN,6000,BKN,11000,,,VFR,3.4,,,,,0.005,0.04,,,,,METAR,146.0
KSBP 291456Z 31012G21KT 10SM CLR 18/02 A3005 RMK AO2 SLP173 T01780017 53008,KSBP,2017-04-29T14:56:00Z,35.23,-120.63,17.8,1.7,310,12,21,10.0,30.050198,1017.3,,,TRUE,,,,,,,CLR,,,,,,,,VFR,0.8,,,,,,,,,,,METAR,59.0
TJSJ 291456Z 12013G19KT 10SM FEW022 SCT070 BKN085 28/23 A3008 RMK AO2 SLP185 VCSH NE 60000 T02830228 58000 $,TJSJ,2017-04-29T14:56:00Z,18.43,-66.02,28.3,22.8,120,13,19,10.0,30.079725,1018.5,,,TRUE,TRUE,,,,,,FEW,2200,SCT,7000,BKN,8500,,,VFR,0.0,,,,,,0.005,,,,,METAR,21.0
PPIT 291456Z AUTO 12007KT 10SM OVC055 M01/M01 A2988 RMK AO2 SLP119 T10061006 58004 FZRANO,PPIT,2017-04-29T14:56:00Z,60.9,-162.43,-0.6,-0.6,120,7,,10.0,29.878937,1011.9,,TRUE,TRUE,,,,TRUE,,,OVC,5500,,,,,,,VFR,-0.4,,,,,,,,,,,METAR,4.0
PFWS 291456Z AUTO 09007KT 10SM OVC060 00/M01 A2995 RMK AO2 SLP150 T00001011 56008 FZRANO,PFWS,2017-04-29T14:56:00Z,58.7,-157.0,0.0,-1.1,90,7,,10.0,29.949802,1015.0,,TRUE,TRUE,,,,TRUE,,,OVC,6000,,,,,,,VFR,-0.8,,,,,,,,,,,METAR,49.0
PFKW 291456Z AUTO 10004KT 10SM BKN050 OVC075 00/00 A2989 RMK AO2 SLP123 T00000000 58006 FZRANO,PFKW,2017-04-29T14:56:00Z,60.8,-161.43,0.0,0.0,100,4,,10.0,29.890747,1012.3,,TRUE,TRUE,,,,TRUE,,,BKN,5000,OVC,7500,,,,,VFR,-0.6,,,,,,,,,,,METAR,8.0
PFCL 291456Z AUTO 09009KT OVC080 00/00 A2993 RMK AO2 SLP137 T00000000 58007 PWINO FZRANO $,PFCL,2017-04-29T14:56:00Z,58.83,-158.53,0.0,0.0,90,9,,,29.929134,1013.7,,TRUE,TRUE,TRUE,,,TRUE,TRUE,,OVC,8000,,,,,,,,-0.7,,,,,,,,,,,METAR,24.0
PAQH 291456Z AUTO 05011KT 10SM OVC049 01/M01 A2987 RMK AO2 SLP116 T00061006 58010 PWINO FZRANO,PAQH,2017-04-29T14:56:00Z,59.75,-161.85,0.6,-0.6,50,11,,10.0,29.870079,1011.6,,TRUE,TRUE,,,,TRUE,TRUE,,OVC,4900,,,,,,,VFR,-1.0,,,,,,,,,,,METAR,13.0
PANA 291456Z AUTO 06004KT 10SM BKN050 00/00 A2989 RMK AO2 SLP120 T00000000 58007 FZRANO,PANA,2017-04-29T14:56:00Z,60.68,-161.98,0.0,0.0,60,4,,10.0,29.890747,1012.0,,TRUE,TRUE,,,,TRUE,,,BKN,5000,,,,,,,VFR,-0.7,,,,,,,,,,,METAR,5.0
PAHX 291456Z AUTO 10003KT 10SM CLR 01/M01 A2995 RMK AO2 SLP144 T00111006 55000 FZRANO,PAHX,2017-04-29T14:56:00Z,62.7,-159.57,1.1,-0.6,100,3,,10.0,29.949802,1014.4,,TRUE,TRUE,,,,TRUE,,,CLR,,,,,,,,VFR,0.0,,,,,,,,,,,METAR,24.0
KWMC 291456Z AUTO 00000KT 10SM CLR 02/M03 A3029 RMK AO2 SLP260 T00171028 53012,KWMC,2017-04-29T14:56:00Z,40.9,-117.8,1.7,-2.8,0,0,,10.0,30.28937,1026.0,,TRUE,TRUE,,,,,,,CLR,,,,,,,,VFR,1.2,,,,,,,,,,,METAR,1310.0
KWJF 291456Z 06014KT 10SM CLR 14/M11 A3014 RMK AO2 SLP200 T01391106 53015,KWJF,2017-04-29T14:56:00Z,34.72,-118.22,13.9,-10.6,60,14,,10.0,30.138779,1020.0,,,TRUE,,,,,,,CLR,,,,,,,,VFR,1.5,,,,,,,,,,,METAR,715.0
KMDT 291456Z COR 14005KT 10SM FEW095 BKN160 OVC250 22/18 A3001 RMK AO2 SLP160 60004 T02170183 58014 $,KMDT,2017-04-29T14:56:00Z,40.2,-76.77,21.7,18.3,140,5,,10.0,30.008858,1016.0,TRUE,,TRUE,TRUE,,,,,,FEW,9500,BKN,16000,OVC,25000,,,VFR,-1.4,,,,,,,,,,,SPECI,95.0
KLWS 291456Z 03004KT 10SM CLR 08/04 A3028 RMK AO2 SLP260 T00780039 51004,KLWS,2017-04-29T14:56:00Z,46.37,-117.02,7.8,3.9,30,4,,10.0,30.280512,1026.0,,,TRUE,,,,,,,CLR,,,,,,,,VFR,0.4,,,,,,,,,,,METAR,438.0
KLNR 291456Z AUTO 05010KT 10SM CLR 07/M01 A3023 RMK AO2 SLP235 T00721011 50003,KLNR,2017-04-29T14:56:00Z,43.22,-90.18,7.2,-1.1,50,10,,10.0,30.230314,1023.5,,TRUE,TRUE,,,,,,,CLR,,,,,,,,VFR,0.3,,,,,,,,,,,METAR,217.0
KLAS 291456Z 33014KT 10SM CLR 16/M08 A3009 RMK AO2 SLP177 T01561083 53019,KLAS,2017-04-29T14:56:00Z,36.07,-115.17,15.6,-8.3,330,14,,10.0,30.088583,1017.7,,,TRUE,,,,,,,CLR,,,,,,,,VFR,1.9,,,,,,,,,,,METAR,636.0
KJXN 291456Z 03009KT 10SM CLR 09/04 A3016 RMK AO2 SLP215 T00940039 53009,KJXN,2017-04-29T14:56:00Z,42.27,-84.47,9.4,3.9,30,9,,10.0,30.159449,1021.5,,,TRUE,,,,,,,CLR,,,,,,,,VFR,0.9,,,,,,,,,,,METAR,305.0
KJMS 291456Z AUTO 18005KT 10SM CLR 09/M07 A3032 RMK AO2 SLP279 T00891067 51024,KJMS,2017-04-29T14:56:00Z,46.93,-98.67,8.9,-6.7,180,5,,10.0,30.318897,1027.9,,TRUE,TRUE,,,,,,,CLR,,,,,,,,VFR,2.4,,,,,,,,,,,METAR,455.0
KJAX 291456Z 15011KT 10SM FEW030 SCT034 BKN250 28/20 A3019 RMK AO2 SLP223 T02830200 51013,KJAX,2017-04-29T14:56:00Z,30.5,-81.68,28.3,20.0,150,11,,10.0,30.188976,1022.3,,,TRUE,,,,,,,FEW,3000,SCT,3400,BKN,25000,,,VFR,1.3,,,,,,,,,,,METAR,10.0
KISP 291456Z 26013G20KT 10SM FEW005 FEW030 SCT120 BKN150 BKN250 24/18 A3001 RMK AO2 SLP162 T02390183 50010,KISP,2017-04-29T14:56:00Z,40.8,-73.1,23.9,18.3,260,13,20,10.0,30.008858,1016.2,,,TRUE,,,,,,,FEW,500,FEW,3000,SCT,12000,BKN,15000,VFR,1.0,,,,,,,,,,,METAR,43.0
KINW 291456Z AUTO 32013KT 10SM CLR 07/M07 A2998 RMK AO2 SLP128 T00721067 51014,KINW,2017-04-29T14:56:00Z,35.03,-110.72,7.2,-6.7,320,13,,10.0,29.97933,1012.8,,TRUE,TRUE,,,,,,,CLR,,,,,,,,VFR,1.4,,,,,,,,,,,METAR,1490.0
KRDM 291456Z 00000KT 10SM CLR 03/M03 A3025 RMK AO2 SLP248 T00331028 55002,KRDM,2017-04-29T14:56:00Z,44.25,-121.15,3.3,-2.8,0,0,,10.0,30.250984,1024.8,,,TRUE,,,,,,,CLR,,,,,,,,VFR,-0.2,,,,,,,,,,,METAR,938.0
KOFK 291456Z AUTO 05015G23KT 10SM SCT075 06/M02 A3011 RMK AO2 SLP206 T00611017 58012,KOFK,2017-04-29T14:56:00Z,41.98,-97.43,6.1,-1.7,50,15,23,10.0,30.109253,1020.6,,TRUE,TRUE,,,,,,,SCT,7500,,,,,,,VFR,-1.2,,,,,,,,,,,METAR,470.0
KNUQ 291456Z 00000KT 10SM CLR 17/03 A3012 RMK AO2 SLP200 T01720028 53015,KNUQ,2017-04-29T14:56:00Z,37.4,-122.05,17.2,2.8,0,0,,10.0,30.121063,1020.0,,,TRUE,,,,,,,CLR,,,,,,,,VFR,1.5,,,,,,,,,,,METAR,12.0
KMTW 291456Z AUTO 02013G18KT CLR 05/M03 A3027 RMK AO2 SLP275 T00501028 50014 PWINO $,KMTW,2017-04-29T14:56:00Z,44.12,-87.67,5.0,-2.8,20,13,18,,30.268702,1027.5,,TRUE,TRUE,TRUE,,,,TRUE,,CLR,,,,,,,,,1.4,,,,,,,,,,,METAR,198.0
KMOB 291456Z 15017G24KT 10SM BKN015 OVC020 27/22 A3003 RMK AO2 PK WND 17026/1411 SLP165 T02670217 53011,KMOB,2017-04-29T14:56:00Z,30.68,-88.25,26.7,21.7,150,17,24,10.0,30.029528,1016.5,,,TRUE,,,,,,,BKN,1500,OVC,2000,,,,,MVFR,1.1,,,,,,,,,,,METAR,63.0
KIGX 291456Z AUTO VRB06KT 10SM SCT023 27/21 A3020 RMK AO2 SLP221 T02670211 50002,KIGX,2017-04-29T14:56:00Z,35.93,-79.07,26.7,21.1,0,6,,10.0,30.200787,1022.1,,TRUE,TRUE,,,,,,,SCT,2300,,,,,,,VFR,0.2,,,,,,,,,,,METAR,155.0
KHYA 291456Z 23004KT 10SM OVC100 21/16 A2995 RMK AO2 SLP144 T02060156 56013,KHYA,2017-04-29T14:56:00Z,41.67,-70.27,20.6,15.6,230,4,,10.0,29.949802,1014.4,,,TRUE,,,,,,,OVC,10000,,,,,,,VFR,-1.3,,,,,,,,,,,METAR,22.0
KHWV 291456Z AUTO 24010G20KT 10SM CLR 22/18 A3002 RMK AO2 SLP164 T02220183 50006 TSNO,KHWV,2017-04-29T14:56:00Z,40.82,-72.87,22.2,18.3,240,10,20,10.0,30.02067,1016.4,,TRUE,TRUE,,,TRUE,,,,CLR,,,,,,,,VFR,0.6,,,,,,,,,,,METAR,21.0
KHPN 291456Z 28011G17KT 10SM SCT030 25/17 A3000 RMK AO2 SLP153 T02500172 50010,KHPN,2017-04-29T14:56:00Z,41.07,-73.7,25.0,17.2,280,11,17,10.0,30.0,1015.3,,,TRUE,,,,,,,SCT,3000,,,,,,,VFR,1.0,,,,,,,,,,,METAR,121.0
KGRD 291456Z AUTO 17007KT 9SM OVC011 24/20 A3022 RMK AO2 SLP226 T02390200 53005,KGRD,2017-04-29T14:56:00Z,34.25,-82.15,23.9,20.0,170,7,,9.0,30.221457,1022.6,,TRUE,TRUE,,,,,,,OVC,1100,,,,,,,MVFR,0.5,,,,,,,,,,,METAR,185.0
KGON 291456Z 22007KT 4SM BR SCT003 OVC008 18/16 A3000 RMK AO2 CIG 007V010 SLP158 T01780156 51009,KGON,2017-04-29T14:56:00Z,41.33,-72.05,17.8,15.6,220,7,,4.0,30.0,1015.8,,,TRUE,,,,,,BR,SCT,300,OVC,800,,,,,IFR,0.9,,,,,,,,,,,METAR,3.0
KFSD 291456Z 07010KT 10SM OVC250 08/M01 A3025 RMK AO2 SLP255 T00781011 50018,KFSD,2017-04-29T14:56:00Z,43.58,-96.75,7.8,-1.1,70,10,,10.0,30.250984,1025.5,,,TRUE,,,,,,,OVC,25000,,,,,,,VFR,1.8,,,,,,,,,,,METAR,436.0
KEKO 291456Z AUTO 23005KT 10SM CLR 02/M03 A3025 RMK AO2 SLP250 T00221028 51014,KEKO,2017-04-29T14:56:00Z,40.82,-115.78,2.2,-2.8,230,5,,10.0,30.250984,1025.0,,TRUE,TRUE,,,,,,,CLR,,,,,,,,VFR,1.4,,,,,,,,,,,METAR,1547.0
KEED 291456Z AUTO 02009KT 10SM CLR 20/M04 A3004 RMK AO2 SLP150 T02001044 53022,KEED,2017-04-29T14:56:00Z,34.77,-114.62,20.0,-4.4,20,9,,10.0,30.041338,1015.0,,TRUE,TRUE,,,,,,,CLR,,,,,,,,VFR,2.2,,,,,,,,,,,METAR,302.0
KEAU 291456Z 07013G19KT 10SM CLR 07/M05 A3029 RMK AO2 SLP266 T00721050 53000,KEAU,2017-04-29T14:56:00Z,44.87,-91.47,7.2,-5.0,70,13,19,10.0,30.28937,1026.6,,,TRUE,,,,,,,CLR,,,,,,,,VFR,0.0,,,,,,,,,,,METAR,276.0
KDUG 291456Z AUTO 32018G24KT 10SM SCT100 13/M11 A2992 RMK AO2 SLP082 T01331111 53025 TSNO,KDUG,2017-04-29T14:56:00Z,31.47,-109.58,13.3,-11.1,320,18,24,10.0,29.920275,1008.2,,TRUE,TRUE,,,TRUE,,,,SCT,10000,,,,,,,VFR,2.5,,,,,,,,,,,METAR,1265.0
KDIK 291456Z AUTO 25011KT 10SM CLR 11/M06 A3026 RMK AO2 SLP257 T01111061 53012,KDIK,2017-04-29T14:56:00Z,46.8,-102.8,11.1,-6.1,250,11,,10.0,30.259842,1025.7,,TRUE,TRUE,,,,,,,CLR,,,,,,,,VFR,1.2,,,,,,,,,,,METAR,788.0
KCXY 291456Z 24004KT 10SM -RA FEW031 FEW100 22/17 A3001 RMK AO2 RAB51 SLP160 P0000 60003 T02220167 58016,KCXY,2017-04-29T14:56:00Z,40.22,-76.85,22.2,16.7,240,4,,10.0,30.008858,1016.0,,,TRUE,,,,,,-RA,FEW,3100,FEW,10000,,,,,VFR,-1.6,,,,,0.005,0.03,,,,,METAR,106.0
KCHS 291456Z 22010KT 10SM FEW020 SCT034 SCT200 27/21 A3023 RMK AO2 SLP235 T02670211 50004,KCHS,2017-04-29T14:56:00Z,32.9,-80.03,26.7,21.1,220,10,,10.0,30.230314,1023.5,,,TRUE,,,,,,,FEW,2000,SCT,3400,SCT,20000,,,VFR,0.4,,,,,,,,,,,METAR,13.0
KCEC 291456Z AUTO 00000KT 10SM CLR 10/08 A3026 RMK AO2 SLP249 T01000083 53011,KCEC,2017-04-29T14:56:00Z,41.77,-124.22,10.0,8.3,0,0,,10.0,30.259842,1024.9,,TRUE,TRUE,,,,,,,CLR,,,,,,,,VFR,1.1,,,,,,,,,,,METAR,17.0
KCAE 291456Z 17010KT 10SM BKN021 28/20 A3020 RMK AO2 SLP222 T02780200 50002,KCAE,2017-04-29T14:56:00Z,33.93,-81.12,27.8,20.0,170,10,,10.0,30.200787,1022.2,,,TRUE,,,,,,,BKN,2100,,,,,,,MVFR,0.2,,,,,,,,,,,METAR,70.0
KBZN 291456Z 17005KT 10SM CLR 06/01 A3024 RMK AO2 SLP251 I3000 T00560006 51006,KBZN,2017-04-29T14:56:00Z,45.78,-111.17,5.6,0.6,170,5,,10.0,30.239174,1025.1,,,TRUE,,,,,,,CLR,,,,,,,,VFR,0.6,,,,,,,,,,,METAR,1361.0
KBJJ 291456Z AUTO 00000KT 8SM -RA FEW005 OVC012 13/12 A3012 RMK AO2 LTG DSNT S AND SW SLP201 P0004 60007 T01330122 53024,KBJJ,2017-04-29T14:56:00Z,40.87,-81.88,13.3,12.2,0,0,,8.0,30.121063,1020.1,,TRUE,TRUE,,,,,,-RA,FEW,500,OVC,1200,,,,,MVFR,2.4,,,,,0.04,0.07,,,,,METAR,343.0
KBIH 291456Z AUTO 31004KT 10SM CLR 07/M08 A3027 RMK AO2 SLP236 T00721078 51022,KBIH,2017-04-29T14:56:00Z,37.37,-118.35,7.2,-7.8,310,4,,10.0,30.268702,1023.6,,TRUE,TRUE,,,,,,,CLR,,,,,,,,VFR,2.2,,,,,,,,,,,METAR,1253.0
KBED 291456Z 22008KT 10SM CLR 25/11 A2991 RMK AO2 SLP138 T02500106 58015,KBED,2017-04-29T14:56:00Z,42.47,-71.3,25.0,10.6,220,8,,10.0,29.911417,1013.8,,,TRUE,,,,,,,CLR,,,,,,,,VFR,-1.5,,,,,,,,,,,METAR,50.0
KART 291456Z AUTO 22009KT 10SM OVC075 14/09 A3002 RMK AO2 RAB36E50 SLP166 P0000 60000 T01390089 50010 $,KART,2017-04-29T14:56:00Z,43.98,-76.03,13.9,8.9,220,9,,10.0,30.02067,1016.6,,TRUE,TRUE,TRUE,,,,,,OVC,7500,,,,,,,VFR,1.0,,,,,0.005,0.005,,,,,METAR,100.0
KAND 291456Z AUTO 18007KT 10SM CLR 26/21 A3019 RMK AO2 SLP213 T02610206 51003,KAND,2017-04-29T14:56:00Z,34.5,-82.72,26.1,20.6,180,7,,10.0,30.188976,1021.3,,TRUE,TRUE,,,,,,,CLR,,,,,,,,VFR,0.3,,,,,,,,,,,METAR,239.0
KNLC 291456Z AUTO 32010KT 10SM CLR 12/02 A3009 RMK AO2 SLP189 T01220017 51021,KNLC,2017-04-29T14:56:00Z,36.32,-119.95,12.2,1.7,320,10,,10.0,30.088583,1018.9,,TRUE,TRUE,,,,,,,CLR,,,,,,,,VFR,2.1,,,,,,,,,,,SPECI,72.0
KNXF 291456Z AUTO 04022G33KT 10SM CLR 23/M11 A2991 RMK AO2 PK WND 04033/1452 SLP214 T02331111 53019 $,KNXF,2017-04-29T14:56:00Z,33.28,-117.45,23.3,-11.1,40,22,33,10.0,29.911417,1021.4,,TRUE,TRUE,TRUE,,,,,,CLR,,,,,,,,VFR,1.9,,,,,,,,,,,METAR,27.0
KNFL 291456Z AUTO 21004KT 10SM CLR 06/M07 A3029 RMK AO2 SLP216 T00611067 53014,KNFL,2017-04-29T14:56:00Z,39.42,-118.7,6.1,-6.7,210,4,,10.0,30.28937,1021.6,,TRUE,TRUE,,,,,,,CLR,,,,,,,,VFR,1.4,,,,,,,,,,,SPECI,1199.0
PHBK 291456Z AUTO 36022G29KT 10SM CLR A2989 RMK AO2 PK WND 36029/1450 SLP125 56007,PHBK,2017-04-29T14:56:00Z,22.03,-159.78,,,360,22,29,10.0,29.890747,1012.5,,TRUE,TRUE,,,,,,,CLR,,,,,,,,VFR,-0.7,,,,,,,,,,,METAR,8.0
KNBC 291456Z 16007KT 10SM SCT020 SCT030 24/22 A3022 RMK AO2 SLP232 T02440222 50006 $,KNBC,2017-04-29T14:56:00Z,32.47,-80.72,24.4,22.2,160,7,,10.0,30.221457,1023.2,,,TRUE,TRUE,,,,,,SCT,2000,SCT,3000,,,,,VFR,0.6,,,,,,,,,,,SPECI,12.0
KNYG 291456Z 16010KT 10SM FEW100 24/22 A3011 RMK AO2 SLP198 T02390217 50008,KNYG,2017-04-29T14:56:00Z,38.5,-77.28,23.9,21.7,160,10,,10.0,30.109253,1019.8,,,TRUE,,,,,,,FEW,10000,,,,,,,VFR,0.8,,,,,,,,,,,SPECI,4.0
KP53 291456Z AUTO 01012KT 04/M03 A3031 RMK AO1 SLP272 T00391033 51016,KP53,2017-04-29T14:56:00Z,46.42,-86.65,3.9,-3.3,10,12,,,30.31004,1027.2,,TRUE,TRUE,,,,,,,,,,,,,,,,1.6,,,,,,,,,,,METAR,187.0
K2WX 291456Z AUTO 17003KT 06/M02 A3023 RMK AO1 SLP253 T00561017 53019,K2WX,2017-04-29T14:56:00Z,45.6,-103.55,5.6,-1.7,170,3,,,30.230314,1025.3,,TRUE,TRUE,,,,,,,,,,,,,,,,1.9,,,,,,,,,,,METAR,915.0
KP28 291456Z AUTO 01020G31KT 05/04 A2975 RMK AO1 PK WND 03031/1451 SLP075 P0013 60044 T00500039 58004,KP28,2017-04-29T14:56:00Z,37.28,-98.55,5.0,3.9,10,20,31,,29.749016,1007.5,,TRUE,TRUE,,,,,,,,,,,,,,,,-0.4,,,,,0.13,0.44,,,,,METAR,469.0
KNBT 291456Z AUTO 22016G22KT 10SM FEW024 A3023 RMK AO2 SLP243 52003 $,KNBT,2017-04-29T14:56:00Z,35.02,-76.47,,,220,16,22,10.0,30.230314,1024.3,,TRUE,TRUE,TRUE,,,,,,FEW,2400,,,,,,,VFR,0.3,,,,,,,,,,,METAR,5.0
KMQE 291456Z AUTO 23013G18KT 25/11 A2994 RMK AO1 SLP144 T02500111 58014,KMQE,2017-04-29T14:56:00Z,42.22,-71.12,25.0,11.1,230,13,18,,29.940945,1014.4,,TRUE,TRUE,,,,,,,,,,,,,,,,-1.4,,,,,,,,,,,METAR,199.0
KP60 291456Z AUTO 00000KT M07/M09 A3022 RMK AO1 SLP263 T10671089 51009,KP60,2017-04-29T14:56:00Z,44.55,-110.42,-6.7,-8.9,0,0,,,30.221457,1026.3,,TRUE,TRUE,,,,,,,,,,,,,,,,0.9,,,,,,,,,,,SPECI,2388.0
KSPD 291456Z AUTO 34022KT M01/M01 A3001 RMK AO1 PK WND 35026/1413 SLP157 P0004 60014 T10111011 53020,KSPD,2017-04-29T14:56:00Z,37.28,-102.62,-1.1,-1.1,340,22,,,30.008858,1015.7,,TRUE,TRUE,,,,,,,,,,,,,,,,2.0,,,,,0.04,,,,,,SPECI,1335.0
KNID 291456Z AUTO 10SM CLR 15/M11 A3015 RMK AO2 SLP203 T01501111 53014 $,KNID,2017-04-29T14:56:00Z,35.67,-117.67,15.0,-11.1,,,,10.0,30.15059,1020.3,,TRUE,TRUE,TRUE,,,,,,CLR,,,,,,,,VFR,1.4,,,,,,,,,,,METAR,696.0
KMHS 291456Z AUTO 00000KT 10SM CLR 06/M02 A3025 RMK AO2 SLP259 T00611017 53003 $,KMHS,2017-04-29T14:56:00Z,41.32,-122.32,6.1,-1.7,0,0,,10.0,30.250984,1025.9,,TRUE,TRUE,TRUE,,,,,,CLR,,,,,,,,VFR,0.3,,,,,,,,,,,METAR,1078.0
KNTD 291456Z 05014G24KT 10SM CLR 21/M06 A3002 RMK AO2 PK WND 07027/1409 SLP165 T02111061 53027 $,KNTD,2017-04-29T14:56:00Z,34.12,-119.12,21.1,-6.1,50,14,24,10.0,30.02067,1016.5,,,TRUE,TRUE,,,,,,CLR,,,,,,,,VFR,2.7,,,,,,,,,,,SPECI,4.0
KNFE 291456Z AUTO 23008KT 190V260 10SM FEW022 30/22 A3015 RMK AO2 SLP212 T03000222 58007,KNFE,2017-04-29T14:56:00Z,36.7,-76.13,30.0,22.2,230,8,,10.0,30.15059,1021.2,,TRUE,TRUE,,,,,,,FEW,2200,,,,,,,VFR,-0.7,,,,,,,,,,,METAR,5.0
KNCA 291456Z AUTO 25012G15KT 10SM SCT029 28/22 A3022 RMK AO2 SLP235 T02830222 58004,KNCA,2017-04-29T14:56:00Z,34.72,-77.45,28.3,22.2,250,12,15,10.0,30.221457,1023.5,,TRUE,TRUE,,,,,,,SCT,2900,,,,,,,VFR,-0.4,,,,,,,,,,,METAR,8.0
KNGP 291456Z AUTO 15019G29KT 4SM HZ OVC011 29/26 A2958 RMK AO2 PK WND 15030/1445 SLP017 T02890256 52004 $,KNGP,2017-04-29T14:56:00Z,27.68,-97.27,28.9,25.6,150,19,29,4.0,29.58071,1001.7,,TRUE,TRUE,TRUE,,,,,HZ,OVC,1100,,,,,,,MVFR,0.4,,,,,,,,,,,METAR,6.0
KNMM 291456Z AUTO 16011G17KT 10SM BKN021 OVC027 27/21 A3000 RMK AO2 SLP165 T02670206 51014 $,KNMM,2017-04-29T14:56:00Z,32.53,-88.57,26.7,20.6,160,11,17,10.0,30.0,1016.5,,TRUE,TRUE,TRUE,,,,,,BKN,2100,OVC,2700,,,,,MVFR,1.4,,,,,,,,,,,METAR,97.0
KNDZ 291456Z AUTO 16014G24KT 10SM BKN018 OVC025 27/23 A3005 RMK AO2 SLP161 T02720228 50005 $,KNDZ,2017-04-29T14:56:00Z,30.7,-87.02,27.2,22.8,160,14,24,10.0,30.050198,1016.1,,TRUE,TRUE,TRUE,,,,,,BKN,1800,OVC,2500,,,,,MVFR,0.5,,,,,,,,,,,METAR,54.0
K79J 291456Z AUTO 10SM BKN015 OVC024 28/22 A3008 RMK AO2 SLP181 T02780217 51008,K79J,2017-04-29T14:56:00Z,31.32,-86.4,27.8,21.7,,,,10.0,30.079725,1018.1,,TRUE,TRUE,,,,,,,BKN,1500,OVC,2400,,,,,MVFR,0.8,,,,,,,,,,,SPECI,94.0
KNPA 291456Z 14015G23KT 10SM OVC012 26/22 A3003 RMK AO2 SLP170 T02610222 $,KNPA,2017-04-29T14:56:00Z,30.35,-87.32,26.1,22.2,140,15,23,10.0,30.029528,1017.0,,,TRUE,TRUE,,,,,,OVC,1200,,,,,,,MVFR,,,,,,,,,,,,SPECI,9.0
KGNR 291456Z AUTO VRB05KT 17/05 A2983 RMK AO1 SLP103 T01720050 55007,KGNR,2017-04-29T14:56:00Z,45.47,-69.55,17.2,5.0,0,5,,,29.828741,1010.3,,TRUE,TRUE,,,,,,,,,,,,,,,,-0.7,,,,,,,,,,,SPECI,427.0
KNRS 291456Z AUTO 00000KT 10SM CLR 18/10 A2995 RMK AO2 SLP142 T01780100 51023 $,KNRS,2017-04-29T14:56:00Z,32.57,-117.12,17.8,10.0,0,0,,10.0,29.949802,1014.2,,TRUE,TRUE,TRUE,,,,,,CLR,,,,,,,,VFR,2.3,,,,,,,,,,,METAR,7.0
KALK 291456Z AUTO 29014G21KT 10SM CLR 11/M12 A2996 RMK AO2 SLP076 T01061122 51022,KALK,2017-04-29T14:56:00Z,31.6,-110.43,10.6,-12.2,290,14,21,10.0,29.958662,1007.6,,TRUE,TRUE,,,,,,,CLR,,,,,,,,VFR,2.2,,,,,,,,,,,SPECI,1453.0
KD07 291456Z AUTO 01004KT 08/M03 A3029 RMK AO1 SLP272 T00781028 51019,KD07,2017-04-29T14:56:00Z,45.03,-102.02,7.8,-2.8,10,4,,,30.28937,1027.2,,TRUE,TRUE,,,,,,,,,,,,,,,,1.9,,,,,,,,,,,SPECI,784.0
KNXP 291456Z 27012KT 10SM CLR 16/M11 A3018 RMK AO2 SLP192 FIRST T01561106 51026,KNXP,2017-04-29T14:56:00Z,34.28,-116.17,15.6,-10.6,270,12,,10.0,30.180119,1019.2,,,TRUE,,,,,,,CLR,,,,,,,,VFR,2.6,,,,,,,,,,,SPECI,626.0
KSXT 291456Z AUTO 12003KT 10SM CLR 06/01 A3023 RMK AO2 SLP242 60000 T00610011 53004,KSXT,2017-04-29T14:56:00Z,42.6,-123.37,6.1,1.1,120,3,,10.0,30.230314,1024.2,,TRUE,TRUE,,,,,,,CLR,,,,,,,,VFR,0.4,,,,,,,,,,,SPECI,1170.0
PMDY 291456Z 06007KT 10SM CLR 17/12 A3028 RMK AO2 SLP252 T01720122 56017,PMDY,2017-04-29T14:56:00Z,28.22,-177.37,17.2,12.2,60,7,,10.0,30.280512,1025.2,,,TRUE,,,,,,,CLR,,,,,,,,VFR,-1.7,,,,,,,,,,,METAR,4.0
PPIZ 291456Z AUTO 08004KT 10SM OVC070 M07/M08 A3002 RMK AO2 SLP171 T10671078 53003 FZRANO TSNO,PPIZ,2017-04-29T14:56:00Z,69.73,-163.0,-6.7,-7.8,80,4,,10.0,30.02067,1017.1,,TRUE,TRUE,,,TRUE,TRUE,,,OVC,7000,,,,,,,VFR,0.3,,,,,,,,,,,METAR,8.0
PFYU 291456Z 04006KT 10SM CLR M03/M08 A3004 RMK AO2 SLP197 T10331078 58001,PFYU,2017-04-29T14:56:00Z,66.57,-145.27,-3.3,-7.8,40,6,,10.0,30.041338,1019.7,,,TRUE,,,,,,,CLR,,,,,,,,VFR,-0.1,,,,,,,,,,,SPECI,131.0
PAWS 291456Z AUTO 00000KT 10SM CLR 00/M01 A3004 RMK AO2 SLP189 T00001006 58010 FZRANO $,PAWS,2017-04-29T14:56:00Z,61.57,-149.53,0.0,-0.6,0,0,,10.0,30.041338,1018.9,,TRUE,TRUE,TRUE,,,TRUE,,,CLR,,,,,,,,VFR,-1.0,,,,,,,,,,,SPECI,107.0
PAWN 291456Z AUTO 01004KT 10SM OVC047 00/M03 A3001 RMK AO2 SLP177 60000 T00001033 55001 FZRANO,PAWN,2017-04-29T14:56:00Z,67.57,-162.98,0.0,-3.3,10,4,,10.0,30.008858,1017.7,,TRUE,TRUE,,,,TRUE,,,OVC,4700,,,,,,,VFR,-0.1,,,,,,,,,,,SPECI,30.0
PAVC 291456Z AUTO 09011KT 10SM BKN016 OVC021 04/02 A2975 RMK AO2 SLP078 60000 T00390017 56018,PAVC,2017-04-29T14:56:00Z,55.12,-162.27,3.9,1.7,90,11,,10.0,29.749016,1007.8,,TRUE,TRUE,,,,,,,BKN,1600,OVC,2100,,,,,MVFR,-1.8,,,,,,0.005,,,,,METAR,47.0
PAVA 291456Z AUTO 12005KT 10SM OVC020 01/01 A2986 RMK AO2 SLP126 6//// T00110006 56007 FZRANO PNO $,PAVA,2017-04-29T14:56:00Z,61.53,-165.6,1.1,0.6,120,5,,10.0,29.861221,1012.6,,TRUE,TRUE,TRUE,,,TRUE,,,OVC,2000,,,,,,,MVFR,-0.7,,,,,,,,,,,METAR,23.0
PAUN 291456Z AUTO 09008KT 10SM SCT060 SCT085 02/M01 A2994 RMK AO2 SLP142 T00171006 55002 FZRANO,PAUN,2017-04-29T14:56:00Z,63.88,-160.8,1.7,-0.6,90,8,,10.0,29.940945,1014.2,,TRUE,TRUE,,,,TRUE,,,SCT,6000,SCT,8500,,,,,VFR,-0.2,,,,,,,,,,,METAR,6.0
PASM 291456Z AUTO 13004KT 10SM BKN016 OVC028 02/01 A2990 RMK AO2 SLP144 T00170011 56002 FZRANO,PASM,2017-04-29T14:56:00Z,62.07,-163.3,1.7,1.1,130,4,,10.0,29.899607,1014.4,,TRUE,TRUE,,,,TRUE,,,BKN,1600,OVC,2800,,,,,MVFR,-0.2,,,,,,,,,,,SPECI,92.0
PASK 291456Z AUTO 06006KT 10SM CLR M03/M06 A3000 RMK AO2 SLP157 T10331056 50000 FZRANO $,PASK,2017-04-29T14:56:00Z,66.6,-160.0,-3.3,-5.6,60,6,,10.0,30.0,1015.7,,TRUE,TRUE,TRUE,,,TRUE,,,CLR,,,,,,,,VFR,0.0,,,,,,,,,,,SPECI,8.0
PARS 291456Z AUTO 00000KT 1/4SM FG OVC002 01/01 A2992 RMK AO2 SLP135 T00060006 50000 FZRANO RVRNO $,PARS,2017-04-29T14:56:00Z,61.77,-161.32,0.6,0.6,0,0,,0.25,29.920275,1013.5,,TRUE,TRUE,TRUE,,,TRUE,,FG,OVC,200,,,,,,,LIFR,0.0,,,,,,,,,,,SPECI,16.0
PARC 291456Z AUTO 00000KT 10SM CLR M13/M16 A2999 RMK AO2 SLP215 T11331161 58001 FZRANO,PARC,2017-04-29T14:56:00Z,68.12,-145.58,-13.3,-16.1,0,0,,10.0,29.991142,1021.5,,TRUE,TRUE,,,,TRUE,,,CLR,,,,,,,,VFR,-0.1,,,,,,,,,,,SPECI,636.0
PAPO 291456Z AUTO 13004KT 10SM SCT003 OVC024 M02/M03 A3001 RMK AO2 SLP162 60000 T10221028 50000 FZRANO,PAPO,2017-04-29T14:56:00Z,68.35,-166.8,-2.2,-2.8,130,4,,10.0,30.008858,1016.2,,TRUE,TRUE,,,,TRUE,,,SCT,300,OVC,2400,,,,,MVFR,0.0,,,,,,,,,,,SPECI,6.0
PAPN 291456Z AUTO 11008KT 10SM CLR 01/M01 A2990 RMK AO2 SLP126 T00061006 56007 FZRANO,PAPN,2017-04-29T14:56:00Z,57.58,-157.57,0.6,-0.6,110,8,,10.0,29.899607,1012.6,,TRUE,TRUE,,,,TRUE,,,CLR,,,,,,,,VFR,-0.7,,,,,,,,,,,METAR,18.0
PAPH 291456Z AUTO 11008KT 10SM CLR 02/M01 A2987 RMK AO2 SLP118 T00171006 57012 FZRANO,PAPH,2017-04-29T14:56:00Z,56.95,-158.62,1.7,-0.6,110,8,,10.0,29.870079,1011.8,,TRUE,TRUE,,,,TRUE,,,CLR,,,,,,,,VFR,-1.2,,,,,,,,,,,SPECI,29.0
PAOU 291456Z AUTO 10012KT 10SM FEW043 OVC050 03/01 A2978 RMK AO2 SLP084 T00330006 58017,PAOU,2017-04-29T14:56:00Z,56.0,-161.17,3.3,0.6,100,12,,10.0,29.778543,1008.4,,TRUE,TRUE,,,,,,,FEW,4300,OVC,5000,,,,,VFR,-1.7,,,,,,,,,,,SPECI,4.0
PANW 291456Z AUTO 06003KT 10SM SCT033 BKN050 OVC070 00/M01 A2996 RMK AO2 SLP164 T00001006 57006 FZRANO,PANW,2017-04-29T14:56:00Z,59.45,-157.37,0.0,-0.6,60,3,,10.0,29.958662,1016.4,,TRUE,TRUE,,,,TRUE,,,SCT,3300,BKN,5000,OVC,7000,,,VFR,-0.6,,,,,,,,,,,SPECI,92.0
PAMY 291456Z AUTO 11008KT 9SM BKN020 OVC041 00/00 A2981 RMK AO2 SLP097 T00000000 56011 FZRANO,PAMY,2017-04-29T14:56:00Z,60.37,-166.27,0.0,0.0,110,8,,9.0,29.811024,1009.7,,TRUE,TRUE,,,,TRUE,,,BKN,2000,OVC,4100,,,,,MVFR,-1.1,,,,,,,,,,,SPECI,13.0
PAMM 291456Z AUTO 09009KT 10SM SCT055 08/01 A2994 RMK AO2 SLP128 T00780006 56043,PAMM,2017-04-29T14:56:00Z,55.13,-131.58,7.8,0.6,90,9,,10.0,29.940945,1012.8,,TRUE,TRUE,,,,,,,SCT,5500,,,,,,,VFR,-4.3,,,,,,,,,,,SPECI,1.0
PAMK 291456Z AUTO 09004KT 10SM BKN048 OVC060 02/M01 A2991 RMK AO2 UPB25E42RAB42E43 SLP133 P0000 60000 T00171006 56004 FZRANO $,PAMK,2017-04-29T14:56:00Z,63.48,-162.12,1.7,-0.6,90,4,,10.0,29.911417,1013.3,,TRUE,TRUE,TRUE,,,TRUE,,,BKN,4800,OVC,6000,,,,,VFR,-0.4,,,,,0.005,,,,,,SPECI,28.0
PAMH 291456Z 00000KT 10SM BKN095 M01/M01 A3001 RMK AO2 SLP301 54000 PWINO FZRANO RVRNO,PAMH,2017-04-29T14:56:00Z,63.9,-152.32,-1.0,-1.0,0,0,,10.0,30.008858,1030.1,,,TRUE,,,,TRUE,TRUE,,BKN,9500,,,,,,,VFR,,,,,,,,,,,,SPECI,214.0
PALG 291456Z AUTO 07006KT 10SM OVC050 02/M01 A2991 RMK AO2 SLP134 T00221006 56004 PWINO FZRANO $,PALG,2017-04-29T14:56:00Z,61.53,-160.33,2.2,-0.6,70,6,,10.0,29.911417,1013.4,,TRUE,TRUE,TRUE,,,TRUE,TRUE,,OVC,5000,,,,,,,VFR,-0.4,,,,,,,,,,,SPECI,17.0
PAJC 291456Z AUTO 10007KT 10SM BKN040 03/01 A2989 RMK AO2 SLP121 T00280006 56010,PAJC,2017-04-29T14:56:00Z,56.32,-158.37,2.8,0.6,100,7,,10.0,29.890747,1012.1,,TRUE,TRUE,,,,,,,BKN,4000,,,,,,,VFR,-1.0,,,,,,,,,,,SPECI,15.0
PAIG 291456Z AUTO 02004KT 10SM CLR M01/M02 A2996 RMK AO2 SLP156 T10111017 58004 FZRANO $,PAIG,2017-04-29T14:56:00Z,59.32,-155.9,-1.1,-1.7,20,4,,10.0,29.958662,1015.6,,TRUE,TRUE,TRUE,,,TRUE,,,CLR,,,,,,,,VFR,-0.4,,,,,,,,,,,SPECI,28.0
PAHY 291456Z AUTO 07004KT 10SM BKN044 OVC100 07/02 A2990 RMK AO2 SLP124 T00670017 56040,PAHY,2017-04-29T14:56:00Z,55.2,-132.83,6.7,1.7,70,4,,10.0,29.899607,1012.4,,TRUE,TRUE,,,,,,,BKN,4400,OVC,10000,,,,,VFR,-4.0,,,,,,,,,,,SPECI,1.0
PAHL 291456Z AUTO 07006KT 10SM -RA OVC037 03/M05 A2997 RMK AO2 RAB44 SLP161 P0000 60000 T00281050 53001,PAHL,2017-04-29T14:56:00Z,65.7,-156.35,2.8,-5.0,70,6,,10.0,29.970472,1016.1,,TRUE,TRUE,,,,,,-RA,OVC,3700,,,,,,,VFR,0.1,,,,,0.005,,,,,,SPECI,65.0
PAHC 291456Z AUTO 00000KT 10SM OVC043 02/00 A2994 RMK AO2 SLP143 6//// T00170000 53000 FZRANO PNO $,PAHC,2017-04-29T14:56:00Z,62.18,-159.78,1.7,0.0,0,0,,10.0,29.940945,1014.3,,TRUE,TRUE,TRUE,,,TRUE,,,OVC,4300,,,,,,,VFR,0.0,,,,,,,,,,,SPECI,21.0
PAGS 291456Z AUTO 00000KT 10SM CLR 01/01 A3004 RMK AO2 SLP175 T00060006 58034 FZRANO,PAGS,2017-04-29T14:56:00Z,58.42,-135.73,0.6,0.6,0,0,,10.0,30.041338,1017.5,,TRUE,TRUE,,,,TRUE,,,CLR,,,,,,,,VFR,-3.4,,,,,,,,,,,METAR,9.0
PAFM 291456Z AUTO 01009KT 10SM CLR 00/M05 A3004 RMK AO2 SLP187 T00001050 50000 FZRANO,PAFM,2017-04-29T14:56:00Z,67.1,-157.85,0.0,-5.0,10,9,,10.0,30.041338,1018.7,,TRUE,TRUE,,,,TRUE,,,CLR,,,,,,,,VFR,0.0,,,,,,,,,,,METAR,88.0
PAFE 291456Z AUTO 05008G15KT 10SM BKN005 04/03 A3001 RMK AO2 SLP174 T00390028 56023 $,PAFE,2017-04-29T14:56:00Z,56.97,-133.92,3.9,2.8,50,8,15,10.0,30.008858,1017.4,,TRUE,TRUE,TRUE,,,,,,BKN,500,,,,,,,IFR,-2.3,,,,,,,,,,,METAR,9.0
PAEM 291456Z AUTO 08005KT 10SM -RA 01/00 A2989 RMK AO2 RAB21 SLP180 P0000 60000 T00060000 55004 FZRANO $,PAEM,2017-04-29T14:56:00Z,62.78,-164.48,0.6,0.0,80,5,,10.0,29.890747,1018.0,,TRUE,TRUE,TRUE,,,TRUE,,-RA,,,,,,,,,,-0.4,,,,,0.005,0.005,,,,,METAR,3.0
PADM 291456Z AUTO 00000KT 10SM CLR 01/00 A2995 RMK AO2 SLP152 T00110000 57003 FZRANO,PADM,2017-04-29T14:56:00Z,61.87,-162.03,1.1,0.0,0,0,,10.0,29.949802,1015.2,,TRUE,TRUE,,,,TRUE,,,CLR,,,,,,,,VFR,-0.3,,,,,,,,,,,METAR,31.0
PADL 291456Z AUTO 06005KT 10SM FEW029 OVC038 01/00 A2994 RMK AO2 SLP145 T00060000 56004 FZRANO,PADL,2017-04-29T14:56:00Z,59.05,-158.5,0.6,0.0,60,5,,10.0,29.940945,1014.5,,TRUE,TRUE,,,,TRUE,,,FEW,2900,OVC,3800,,,,,VFR,-0.4,,,,,,,,,,,METAR,26.0
PABV 291456Z AUTO 00000KT 10SM CLR 01/M01 A3005 RMK AO2 SLP184 T00111006 57008 FZRANO $,PABV,2017-04-29T14:56:00Z,61.42,-149.52,1.1,-0.6,0,0,,10.0,30.050198,1018.4,,TRUE,TRUE,TRUE,,,TRUE,,,CLR,,,,,,,,VFR,-0.8,,,,,,,,,,,METAR,29.0
PABL 291456Z AUTO 00000KT 10SM OVC085 M01/M02 A2998 RMK AO2 SLP154 T10111017 57001 FZRANO,PABL,2017-04-29T14:56:00Z,65.98,-161.15,-1.1,-1.7,0,0,,10.0,29.97933,1015.4,,TRUE,TRUE,,,,TRUE,,,OVC,8500,,,,,,,VFR,-0.1,,,,,,,,,,,METAR,7.0
KFBG 291456Z AUTO 17007KT 8SM CLR 27/20 A3020 RMK AO2 SLP227 T02720203 55002,KFBG,2017-04-29T14:56:00Z,35.12,-78.92,27.2,20.3,170,7,,8.0,30.200787,1022.7,,TRUE,TRUE,,,,,,,CLR,,,,,,,,VFR,-0.2,,,,,,,,,,,METAR,74.0
K2DP 291456Z AUTO 23012G18KT 10SM FEW025 28/21 A3021 RMK AO2 SLPNO T02790208 50002 $,K2DP,2017-04-29T14:56:00Z,35.68,-75.9,27.9,20.8,230,12,18,10.0,30.209646,,,TRUE,TRUE,TRUE,,,,,,FEW,2500,,,,,,,VFR,0.2,,,,,,,,,,,METAR,3.0
KQRH 291456Z AUTO 09004KT 9000 BR CLR 30/23 A2980 RMK AO2 SLP078 T02990232 55010,KQRH,2017-04-29T14:56:00Z,,,29.9,23.2,90,4,,5.59,29.799213,1007.8,,TRUE,TRUE,,,,,,BR,CLR,,,,,,,,VFR,-1.0,,,,,,,,,,,METAR,
KQND 291456Z AUTO 09007G12KT 9999 CLR 42/03 A2975 RMK AO2 SLPNO T04210028,KQND,2017-04-29T14:56:00Z,,,42.1,2.8,90,7,12,6.21,29.749016,,,TRUE,TRUE,,,,,,,CLR,,,,,,,,VFR,,,,,,,,,,,,METAR,
KQN3 291456Z AUTO 00000KT 9999 CLR 41/15 A2980 RMK AO2 SLPNO T04130153,KQN3,2017-04-29T14:56:00Z,,,41.3,15.3,0,0,,6.21,29.799213,,,TRUE,TRUE,,,,,,,CLR,,,,,,,,VFR,,,,,,,,,,,,METAR,
KQN2 291456Z AUTO 00000KT 9999 CLR 32/21 A2987 RMK AO2 LTG DSNT SE SLPNO T03170206,KQN2,2017-04-29T14:56:00Z,,,31.7,20.6,0,0,,6.21,29.870079,,,TRUE,TRUE,,,,,,,CLR,,,,,,,,VFR,,,,,,,,,,,,METAR,
KQKR 291456Z AUTO 00000KT 9999 CLR 39/19 A2972 RMK AO2 SLPNO T03920193,KQKR,2017-04-29T14:56:00Z,,,39.2,19.3,0,0,,6.21,29.719488,,,TRUE,TRUE,,,,,,,CLR,,,,,,,,VFR,,,,,,,,,,,,METAR,
KQHY 291456Z AUTO 13009G15KT 10SM OVC009 25/23 A3008 RMK AO2 SLP192 T02540230 53006,KQHY,2017-04-29T14:56:00Z,,,25.4,23.0,130,9,15,10.0,30.079725,1019.2,,TRUE,TRUE,,,,,,,OVC,900,,,,,,,IFR,0.6,,,,,,,,,,,METAR,
KQDG 291456Z AUTO 20004KT 9999 CLR 06/05 A2975 RMK AO2 SLP076 T00590053 401750059 52008 PWINO $,KQDG,2017-04-29T14:56:00Z,,,5.9,5.3,200,4,,6.21,29.749016,1007.6,,TRUE,TRUE,TRUE,,,,TRUE,,CLR,,,,,,,,VFR,0.8,,,17.5,5.9,,,,,,,METAR,
KQD3 291456Z AUTO 09006KT 9999 CLR 30/22 A2973 RMK AO2 SLP065 T03000218 56010,KQD3,2017-04-29T14:56:00Z,,,30.0,21.8,90,6,,6.21,29.731298,1006.5,,TRUE,TRUE,,,,,,,CLR,,,,,,,,VFR,-1.0,,,,,,,,,,,METAR,
KQBF 291456Z AUTO 00000KT 9999 CLR 38/15 A2978 RMK AO2 SLPNO T03820151,KQBF,2017-04-29T14:56:00Z,,,38.2,15.1,0,0,,6.21,29.778543,,,TRUE,TRUE,,,,,,,CLR,,,,,,,,VFR,,,,,,,,,,,,METAR,
KCWI 291456Z AUTO 07022G28KT 10SM CLR 08/02 A3008 RMK AO2 PK WND 06029/1443 SLP215 T00780022 58006,KCWI,2017-04-29T14:56:00Z,41.82,-90.32,7.8,2.2,70,22,28,10.0,30.079725,1021.5,,TRUE,TRUE,,,,,,,CLR,,,,,,,,VFR,-0.6,,,,,,,,,,,SPECI,216.0
KCTB 291456Z AUTO 26014KT 10SM FEW060 08/00 A3016 RMK AO2 SLP221 T00780000 51004,KCTB,2017-04-29T14:56:00Z,48.6,-112.37,7.8,0.0,260,14,,10.0,30.159449,1022.1,,TRUE,TRUE,,,,,,,FEW,6000,,,,,,,VFR,0.4,,,,,,,,,,,SPECI,1175.0
KCOE 291456Z AUTO 17010KT 10SM CLR 07/03 A3025 RMK AO2 SLP269 60000 T00720033 53003,KCOE,2017-04-29T14:56:00Z,47.77,-116.82,7.2,3.3,170,10,,10.0,30.250984,1026.9,,TRUE,TRUE,,,,,,,CLR,,,,,,,,VFR,0.3,,,,,,,,,,,SPECI,707.0
KCOD 291456Z AUTO 00000KT 10SM BKN038 OVC046 02/M02 A3026 RMK AO2 SLP275 60000 T00221022 53011 FZRANO,KCOD,2017-04-29T14:56:00Z,44.52,-109.02,2.2,-2.2,0,0,,10.0,30.259842,1027.5,,TRUE,TRUE,,,,TRUE,,,BKN,3800,OVC,4600,,,,,VFR,1.1,,,,,,,,,,,SPECI,1553.0
KCIU 291456Z AUTO 32014G21KT 10SM FEW027 04/M04 A3025 RMK AO2 SLP273 T00441039 51006,KCIU,2017-04-29T14:56:00Z,46.25,-84.47,4.4,-3.9,320,14,21,10.0,30.250984,1027.3,,TRUE,TRUE,,,,,,,FEW,2700,,,,,,,VFR,0.6,,,,,,,,,,,SPECI,244.0
KCGZ 291456Z AUTO 30007KT 10SM CLR 17/M08 A2993 RMK AO2 SLP128 T01671078 51024 $,KCGZ,2017-04-29T14:56:00Z,32.95,-111.77,16.7,-7.8,300,7,,10.0,29.929134,1012.8,,TRUE,TRUE,TRUE,,,,,,CLR,,,,,,,,VFR,2.4,,,,,,,,,,,SPECI,446.0
KBOK 291456Z AUTO 00000KT 10SM CLR 08/05 A3026 RMK AO2 SLP262 T00780050 53011,KBOK,2017-04-29T14:56:00Z,42.07,-124.28,7.8,5.0,0,0,,10.0,30.259842,1026.2,,TRUE,TRUE,,,,,,,CLR,,,,,,,,VFR,1.1,,,,,,,,,,,SPECI,140.0
KBLM 291456Z AUTO 25012G19KT 10SM CLR 26/18 A3003 RMK AO2 SLP171 T02560183 58009,KBLM,2017-04-29T14:56:00Z,40.17,-74.12,25.6,18.3,250,12,19,10.0,30.029528,1017.1,,TRUE,TRUE,,,,,,,CLR,,,,,,,,VFR,-0.9,,,,,,,,,,,SPECI,48.0
KBKX 291456Z AUTO 07016KT 10SM CLR 07/M06 A3028 RMK AO2 SLP280 T00671061 50020,KBKX,2017-04-29T14:56:00Z,44.28,-96.82,6.7,-6.1,70,16,,10.0,30.280512,1028.0,,TRUE,TRUE,,,,,,,CLR,,,,,,,,VFR,2.0,,,,,,,,,,,SPECI,502.0
KAUO 291456Z AUTO 15012KT 10SM FEW018 26/21 A3015 RMK AO2 SLP220 T02560211 51015,KAUO,2017-04-29T14:56:00Z,32.62,-85.42,25.6,21.1,150,12,,10.0,30.15059,1022.0,,TRUE,TRUE,,,,,,,FEW,1800,,,,,,,VFR,1.5,,,,,,,,,,,METAR,236.0
KASH 291456Z VRB04KT 10SM CLR 25/12 A2991 RMK AO2 SLP137 T02500117 57018,KASH,2017-04-29T14:56:00Z,42.78,-71.52,25.0,11.7,0,4,,10.0,29.911417,1013.7,,,TRUE,,,,,,,CLR,,,,,,,,VFR,-1.8,,,,,,,,,,,METAR,61.0
KAJO 291456Z AUTO 06009G16KT 10SM CLR 20/M07 A3004 RMK AO2 SLP178 T02001072 53019,KAJO,2017-04-29T14:56:00Z,33.9,-117.6,20.0,-7.2,60,9,16,10.0,30.041338,1017.8,,TRUE,TRUE,,,,,,,CLR,,,,,,,,VFR,1.9,,,,,,,,,,,METAR,163.0
KADF 291456Z AUTO 17008G15KT 10SM BKN027 OVC033 26/22 A2974 RMK AO2 SLP073 6//// T02610222 56005 PNO $,KADF,2017-04-29T14:56:00Z,34.1,-93.07,26.1,22.2,170,8,15,10.0,29.740158,1007.3,,TRUE,TRUE,TRUE,,,,,,BKN,2700,OVC,3300,,,,,MVFR,-0.5,,,,,,,,,,,METAR,56.0
K7N0 291456Z AUTO 16014G20KT 10SM 27/23 RMK AO2 SLPNO 6//// T02670233 PNO $,K7N0,2017-04-29T14:56:00Z,29.95,-90.07,26.7,23.3,160,14,20,10.0,,,,TRUE,TRUE,TRUE,,,,,,,,,,,,,,,,,,,,,,,,,,METAR,0.0
K1M4 291456Z AUTO 18009G19KT 10SM BKN018 26/21 A3004 RMK AO2 SLP178 T02560211 55001,K1M4,2017-04-29T14:56:00Z,34.28,-87.6,25.6,21.1,180,9,19,10.0,30.041338,1017.8,,TRUE,TRUE,,,,,,,BKN,1800,,,,,,,MVFR,-0.1,,,,,,,,,,,METAR,284.0
KUDG 291456Z AUTO 19012KT 10SM FEW026 27/21 A3022 RMK AO2 SLP235 T02720211 58000,KUDG,2017-04-29T14:56:00Z,34.45,-79.88,27.2,21.1,190,12,,10.0,30.221457,1023.5,,TRUE,TRUE,,,,,,,FEW,2600,,,,,,,VFR,0.0,,,,,,,,,,,METAR,59.0
KTVF 291456Z AUTO VRB04KT 10SM CLR 07/M06 A3035 RMK AO2 SLP290 T00721056 52027 $,KTVF,2017-04-29T14:56:00Z,48.07,-96.17,7.2,-5.6,0,4,,10.0,30.351377,1029.0,,TRUE,TRUE,TRUE,,,,,,CLR,,,,,,,,VFR,2.7,,,,,,,,,,,METAR,340.0
KSUE 291456Z AUTO 01017G23KT 10SM FEW027 04/M02 A3029 RMK AO2 SLP281 T00441022 51008,KSUE,2017-04-29T14:56:00Z,44.85,-87.42,4.4,-2.2,10,17,23,10.0,30.28937,1028.1,,TRUE,TRUE,,,,,,,FEW,2700,,,,,,,VFR,0.8,,,,,,,,,,,METAR,221.0
KSRC 291456Z AUTO 17015G21KT 10SM OVC027 26/22 A2981 RMK AO2 SLP095 T02610222 50013,KSRC,2017-04-29T14:56:00Z,35.22,-91.73,26.1,22.2,170,15,21,10.0,29.811024,1009.5,,TRUE,TRUE,,,,,,,OVC,2700,,,,,,,MVFR,1.3,,,,,,,,,,,METAR,80.0
KSQI 291456Z AUTO 06017G21KT 10SM OVC050 08/01 A3009 RMK AO2 PK WND 06026/1429 SLP213 T00780011 58003,KSQI,2017-04-29T14:56:00Z,41.75,-89.67,7.8,1.1,60,17,21,10.0,30.088583,1021.3,,TRUE,TRUE,,,,,,,OVC,5000,,,,,,,VFR,-0.3,,,,,,,,,,,METAR,197.0
KSOP 291456Z AUTO 21011KT 10SM CLR 28/20 A3022 RMK AO2 SLP241 T02830200 56002,KSOP,2017-04-29T14:56:00Z,35.22,-79.4,28.3,20.0,210,11,,10.0,30.221457,1024.1,,TRUE,TRUE,,,,,,,CLR,,,,,,,,VFR,-0.2,,,,,,,,,,,METAR,141.0
KSGU 291456Z AUTO 00000KT 10SM CLR 11/M03 A3007 RMK AO2 SLP173 T01061028 53025,KSGU,2017-04-29T14:56:00Z,37.07,-113.52,10.6,-2.8,0,0,,10.0,30.070866,1017.3,,TRUE,TRUE,,,,,,,CLR,,,,,,,,VFR,2.5,,,,,,,,,,,METAR,896.0
KSGJ 291456Z 13014KT 5SM HZ BKN015 28/23 A3021 RMK AO2 SLP229 T02780228 53013,KSGJ,2017-04-29T14:56:00Z,29.97,-81.32,27.8,22.8,130,14,,5.0,30.209646,1022.9,,,TRUE,,,,,,HZ,BKN,1500,,,,,,,MVFR,1.3,,,,,,,,,,,METAR,3.0
KVIS 291456Z AUTO 15008KT 10SM CLR 13/03 A3009 RMK AO2 SLP195 T01330033 53018,KVIS,2017-04-29T14:56:00Z,36.32,-119.4,13.3,3.3,150,8,,10.0,30.088583,1019.5,,TRUE,TRUE,,,,,,,CLR,,,,,,,,VFR,1.8,,,,,,,,,,,METAR,89.0
KWWD 291456Z AUTO 26009KT 10SM CLR 25/21 A3009 RMK AO2 SLP192 T02500211 50027,KWWD,2017-04-29T14:56:00Z,39.02,-74.92,25.0,21.1,260,9,,10.0,30.088583,1019.2,,TRUE,TRUE,,,,,,,CLR,,,,,,,,VFR,2.7,,,,,,,,,,,METAR,7.0
KY50 291456Z AUTO 05010KT 10SM CLR 06/M03 A3028 RMK AO2 SLP285 6//// T00561028 53004,KY50,2017-04-29T14:56:00Z,44.03,-89.3,5.6,-2.8,50,10,,10.0,30.280512,1028.5,,TRUE,TRUE,,,,,,,CLR,,,,,,,,VFR,0.4,,,,,,,,,,,METAR,262.0
PACM 291456Z AUTO 07005KT 10SM OVC020 01/00 A2989 RMK AO2 SLP117 60001 T00110000 56007 FZRANO,PACM,2017-04-29T14:56:00Z,61.85,-165.57,1.1,0.0,70,5,,10.0,29.890747,1011.7,,TRUE,TRUE,,,,TRUE,,,OVC,2000,,,,,,,MVFR,-0.7,,,,,,0.01,,,,,METAR,4.0
PAGN 291456Z AUTO 05004KT 10SM FEW006 03/02 A3003 RMK AO2 SLP157 T00330022 56023,PAGN,2017-04-29T14:56:00Z,57.5,-134.58,3.3,2.2,50,4,,10.0,30.029528,1015.7,,TRUE,TRUE,,,,,,,FEW,600,,,,,,,VFR,-2.3,,,,,,,,,,,SPECI,2.0
PAWG 291456Z 09005KT 10SM BKN005 OVC020 03/03 A2999 RMK AWOS IS NOT RELIABLY AUTO TRANSMITTING HOURLY OBSERVATIONS (KB),PAWG,2017-04-29T14:56:00Z,56.48,-132.37,3.0,3.0,90,5,,10.0,29.991142,,,,TRUE,,,,,,,BKN,500,OVC,2000,,,,,IFR,,,,,,,,,,,,METAR,11.0
KFRM 291456Z AUTO 07014KT 10SM CLR 05/M01 A3026 RMK AO2 SLP259 T00501006 50016,KFRM,2017-04-29T14:56:00Z,43.63,-94.42,5.0,-0.6,70,14,,10.0,30.259842,1025.9,,TRUE,TRUE,,,,,,,CLR,,,,,,,,VFR,1.6,,,,,,,,,,,SPECI,354.0
PATQ 291456Z AUTO 08008KT 10SM CLR M18/M21 A3009 RMK AO2 SNB14E24 SLP196 P0000 60000 T11831211 53003 FZRANO TSNO,PATQ,2017-04-29T14:56:00Z,70.47,-157.43,-18.3,-21.1,80,8,,10.0,30.088583,1019.6,,TRUE,TRUE,,,TRUE,TRUE,,,CLR,,,,,,,,VFR,0.3,,,,,0.005,,,,,,SPECI,29.0
PAOH 291456Z AUTO 00000KT 10SM OVC011 03/02 A3004 RMK AO2 SLP172 T00280022 58022,PAOH,2017-04-29T14:56:00Z,58.1,-135.45,2.8,2.2,0,0,,10.0,30.041338,1017.2,,TRUE,TRUE,,,,,,,OVC,1100,,,,,,,MVFR,-2.2,,,,,,,,,,,SPECI,9.0
KILE 291456Z AUTO 17019G28KT 9SM FEW020 BKN026 OVC034 27/21 A2960 RMK AO2 PK WND 16028/1453 SLP024 T02670211 58003,KILE,2017-04-29T14:56:00Z,31.07,-97.67,26.7,21.1,170,19,28,9.0,29.601377,1002.4,,TRUE,TRUE,,,,,,,FEW,2000,BKN,2600,OVC,3400,,,MVFR,-0.3,,,,,,,,,,,METAR,258.0
KHYS 291456Z AUTO 03021G28KT 9SM OVC007 04/03 A2994 RMK AO2 PK WND 01028/1447 SLP148 60009 T00440033 55015,KHYS,2017-04-29T14:56:00Z,38.85,-99.27,4.4,3.3,30,21,28,9.0,29.940945,1014.8,,TRUE,TRUE,,,,,,,OVC,700,,,,,,,IFR,-1.5,,,,,,,,,,,SPECI,609.0
KITH 291456Z 30007KT 10SM BKN027 15/12 A3008 RMK AO2 SLP181 T01500122 51016,KITH,2017-04-29T14:56:00Z,42.47,-76.45,15.0,12.2,300,7,,10.0,30.079725,1018.1,,,TRUE,,,,,,,BKN,2700,,,,,,,MVFR,1.6,,,,,,,,,,,METAR,335.0
KIWD 291456Z AUTO 06007KT 10SM CLR 04/M05 A3034 RMK AO2 SLP290 T00441050 51029,KIWD,2017-04-29T14:56:00Z,46.52,-90.12,4.4,-5.0,60,7,,10.0,30.339567,1029.0,,TRUE,TRUE,,,,,,,CLR,,,,,,,,VFR,2.9,,,,,,,,,,,METAR,375.0
KLBL 291456Z AUTO 36016KT 7SM -SN OVC007 01/01 A2989 RMK AO2 RAE12SNB12 CIG 005V010 SLP130 6//// T00060006 50008 FZRANO PNO $,KLBL,2017-04-29T14:56:00Z,37.03,-100.97,0.6,0.6,360,16,,7.0,29.890747,1013.0,,TRUE,TRUE,TRUE,,,TRUE,,-SN,OVC,700,,,,,,,IFR,0.8,,,,,,,,,,,METAR,879.0
KLCI 291456Z AUTO 21009KT 10SM BKN060 23/08 A2991 RMK AO2 SLP139 T02280078 56013,KLCI,2017-04-29T14:56:00Z,43.57,-71.42,22.8,7.8,210,9,,10.0,29.911417,1013.9,,TRUE,TRUE,,,,,,,BKN,6000,,,,,,,VFR,-1.3,,,,,,,,,,,METAR,166.0
KLEW 291456Z AUTO 23015G19KT 10SM CLR 24/08 A2985 RMK AO2 SLP121 T02390078 58022,KLEW,2017-04-29T14:56:00Z,44.03,-70.27,23.9,7.8,230,15,19,10.0,29.84941,1012.1,,TRUE,TRUE,,,,,,,CLR,,,,,,,,VFR,-2.2,,,,,,,,,,,METAR,88.0
KLPC 291456Z AUTO 11005KT 10SM CLR 10/06 A3006 RMK AO2 SLP184 T01000056 53017,KLPC,2017-04-29T14:56:00Z,34.67,-120.47,10.0,5.6,110,5,,10.0,30.059055,1018.4,,TRUE,TRUE,,,,,,,CLR,,,,,,,,VFR,1.7,,,,,,,,,,,METAR,27.0
KLRD 291456Z 15014KT 7SM OVC018 27/22 A2956 RMK AO2 SLP006 T02720217 53003 $,KLRD,2017-04-29T14:56:00Z,27.55,-99.47,27.2,21.7,150,14,,7.0,29.56004,1000.6,,,TRUE,TRUE,,,,,,OVC,1800,,,,,,,MVFR,0.3,,,,,,,,,,,METAR,155.0
KM19 291456Z AUTO 10SM FEW039 BKN050 25/22 RMK AO2 SLPNO 6//// T02500217 $,KM19,2017-04-29T14:56:00Z,35.65,-91.17,25.0,21.7,,,,10.0,,,,TRUE,TRUE,TRUE,,,,,,FEW,3900,BKN,5000,,,,,VFR,,,,,,,,,,,,METAR,73.0
KMBL 291456Z AUTO 06008KT 10SM CLR 07/M02 A3024 RMK AO2 SLP265 T00671022 50010,KMBL,2017-04-29T14:56:00Z,44.27,-86.25,6.7,-2.2,60,8,,10.0,30.239174,1026.5,,TRUE,TRUE,,,,,,,CLR,,,,,,,,VFR,1.0,,,,,,,,,,,METAR,189.0
KMJX 291456Z AUTO 26009KT 10SM CLR 27/18 A3002 RMK AO2 PRESFR SLP170 T02720183 58000,KMJX,2017-04-29T14:56:00Z,39.93,-74.3,27.2,18.3,260,9,,10.0,30.02067,1017.0,,TRUE,TRUE,,,,,,,CLR,,,,,,,,VFR,0.0,,,,,,,,,,,METAR,25.0
KMKT 291456Z AUTO 07011KT 10SM CLR 06/M03 A3028 RMK AO2 SLP265 T00561028 50014,KMKT,2017-04-29T14:56:00Z,44.22,-93.92,5.6,-2.8,70,11,,10.0,30.280512,1026.5,,TRUE,TRUE,,,,,,,CLR,,,,,,,,VFR,1.4,,,,,,,,,,,METAR,311.0
KMNM 291456Z AUTO 04010KT 10SM CLR 06/M03 A3030 RMK AO2 SLP283 T00561033 51008 $,KMNM,2017-04-29T14:56:00Z,45.12,-87.62,5.6,-3.3,40,10,,10.0,30.301182,1028.3,,TRUE,TRUE,TRUE,,,,,,CLR,,,,,,,,VFR,0.8,,,,,,,,,,,METAR,191.0
KMQY 291456Z 16010G17KT 10SM CLR 26/21 A3002 RMK AO2 SLP049 T02610206 50004,KMQY,2017-04-29T14:56:00Z,36.02,-86.52,26.1,20.6,160,10,17,10.0,30.02067,1004.9,,,TRUE,,,,,,,CLR,,,,,,,,VFR,0.4,,,,,,,,,,,METAR,166.0
KMML 291456Z AUTO 09009KT 10SM CLR 06/M03 A3030 RMK AO2 SLP275 T00611028 50021,KMML,2017-04-29T14:56:00Z,44.45,-95.82,6.1,-2.8,90,9,,10.0,30.301182,1027.5,,TRUE,TRUE,,,,,,,CLR,,,,,,,,VFR,2.1,,,,,,,,,,,METAR,359.0
KMRF 291456Z AUTO 03011KT 10SM CLR 13/03 A2983 RMK AO2 SLP055 T01280033 51025 TSNO,KMRF,2017-04-29T14:56:00Z,30.37,-104.02,12.8,3.3,30,11,,10.0,29.828741,1005.5,,TRUE,TRUE,,,TRUE,,,,CLR,,,,,,,,VFR,2.5,,,,,,,,,,,METAR,1481.0
KMVN 291456Z AUTO 12004KT 10SM FEW085 18/18 A2998 RMK AO2 LTG DSNT N AND NE TSE33RAE35 SLP151 P0014 60040 T01830178 51030,KMVN,2017-04-29T14:56:00Z,38.32,-88.87,18.3,17.8,120,4,,10.0,29.97933,1015.1,,TRUE,TRUE,,,,,,,FEW,8500,,,,,,,VFR,3.0,,,,,0.14,0.4,,,,,METAR,146.0
KNJK 291456Z 36012KT 10SM CLR 22/M04 A3002 RMK AO2 SLP181 T02221044 53023 $,KNJK,2017-04-29T14:56:00Z,32.82,-115.67,22.2,-4.4,360,12,,10.0,30.02067,1018.1,,,TRUE,TRUE,,,,,,CLR,,,,,,,,VFR,2.3,,,,,,,,,,,METAR,-13.0
KOTG 291456Z AUTO 06014KT 10SM CLR 05/M01 A3025 RMK AO2 SLP260 T00501006 50010,KOTG,2017-04-29T14:56:00Z,43.63,-95.57,5.0,-0.6,60,14,,10.0,30.250984,1026.0,,TRUE,TRUE,,,,,,,CLR,,,,,,,,VFR,1.0,,,,,,,,,,,METAR,480.0
KPTV 291456Z AUTO 11005KT 10SM 16/03 A3010 RMK AO2 SLP203 T01610028 53019 $,KPTV,2017-04-29T14:56:00Z,36.02,-119.07,16.1,2.8,110,5,,10.0,30.100393,1020.3,,TRUE,TRUE,TRUE,,,,,,,,,,,,,,,1.9,,,,,,,,,,,METAR,135.0
KPWG 291456Z AUTO 17020G26KT 8SM FEW026 BKN039 BKN049 27/22 A2959 RMK AO2 PK WND 18032/1427 SLP023 T02670217 50002,KPWG,2017-04-29T14:56:00Z,31.47,-97.32,26.7,21.7,170,20,26,8.0,29.589567,1002.3,,TRUE,TRUE,,,,,,,FEW,2600,BKN,3900,BKN,4900,,,VFR,0.2,,,,,,,,,,,METAR,180.0
KPTN 291456Z AUTO 16013G23KT 10SM OVC018 27/23 A2989 RMK AO2 PK WND 14026/1415 SLP123 T02720233 50003,KPTN,2017-04-29T14:56:00Z,29.72,-91.32,27.2,23.3,160,13,23,10.0,29.890747,1012.3,,TRUE,TRUE,,,,,,,OVC,1800,,,,,,,MVFR,0.3,,,,,,,,,,,METAR,3.0
KPQI 291456Z AUTO 24009KT 10SM FEW070 OVC090 16/04 A2978 RMK AO2 SLP126 T01560039 58022,KPQI,2017-04-29T14:56:00Z,46.67,-68.03,15.6,3.9,240,9,,10.0,29.778543,1012.6,,TRUE,TRUE,,,,,,,FEW,7000,OVC,9000,,,,,VFR,-2.2,,,,,,,,,,,METAR,146.0
KOWB 291456Z 08008KT 10SM BKN022 OVC040 22/17 A3002 RMK AO2 SLP173 T02220172 50026,KOWB,2017-04-29T14:56:00Z,37.72,-87.17,22.2,17.2,80,8,,10.0,30.02067,1017.3,,,TRUE,,,,,,,BKN,2200,OVC,4000,,,,,MVFR,2.6,,,,,,,,,,,METAR,124.0
KPVC 291456Z AUTO 21012KT 10SM CLR 18/14 A2995 RMK AO2 SLP141 T01830139 58014,KPVC,2017-04-29T14:56:00Z,42.07,-70.22,18.3,13.9,210,12,,10.0,29.949802,1014.1,,TRUE,TRUE,,,,,,,CLR,,,,,,,,VFR,-1.4,,,,,,,,,,,METAR,2.0
KPWT 291456Z AUTO 22003KT 10SM CLR 07/06 A3028 RMK AO2 SLP273 T00670056 55005,KPWT,2017-04-29T14:56:00Z,47.5,-122.75,6.7,5.6,220,3,,10.0,30.280512,1027.3,,TRUE,TRUE,,,,,,,CLR,,,,,,,,VFR,-0.5,,,,,,,,,,,METAR,147.0
KRKD 291456Z AUTO 23011G18KT 10SM OVC080 18/11 A2988 RMK AO2 SLP119 T01780106 56016,KRKD,2017-04-29T14:56:00Z,44.07,-69.08,17.8,10.6,230,11,18,10.0,29.878937,1011.9,,TRUE,TRUE,,,,,,,OVC,8000,,,,,,,VFR,-1.6,,,,,,,,,,,METAR,17.0
KRUT 291456Z AUTO 26007KT 10SM FEW055 OVC080 21/08 A2994 RMK AO2 SLP153 T02060078 58001 $,KRUT,2017-04-29T14:56:00Z,43.52,-72.95,20.6,7.8,260,7,,10.0,29.940945,1015.3,,TRUE,TRUE,TRUE,,,,,,FEW,5500,OVC,8000,,,,,VFR,-0.1,,,,,,,,,,,METAR,240.0
KSDY 291456Z AUTO 00000KT 10SM BKN090 09/M01 A3025 RMK AO2 SLP262 T00941006 51005,KSDY,2017-04-29T14:56:00Z,47.7,-104.2,9.4,-0.6,0,0,,10.0,30.250984,1026.2,,TRUE,TRUE,,,,,,,BKN,9000,,,,,,,VFR,0.5,,,,,,,,,,,METAR,605.0
KSFZ 291456Z AUTO 24007KT 10SM CLR 27/14 A2997 RMK AO2 SLP161 T02670139 56010,KSFZ,2017-04-29T14:56:00Z,41.92,-71.5,26.7,13.9,240,7,,10.0,29.970472,1016.1,,TRUE,TRUE,,,,,,,CLR,,,,,,,,VFR,-1.0,,,,,,,,,,,METAR,134.0
KSFM 291456Z AUTO 21005KT 10SM CLR 24/10 A2989 RMK AO2 SLP128 T02440100 58018,KSFM,2017-04-29T14:56:00Z,43.38,-70.72,24.4,10.0,210,5,,10.0,29.890747,1012.8,,TRUE,TRUE,,,,,,,CLR,,,,,,,,VFR,-1.8,,,,,,,,,,,METAR,74.0
KDLH 291455Z 12007KT 070V160 10SM CLR 06/M06 A3036 RMK AO2 SLP298 T00611061 53037,KDLH,2017-04-29T14:55:00Z,46.85,-92.2,6.1,-6.1,120,7,,10.0,30.360237,1029.8,,,TRUE,,,,,,,CLR,,,,,,,,VFR,3.7,,,,,,,,,,,SPECI,435.0
KEAT 291455Z AUTO VRB03KT 10SM CLR 07/01 A3024 RMK AO2 SLP241 T00670006 51003,KEAT,2017-04-29T14:55:00Z,47.4,-120.2,6.7,0.6,0,3,,10.0,30.239174,1024.1,,TRUE,TRUE,,,,,,,CLR,,,,,,,,VFR,0.3,,,,,,,,,,,SPECI,377.0
KGPI 291455Z 18006KT 10SM FEW007 SCT020 OVC047 06/04 A3024 RMK AO2 SLP254 T00560044 51004,KGPI,2017-04-29T14:55:00Z,48.32,-114.25,5.6,4.4,180,6,,10.0,30.239174,1025.4,,,TRUE,,,,,,,FEW,700,SCT,2000,OVC,4700,,,VFR,0.4,,,,,,,,,,,SPECI,908.0
KHON 291455Z AUTO 10007KT 10SM CLR 08/M03 A3030 RMK AO2 SLP270 T00831033 50017,KHON,2017-04-29T14:55:00Z,44.38,-98.23,8.3,-3.3,100,7,,10.0,30.301182,1027.0,,TRUE,TRUE,,,,,,,CLR,,,,,,,,VFR,1.7,,,,,,,,,,,SPECI,390.0
KHSA 291455Z 14012G24KT 7SM OVC012 26/22 A2997,KHSA,2017-04-29T14:55:00Z,30.37,-89.45,26.0,22.0,140,12,24,7.0,29.970472,,,,,,,,,,,OVC,1200,,,,,,,MVFR,,,,,,,,,,,,METAR,7.0
KUGN 291455Z 02017G31KT 10SM SCT014 06/01 A3014 RMK AO2 PK WND 01031/1450 PRESFR SLP210 T00560011 58005,KUGN,2017-04-29T14:55:00Z,42.42,-87.87,5.6,1.1,20,17,31,10.0,30.138779,1021.0,,,TRUE,,,,,,,SCT,1400,,,,,,,VFR,-0.5,,,,,,,,,,,METAR,222.0
EHJR 291455Z AUTO 14018G19KT //// ///////// 09/06 Q1017 W09/H10,EHJR,2017-04-29T14:55:00Z,53.22,3.22,9.0,6.0,140,18,19,,30.029528,,,TRUE,,,,,,,,,,,,,,,,,,,,,,,,,,,,METAR,50.0
EHSC 291455Z AUTO 10005G06KT 9999 ///////// 11/04 Q1016 W10/H7,EHSC,2017-04-29T14:55:00Z,51.93,3.67,11.0,4.0,100,5,6,6.21,30.0,,,TRUE,,,,,,,,,,,,,,,,,,,,,,,,,,,,METAR,50.0
EHSA 291455Z AUTO 09010G12KT 8000 ///////// 10/08 Q1016 W10/H7,EHSA,2017-04-29T14:55:00Z,52.0,3.28,10.0,8.0,90,10,12,4.97,30.0,,,TRUE,,,,,,,,,,,,,,,,,,,,,,,,,,,,METAR,50.0
KFYG 291455Z AUTO 00000KT 2SM VCTS -RA SCT012 BKN039 OVC065 15/15 A2994 RMK AO2 LTG DSNT ALQDS P0003,KFYG,2017-04-29T14:55:00Z,38.58,-91.0,15.0,15.0,0,0,,2.0,29.940945,,,TRUE,TRUE,,,,,,VCTS -RA,SCT,1200,BKN,3900,OVC,6500,,,IFR,,,,,,0.03,,,,,,SPECI,149.0
KRIV 291455Z 03008KT 10SM CLR 18/M10 A3003 RMK A02A PK WND 36031/14 SLPNO T01851103 53016,KRIV,2017-04-29T14:55:00Z,33.87,-117.27,18.5,-10.3,30,8,,10.0,30.029528,,,,TRUE,,,,,,,CLR,,,,,,,,VFR,1.6,,,,,,,,,,,SPECI,469.0
LIVT 291455Z 02001KT 9999 SCT030 18/M01 Q1015 RMK BKN QUK 1 QUL 0 VIS MAR 20 KM VIS MIN 9999,LIVT,2017-04-29T14:55:00Z,45.68,13.75,18.0,-1.0,20,1,,6.21,29.970472,,,,,,,,,,,SCT,3000,,,,,,,VFR,,,,,,,,,,,,METAR,20.0
LIVP 291455Z 21011KT 9999 FEW006 M01/M06 Q1015 RMK FEW MON LIB VAL NIL VIS MIN 9999,LIVP,2017-04-29T14:55:00Z,46.15,11.03,-1.0,-6.0,210,11,,6.21,29.970472,,,,,,,,,,,FEW,600,,,,,,,VFR,,,,,,,,,,,,METAR,2129.0
LIVO 291455Z 09004KT 9999 SCT040 11/01 Q1015 RMK SCT VIS MIN 9999,LIVO,2017-04-29T14:55:00Z,46.5,13.57,11.0,1.0,90,4,,6.21,29.970472,,,,,,,,,,,SCT,4000,,,,,,,VFR,,,,,,,,,,,,METAR,778.0
LIVF 291455Z 09002KT 9999 BKN026 FEW028TCU 11/05 Q1014 RMK BKN MON S W CIME INC ELEV SLW VAL NIL VIS MIN 9999,LIVF,2017-04-29T14:55:00Z,43.52,12.72,11.0,5.0,90,2,,6.21,29.940945,,,,,,,,,,,BKN,2600,FEW,2800,,,,,MVFR,,,,,,,,,,,,METAR,574.0
LIVE 291455Z 36005KT CAVOK 08/M08 Q1014 RMK SKC VIS MIN 9999,LIVE,2017-04-29T14:55:00Z,46.85,10.5,8.0,-8.0,360,5,,6.21,29.940945,,,,,,,,,,,CAVOK,,,,,,,,VFR,,,,,,,,,,,,METAR,1800.0
LIRT 291455Z ///10KT 9999 BKN003 07/05 Q1013 RMK BKN MON INC VAL NIL VIS MIN 9999,LIRT,2017-04-29T14:55:00Z,41.03,15.22,7.0,5.0,,,,6.21,29.911417,,,,,,,,,,,BKN,300,,,,,,,LIFR,,,,,,,,,,,,METAR,1093.0
LIQC 291455Z 16003KT CAVOK 18/12 Q1011 RMK SKC QUK 2 QUL 1 NW VIS MAR 20 KM VIS MIN 9999,LIQC,2017-04-29T14:55:00Z,40.55,14.2,18.0,12.0,160,3,,6.21,29.852362,,,,,,,,,,,CAVOK,,,,,,,,VFR,,,,,,,,,,,,METAR,269.0
LIPL 291455Z /////KT 9999 FEW040 18/M03 Q1016 RMK FEW VIS MIN 9999 WIND THR31 13005KT BLU,LIPL,2017-04-29T14:55:00Z,45.42,10.27,18.0,-3.0,,,,6.21,30.0,,,,,,,,,,,FEW,4000,,,,,,,VFR,,,,,,,,,,,,METAR,92.0
LIMV 291455Z /////KT 9999 SCT010 15/M01 Q1015 RMK SCT MON LIB NC VAL NIL VIS MIN 9999,LIMV,2017-04-29T14:55:00Z,44.55,8.92,15.0,-1.0,,,,6.21,29.970472,,,,,,,,,,,SCT,1000,,,,,,,VFR,,,,,,,,,,,,METAR,475.0
LIMU 291455Z 20010KT CAVOK 16/10 Q1015 RMK SKC QUK 2 QUL 1 S VIS MAR 30 KM VIS MIN 9999,LIMU,2017-04-29T14:55:00Z,43.95,8.17,16.0,10.0,200,10,,6.21,29.970472,,,,,,,,,,,CAVOK,,,,,,,,VFR,,,,,,,,,,,,METAR,221.0
LIEB 291455Z 08010KT 9999 FEW040 16/08 Q1014 RMK SCT QUK 3 QUL 0 VIS MAR 30 KM MON LIB VIS MIN 9999,LIEB,2017-04-29T14:55:00Z,39.93,9.72,16.0,8.0,80,10,,6.21,29.940945,,,,,,,,,,,FEW,4000,,,,,,,VFR,,,,,,,,,,,,METAR,156.0
LIPS 291455Z 23006KT 9999 SCT015 17/03 Q1015 RMK SCT VIS MIN 9999 WIND THR26 20005KT WIND THR08 20005KT BLU,LIPS,2017-04-29T14:55:00Z,45.67,12.08,17.0,3.0,230,6,,6.21,29.970472,,,,,,,,,,,SCT,1500,,,,,,,VFR,,,0.5,,,,,,,,,METAR,41.0
LIPA 291455Z 18007KT 9999 SCT050 16/00 Q1015 RMK SCT VIS MIN 9999 WIND THR05 VRB05KT WIND THR23 18006KT A3000 BLU,LIPA,2017-04-29T14:55:00Z,46.02,12.58,16.0,0.0,180,7,,6.21,29.970472,,,,,,,,,,,SCT,5000,,,,,,,VFR,,,,,,,,,,,,METAR,126.0
LIMY 291455Z VRB04KT CAVOK 17/03 Q1015 RMK SKC VAL NIL VIS MIN 9999,LIMY,2017-04-29T14:55:00Z,44.25,7.78,17.0,3.0,0,4,,6.21,29.970472,,,,,,,,,,,CAVOK,,,,,,,,VFR,,,,,,,,,,,,METAR,1742.0
LIMK 291455Z 16006KT CAVOK 14/M05 Q1015 RMK SKC VAL NIL VIS MIN 9999,LIMK,2017-04-29T14:55:00Z,45.02,7.72,14.0,-5.0,160,6,,6.21,29.970472,,,,,,,,,,,CAVOK,,,,,,,,VFR,,,,,,,,,,,,METAR,710.0
LIMH 291455Z /////KT CAVOK M03/M12 Q1014 RMK MON LIB VAL NIL VIS MIN 9999,LIMH,2017-04-29T14:55:00Z,45.93,7.7,-3.0,-12.0,,,,6.21,29.940945,,,,,,,,,,,CAVOK,,,,,,,,VFR,,,,,,,,,,,,METAR,3488.0
LIVD 291455Z /////KT 9999 FEW025 09/M02 Q1016 RMK FEW VIS MIN 9999,LIVD,2017-04-29T14:55:00Z,46.72,12.22,9.0,-2.0,,,,6.21,30.0,,,,,,,,,,,FEW,2500,,,,,,,VFR,,,,,,,,,,,,METAR,1226.0
LIVC 291455Z 02004KT 0000 FZFG VV000 00/M02 Q1015 RMK MON INVIS VAL INVIS VIS MIN 0000,LIVC,2017-04-29T14:55:00Z,44.2,10.68,0.0,-2.0,20,4,,0.0,29.970472,,,,,,,,,,FZFG,OVX,0,,,,,,,LIFR,,,,,,,,,,,0,METAR,2173.0
LIRX 291455Z 30012KT CAVOK 17/09 Q1013 RMK SKC VIS MIN 9999 VIS MAR 20 KM,LIRX,2017-04-29T14:55:00Z,42.73,10.38,17.0,9.0,300,12,,6.21,29.911417,,,,,,,,,,,CAVOK,,,,,,,,VFR,,,,,,,,,,,,METAR,297.0
LIRE 291455Z 29018KT CAVOK 18/07 Q1011 RMK SKC VIS MIN 9999 WIND THR13 29019KT WIND THR31 /////KT BLU,LIRE,2017-04-29T14:55:00Z,41.63,12.42,18.0,7.0,290,18,,6.21,29.852362,,,,,,,,,,,CAVOK,,,,,,,,VFR,,,,,,,,,,,,METAR,12.0
LIQO 291455Z 31015KT 9999 FEW010 15/01 Q1014 RMK FEW VAL NIL NC VIS MIN 9999,LIQO,2017-04-29T14:55:00Z,42.37,11.17,15.0,1.0,310,15,,6.21,29.940945,,,,,,,,,,,FEW,1000,,,,,,,VFR,,,,,,,,,,,,METAR,632.0
LIED 291455Z 14013KT 9999 SCT040 21/11 Q1012 RMK SCT VIS MIN 9999 WIND THR35 15015KT WIND THR17 29006KT BLU,LIED,2017-04-29T14:55:00Z,39.35,8.97,21.0,11.0,140,13,,6.21,29.88189,,,,,,,,,,,SCT,4000,,,,,,,VFR,,,,,,,,,,,,METAR,28.0
LICZ 291455Z 09012KT 5000 BR SCT018 BKN070 24/11 Q1007 RMK BKN VIS MIN 5000 WIND THR28 /////KT WIND THR10 08013KT A2975 WHT,LICZ,2017-04-29T14:55:00Z,37.38,14.92,24.0,11.0,90,12,,3.11,29.734253,,,,,,,,,,BR,SCT,1800,BKN,7000,,,,,MVFR,,,,,,,,,,,,METAR,22.0
LICF 291455Z 32012G22KT 8000 SCT010 18/11 Q1010 RMK OVC OVC200 QUK 3 QUL 1 NW VIS MAR 8 KM MON GEN INC NC VIS MIN 8000,LICF,2017-04-29T14:55:00Z,38.2,15.55,18.0,11.0,320,12,22,4.97,29.822834,,,,,,,,,,,SCT,1000,,,,,,,MVFR,,,,,,,,,,,,METAR,51.0
LIBY 291455Z 04017KT 9999 FEW020 17/13 Q1009 RMK BKN BKN200 QUK 3 QUL 1 E VIS MAR 15 KM VIS MIN 9999,LIBY,2017-04-29T14:55:00Z,39.82,18.35,17.0,13.0,40,17,,6.21,29.793306,,,,,,,,,,,FEW,2000,,,,,,,VFR,,,,,,,,,,,,METAR,112.0
LIBV 291455Z 36011KT 6000 BKN006 SCT020 12/11 Q1012 RMK OVC VIS MIN 6000 WIND THR32 01012KT WIND THR14 36011KT YLO,LIBV,2017-04-29T14:55:00Z,40.77,16.92,12.0,11.0,360,11,,3.73,29.88189,,,,,,,,,,,BKN,600,SCT,2000,,,,,IFR,,,,,,,,,,,,METAR,350.0
LIBQ 291455Z 25010KT 0000 FG VV/// 08/08 Q1011 RMK MON INVIS VAL INVIS VIS MIN 0000,LIBQ,2017-04-29T14:55:00Z,39.32,16.38,8.0,8.0,250,10,,0.0,29.852362,,,,,,,,,,FG,OVX,0,,,,,,,LIFR,,,,,,,,,,,,METAR,1720.0
LIBN 291455Z 01018G28KT 9999 BKN020 17/16 Q1012 RMK OVC BKN120 VIS MIN 9999 WIND THR14 01020KT WIND THR32 01020KT WHT,LIBN,2017-04-29T14:55:00Z,40.22,18.13,17.0,16.0,10,18,28,6.21,29.88189,,,,,,,,,,,BKN,2000,,,,,,,MVFR,,,,,,,,,,,,METAR,61.0
LIBA 291455Z 12006KT 9999 SCT035 16/11 Q1013 RMK SCT VIS MIN 9999 WIND THR11 11005KT WIND THR29 /////KT BLU,LIBA,2017-04-29T14:55:00Z,41.52,15.72,16.0,11.0,120,6,,6.21,29.911417,,,,,,,,,,,SCT,3500,,,,,,,VFR,,-0.5,,,,,,,,,,METAR,60.0
OAHR 291455Z 02013KT CAVOK 18/M03 Q1020 RMK BLU,OAHR,2017-04-29T14:55:00Z,34.22,62.22,18.0,-3.0,20,13,,6.21,30.11811,,,,,,,,,,,CAVOK,,,,,,,,VFR,,,,,,,,,,,,METAR,964.0
RJOI 291455Z 30005KT 9999 FEW020 14/03 A2985 RMK SLP108 T01440033 402500133 52010,RJOI,2017-04-29T14:55:00Z,34.13,132.22,14.4,3.3,300,5,,6.21,29.84941,1010.8,,,,,,,,,,FEW,2000,,,,,,,VFR,1.0,,,25.0,13.3,,,,,,,METAR,2.0
LICT 291455Z 35017KT CAVOK 17/10 Q1012 RMK FEW FEW070 VIS MIN 9999 WIND THR13 35015KT BLU,LICT,2017-04-29T14:55:00Z,37.92,12.5,17.0,10.0,350,17,,6.21,29.88189,,,,,,,,,,,CAVOK,,,,,,,,VFR,,,,,,,,,,,,METAR,7.0
LICG 291455Z 35018KT 9999 FEW015 SCT018 16/13 Q1012 RMK SCT VIS MIN 9999 WIND THR08 /////KT WIND THR21 01015KT BLU,LICG,2017-04-29T14:55:00Z,36.82,11.97,16.0,13.0,350,18,,6.21,29.88189,,,,,,,,,,,FEW,1500,SCT,1800,,,,,VFR,,,,,,,,,,,,METAR,191.0
LIPF 291455Z /////KT 9999 SCT030 17/07 Q1016,LIPF,2017-04-29T14:55:00Z,44.82,11.62,17.0,7.0,,,,6.21,30.0,,,,,,,,,,,SCT,3000,,,,,,,VFR,,,,,,,,,,,,METAR,10.0
LIPC 291455Z 08008KT CAVOK 15/06 Q1016 RMK SKC VIS MIN 9999 WIND THR11 07006KT WIND THR29 08009KT BLU,LIPC,2017-04-29T14:55:00Z,44.22,12.3,15.0,6.0,80,8,,6.21,30.0,,,,,,,,,,,CAVOK,,,,,,,,VFR,,,,,,,,,,,,METAR,10.0
LIRV 291455Z 02012KT CAVOK 18/01 Q1013 RMK SKC MON E SE LIB NC VIS MIN 9999 BLU,LIRV,2017-04-29T14:55:00Z,42.42,12.07,18.0,1.0,20,12,,6.21,29.911417,,,,,,,,,,,CAVOK,,,,,,,,VFR,,,,,,,,,,,,METAR,300.0
LIRS 291455Z 03015KT CAVOK 19/M01 Q1013 RMK FEW FEW070 VIS MIN 9999 WIND THR03 03010KT WIND THR21 04014KT BLU,LIRS,2017-04-29T14:55:00Z,42.75,11.07,19.0,-1.0,30,15,,6.21,29.911417,,,,,,,,,,,CAVOK,,,,,,,,VFR,,,,,,,,,,,,METAR,7.0
LIRM 291455Z 08015KT 9999 FEW025 21/08 Q1010 RMK SCT VIS MIN 9999 WIND THR06 06015KT BLU,LIRM,2017-04-29T14:55:00Z,41.03,14.07,21.0,8.0,80,15,,6.21,29.822834,,,,,,,,,,,FEW,2500,,,,,,,VFR,,,,,,,,,,,,METAR,10.0
KOQU 291455Z 19014KT 10SM FEW090 SCT110 BKN250 20/15 A2997,KOQU,2017-04-29T14:55:00Z,41.6,-71.42,20.0,15.0,190,14,,10.0,29.970472,,,,,,,,,,,FEW,9000,SCT,11000,BKN,25000,,,VFR,,,,,,,,,,,,METAR,6.0
OAKN 291455Z 26010G14KT 9000 DU CLR 24/M03 A3000 RMK SLP093 Q1016 DA5112 55013,OAKN,2017-04-29T14:55:00Z,31.5,65.83,24.0,-3.0,260,10,14,5.59,30.0,1009.3,,,,,,,,,DU,CLR,,,,,,,,VFR,-1.3,,,,,,,,,,,METAR,1010.0
KVBG 291455Z 14005KT 10SM CLR 13/06 A3005 RMK AO2A SLP179 T01300057 52017,KVBG,2017-04-29T14:55:00Z,34.73,-120.58,13.0,5.7,140,5,,10.0,30.050198,1017.9,,,TRUE,,,,,,,CLR,,,,,,,,VFR,1.7,,,,,,,,,,,SPECI,112.0
TNCE 291455Z AUTO 07016KT 040V110 //// // ///////// 28/23 Q1018 RE//,TNCE,2017-04-29T14:55:00Z,17.47,-62.97,28.0,23.0,70,16,,,30.059055,,,TRUE,,,,,,,,,,,,,,,,,,,,,,,,,,,,METAR,39.0
TNCB 291455Z 10021KT 070V150 9999 BKN018 30/24 Q1014,TNCB,2017-04-29T14:55:00Z,12.13,-68.28,30.0,24.0,100,21,,6.21,29.940945,,,,,,,,,,,BKN,1800,,,,,,,MVFR,,,,,,,,,,,,METAR,6.0
KQKG 291455Z AUTO 00000KT 9999 FEW070 25/14 A3032 RMK AO2 SLP184 WND DATA ESTMD T02490136 56011,KQKG,2017-04-29T14:55:00Z,,,24.9,13.6,0,0,,6.21,30.318897,1018.4,,TRUE,TRUE,,,,,,,FEW,7000,,,,,,,VFR,-1.1,,,,,,,,,,,METAR,
KWDR 291455Z AUTO 16003KT 10SM CLR 27/21 A3020 RMK AO1 LTG DSNT NW,KWDR,2017-04-29T14:55:00Z,33.98,-83.67,27.0,21.0,160,3,,10.0,30.200787,,,TRUE,TRUE,,,,,,,CLR,,,,,,,,VFR,,,,,,,,,,,,SPECI,287.0
MUHA 291455Z 13009KT 100V170 9999 FEW030 29/20 Q1018,MUHA,2017-04-29T14:55:00Z,22.97,-82.42,29.0,20.0,130,9,,6.21,30.059055,,,,,,,,,,,FEW,3000,,,,,,,VFR,,,,,,,,,,,,METAR,64.0
KQVF 291455Z AUTO VRB06KT 9999 FEW029 BKN150 25/21 A2991 RMK AO2 SLP127 WND DATA ESTMD 60001 T02480212 55009,KQVF,2017-04-29T14:55:00Z,,,24.8,21.2,0,6,,6.21,29.911417,1012.7,,TRUE,TRUE,,,,,,,FEW,2900,BKN,15000,,,,,VFR,-0.9,,,,,,0.01,,,,,METAR,
FJDG 291455Z 10008KT 9999 FEW020 SCT250 28/24 A2988 RMK SLP115 8/102 T02790243 53017,FJDG,2017-04-29T14:55:00Z,-7.32,72.42,27.9,24.3,100,8,,6.21,29.878937,1011.5,,,,,,,,,,FEW,2000,SCT,25000,,,,,VFR,1.7,,,,,,,,,,,METAR,3.0
RKSO 291455Z 20004KT 7SM CLR 16/05 A2975 RMK AO2A SLPNO WND DATA ESTMD ALSTG ESTMD $,RKSO,2017-04-29T14:55:00Z,37.07,127.02,16.0,5.0,200,4,,7.0,29.749016,,,,TRUE,TRUE,,,,,,CLR,,,,,,,,VFR,,,,,,,,,,,,METAR,12.0
PATL 291455Z AUTO 00000KT 10SM FEW070 BKN095 01/00 A3002 RMK AO2 SLP176 T00130004 54000 $,PATL,2017-04-29T14:55:00Z,62.9,-155.97,1.3,0.4,0,0,,10.0,30.02067,1017.6,,TRUE,TRUE,TRUE,,,,,,FEW,7000,BKN,9500,,,,,VFR,,,,,,,,,,,,METAR,294.0
PAIM 291455Z AUTO 00000KT 10SM OVC050 00/M06 A2997 RMK AO2 SLP162 T00041056 54001,PAIM,2017-04-29T14:55:00Z,66.0,-153.7,0.4,-5.6,0,0,,10.0,29.970472,1016.2,,TRUE,TRUE,,,,,,,OVC,5000,,,,,,,VFR,,,,,,,,,,,,METAR,389.0
KLZU 291455Z 16008KT 07SM BKN055 26/19 A3018 RMK ATIS F RWY 7 LL,KLZU,2017-04-29T14:55:00Z,33.98,-83.97,26.0,19.0,160,8,,7.0,30.180119,,,,,,,,,,,BKN,5500,,,,,,,VFR,,,,,,,,,,,,METAR,323.0
ORBD 291455Z 28007KT 9999 BKN280 35/M02 A2976 RMK SLP077 WND DATA/ALSTG/SLP ESTMD 52002,ORBD,2017-04-29T14:55:00Z,33.93,44.37,35.0,-2.0,280,7,,6.21,29.760826,1007.7,,,,,,,,,,BKN,28000,,,,,,,VFR,0.2,,,,,,,,,,,METAR,49.0
OAJL 291455Z 13014G24KT 8000 BLDU CLR 30/03 A2982 RMK AO2A SLP065 T02960029 53017 $,OAJL,2017-04-29T14:55:00Z,34.42,70.47,29.6,2.9,130,14,24,4.97,29.819881,1006.5,,,TRUE,TRUE,,,,,BLDU,CLR,,,,,,,,MVFR,1.7,,,,,,,,,,,METAR,580.0
KQBL 291455Z AUTO VRB04KT 10SM BKN008 27/24 A3008 RMK AO2 SLP186 WND DATA ESTMD T02650235 53004,KQBL,2017-04-29T14:55:00Z,,,26.5,23.5,0,4,,10.0,30.079725,1018.6,,TRUE,TRUE,,,,,,,BKN,800,,,,,,,IFR,0.4,,,,,,,,,,,METAR,
KCNK 291455Z AUTO 02014G25KT 5SM -RA BR OVC009 05/04 A2995 RMK AO2 CIG 007V012 SLP149 P0000 60015 T00500044 55010,KCNK,2017-04-29T14:55:00Z,39.55,-97.65,5.0,4.4,20,14,25,5.0,29.949802,1014.9,,TRUE,TRUE,,,,,,-RA BR,OVC,900,,,,,,,IFR,-1.0,,,,,0.005,,,,,,SPECI,447.0
KCMA 291455Z 06015KT 10SM CLR 22/M09 A3002 RMK AO2 PK WND 04026/1425 SLP173 T02171089 53025,KCMA,2017-04-29T14:55:00Z,34.22,-119.1,21.7,-8.9,60,15,,10.0,30.02067,1017.3,,,TRUE,,,,,,,CLR,,,,,,,,VFR,2.5,,,,,,,,,,,SPECI,23.0
KANJ 291455Z AUTO 32014G17KT 10SM CLR 05/M03 A3024 RMK AO2 SLP246 T00501028 53005,KANJ,2017-04-29T14:55:00Z,46.47,-84.37,5.0,-2.8,320,14,17,10.0,30.239174,1024.6,,TRUE,TRUE,,,,,,,CLR,,,,,,,,VFR,0.5,,,,,,,,,,,SPECI,218.0
KAAT 291455Z AUTO 00000KT 10SM CLR 01/M02 A3028 RMK AO2 SLP255 T00111017 53006 $,KAAT,2017-04-29T14:55:00Z,41.48,-120.57,1.1,-1.7,0,0,,10.0,30.280512,1025.5,,TRUE,TRUE,TRUE,,,,,,CLR,,,,,,,,VFR,0.6,,,,,,,,,,,SPECI,1331.0
KTIX 291455Z 14011KT 7SM BKN026 30/23 A3020,KTIX,2017-04-29T14:55:00Z,28.5,-80.8,30.0,23.0,140,11,,7.0,30.200787,,,,,,,,,,,BKN,2600,,,,,,,MVFR,,,,,,,,,,,,METAR,11.0
K2I0 291455Z AUTO 19007G16KT 10SM CLR 27/21 A3000 RMK AO2 T02680214,K2I0,2017-04-29T14:55:00Z,37.35,-87.4,26.8,21.4,190,7,16,10.0,30.0,,,TRUE,TRUE,,,,,,,CLR,,,,,,,,VFR,,,,,,,,,,,,METAR,134.0
K1R7 291455Z AUTO 14013G21KT 10SM SCT019 BKN027 28/23 A2994 RMK AO2,K1R7,2017-04-29T14:55:00Z,31.6,-90.42,28.0,23.0,140,13,21,10.0,29.940945,,,TRUE,TRUE,,,,,,,SCT,1900,BKN,2700,,,,,MVFR,,,,,,,,,,,,SPECI,149.0
OPMT 291455Z 05006KT 3000 DIS NSC 33/14 Q1004 NOSIG,OPMT,2017-04-29T14:55:00Z,30.18,71.42,33.0,14.0,50,6,,1.86,29.64567,,,,,,TRUE,,,,,CLR,,,,,,,,IFR,,,,,,,,,,,,METAR,123.0
KFCI 291455Z AUTO 24007KT 10SM BKN019 A3017 RMK AO1 52007,KFCI,2017-04-29T14:55:00Z,37.4,-77.52,,,240,7,,10.0,30.171259,,,TRUE,TRUE,,,,,,,BKN,1900,,,,,,,MVFR,0.7,,,,,,,,,,,METAR,72.0
KGXA 291455Z AUTO 02008KT 13/M13 A3014 RMK AO2 SLP201 WND DATA ESTMD T01261132 52017 TSNO $,KGXA,2017-04-29T14:55:00Z,34.57,-117.67,12.6,-13.2,20,8,,,30.138779,1020.1,,TRUE,TRUE,TRUE,,TRUE,,,,,,,,,,,,,1.7,,,,,,,,,,,METAR,923.0
PALU 291455Z AUTO 00000KT 10SM OVC046 M01/M02 A3001 RMK AO2 SLP163 T10081025 52008,PALU,2017-04-29T14:55:00Z,68.88,-166.1,-0.8,-2.5,0,0,,10.0,30.008858,1016.3,,TRUE,TRUE,,,,,,,OVC,4600,,,,,,,VFR,0.8,,,,,,,,,,,METAR,3.0
PASV 291455Z AUTO 35002KT 10SM OVC060 01/M04 A2995 RMK AO2 SLP156 T00141039 57006,PASV,2017-04-29T14:55:00Z,61.1,-155.57,1.4,-3.9,350,2,,10.0,29.949802,1015.6,,TRUE,TRUE,,,,,,,OVC,6000,,,,,,,VFR,-0.6,,,,,,,,,,,METAR,484.0
KBYS 291455Z AUTO 33018G24KT 10SM CLR 14/M10 A3013 RMK AO2 SLP192 WND DATA ESTMD T01411105 52011,KBYS,2017-04-29T14:55:00Z,35.28,-116.62,14.1,-10.5,330,18,24,10.0,30.129921,1019.2,,TRUE,TRUE,,,,,,,CLR,,,,,,,,VFR,1.1,,,,,,,,,,,SPECI,716.0
TXKF 291455Z 31005KT 280V360 9999 SCT013 SCT020 23/19 Q1028 ,TXKF,2017-04-29T14:55:00Z,32.37,-64.68,23.0,19.0,310,5,,6.21,30.35433,,,,,,,,,,,SCT,1300,SCT,2000,,,,,VFR,,,,,,,,,,,,METAR,6.0
KCNW 291455Z 15011G20KT 7SM HZ SCT020 BKN027 27/22 A2958,KCNW,2017-04-29T14:55:00Z,31.63,-97.07,27.0,22.0,150,11,20,7.0,29.58071,,,,,,,,,,HZ,SCT,2000,BKN,2700,,,,,MVFR,,,,,,,,,,,,METAR,156.0
KINL 291455Z AUTO 15004KT 10SM CLR 07/M08 A3034 RMK AO2 SLP291 T00671083 53033 $,KINL,2017-04-29T14:55:00Z,48.57,-93.4,6.7,-8.3,150,4,,10.0,30.339567,1029.1,,TRUE,TRUE,TRUE,,,,,,CLR,,,,,,,,VFR,3.3,,,,,,,,,,,SPECI,360.0
KLLJ 291455Z AUTO 17003KT 10SM CLR 02/M06 A3026 RMK AO2 SLP251 T00171056 51012,KLLJ,2017-04-29T14:55:00Z,44.52,-114.22,1.7,-5.6,170,3,,10.0,30.259842,1025.1,,TRUE,TRUE,,,,,,,CLR,,,,,,,,VFR,1.2,,,,,,,,,,,METAR,1536.0
KMKG 291455Z 05011KT 10SM BKN220 10/01 A3018 RMK AO2 SLP223 T01000006 58003,KMKG,2017-04-29T14:55:00Z,43.17,-86.23,10.0,0.6,50,11,,10.0,30.180119,1022.3,,,TRUE,,,,,,,BKN,22000,,,,,,,VFR,-0.3,,,,,,,,,,,SPECI,191.0
KNBG 291455Z 16015G25KT 10SM SCT019 BKN020 OVC030 26/24 A2992 RMK AO2 SLP132 T02610239 51003 $,KNBG,2017-04-29T14:55:00Z,29.82,-90.02,26.1,23.9,160,15,25,10.0,29.920275,1013.2,,,TRUE,TRUE,,,,,,SCT,1900,BKN,2000,OVC,3000,,,MVFR,0.3,,,,,,,,,,,METAR,1.0
KNKX 291455Z 30004KT 10SM FEW200 22/M08 A2995 RMK AO2 SLP135 T02221078 53023 $,KNKX,2017-04-29T14:55:00Z,32.87,-117.13,22.2,-7.8,300,4,,10.0,29.949802,1013.5,,,TRUE,TRUE,,,,,,FEW,20000,,,,,,,VFR,2.3,,,,,,,,,,,METAR,146.0
KDRA 291455Z AUTO 05011KT 10SM CLR 11/M06 A3015 RMK AO2 SLP188 T01111061 53016,KDRA,2017-04-29T14:55:00Z,36.62,-116.03,11.1,-6.1,50,11,,10.0,30.15059,1018.8,,TRUE,TRUE,,,,,,,CLR,,,,,,,,VFR,1.6,,,,,,,,,,,SPECI,1006.0
KNFG 291455Z AUTO 03018G27KT 6SM HZ CLR 22/M09 A2993 RMK AO2 PK WND 04027/1454 SLP135 T02221094 53018 $,KNFG,2017-04-29T14:55:00Z,33.28,-117.33,22.2,-9.4,30,18,27,6.0,29.929134,1013.5,,TRUE,TRUE,TRUE,,,,,HZ,CLR,,,,,,,,VFR,1.8,,,,,,,,,,,METAR,24.0
KADM 291455Z AUTO 36010G18KT 7SM -RA BKN022 OVC031 15/15 A2960 RMK LTG DSNT NE,KADM,2017-04-29T14:55:00Z,34.28,-97.02,15.0,15.0,360,10,18,7.0,29.601377,,,TRUE,,,,,,,-RA,BKN,2200,OVC,3100,,,,,MVFR,,,,,,,,,,,,METAR,232.0
KPHP 291455Z AUTO VRB04KT 10SM CLR 09/M03 A3028 RMK AO2 SLP261 T00891033 50014,KPHP,2017-04-29T14:55:00Z,44.05,-101.6,8.9,-3.3,0,4,,10.0,30.280512,1026.1,,TRUE,TRUE,,,,,,,CLR,,,,,,,,VFR,1.4,,,,,,,,,,,SPECI,672.0
KRNO 291455Z 08003KT 10SM CLR 06/M06 A3028 RMK AO2 SLP243 T00561061 53011,KRNO,2017-04-29T14:55:00Z,39.5,-119.77,5.6,-6.1,80,3,,10.0,30.280512,1024.3,,,TRUE,,,,,,,CLR,,,,,,,,VFR,1.1,,,,,,,,,,,SPECI,1342.0
KSCK 291455Z 28007KT 10SM CLR 13/06 A3009 RMK AO2 SLP190 T01280061 53019,KSCK,2017-04-29T14:55:00Z,37.88,-121.22,12.8,6.1,280,7,,10.0,30.088583,1019.0,,,TRUE,,,,,,,CLR,,,,,,,,VFR,1.9,,,,,,,,,,,SPECI,10.0
KLWT 291454Z AUTO 11007KT 10SM CLR 06/01 A3021 RMK AO2 SLP246 T00560006 50008,KLWT,2017-04-29T14:54:00Z,47.03,-109.47,5.6,0.6,110,7,,10.0,30.209646,1024.6,,TRUE,TRUE,,,,,,,CLR,,,,,,,,VFR,0.8,,,,,,,,,,,METAR,1270.0
KVAY 291454Z AUTO 23005KT 10SM CLR 24/18 A3002 RMK AO2 SLP166 T02440183 50005,KVAY,2017-04-29T14:54:00Z,39.93,-74.83,24.4,18.3,230,5,,10.0,30.02067,1016.6,,TRUE,TRUE,,,,,,,CLR,,,,,,,,VFR,0.5,,,,,,,,,,,SPECI,15.0
KVSF 291454Z AUTO VRB03KT 10SM FEW060 BKN090 23/08 A2992 RMK AO2 SLP130 T02280078 58014,KVSF,2017-04-29T14:54:00Z,43.35,-72.52,22.8,7.8,0,3,,10.0,29.920275,1013.0,,TRUE,TRUE,,,,,,,FEW,6000,BKN,9000,,,,,VFR,-1.4,,,,,,,,,,,SPECI,175.0
KWAL 291454Z AUTO 26014G23KT 9SM OVC016 26/23 A3014 RMK AO2 SLP203 T02560228 51017,KWAL,2017-04-29T14:54:00Z,37.93,-75.47,25.6,22.8,260,14,23,9.0,30.138779,1020.3,,TRUE,TRUE,,,,,,,OVC,1600,,,,,,,MVFR,1.7,,,,,,,,,,,METAR,14.0
KJST 291454Z AUTO 22010KT 10SM CLR 19/16 A3009 RMK AO2 SLP181 60001 T01940156 58002,KJST,2017-04-29T14:54:00Z,40.32,-78.83,19.4,15.6,220,10,,10.0,30.088583,1018.1,,TRUE,TRUE,,,,,,,CLR,,,,,,,,VFR,-0.2,,,,,,0.01,,,,,METAR,694.0
KLEX 291454Z 20008KT 10SM FEW029 25/19 A3010 RMK AO2 SLP181 T02500194 53028,KLEX,2017-04-29T14:54:00Z,38.03,-84.6,25.0,19.4,200,8,,10.0,30.100393,1018.1,,,TRUE,,,,,,,FEW,2900,,,,,,,VFR,2.8,,,,,,,,,,,METAR,300.0
KLBT 291454Z AUTO 23009KT 10SM FEW025 27/22 A3021 RMK AO2 SLP229 T02670217 58002,KLBT,2017-04-29T14:54:00Z,34.6,-79.07,26.7,21.7,230,9,,10.0,30.209646,1022.9,,TRUE,TRUE,,,,,,,FEW,2500,,,,,,,VFR,-0.2,,,,,,,,,,,METAR,37.0
KLYH 291454Z 19009KT 10SM CLR 26/21 A3018 RMK AO2 SLP211 T02560206 50004,KLYH,2017-04-29T14:54:00Z,37.32,-79.2,25.6,20.6,190,9,,10.0,30.180119,1021.1,,,TRUE,,,,,,,CLR,,,,,,,,VFR,0.4,,,,,,,,,,,METAR,295.0
KLWM 291454Z 22010KT 10SM CLR 27/11 A2992 RMK AO2 SLP130 T02670111 56020,KLWM,2017-04-29T14:54:00Z,42.72,-71.13,26.7,11.1,220,10,,10.0,29.920275,1013.0,,,TRUE,,,,,,,CLR,,,,,,,,VFR,-2.0,,,,,,,,,,,METAR,54.0
KIPT 291454Z 00000KT 10SM CLR A3004,KIPT,2017-04-29T14:54:00Z,41.25,-76.92,,,0,0,,10.0,30.041338,,,,,,,,,,,CLR,,,,,,,,VFR,,,,,,,,,,,,METAR,164.0
KPHL 291454Z 23010KT 10SM FEW035 SCT080 BKN150 OVC260 25/18 A3003 RMK SLP169 T02500183 50003,KPHL,2017-04-29T14:54:00Z,39.87,-75.23,25.0,18.3,230,10,,10.0,30.029528,1016.9,,,,,,,,,,FEW,3500,SCT,8000,BKN,15000,OVC,26000,VFR,0.3,,,,,,,,,,,SPECI,18.0
MUCF 291454Z 10009KT 050V140 9999 SCT025 30/21 Q1018,MUCF,2017-04-29T14:54:00Z,22.13,-80.4,30.0,21.0,100,9,,6.21,30.059055,,,,,,,,,,,SCT,2500,,,,,,,VFR,,,,,,,,,,,,METAR,39.0
PAPT 291454Z 00000KT 04SM BCFG SCT010 BKN080 M00/M00 A2996 RMK NOSPECI FIRST,PAPT,2017-04-29T14:54:00Z,62.1,-152.72,0.0,0.0,0,0,,4.0,29.958662,,,,,,,,,,BCFG,SCT,1000,BKN,8000,,,,,MVFR,,,,,,,,,,,,METAR,558.0
KDMH 291454Z AUTO 25/16 A3008 RMK AO1 SLP185 T02500161 51003,KDMH,2017-04-29T14:54:00Z,39.28,-76.62,25.0,16.1,,,,,30.079725,1018.5,,TRUE,TRUE,,,,,,,,,,,,,,,,0.3,,,,,,,,,,,METAR,5.0
KAAO 291454Z AUTO 04016G22KT 7SM RA BKN008 OVC036 07/06 A2978 RMK AO2 PK WND 03027/1438 SLP086 P0009 60030 T00670061 58004,KAAO,2017-04-29T14:54:00Z,37.75,-97.22,6.7,6.1,40,16,22,7.0,29.778543,1008.6,,TRUE,TRUE,,,,,,RA,BKN,800,OVC,3600,,,,,IFR,-0.4,,,,,0.09,0.3,,,,,METAR,434.0
PTKR 291454Z 00000KT 15SM FEW018 SCT300 28/25 A2988 RMK SLP118 8/101 T02780248 50000,PTKR,2017-04-29T14:54:00Z,7.33,134.48,27.8,24.8,0,0,,15.0,29.878937,1011.8,,,,,,,,,,FEW,1800,SCT,30000,,,,,VFR,0.0,,,,,,,,,,,METAR,30.0
PAPG 291454Z 00000KT 1/4SM FG BKN001 02/02 A3002 RMK AO2 $,PAPG,2017-04-29T14:54:00Z,56.82,-132.97,2.0,2.0,0,0,,0.25,30.02067,,,,TRUE,TRUE,,,,,FG,BKN,100,,,,,,,LIFR,,,,,,,,,,,,METAR,15.0
K12N 291454Z AUTO 21006KT 22/16 A3003 RMK AO1 SLP163 T02220161 50012 $,K12N,2017-04-29T14:54:00Z,41.02,-74.73,22.2,16.1,210,6,,,30.029528,1016.3,,TRUE,TRUE,TRUE,,,,,,,,,,,,,,,1.2,,,,,,,,,,,METAR,177.0
KBKB 291454Z AUTO VRB06KT 10SM OVC019 27/22 A2977 RMK AO2 SLP107 T02670222 53004 $,KBKB,2017-04-29T14:54:00Z,31.0,-92.92,26.7,22.2,0,6,,10.0,29.769686,1010.7,,TRUE,TRUE,TRUE,,,,,,OVC,1900,,,,,,,MVFR,0.4,,,,,,,,,,,METAR,94.0
K1V4 291454Z AUTO 21/04 A2987 RMK AO1 SLP109 T02110039 56011,K1V4,2017-04-29T14:54:00Z,44.42,-72.02,21.1,3.9,,,,,29.870079,1010.9,,TRUE,TRUE,,,,,,,,,,,,,,,,-1.1,,,,,,,,,,,METAR,210.0
PGUM 291454Z 08003KT 10SM CLR 27/24 A2993 RMK AO2 SLP127 T02670244 58007 $,PGUM,2017-04-29T14:54:00Z,13.48,144.8,26.7,24.4,80,3,,10.0,29.929134,1012.7,,,TRUE,TRUE,,,,,,CLR,,,,,,,,VFR,-0.7,,,,,,,,,,,METAR,91.0
KNAK 291454Z AUTO 29007KT 10SM FEW037 FEW047 SCT100 27/19 A3009 RMK AO2 SLP190 T02670189 51012,KNAK,2017-04-29T14:54:00Z,38.98,-76.48,26.7,18.9,290,7,,10.0,30.088583,1019.0,,TRUE,TRUE,,,,,,,FEW,3700,FEW,4700,SCT,10000,,,VFR,1.2,,,,,,,,,,,METAR,2.0
KLNK 291454Z AUTO 02019G25KT 10SM FEW047 SCT060 OVC080 06/03 A3003 RMK AO2 RAE50 SLP174 P0002 60005 T00610033 58010,KLNK,2017-04-29T14:54:00Z,40.85,-96.77,6.1,3.3,20,19,25,10.0,30.029528,1017.4,,TRUE,TRUE,,,,,,,FEW,4700,SCT,6000,OVC,8000,,,VFR,-1.0,,,,,0.02,0.05,,,,,METAR,364.0
KACY 291454Z 25014G21KT 10SM CLR 27/18 A3004 RMK AO2 SLP172 T02720178 50006,KACY,2017-04-29T14:54:00Z,39.45,-74.57,27.2,17.8,250,14,21,10.0,30.041338,1017.2,,,TRUE,,,,,,,CLR,,,,,,,,VFR,0.6,,,,,,,,,,,SPECI,23.0
KRST 291454Z 06012KT 10SM CLR 04/M02 A3024 RMK AO2 SLP251 T00441017 50017,KRST,2017-04-29T14:54:00Z,43.9,-92.5,4.4,-1.7,60,12,,10.0,30.239174,1025.1,,,TRUE,,,,,,,CLR,,,,,,,,VFR,1.7,,,,,,,,,,,METAR,403.0
KSLC 291454Z 26006KT 10SM FEW050 FEW110 FEW250 07/M03 A3016 RMK AO2 SLP203 ACSL DSNT E T00721033 51016,KSLC,2017-04-29T14:54:00Z,40.77,-111.97,7.2,-3.3,260,6,,10.0,30.159449,1020.3,,,TRUE,,,,,,,FEW,5000,FEW,11000,FEW,25000,,,VFR,1.6,,,,,,,,,,,METAR,1286.0
KSJN 291454Z AUTO 30008KT 10SM CLR 04/M04 A2994 RMK AO2 SLP125 T00391044 51019 TSNO,KSJN,2017-04-29T14:54:00Z,34.52,-109.38,3.9,-4.4,300,8,,10.0,29.940945,1012.5,,TRUE,TRUE,,,TRUE,,,,CLR,,,,,,,,VFR,1.9,,,,,,,,,,,METAR,1745.0
KSBY 291454Z 23012G20KT 9SM CLR 27/23 A3011 RMK AO2 SLP198 T02670228 50020,KSBY,2017-04-29T14:54:00Z,38.33,-75.5,26.7,22.8,230,12,20,9.0,30.109253,1019.8,,,TRUE,,,,,,,CLR,,,,,,,,VFR,2.0,,,,,,,,,,,METAR,19.0
KSBN 291454Z 04008KT 10SM OVC055 11/07 A3011 RMK AO2 SLP198 T01060067 51006 $,KSBN,2017-04-29T14:54:00Z,41.7,-86.32,10.6,6.7,40,8,,10.0,30.109253,1019.8,,,TRUE,TRUE,,,,,,OVC,5500,,,,,,,VFR,0.6,,,,,,,,,,,METAR,237.0
KMFI 291454Z AUTO 08011KT 10SM CLR 05/M04 A3027 RMK AO2 SLP262 T00501039 53004,KMFI,2017-04-29T14:54:00Z,44.63,-90.18,5.0,-3.9,80,11,,10.0,30.268702,1026.2,,TRUE,TRUE,,,,,,,CLR,,,,,,,,VFR,0.4,,,,,,,,,,,METAR,389.0
KMGJ 291454Z AUTO 24015G19KT 10SM BKN037 23/16 A2999 RMK AO2 SLP154 T02330161 50010 TSNO,KMGJ,2017-04-29T14:54:00Z,41.52,-74.27,23.3,16.1,240,15,19,10.0,29.991142,1015.4,,TRUE,TRUE,,,TRUE,,,,BKN,3700,,,,,,,VFR,1.0,,,,,,,,,,,METAR,108.0
KMIV 291454Z AUTO 25011G20KT 220V300 10SM CLR 26/20 A3005 RMK AO2 SLP175 T02610200 50011,KMIV,2017-04-29T14:54:00Z,39.37,-75.08,26.1,20.0,250,11,20,10.0,30.050198,1017.5,,TRUE,TRUE,,,,,,,CLR,,,,,,,,VFR,1.1,,,,,,,,,,,METAR,23.0
KHWD 291454Z 22003KT 10SM CLR 18/M02 A3010 RMK AO2 SLP203 T01831017 53013,KHWD,2017-04-29T14:54:00Z,37.67,-122.12,18.3,-1.7,220,3,,10.0,30.100393,1020.3,,,TRUE,,,,,,,CLR,,,,,,,,VFR,1.3,,,,,,,,,,,METAR,21.0
KGED 291454Z AUTO 26008KT 10SM CLR 28/21 A3010 RMK AO2 SLP192 T02780211 50022,KGED,2017-04-29T14:54:00Z,38.68,-75.37,27.8,21.1,260,8,,10.0,30.100393,1019.2,,TRUE,TRUE,,,,,,,CLR,,,,,,,,VFR,2.2,,,,,,,,,,,METAR,19.0
KGCN 291454Z 34011G16KT 320V020 10SM CLR 04/M07 A3001 RMK AO2 SLP139 T00441067 53012,KGCN,2017-04-29T14:54:00Z,35.95,-112.15,4.4,-6.7,340,11,16,10.0,30.008858,1013.9,,,TRUE,,,,,,,CLR,,,,,,,,VFR,1.2,,,,,,,,,,,METAR,2016.0
KGCK 291454Z 02022KT 5SM -SN BR OVC005 01/00 A2994 RMK AO2 PK WND 02030/1444 UPB1358E13SNB13 SLP150 P0000 60001 T00060000 53016 $,KGCK,2017-04-29T14:54:00Z,37.92,-100.72,0.6,0.0,20,22,,5.0,29.940945,1015.0,,,TRUE,TRUE,,,,,-SN BR,OVC,500,,,,,,,IFR,1.6,,,,,0.005,0.01,,,,,METAR,877.0
KFZY 291454Z AUTO 28004KT 10SM OVC050 13/08 A3006 RMK AO2 SLP181 60001 T01330083 51017,KFZY,2017-04-29T14:54:00Z,43.35,-76.38,13.3,8.3,280,4,,10.0,30.059055,1018.1,,TRUE,TRUE,,,,,,,OVC,5000,,,,,,,VFR,1.7,,,,,,,,,,,SPECI,138.0
KCAR 291454Z AUTO 24008KT 10SM OVC100 15/06 A2976 RMK AO2 SLP082 T01500061 58024 $,KCAR,2017-04-29T14:54:00Z,46.87,-68.02,15.0,6.1,240,8,,10.0,29.760826,1008.2,,TRUE,TRUE,TRUE,,,,,,OVC,10000,,,,,,,VFR,-2.4,,,,,,,,,,,METAR,191.0
KBWI 291454Z 24008KT 10SM FEW027 SCT038 OVC110 24/18 A3007 RMK AO2 RAB39E50 PRESFR SLP183 P0000 60000 T02390183 50005,KBWI,2017-04-29T14:54:00Z,39.17,-76.68,23.9,18.3,240,8,,10.0,30.070866,1018.3,,,TRUE,,,,,,,FEW,2700,SCT,3800,OVC,11000,,,VFR,0.5,,,,,0.005,,,,,,SPECI,59.0
KBUF 291454Z 34003KT 10SM -RA BKN043 OVC050 10/03 A3011 RMK AO2 RAB50 SLP198 P0000 60000 T01000033 51022,KBUF,2017-04-29T14:54:00Z,42.93,-78.73,10.0,3.3,340,3,,10.0,30.109253,1019.8,,,TRUE,,,,,,-RA,BKN,4300,OVC,5000,,,,,VFR,2.2,,,,,0.005,0.005,,,,,METAR,211.0
KBTV 291454Z 25005KT 10SM OVC060 20/08 A2992 RMK AO2 SLP131 T02000078 55002,KBTV,2017-04-29T14:54:00Z,44.47,-73.15,20.0,7.8,250,5,,10.0,29.920275,1013.1,,,TRUE,,,,,,,OVC,6000,,,,,,,VFR,-0.2,,,,,,,,,,,METAR,105.0
KBOS 291454Z 21011KT 10SM CLR 25/12 A2991 RMK AO2 SLP129 T02500117 58018,KBOS,2017-04-29T14:54:00Z,42.37,-71.02,25.0,11.7,210,11,,10.0,29.911417,1012.9,,,TRUE,,,,,,,CLR,,,,,,,,VFR,-1.8,,,,,,,,,,,METAR,6.0
KBFL 291454Z 15004KT 10SM CLR 16/01 A3009 RMK AO2 SLP187 T01610006 53021,KBFL,2017-04-29T14:54:00Z,35.43,-119.05,16.1,0.6,150,4,,10.0,30.088583,1018.7,,,TRUE,,,,,,,CLR,,,,,,,,VFR,2.1,,,,,,,,,,,SPECI,151.0
KAVP 291454Z 23011KT 8SM BKN037 OVC048 18/15 A3004 RMK AO2 SLP167 T01830150 50012,KAVP,2017-04-29T14:54:00Z,41.33,-75.72,18.3,15.0,230,11,,8.0,30.041338,1016.7,,,TRUE,,,,,,,BKN,3700,OVC,4800,,,,,VFR,1.2,,,,,,,,,,,METAR,291.0
KAVL 291454Z 20009KT 10SM CLR 27/17 A3022 RMK AO2 SLP206 T02670172 58001,KAVL,2017-04-29T14:54:00Z,35.43,-82.53,26.7,17.2,200,9,,10.0,30.221457,1020.6,,,TRUE,,,,,,,CLR,,,,,,,,VFR,-0.1,,,,,,,,,,,SPECI,670.0
KAUW 291454Z AUTO 06012KT 10SM CLR 05/M05 A3027 RMK AO2 SLP263 T00501050 50002,KAUW,2017-04-29T14:54:00Z,44.93,-89.62,5.0,-5.0,60,12,,10.0,30.268702,1026.3,,TRUE,TRUE,,,,,,,CLR,,,,,,,,VFR,0.2,,,,,,,,,,,SPECI,362.0
KAPN 291454Z AUTO 34012G19KT 300V360 10SM CLR 07/M02 A3024 RMK AO2 SLP245 T00721017 53010,KAPN,2017-04-29T14:54:00Z,45.07,-83.57,7.2,-1.7,340,12,19,10.0,30.239174,1024.5,,TRUE,TRUE,,,,,,,CLR,,,,,,,,VFR,1.0,,,,,,,,,,,METAR,210.0
KAPC 291454Z 02004KT 10SM CLR 19/02 A3011 RMK AO2 SLP188 T01890017 53016,KAPC,2017-04-29T14:54:00Z,38.2,-122.28,18.9,1.7,20,4,,10.0,30.109253,1018.8,,,TRUE,,,,,,,CLR,,,,,,,,VFR,1.6,,,,,,,,,,,SPECI,13.0
KALO 291454Z 05014KT 10SM BKN120 07/01 A3015 RMK AO2 SLP215 T00670006 50001,KALO,2017-04-29T14:54:00Z,42.55,-92.4,6.7,0.6,50,14,,10.0,30.15059,1021.5,,,TRUE,,,,,,,BKN,12000,,,,,,,VFR,0.1,,,,,,,,,,,SPECI,264.0
KIZG 291454Z AUTO 23008G18KT 10SM OVC070 23/06 A2987 RMK AO2 SLP116 T02330056 56012,KIZG,2017-04-29T14:54:00Z,43.98,-70.95,23.3,5.6,230,8,18,10.0,29.870079,1011.6,,TRUE,TRUE,,,,,,,OVC,7000,,,,,,,VFR,-1.2,,,,,,,,,,,METAR,135.0
KISW 291454Z AUTO 08011KT 10SM CLR 06/M04 A3028 RMK AO2 SLP261 T00611044 50003,KISW,2017-04-29T14:54:00Z,44.37,-89.83,6.1,-4.4,80,11,,10.0,30.280512,1026.1,,TRUE,TRUE,,,,,,,CLR,,,,,,,,VFR,0.3,,,,,,,,,,,METAR,307.0
KINT 291454Z 23004KT 7SM OVC009 24/20 A3022 RMK AO2 SLP222 T02390200 51009,KINT,2017-04-29T14:54:00Z,36.13,-80.22,23.9,20.0,230,4,,7.0,30.221457,1022.2,,,TRUE,,,,,,,OVC,900,,,,,,,IFR,0.9,,,,,,,,,,,METAR,291.0
KMOT 291454Z 20012KT 10SM CLR 14/M04 A3023 RMK AO2 SLP247 T01391044 53008,KMOT,2017-04-29T14:54:00Z,48.25,-101.27,13.9,-4.4,200,12,,10.0,30.230314,1024.7,,,TRUE,,,,,,,CLR,,,,,,,,VFR,0.8,,,,,,,,,,,METAR,519.0
KMRY 291454Z 09008KT 10SM CLR 16/03 A3009 RMK AO2 SLP202 T01560028 53014,KMRY,2017-04-29T14:54:00Z,36.58,-121.85,15.6,2.8,90,8,,10.0,30.088583,1020.2,,,TRUE,,,,,,,CLR,,,,,,,,VFR,1.4,,,,,,,,,,,METAR,66.0
KMVL 291454Z AUTO 10SM BKN060 19/06 A2992 RMK AO2 SLP133 T01890056 55002 $,KMVL,2017-04-29T14:54:00Z,44.53,-72.62,18.9,5.6,,,,10.0,29.920275,1013.3,,TRUE,TRUE,TRUE,,,,,,BKN,6000,,,,,,,VFR,-0.2,,,,,,,,,,,METAR,234.0
KOLS 291454Z AUTO 35008KT 10SM CLR 13/M11 A2994 RMK AO2 SLP092 T01331111 51026,KOLS,2017-04-29T14:54:00Z,31.42,-110.85,13.3,-11.1,350,8,,10.0,29.940945,1009.2,,TRUE,TRUE,,,,,,,CLR,,,,,,,,VFR,2.6,,,,,,,,,,,SPECI,1184.0
KOLM 291454Z 25003KT 10SM SCT110 06/05 A3030 RMK AO2 SLP260 T00560050 55005,KOLM,2017-04-29T14:54:00Z,46.97,-122.9,5.6,5.0,250,3,,10.0,30.301182,1026.0,,,TRUE,,,,,,,SCT,11000,,,,,,,VFR,-0.5,,,,,,,,,,,SPECI,58.0
KOFP 291454Z AUTO 21010G16KT 6SM HZ FEW019 27/21 A3015 RMK AO2 SLP208 T02720211 50008,KOFP,2017-04-29T14:54:00Z,37.7,-77.43,27.2,21.1,210,10,16,6.0,30.15059,1020.8,,TRUE,TRUE,,,,,,HZ,FEW,1900,,,,,,,VFR,0.8,,,,,,,,,,,METAR,62.0
KORH 291454Z 24014G20KT 10SM FEW050 23/11 A2997 RMK AO2 SLP145 T02280106 58005,KORH,2017-04-29T14:54:00Z,42.27,-71.87,22.8,10.6,240,14,20,10.0,29.970472,1014.5,,,TRUE,,,,,,,FEW,5000,,,,,,,VFR,-0.5,,,,,,,,,,,METAR,304.0
KPIA 291454Z 06016G27KT 10SM FEW055 FEW110 09/05 A3004 RMK AO2 PK WND 04030/1425 SLP172 60000 T00940050 55002,KPIA,2017-04-29T14:54:00Z,40.67,-89.68,9.4,5.0,60,16,27,10.0,30.041338,1017.2,,,TRUE,,,,,,,FEW,5500,FEW,11000,,,,,VFR,-0.2,,,,,,0.005,,,,,METAR,205.0
KPLN 291454Z AUTO 32008KT 10SM SCT029 06/M03 A3027 RMK AO2 SLP256 T00561028,KPLN,2017-04-29T14:54:00Z,45.57,-84.8,5.6,-2.8,320,8,,10.0,30.268702,1025.6,,TRUE,TRUE,,,,,,,SCT,2900,,,,,,,VFR,,,,,,,,,,,,SPECI,217.0
KPNE 291454Z 25011KT 10SM CLR 26/19 A3004 RMK AO2 SLP172 T02610189 50006,KPNE,2017-04-29T14:54:00Z,40.08,-75.02,26.1,18.9,250,11,,10.0,30.041338,1017.2,,,TRUE,,,,,,,CLR,,,,,,,,VFR,0.6,,,,,,,,,,,SPECI,28.0
KPSF 291454Z AUTO 27010KT 10SM SCT041 BKN050 BKN060 22/10 A2997 RMK AO2 SLP129 T02220100 55000,KPSF,2017-04-29T14:54:00Z,42.43,-73.28,22.2,10.0,270,10,,10.0,29.970472,1012.9,,TRUE,TRUE,,,,,,,SCT,4100,BKN,5000,BKN,6000,,,VFR,0.0,,,,,,,,,,,SPECI,355.0
KPTW 291454Z AUTO 25005KT 7SM CLR 23/18 A3006 RMK AO2 RAE03 SLP177 P0000 60000 T02280183 51006,KPTW,2017-04-29T14:54:00Z,40.23,-75.55,22.8,18.3,250,5,,7.0,30.059055,1017.7,,TRUE,TRUE,,,,,,,CLR,,,,,,,,VFR,0.6,,,,,0.005,,,,,,SPECI,92.0
KRBL 291454Z AUTO 34008KT 10SM CLR 13/03 A3019 RMK AO2 SLP220 T01280033 53007 TSNO,KRBL,2017-04-29T14:54:00Z,40.15,-122.25,12.8,3.3,340,8,,10.0,30.188976,1022.0,,TRUE,TRUE,,,TRUE,,,,CLR,,,,,,,,VFR,0.7,,,,,,,,,,,SPECI,104.0
KRDG 291454Z 29007KT 10SM CLR 23/18 A3002 RMK AO2 RAE1355 SLP170 P0000 60000 T02280183 57001,KRDG,2017-04-29T14:54:00Z,40.37,-75.97,22.8,18.3,290,7,,10.0,30.02067,1017.0,,,TRUE,,,,,,,CLR,,,,,,,,VFR,-0.1,,,,,0.005,,,,,,SPECI,109.0
KRKS 291454Z AUTO 03015KT 10SM BKN019 OVC043 M01/M06 A3019 RMK AO2 SNB06E43 SLP246 P0000 60000 T10111061 51018 TSNO,KRKS,2017-04-29T14:54:00Z,41.6,-109.07,-1.1,-6.1,30,15,,10.0,30.188976,1024.6,,TRUE,TRUE,,,TRUE,,,,BKN,1900,OVC,4300,,,,,MVFR,1.8,,,,,0.005,,,,,,SPECI,2060.0
KRFD 291454Z 04017G23KT 10SM BKN039 OVC200 09/01 A3016 RMK AO2 PK WND 05029/1433 SLP215 T00890011 58003,KRFD,2017-04-29T14:54:00Z,42.2,-89.1,8.9,1.1,40,17,23,10.0,30.159449,1021.5,,,TRUE,,,,,,,BKN,3900,OVC,20000,,,,,VFR,-0.3,,,,,,,,,,,METAR,221.0
KROC 291454Z 29006KT 10SM OVC046 12/06 A3009 RMK AO2 SLP194 T01220056 51018,KROC,2017-04-29T14:54:00Z,43.12,-77.68,12.2,5.6,290,6,,10.0,30.088583,1019.4,,,TRUE,,,,,,,OVC,4600,,,,,,,VFR,1.8,,,,,,,,,,,METAR,178.0
KROA 291454Z 13004KT 10SM SCT250 26/18 A3019 RMK AO2 SLP210 T02560183 50002,KROA,2017-04-29T14:54:00Z,37.32,-79.97,25.6,18.3,130,4,,10.0,30.188976,1021.0,,,TRUE,,,,,,,SCT,25000,,,,,,,VFR,0.2,,,,,,,,,,,METAR,362.0
KEVV 291454Z 11006KT 10SM FEW041 BKN050 OVC075 19/17 A3001 RMK AO2 LTG DSNT SW AND W RAE53 TSB22E40 SLP160 P0015 60125 T01940172 50017,KEVV,2017-04-29T14:54:00Z,38.05,-87.52,19.4,17.2,110,6,,10.0,30.008858,1016.0,,,TRUE,,,,,,,FEW,4100,BKN,5000,OVC,7500,,,VFR,1.7,,,,,0.15,,,,,,SPECI,117.0
KEUG 291454Z 18004KT 10SM FEW003 FEW220 SCT280 06/05 A3032 RMK AO2 SLP268 T00610050 53004,KEUG,2017-04-29T14:54:00Z,44.13,-123.22,6.1,5.0,180,4,,10.0,30.318897,1026.8,,,TRUE,,,,,,,FEW,300,FEW,22000,SCT,28000,,,VFR,0.4,,,,,,,,,,,SPECI,114.0
KECG 291454Z AUTO 24014KT 10SM -RA FEW022 27/23 A3018 RMK AO2 SLP220 P0000 60000 T02720233 58004,KECG,2017-04-29T14:54:00Z,36.27,-76.18,27.2,23.3,240,14,,10.0,30.180119,1022.0,,TRUE,TRUE,,,,,,-RA,FEW,2200,,,,,,,VFR,-0.4,,,,,0.005,,,,,,SPECI,11.0
KDYL 291454Z AUTO 21007KT 180V240 10SM CLR 22/19 A3003 RMK AO2 RAB14E25 SLP164 P0000 60000 T02220189 50005,KDYL,2017-04-29T14:54:00Z,40.33,-75.12,22.2,18.9,210,7,,10.0,30.029528,1016.4,,TRUE,TRUE,,,,,,,CLR,,,,,,,,VFR,0.5,,,,,0.005,,,,,,SPECI,117.0
KDSV 291454Z AUTO 32004KT 10SM BKN023 OVC029 15/12 A3008 RMK AO2 SLP194 60002 T01500122 51013,KDSV,2017-04-29T14:54:00Z,42.57,-77.72,15.0,12.2,320,4,,10.0,30.079725,1019.4,,TRUE,TRUE,,,,,,,BKN,2300,OVC,2900,,,,,MVFR,1.3,,,,,,,,,,,SPECI,198.0
KDSM 291454Z 04014KT 10SM BKN034 OVC110 08/03 A3008 RMK AO2 SLP190 T00780028 58005 $,KDSM,2017-04-29T14:54:00Z,41.53,-93.67,7.8,2.8,40,14,,10.0,30.079725,1019.0,,,TRUE,TRUE,,,,,,BKN,3400,OVC,11000,,,,,VFR,-0.5,,,,,,,,,,,METAR,295.0
KDDH 291454Z AUTO 26006KT 10SM BKN070 BKN090 22/08 A2997 RMK AO2 SLP146 T02220083 50004,KDDH,2017-04-29T14:54:00Z,42.9,-73.25,22.2,8.3,260,6,,10.0,29.970472,1014.6,,TRUE,TRUE,,,,,,,BKN,7000,BKN,9000,,,,,VFR,0.4,,,,,,,,,,,SPECI,244.0
KCRW 291454Z 16007KT 10SM FEW060 SCT120 OVC230 24/17 A3011 RMK AO2 SLP186 OCNL BINOVC T02390172 58003,KCRW,2017-04-29T14:54:00Z,38.38,-81.58,23.9,17.2,160,7,,10.0,30.109253,1018.6,,,TRUE,,,,,,,FEW,6000,SCT,12000,OVC,23000,,,VFR,-0.3,,,,,,,,,,,METAR,309.0
PAHN 291454Z AUTO 29007KT 10SM FEW060 03/01 A3007 RMK AO2 SLP185 T00330011 56021 TSNO,PAHN,2017-04-29T14:54:00Z,59.25,-135.52,3.3,1.1,290,7,,10.0,30.070866,1018.5,,TRUE,TRUE,,,TRUE,,,,FEW,6000,,,,,,,VFR,-2.1,,,,,,,,,,,METAR,5.0
PGSN 291454Z 10005KT 10SM FEW023 26/23 A2992 RMK AO2 SLP154 T02610233 58007 $,PGSN,2017-04-29T14:54:00Z,15.12,145.72,26.1,23.3,100,5,,10.0,29.920275,1015.4,,,TRUE,TRUE,,,,,,FEW,2300,,,,,,,VFR,-0.7,,,,,,,,,,,METAR,65.0
PAKN 291454Z 00000KT 10SM OVC065 M01/M02 A2992 RMK AO2 SLP132 T10111022 56006,PAKN,2017-04-29T14:54:00Z,58.68,-156.65,-1.1,-2.2,0,0,,10.0,29.920275,1013.2,,,TRUE,,,,,,,OVC,6500,,,,,,,VFR,-0.6,,,,,,,,,,,METAR,17.0
MMPR 291454Z 00000KT 15SM SKC 24/17 A2988 RMK SLP117 52013 952 CU AND SC,MMPR,2017-04-29T14:54:00Z,20.67,-105.25,24.0,17.0,0,0,,15.0,29.878937,1011.7,,,,,,,,,,SKC,,,,,,,,VFR,1.3,,,,,,,,,,,METAR,6.0
KTQE 291454Z AUTO 02015KT 10SM OVC065 07/01 A3012 RMK AO2 SLP200 T00670011 58002,KTQE,2017-04-29T14:54:00Z,41.77,-96.18,6.7,1.1,20,15,,10.0,30.121063,1020.0,,TRUE,TRUE,,,,,,,OVC,6500,,,,,,,VFR,-0.2,,,,,,,,,,,METAR,312.0
KIMT 291454Z AUTO 01011KT 10SM CLR 05/M06 A3028 RMK AO2 SLP266 T00501061 51010,KIMT,2017-04-29T14:54:00Z,45.82,-88.12,5.0,-6.1,10,11,,10.0,30.280512,1026.6,,TRUE,TRUE,,,,,,,CLR,,,,,,,,VFR,1.0,,,,,,,,,,,METAR,349.0
KRSP 291454Z AUTO 29012G18KT 10SM FEW110 21/14 A3010 RMK AO2 SLP186 60003 T02110144 58006 $,KRSP,2017-04-29T14:54:00Z,39.65,-77.47,21.1,14.4,290,12,18,10.0,30.100393,1018.6,,TRUE,TRUE,TRUE,,,,,,FEW,11000,,,,,,,VFR,-0.6,,,,,,,,,,,SPECI,561.0
KSYR 291454Z 29011KT 10SM SCT040 OVC049 15/09 A3005 RMK AO2 SLP173 T01500089 51017,KSYR,2017-04-29T14:54:00Z,43.12,-76.1,15.0,8.9,290,11,,10.0,30.050198,1017.3,,,TRUE,,,,,,,SCT,4000,OVC,4900,,,,,VFR,1.7,,,,,,,,,,,SPECI,127.0
KTAD 291454Z AUTO 02016KT 3/4SM -SN BR FEW006 OVC013 M02/M04 A3005 RMK AO2 SLP180 P0002 60007 T10221039 50010 TSNO,KTAD,2017-04-29T14:54:00Z,37.27,-104.33,-2.2,-3.9,20,16,,0.75,30.050198,1018.0,,TRUE,TRUE,,,TRUE,,,-SN BR,FEW,600,OVC,1300,,,,,LIFR,1.0,,,,,0.02,0.07,,,,,METAR,1756.0
KGWO 291453Z AUTO 18020G26KT 10SM OVC032 27/22 A2988 RMK AO2 PK WND 16026/1431 SLP118 T02720217 51006,KGWO,2017-04-29T14:53:00Z,33.5,-90.08,27.2,21.7,180,20,26,10.0,29.878937,1011.8,,TRUE,TRUE,,,,,,,OVC,3200,,,,,,,VFR,0.6,,,,,,,,,,,METAR,44.0
KGZH 291453Z AUTO 15010G22KT 10SM BKN020 OVC027 27/22 A3005 RMK AO2 SLP174 T02670217 50005,KGZH,2017-04-29T14:53:00Z,31.42,-87.05,26.7,21.7,150,10,22,10.0,30.050198,1017.4,,TRUE,TRUE,,,,,,,BKN,2000,OVC,2700,,,,,MVFR,0.5,,,,,,,,,,,METAR,78.0
KHBG 291453Z AUTO 15017G23KT 10SM SCT021 BKN027 BKN038 27/22 A2997 RMK AO2 SLP146 T02720217 51007,KHBG,2017-04-29T14:53:00Z,31.27,-89.25,27.2,21.7,150,17,23,10.0,29.970472,1014.6,,TRUE,TRUE,,,,,,,SCT,2100,BKN,2700,BKN,3800,,,MVFR,0.7,,,,,,,,,,,METAR,44.0
KHBR 291453Z AUTO 02012KT 10SM -RA OVC008 09/08 A2970 RMK AO2 PK WND 08032/1354 WSHFT 1405 SLP051 P0005 60060 T00940078 53022 TSNO,KHBR,2017-04-29T14:53:00Z,34.98,-99.05,9.4,7.8,20,12,,10.0,29.698818,1005.1,,TRUE,TRUE,,,TRUE,,,-RA,OVC,800,,,,,,,IFR,2.2,,,,,0.05,0.6,,,,,METAR,473.0
KHEI 291453Z AUTO 23004KT 10SM CLR 07/M03 A3031 RMK AO2 SLP279 T00721033 53018,KHEI,2017-04-29T14:53:00Z,46.02,-102.65,7.2,-3.3,230,4,,10.0,30.31004,1027.9,,TRUE,TRUE,,,,,,,CLR,,,,,,,,VFR,1.8,,,,,,,,,,,METAR,828.0
KHFD 291453Z VRB05G14KT 10SM CLR 25/15 A2996 RMK AO2 SLP143 T02500150 58003,KHFD,2017-04-29T14:53:00Z,41.73,-72.65,25.0,15.0,0,5,14,10.0,29.958662,1014.3,,,TRUE,,,,,,,CLR,,,,,,,,VFR,-0.3,,,,,,,,,,,METAR,4.0
KHGR 291453Z 17005KT 10SM CLR 22/17 A3006 RMK AO2 SLP182 60003 T02220172 56022,KHGR,2017-04-29T14:53:00Z,39.7,-77.73,22.2,17.2,170,5,,10.0,30.059055,1018.2,,,TRUE,,,,,,,CLR,,,,,,,,VFR,-2.2,,,,,,0.03,,,,,METAR,224.0
KLWV 291453Z AUTO 14008KT 10SM SCT032 BKN042 OVC110 19/18 A3000 RMK AO2 LTG DSNT W AND NW RAE50 SLP158 P0001 60025 T01890178 50008 $,KLWV,2017-04-29T14:53:00Z,38.77,-87.6,18.9,17.8,140,8,,10.0,30.0,1015.8,,TRUE,TRUE,TRUE,,,,,,SCT,3200,BKN,4200,OVC,11000,,,VFR,0.8,,,,,0.01,0.25,,,,,METAR,131.0
KMAE 291453Z AUTO 00000KT 10SM CLR 12/06 A3010 RMK AO2 SLP191 T01220056 51023,KMAE,2017-04-29T14:53:00Z,36.98,-120.12,12.2,5.6,0,0,,10.0,30.100393,1019.1,,TRUE,TRUE,,,,,,,CLR,,,,,,,,VFR,2.3,,,,,,,,,,,METAR,77.0
KHHR 291453Z 00000KT 10SM CLR 20/M07 A2999 RMK AO2 SLP153 T02001072 53021,KHHR,2017-04-29T14:53:00Z,33.92,-118.33,20.0,-7.2,0,0,,10.0,29.991142,1015.3,,,TRUE,,,,,,,CLR,,,,,,,,VFR,2.1,,,,,,,,,,,METAR,18.0
KHIB 291453Z AUTO 08004KT 10SM CLR 06/M06 A3036 RMK AO2 SLP298 T00561061 53033,KHIB,2017-04-29T14:53:00Z,47.38,-92.83,5.6,-6.1,80,4,,10.0,30.360237,1029.8,,TRUE,TRUE,,,,,,,CLR,,,,,,,,VFR,3.3,,,,,,,,,,,METAR,412.0
KHIO 291453Z 00000KT 10SM CLR 06/ A3030 RMK AO2 SLP262 T0061 56000 $,KHIO,2017-04-29T14:53:00Z,45.55,-122.95,6.1,,0,0,,10.0,30.301182,1026.2,,,TRUE,TRUE,,,,,,CLR,,,,,,,,VFR,0.0,,,,,,,,,,,METAR,68.0
KHJO 291453Z AUTO 10003KT 9SM CLR 11/06 A3009 RMK AO2 SLP190 T01060061 53020,KHJO,2017-04-29T14:53:00Z,36.32,-119.62,10.6,6.1,100,3,,9.0,30.088583,1019.0,,TRUE,TRUE,,,,,,,CLR,,,,,,,,VFR,2.0,,,,,,,,,,,METAR,74.0
KHKA 291453Z AUTO 18013KT 10SM OVC037 26/21 A2992 RMK AO2 SLP130 T02560206 53026,KHKA,2017-04-29T14:53:00Z,35.93,-89.83,25.6,20.6,180,13,,10.0,29.920275,1013.0,,TRUE,TRUE,,,,,,,OVC,3700,,,,,,,VFR,2.6,,,,,,,,,,,METAR,78.0
KHLG 291453Z 10SM -RA FEW035 SCT065 BKN110 19/16 A3009 RMK AO2 RAB30 SLP187 P0000 60001 T01890156 55001,KHLG,2017-04-29T14:53:00Z,40.17,-80.65,18.9,15.6,,,,10.0,30.088583,1018.7,,,TRUE,,,,,,-RA,FEW,3500,SCT,6500,BKN,11000,,,VFR,-0.1,,,,,0.005,0.01,,,,,METAR,372.0
KHLN 291453Z 36003KT 10SM CLR 06/02 A3024 RMK AO2 SLP268 T00610017 51008,KHLN,2017-04-29T14:53:00Z,46.6,-111.98,6.1,1.7,360,3,,10.0,30.239174,1026.8,,,TRUE,,,,,,,CLR,,,,,,,,VFR,0.8,,,,,,,,,,,METAR,1182.0
KHOT 291453Z AUTO 15010G15KT 9SM OVC026 26/22 A2975 RMK AO2 SLP065 T02560217 50004,KHOT,2017-04-29T14:53:00Z,34.48,-93.1,25.6,21.7,150,10,15,9.0,29.749016,1006.5,,TRUE,TRUE,,,,,,,OVC,2600,,,,,,,MVFR,0.4,,,,,,,,,,,METAR,162.0
KHOU 291453Z 16015G27KT 9SM BKN018 BKN023 OVC250 27/24 A2967 RMK AO2 PK WND 17033/1402 SLP052 T02720239 58002 $,KHOU,2017-04-29T14:53:00Z,29.63,-95.28,27.2,23.9,160,15,27,9.0,29.66929,1005.2,,,TRUE,TRUE,,,,,,BKN,1800,BKN,2300,OVC,25000,,,MVFR,-0.2,,,,,,,,,,,METAR,36.0
KHQM 291453Z AUTO 06005KT 6SM BR OVC100 06/05 A3029 RMK AO2 SLP260 T00560050 55002,KHQM,2017-04-29T14:53:00Z,46.97,-123.93,5.6,5.0,60,5,,6.0,30.28937,1026.0,,TRUE,TRUE,,,,,,BR,OVC,10000,,,,,,,VFR,-0.2,,,,,,,,,,,METAR,7.0
KHRI 291453Z AUTO 00000KT 10SM CLR 08/04 A3027 RMK AO2 SLP251 T00830044 53002,KHRI,2017-04-29T14:53:00Z,45.83,-119.27,8.3,4.4,0,0,,10.0,30.268702,1025.1,,TRUE,TRUE,,,,,,,CLR,,,,,,,,VFR,0.2,,,,,,,,,,,METAR,195.0
KHSI 291453Z AUTO 04018G26KT 10SM FEW018 OVC033 04/02 A3006 RMK AO2 PK WND 03030/1412 RAE42 SLP191 P0001 60001 T00440017 58008,KHSI,2017-04-29T14:53:00Z,40.6,-98.43,4.4,1.7,40,18,26,10.0,30.059055,1019.1,,TRUE,TRUE,,,,,,,FEW,1800,OVC,3300,,,,,VFR,-0.8,,,,,0.01,0.01,,,,,METAR,591.0
KHSV 291453Z 16016G22KT 10SM SCT250 28/20 A3003 RMK AO2 SLP160 T02830200 51003 $,KHSV,2017-04-29T14:53:00Z,34.65,-86.78,28.3,20.0,160,16,22,10.0,30.029528,1016.0,,,TRUE,TRUE,,,,,,SCT,25000,,,,,,,VFR,0.3,,,,,,,,,,,METAR,191.0
KGRI 291453Z 04020G26KT 10SM FEW046 OVC055 05/01 A3010 RMK AO2 PK WND 04026/1453 SLP207 T00500011 58009,KGRI,2017-04-29T14:53:00Z,40.97,-98.32,5.0,1.1,40,20,26,10.0,30.100393,1020.7,,,TRUE,,,,,,,FEW,4600,OVC,5500,,,,,VFR,-0.9,,,,,,,,,,,METAR,561.0
KGRB 291453Z 05018KT 10SM CLR 06/M01 A3027 RMK AO2 SLP256 T00561011 50013,KGRB,2017-04-29T14:53:00Z,44.48,-88.13,5.6,-1.1,50,18,,10.0,30.268702,1025.6,,,TRUE,,,,,,,CLR,,,,,,,,VFR,1.3,,,,,,,,,,,METAR,208.0
KGNV 291453Z 13011KT 10SM FEW025 BKN031 27/21 A3017 RMK AO2 SLP213 T02720206 53007,KGNV,2017-04-29T14:53:00Z,29.7,-82.28,27.2,20.6,130,11,,10.0,30.171259,1021.3,,,TRUE,,,,,,,FEW,2500,BKN,3100,,,,,VFR,0.7,,,,,,,,,,,METAR,45.0
KHTL 291453Z AUTO 33008KT 280V360 10SM CLR 07/M03 A3022 RMK AO2 SLP243 T00671033 51018,KHTL,2017-04-29T14:53:00Z,44.35,-84.67,6.7,-3.3,330,8,,10.0,30.221457,1024.3,,TRUE,TRUE,,,,,,,CLR,,,,,,,,VFR,1.8,,,,,,,,,,,METAR,351.0
KHUL 291453Z AUTO 19004KT 10SM OVC095 14/10 A2981 RMK AO2 SLP095 T01390100 56016,KHUL,2017-04-29T14:53:00Z,46.12,-67.8,13.9,10.0,190,4,,10.0,29.811024,1009.5,,TRUE,TRUE,,,,,,,OVC,9500,,,,,,,VFR,-1.6,,,,,,,,,,,METAR,150.0
KHVN 291453Z 23007KT 9SM SCT250 18/15 A3001 RMK AO2 SLP162 T01780150 50014,KHVN,2017-04-29T14:53:00Z,41.27,-72.87,17.8,15.0,230,7,,9.0,30.008858,1016.2,,,TRUE,,,,,,,SCT,25000,,,,,,,VFR,1.4,,,,,,,,,,,METAR,4.0
KHVR 291453Z AUTO 08006KT 10SM OVC065 04/01 A3021 RMK AO2 SLP244 T00440011 53004,KHVR,2017-04-29T14:53:00Z,48.55,-109.77,4.4,1.1,80,6,,10.0,30.209646,1024.4,,TRUE,TRUE,,,,,,,OVC,6500,,,,,,,VFR,0.4,,,,,,,,,,,METAR,787.0
KHYR 291453Z AUTO 08004KT 10SM CLR 06/M06 A3033 RMK AO2 SLP283 T00611056 51021,KHYR,2017-04-29T14:53:00Z,46.02,-91.45,6.1,-5.6,80,4,,10.0,30.33071,1028.3,,TRUE,TRUE,,,,,,,CLR,,,,,,,,VFR,2.1,,,,,,,,,,,METAR,370.0
KIAG 291453Z 32008KT 10SM OVC050 10/02 A3011 RMK AO2 SLP203 T01000022 51020,KIAG,2017-04-29T14:53:00Z,43.12,-78.93,10.0,2.2,320,8,,10.0,30.109253,1020.3,,,TRUE,,,,,,,OVC,5000,,,,,,,VFR,2.0,,,,,,,,,,,METAR,182.0
KIAH 291453Z 16021G29KT 4SM HZ BKN019 OVC025 28/23 A2968 RMK AO2 PK WND 15032/1419 SLP048 T02780233 58003 $,KIAH,2017-04-29T14:53:00Z,30.0,-95.37,27.8,23.3,160,21,29,4.0,29.681103,1004.8,,,TRUE,TRUE,,,,,HZ,BKN,1900,OVC,2500,,,,,MVFR,-0.3,,,,,,,,,,,METAR,36.0
KICR 291453Z AUTO 03008KT 10SM FEW120 07/M04 A3027 RMK AO2 SLP261 T00721044 $,KICR,2017-04-29T14:53:00Z,43.38,-99.85,7.2,-4.4,30,8,,10.0,30.268702,1026.1,,TRUE,TRUE,TRUE,,,,,,FEW,12000,,,,,,,VFR,,,,,,,,,,,,METAR,621.0
KMLU 291453Z 16010G17KT 130V190 10SM HZ OVC020 26/21 A2982 RMK AO2 SLP096 T02610211 50002,KMLU,2017-04-29T14:53:00Z,32.52,-92.03,26.1,21.1,160,10,17,10.0,29.819881,1009.6,,,TRUE,,,,,,HZ,OVC,2000,,,,,,,MVFR,0.2,,,,,,,,,,,METAR,29.0
KMMK 291453Z AUTO 17010KT 10SM CLR 23/15 A2998 RMK AO2 SLP150 T02330150 53000 TSNO,KMMK,2017-04-29T14:53:00Z,41.52,-72.83,23.3,15.0,170,10,,10.0,29.97933,1015.0,,TRUE,TRUE,,,TRUE,,,,CLR,,,,,,,,VFR,0.0,,,,,,,,,,,METAR,31.0
KMMV 291453Z AUTO 00000KT 10SM CLR 06/04 A3032 RMK AO2 SLP266 T00610044 53000,KMMV,2017-04-29T14:53:00Z,45.2,-123.13,6.1,4.4,0,0,,10.0,30.318897,1026.6,,TRUE,TRUE,,,,,,,CLR,,,,,,,,VFR,0.0,,,,,,,,,,,METAR,48.0
KMOD 291453Z 29008KT 10SM CLR 14/03 A3010 RMK AO2 SLP191 T01390033 53024,KMOD,2017-04-29T14:53:00Z,37.62,-120.95,13.9,3.3,290,8,,10.0,30.100393,1019.1,,,TRUE,,,,,,,CLR,,,,,,,,VFR,2.4,,,,,,,,,,,METAR,29.0
KMRB 291453Z 19005KT 10SM CLR 23/16 A3006 RMK AO2 SLP177 60000 T02280161 58001,KMRB,2017-04-29T14:53:00Z,39.4,-77.98,22.8,16.1,190,5,,10.0,30.059055,1017.7,,,TRUE,,,,,,,CLR,,,,,,,,VFR,-0.1,,,,,,0.005,,,,,METAR,164.0
KMSL 291453Z AUTO 16011KT 10SM CLR 27/20 A3000 RMK AO2 SLP152 T02720200 53004,KMSL,2017-04-29T14:53:00Z,34.75,-87.6,27.2,20.0,160,11,,10.0,30.0,1015.2,,TRUE,TRUE,,,,,,,CLR,,,,,,,,VFR,0.4,,,,,,,,,,,METAR,164.0
KMSN 291453Z 05014KT 10SM FEW029 FEW150 BKN250 06/M01 A3022 RMK AO2 SLP239 T00611011 50007,KMSN,2017-04-29T14:53:00Z,43.13,-89.35,6.1,-1.1,50,14,,10.0,30.221457,1023.9,,,TRUE,,,,,,,FEW,2900,FEW,15000,BKN,25000,,,VFR,0.7,,,,,,,,,,,METAR,261.0
KMSO 291453Z 12006KT 10SM OVC045 04/01 A3029 RMK AO2 SLP272 T00440006 51008,KMSO,2017-04-29T14:53:00Z,46.92,-114.1,4.4,0.6,120,6,,10.0,30.28937,1027.2,,,TRUE,,,,,,,OVC,4500,,,,,,,VFR,0.8,,,,,,,,,,,METAR,975.0
KMSP 291453Z 08012G16KT 10SM FEW200 BKN300 07/M04 A3031 RMK AO2 SLP269 T00721044 51011,KMSP,2017-04-29T14:53:00Z,44.88,-93.23,7.2,-4.4,80,12,16,10.0,30.31004,1026.9,,,TRUE,,,,,,,FEW,20000,BKN,30000,,,,,VFR,1.1,,,,,,,,,,,METAR,265.0
KMSS 291453Z AUTO 25007G18KT 10SM BKN100 17/07 A2994 RMK AO2 SLP139 T01670072 58007,KMSS,2017-04-29T14:53:00Z,44.93,-74.85,16.7,7.2,250,7,18,10.0,29.940945,1013.9,,TRUE,TRUE,,,,,,,BKN,10000,,,,,,,VFR,-0.7,,,,,,,,,,,METAR,66.0
KMSY 291453Z 16018G26KT 8SM BKN019 OVC024 26/23 A2992 RMK AO2 PK WND 14030/1408 SLP135 T02610233 51006,KMSY,2017-04-29T14:53:00Z,30.0,-90.25,26.1,23.3,160,18,26,8.0,29.920275,1013.5,,,TRUE,,,,,,,BKN,1900,OVC,2400,,,,,MVFR,0.6,,,,,,,,,,,METAR,5.0
KMTH 291453Z AUTO 11009G20KT 10SM CLR 29/23 A3011 RMK AO2 SLP196 T02940233 51009,KMTH,2017-04-29T14:53:00Z,24.73,-81.05,29.4,23.3,110,9,20,10.0,30.109253,1019.6,,TRUE,TRUE,,,,,,,CLR,,,,,,,,VFR,0.9,,,,,,,,,,,METAR,2.0
KMVY 291453Z 22011G24KT 200V270 10SM FEW005 OVC090 17/14 A2999 RMK AO2 SLP157 T01720144 55010,KMVY,2017-04-29T14:53:00Z,41.4,-70.62,17.2,14.4,220,11,24,10.0,29.991142,1015.7,,,TRUE,,,,,,,FEW,500,OVC,9000,,,,,VFR,-1.0,,,,,,,,,,,METAR,16.0
KMWL 291453Z AUTO 19015G23KT 6SM HZ SCT039 BKN046 OVC055 26/19 A2956 RMK AO2 PK WND 19027/1404 SLP995 T02560189 51013,KMWL,2017-04-29T14:53:00Z,32.78,-98.07,25.6,18.9,190,15,23,6.0,29.56004,999.5,,TRUE,TRUE,,,,,,HZ,SCT,3900,BKN,4600,OVC,5500,,,VFR,1.3,,,,,,,,,,,METAR,284.0
KMYF 291453Z 06004KT 10SM CLR 21/M08 A2995 RMK AO2 SLP138 T02111078 53021 $,KMYF,2017-04-29T14:53:00Z,32.82,-117.13,21.1,-7.8,60,4,,10.0,29.949802,1013.8,,,TRUE,TRUE,,,,,,CLR,,,,,,,,VFR,2.1,,,,,,,,,,,METAR,136.0
KMYV 291453Z AUTO 35008KT 10SM CLR 13/03 A3012 RMK AO2 SLP203 T01280028 53006,KMYV,2017-04-29T14:53:00Z,39.1,-121.57,12.8,2.8,350,8,,10.0,30.121063,1020.3,,TRUE,TRUE,,,,,,,CLR,,,,,,,,VFR,0.6,,,,,,,,,,,METAR,21.0
KNEW 291453Z 17016KT 10SM BKN017 OVC022 27/23 A2993 RMK AO2 PK WND 16029/1414 SLP130 T02720233 51007,KNEW,2017-04-29T14:53:00Z,30.05,-90.03,27.2,23.3,170,16,,10.0,29.929134,1013.0,,,TRUE,,,,,,,BKN,1700,OVC,2200,,,,,MVFR,0.7,,,,,,,,,,,METAR,3.0
KOAK 291453Z 31007KT 10SM FEW250 19/00 A3010 RMK AO2 SLP193 T01940000 53011,KOAK,2017-04-29T14:53:00Z,37.72,-122.23,19.4,0.0,310,7,,10.0,30.100393,1019.3,,,TRUE,,,,,,,FEW,25000,,,,,,,VFR,1.1,,,,,,,,,,,METAR,26.0
KODX 291453Z AUTO 03012KT 10SM OVC080 06/M02 A3015 RMK AO2 SLP223 T00561022 58005,KODX,2017-04-29T14:53:00Z,41.62,-98.95,5.6,-2.2,30,12,,10.0,30.15059,1022.3,,TRUE,TRUE,,,,,,,OVC,8000,,,,,,,VFR,-0.5,,,,,,,,,,,METAR,631.0
KOGD 291453Z 03018KT 10SM CLR 06/M06 A3015 RMK AO2 SLP204 T00561061 51015,KOGD,2017-04-29T14:53:00Z,41.2,-112.02,5.6,-6.1,30,18,,10.0,30.15059,1020.4,,,TRUE,,,,,,,CLR,,,,,,,,VFR,1.5,,,,,,,,,,,METAR,1353.0
KIDA 291453Z 02005KT 10SM CLR 03/M01 A3023 RMK AO2 SLP244 T00331011 51016,KIDA,2017-04-29T14:53:00Z,43.52,-112.07,3.3,-1.1,20,5,,10.0,30.230314,1024.4,,,TRUE,,,,,,,CLR,,,,,,,,VFR,1.6,,,,,,,,,,,METAR,1453.0
KILM 291453Z AUTO 23011G19KT 10SM FEW026 28/21 A3023 RMK AO2 SLP235 T02830211 58002,KILM,2017-04-29T14:53:00Z,34.27,-77.9,28.3,21.1,230,11,19,10.0,30.230314,1023.5,,TRUE,TRUE,,,,,,,FEW,2600,,,,,,,VFR,-0.2,,,,,,,,,,,METAR,9.0
KIML 291453Z AUTO 03012KT 10SM FEW028 OVC060 03/M03 A3016 RMK AO2 SLP232 T00281028 51010,KIML,2017-04-29T14:53:00Z,40.52,-101.62,2.8,-2.8,30,12,,10.0,30.159449,1023.2,,TRUE,TRUE,,,,,,,FEW,2800,OVC,6000,,,,,VFR,1.0,,,,,,,,,,,METAR,998.0
KINK 291453Z AUTO 01020G29KT 10SM BKN031 OVC060 13/06 A2980 RMK AO2 PK WND 01030/1357 SLP056 T01330056 51031 PWINO,KINK,2017-04-29T14:53:00Z,31.78,-103.2,13.3,5.6,10,20,29,10.0,29.799213,1005.6,,TRUE,TRUE,,,,,TRUE,,BKN,3100,OVC,6000,,,,,VFR,3.1,,,,,,,,,,,METAR,855.0
KIPL 291453Z AUTO 34009KT 10SM CLR 21/00 A3000 RMK AO2 SLP158 T02110000 53024,KIPL,2017-04-29T14:53:00Z,32.83,-115.58,21.1,0.0,340,9,,10.0,30.0,1015.8,,TRUE,TRUE,,,,,,,CLR,,,,,,,,VFR,2.4,,,,,,,,,,,METAR,-17.0
KIWI 291453Z AUTO 21006KT 10SM BKN080 21/09 A2988 RMK AO2 SLP117 T02060094 56020,KIWI,2017-04-29T14:53:00Z,43.97,-69.72,20.6,9.4,210,6,,10.0,29.878937,1011.7,,TRUE,TRUE,,,,,,,BKN,8000,,,,,,,VFR,-2.0,,,,,,,,,,,METAR,20.0
KJBR 291453Z AUTO 16012KT 10SM SCT029 BKN037 OVC047 24/21 A2987 RMK AO2 SLP111 T02440206 51024,KJBR,2017-04-29T14:53:00Z,35.83,-90.65,24.4,20.6,160,12,,10.0,29.870079,1011.1,,TRUE,TRUE,,,,,,,SCT,2900,BKN,3700,OVC,4700,,,VFR,2.4,,,,,,,,,,,METAR,79.0
KJER 291453Z AUTO 20009KT 10SM CLR 04/M01 A3026 RMK AO2 SLP252 T00391011 51020,KJER,2017-04-29T14:53:00Z,42.72,-114.45,3.9,-1.1,200,9,,10.0,30.259842,1025.2,,TRUE,TRUE,,,,,,,CLR,,,,,,,,VFR,2.0,,,,,,,,,,,METAR,1222.0
KJKL 291453Z AUTO VRB03KT 10SM CLR 26/19 A3012 RMK AO2 SLP183 T02560189 50012,KJKL,2017-04-29T14:53:00Z,37.6,-83.32,25.6,18.9,0,3,,10.0,30.121063,1018.3,,TRUE,TRUE,,,,,,,CLR,,,,,,,,VFR,1.2,,,,,,,,,,,METAR,416.0
KLAN 291453Z 02011KT 10SM OVC020 09/03 A3018 RMK AO2 SLP221 T00890033 53007,KLAN,2017-04-29T14:53:00Z,42.78,-84.58,8.9,3.3,20,11,,10.0,30.180119,1022.1,,,TRUE,,,,,,,OVC,2000,,,,,,,MVFR,0.7,,,,,,,,,,,METAR,264.0
KLAR 291453Z AUTO 06012KT 10SM FEW016 OVC050 M05/M08 A3014 RMK AO2 SNE39 SLP240 P0000 60000 T10501083 50010,KLAR,2017-04-29T14:53:00Z,41.32,-105.67,-5.0,-8.3,60,12,,10.0,30.138779,1024.0,,TRUE,TRUE,,,,,,,FEW,1600,OVC,5000,,,,,VFR,1.0,,,,,0.005,0.005,,,,,METAR,2216.0
KLAX 291453Z 17005KT 10SM CLR 21/M07 A2998 RMK AO2 SLP151 T02061072 53019,KLAX,2017-04-29T14:53:00Z,33.93,-118.38,20.6,-7.2,170,5,,10.0,29.97933,1015.1,,,TRUE,,,,,,,CLR,,,,,,,,VFR,1.9,,,,,,,,,,,METAR,46.0
KLBB 291453Z COR 35021G31KT 10SM OVC012 07/04 A2983 RMK AO2 PK WND 35033/1417 SLP069 SHRA DSNT W-NW AND N 60000 T00720044 51034,KLBB,2017-04-29T14:53:00Z,33.67,-101.82,7.2,4.4,350,21,31,10.0,29.828741,1006.9,TRUE,,TRUE,,,,,,,OVC,1200,,,,,,,MVFR,3.4,,,,,,0.005,,,,,METAR,993.0
KLBF 291453Z AUTO 04014KT 10SM OVC070 04/M03 A3016 RMK AO2 SLP228 T00441028 51010,KLBF,2017-04-29T14:53:00Z,41.12,-100.67,4.4,-2.8,40,14,,10.0,30.159449,1022.8,,TRUE,TRUE,,,,,,,OVC,7000,,,,,,,VFR,1.0,,,,,,,,,,,METAR,847.0
KLBX 291453Z AUTO 16025G38KT 6SM HZ OVC015 28/24 A2967 RMK AO2 PK WND 15038/1450 SLP046 T02830244 58000,KLBX,2017-04-29T14:53:00Z,29.12,-95.47,28.3,24.4,160,25,38,6.0,29.66929,1004.6,,TRUE,TRUE,,,,,,HZ,OVC,1500,,,,,,,MVFR,0.0,,,,,,,,,,,METAR,6.0
KELM 291453Z 01003KT 10SM OVC031 18/11 A3006 RMK AO2 SLP176 T01830111 51013,KELM,2017-04-29T14:53:00Z,42.15,-76.9,18.3,11.1,10,3,,10.0,30.059055,1017.6,,,TRUE,,,,,,,OVC,3100,,,,,,,VFR,1.3,,,,,,,,,,,METAR,302.0
KEET 291453Z AUTO 15014G18KT 10SM BKN022 27/21 A3008 RMK AO2 SLP177 T02670211 51012,KEET,2017-04-29T14:53:00Z,33.18,-86.78,26.7,21.1,150,14,18,10.0,30.079725,1017.7,,TRUE,TRUE,,,,,,,BKN,2200,,,,,,,MVFR,1.2,,,,,,,,,,,METAR,173.0
KEEO 291453Z AUTO 03016G21KT 10SM OVC060 01/M06 A3002 RMK AO2 SLP169 T00111061 51020,KEEO,2017-04-29T14:53:00Z,40.05,-107.88,1.1,-6.1,30,16,21,10.0,30.02067,1016.9,,TRUE,TRUE,,,,,,,OVC,6000,,,,,,,VFR,2.0,,,,,,,,,,,METAR,1930.0
KECP 291453Z 13013G21KT 10SM FEW024 SCT032 28/22 A3010 RMK AO2 SLP202 T02780217 53009,KECP,2017-04-29T14:53:00Z,30.35,-85.8,27.8,21.7,130,13,21,10.0,30.100393,1020.2,,,TRUE,,,,,,,FEW,2400,SCT,3200,,,,,VFR,0.9,,,,,,,,,,,METAR,21.0
KDXR 291453Z 25013G20KT 10SM CLR 23/17 A3001 RMK AO2 SLP158 T02330167 50008,KDXR,2017-04-29T14:53:00Z,41.37,-73.48,23.3,16.7,250,13,20,10.0,30.008858,1015.8,,,TRUE,,,,,,,CLR,,,,,,,,VFR,0.8,,,,,,,,,,,METAR,139.0
KDWH 291453Z 16010G23KT 10SM BKN021 OVC027 28/23 A2966 RMK AO2 SLP041 T02780233 58006,KDWH,2017-04-29T14:53:00Z,30.07,-95.55,27.8,23.3,160,10,23,10.0,29.660433,1004.1,,,TRUE,,,,,,,BKN,2100,OVC,2700,,,,,MVFR,-0.6,,,,,,,,,,,METAR,46.0
KLCH 291453Z 15022G32KT 7SM OVC017 27/23 A2977 RMK AO2 PK WND 16036/1421 LTG DSNT SW AND W RAB22E32 SLP087 P0000 60000 T02670233 58005 $,KLCH,2017-04-29T14:53:00Z,30.13,-93.22,26.7,23.3,150,22,32,7.0,29.769686,1008.7,,,TRUE,TRUE,,,,,,OVC,1700,,,,,,,MVFR,-0.5,,,,,0.005,0.005,,,,,METAR,4.0
KLEB 291453Z 22009KT 10SM CLR 24/08 A2990 RMK AO2 SLP117 T02440078 58013,KLEB,2017-04-29T14:53:00Z,43.63,-72.3,24.4,7.8,220,9,,10.0,29.899607,1011.7,,,TRUE,,,,,,,CLR,,,,,,,,VFR,-1.3,,,,,,,,,,,METAR,171.0
KLEE 291453Z 15011KT 10SM CLR 29/21 A3017 RMK AO2 SLP216 T02890211 53006,KLEE,2017-04-29T14:53:00Z,28.82,-81.82,28.9,21.1,150,11,,10.0,30.171259,1021.6,,,TRUE,,,,,,,CLR,,,,,,,,VFR,0.6,,,,,,,,,,,METAR,23.0
KLFT 291453Z 16014G28KT 9SM BKN024 OVC031 29/23 A2983 RMK AO2 PK WND 17031/1407 SLP099 T02940233 58005,KLFT,2017-04-29T14:53:00Z,30.2,-92.0,29.4,23.3,160,14,28,9.0,29.828741,1009.9,,,TRUE,,,,,,,BKN,2400,OVC,3100,,,,,MVFR,-0.5,,,,,,,,,,,METAR,11.0
KLGB 291453Z 09008KT 10SM CLR 22/M12 A2998 RMK AO2 SLP151 T02171117 53022,KLGB,2017-04-29T14:53:00Z,33.82,-118.15,21.7,-11.7,90,8,,10.0,29.97933,1015.1,,,TRUE,,,,,,,CLR,,,,,,,,VFR,2.2,,,,,,,,,,,METAR,10.0
KOLF 291453Z AUTO 21004KT 10SM CLR 09/02 A3026 RMK AO2 SLP258 T00890022 50009,KOLF,2017-04-29T14:53:00Z,48.1,-105.58,8.9,2.2,210,4,,10.0,30.259842,1025.8,,TRUE,TRUE,,,,,,,CLR,,,,,,,,VFR,0.9,,,,,,,,,,,METAR,604.0
KOMK 291453Z AUTO 03004KT 10SM CLR 08/M01 A3022 RMK AO2 SLP238 T00831011 50002,KOMK,2017-04-29T14:53:00Z,48.47,-119.52,8.3,-1.1,30,4,,10.0,30.221457,1023.8,,TRUE,TRUE,,,,,,,CLR,,,,,,,,VFR,0.2,,,,,,,,,,,METAR,395.0
KONO 291453Z AUTO 25006KT 10SM CLR 08/01 A3028 RMK AO2 SLP260 T00780006 51012,KONO,2017-04-29T14:53:00Z,44.02,-117.02,7.8,0.6,250,6,,10.0,30.280512,1026.0,,TRUE,TRUE,,,,,,,CLR,,,,,,,,VFR,1.2,,,,,,,,,,,METAR,667.0
KONT 291453Z 06021G31KT 10SM CLR 19/M11 A3000 RMK AO2 PK WND 06034/1441 SLP145 T01941106 51026,KONT,2017-04-29T14:53:00Z,34.05,-117.58,19.4,-10.6,60,21,31,10.0,30.0,1014.5,,,TRUE,,,,,,,CLR,,,,,,,,VFR,2.6,,,,,,,,,,,METAR,274.0
KOPF 291453Z 12013G23KT 10SM SCT034 BKN044 27/20 A3016 RMK AO2 SLP212 T02720200 53010 $,KOPF,2017-04-29T14:53:00Z,25.92,-80.28,27.2,20.0,120,13,23,10.0,30.159449,1021.2,,,TRUE,TRUE,,,,,,SCT,3400,BKN,4400,,,,,VFR,1.0,,,,,,,,,,,METAR,16.0
KORL 291453Z 14012G20KT 10SM FEW032 29/19 A3017 RMK AO2 SLP219 T02940194 51006,KORL,2017-04-29T14:53:00Z,28.55,-81.33,29.4,19.4,140,12,20,10.0,30.171259,1021.9,,,TRUE,,,,,,,FEW,3200,,,,,,,VFR,0.6,,,,,,,,,,,METAR,37.0
KOTM 291453Z AUTO 05020G25KT 6SM -RA BR OVC021 08/06 A3002 RMK AO2 PK WND 04029/1431 RAB11 SLP171 P0003 60003 T00780061 55008,KOTM,2017-04-29T14:53:00Z,41.1,-92.45,7.8,6.1,50,20,25,6.0,30.02067,1017.1,,TRUE,TRUE,,,,,,-RA BR,OVC,2100,,,,,,,MVFR,-0.8,,,,,0.03,0.03,,,,,METAR,256.0
KOVE 291453Z AUTO 35005KT 10SM CLR 17/01 A3015 RMK AO2 SLP209 T01670011 53005,KOVE,2017-04-29T14:53:00Z,39.5,-121.62,16.7,1.1,350,5,,10.0,30.15059,1020.9,,TRUE,TRUE,,,,,,,CLR,,,,,,,,VFR,0.5,,,,,,,,,,,METAR,58.0
KOVS 291453Z AUTO 06007G16KT 10SM CLR 08/M02 A3023 RMK AO2 SLP241 T00781017 50004,KOVS,2017-04-29T14:53:00Z,43.15,-90.68,7.8,-1.7,60,7,16,10.0,30.230314,1024.1,,TRUE,TRUE,,,,,,,CLR,,,,,,,,VFR,0.4,,,,,,,,,,,METAR,202.0
KOWD 291453Z 24009KT 10SM CLR 26/13 A2993 RMK AO2 SLP133 T02610128 58016,KOWD,2017-04-29T14:53:00Z,42.18,-71.17,26.1,12.8,240,9,,10.0,29.929134,1013.3,,,TRUE,,,,,,,CLR,,,,,,,,VFR,-1.6,,,,,,,,,,,METAR,19.0
KOXB 291453Z AUTO 27016G22KT 10SM FEW023 27/22 A3012 RMK AO2 SLP198 T02670217 51023,KOXB,2017-04-29T14:53:00Z,38.32,-75.12,26.7,21.7,270,16,22,10.0,30.121063,1019.8,,TRUE,TRUE,,,,,,,FEW,2300,,,,,,,VFR,2.3,,,,,,,,,,,METAR,3.0
KPAE 291453Z 13005KT 10SM BKN120 07/05 A3028 RMK AO2 SLP255 T00670050 55005,KPAE,2017-04-29T14:53:00Z,47.92,-122.28,6.7,5.0,130,5,,10.0,30.280512,1025.5,,,TRUE,,,,,,,BKN,12000,,,,,,,VFR,-0.5,,,,,,,,,,,METAR,180.0
KPAH 291453Z 32004KT 9SM FEW025 BKN037 BKN044 23/19 A2997 RMK AO2 SLP143 T02280189 51034,KPAH,2017-04-29T14:53:00Z,37.07,-88.77,22.8,18.9,320,4,,9.0,29.970472,1014.3,,,TRUE,,,,,,,FEW,2500,BKN,3700,BKN,4400,,,VFR,3.4,,,,,,,,,,,METAR,119.0
KPBF 291453Z AUTO 17021G26KT 10SM BKN026 OVC031 26/21 A2979 RMK AO2 PK WND 17026/1426 SLP086 T02610211 50002,KPBF,2017-04-29T14:53:00Z,34.18,-91.93,26.1,21.1,170,21,26,10.0,29.790354,1008.6,,TRUE,TRUE,,,,,,,BKN,2600,OVC,3100,,,,,MVFR,0.2,,,,,,,,,,,METAR,62.0
KPBG 291453Z AUTO 30009G17KT 10SM BKN070 OVC090 21/05 A2991 RMK AO2 SLP127 T02110050 56002,KPBG,2017-04-29T14:53:00Z,44.65,-73.47,21.1,5.0,300,9,17,10.0,29.911417,1012.7,,TRUE,TRUE,,,,,,,BKN,7000,OVC,9000,,,,,VFR,-0.2,,,,,,,,,,,METAR,72.0
KPBI 291453Z 10017KT 10SM SCT023 28/20 A3018 RMK AO2 SLP218 T02830200 53009,KPBI,2017-04-29T14:53:00Z,26.68,-80.1,28.3,20.0,100,17,,10.0,30.180119,1021.8,,,TRUE,,,,,,,SCT,2300,,,,,,,VFR,0.9,,,,,,,,,,,METAR,6.0
KPDK 291453Z 15004KT 10SM BKN055 26/18 A3017 RMK AO2 SLP198 T02610183 50004,KPDK,2017-04-29T14:53:00Z,33.88,-84.3,26.1,18.3,150,4,,10.0,30.171259,1019.8,,,TRUE,,,,,,,BKN,5500,,,,,,,VFR,0.4,,,,,,,,,,,METAR,302.0
KPDT 291453Z 14005KT 10SM CLR 06/03 A3026 RMK AO2 SLP245 T00610028 55001,KPDT,2017-04-29T14:53:00Z,45.7,-118.83,6.1,2.8,140,5,,10.0,30.259842,1024.5,,,TRUE,,,,,,,CLR,,,,,,,,VFR,-0.1,,,,,,,,,,,METAR,462.0
KPDX 291453Z 00000KT 10SM FEW008 FEW100 FEW200 07/05 A3032 RMK AO2 SLP265 T00720050 55001,KPDX,2017-04-29T14:53:00Z,45.6,-122.62,7.2,5.0,0,0,,10.0,30.318897,1026.5,,,TRUE,,,,,,,FEW,800,FEW,10000,FEW,20000,,,VFR,-0.1,,,,,,,,,,,METAR,7.0
KPGA 291453Z AUTO 35005KT 10SM CLR 09/M03 A2998 RMK AO2 SLP129 T00941033 53015 TSNO,KPGA,2017-04-29T14:53:00Z,36.92,-111.45,9.4,-3.3,350,5,,10.0,29.97933,1012.9,,TRUE,TRUE,,,TRUE,,,,CLR,,,,,,,,VFR,1.5,,,,,,,,,,,METAR,1307.0
KPGD 291453Z 14015KT 10SM SCT035 31/20 A3013 RMK AO2 SLP205 T03060200 50003,KPGD,2017-04-29T14:53:00Z,26.92,-82.0,30.6,20.0,140,15,,10.0,30.129921,1020.5,,,TRUE,,,,,,,SCT,3500,,,,,,,VFR,0.3,,,,,,,,,,,METAR,7.0
KGSP 291453Z 24005KT 10SM SCT011 26/20 A3019 RMK AO2 SLP211 T02560200 51004,KGSP,2017-04-29T14:53:00Z,34.9,-82.22,25.6,20.0,240,5,,10.0,30.188976,1021.1,,,TRUE,,,,,,,SCT,1100,,,,,,,VFR,0.4,,,,,,,,,,,METAR,287.0
KGSH 291453Z AUTO 08010KT 10SM BKN047 OVC055 11/06 A3011 RMK AO2 SLP196 T01110056 51016,KGSH,2017-04-29T14:53:00Z,41.53,-85.78,11.1,5.6,80,10,,10.0,30.109253,1019.6,,TRUE,TRUE,,,,,,,BKN,4700,OVC,5500,,,,,VFR,1.6,,,,,,,,,,,METAR,252.0
KGRR 291453Z 02012KT 10SM SCT030 SCT065 OVC200 09/04 A3016 RMK AO2 SLP217 T00940039 50002,KGRR,2017-04-29T14:53:00Z,42.88,-85.52,9.4,3.9,20,12,,10.0,30.159449,1021.7,,,TRUE,,,,,,,SCT,3000,SCT,6500,OVC,20000,,,VFR,0.2,,,,,,,,,,,METAR,237.0
KGTF 291453Z 21013KT 10SM CLR 07/01 A3019 RMK AO2 SLP251 T00670011 51007,KGTF,2017-04-29T14:53:00Z,47.47,-111.38,6.7,1.1,210,13,,10.0,30.188976,1025.1,,,TRUE,,,,,,,CLR,,,,,,,,VFR,0.7,,,,,,,,,,,METAR,1119.0
KPNS 291453Z 14016G22KT 10SM OVC008 26/22 A3004 RMK AO2 SLP173 T02610222 53002,KPNS,2017-04-29T14:53:00Z,30.48,-87.18,26.1,22.2,140,16,22,10.0,30.041338,1017.3,,,TRUE,,,,,,,OVC,800,,,,,,,IFR,0.2,,,,,,,,,,,METAR,38.0
KPMD 291453Z AUTO 07010KT 10SM CLR 14/M09 A3014 RMK AO2 SLP193 T01391094 53017,KPMD,2017-04-29T14:53:00Z,34.63,-118.08,13.9,-9.4,70,10,,10.0,30.138779,1019.3,,TRUE,TRUE,,,,,,,CLR,,,,,,,,VFR,1.7,,,,,,,,,,,METAR,780.0
KPKD 291453Z AUTO 19007KT 10SM CLR 08/M04 A3035 RMK AO2 SLP290 T00781044 53032,KPKD,2017-04-29T14:53:00Z,46.9,-95.07,7.8,-4.4,190,7,,10.0,30.351377,1029.0,,TRUE,TRUE,,,,,,,CLR,,,,,,,,VFR,3.2,,,,,,,,,,,METAR,442.0
KPIR 291453Z AUTO 06005KT 10SM CLR 08/M05 A3028 RMK AO2 SLP263 T00781050 50014,KPIR,2017-04-29T14:53:00Z,44.38,-100.28,7.8,-5.0,60,5,,10.0,30.280512,1026.3,,TRUE,TRUE,,,,,,,CLR,,,,,,,,VFR,1.4,,,,,,,,,,,METAR,526.0
KPIL 291453Z AUTO 15025G34KT 4SM HZ OVC019 29/25 A2956 RMK AO2 PK WND 15034/1448 SLP009 T02940250 58002,KPIL,2017-04-29T14:53:00Z,26.17,-97.33,29.4,25.0,150,25,34,4.0,29.56004,1000.9,,TRUE,TRUE,,,,,,HZ,OVC,1900,,,,,,,MVFR,-0.2,,,,,,,,,,,METAR,5.0
KPIH 291453Z AUTO 24007KT 10SM CLR 04/00 A3024 RMK AO2 SLP241 T00390000 51016,KPIH,2017-04-29T14:53:00Z,42.92,-112.57,3.9,0.0,240,7,,10.0,30.239174,1024.1,,TRUE,TRUE,,,,,,,CLR,,,,,,,,VFR,1.6,,,,,,,,,,,METAR,1359.0
KPOF 291453Z AUTO 15012KT 8SM FEW037 FEW047 OVC060 24/21 A2987 RMK AO2 SLP111 T02390211 50021 TSNO,KPOF,2017-04-29T14:53:00Z,36.77,-90.32,23.9,21.1,150,12,,8.0,29.870079,1011.1,,TRUE,TRUE,,,TRUE,,,,FEW,3700,FEW,4700,OVC,6000,,,VFR,2.1,,,,,,,,,,,METAR,99.0
KPOU 291453Z 23012KT 10SM CLR 23/15 A2998 RMK AO2 SLP149 T02280150 50009,KPOU,2017-04-29T14:53:00Z,41.63,-73.88,22.8,15.0,230,12,,10.0,29.97933,1014.9,,,TRUE,,,,,,,CLR,,,,,,,,VFR,0.9,,,,,,,,,,,METAR,46.0
KPQL 291453Z 15013G23KT 10SM OVC013 26/22 A3000 RMK AO2 SLP160 T02610222 53007,KPQL,2017-04-29T14:53:00Z,30.47,-88.53,26.1,22.2,150,13,23,10.0,30.0,1016.0,,,TRUE,,,,,,,OVC,1300,,,,,,,MVFR,0.7,,,,,,,,,,,METAR,6.0
KPRB 291453Z AUTO 00000KT 10SM CLR 09/02 A3010 RMK AO2 SLP189 T00890022 51019 TSNO $,KPRB,2017-04-29T14:53:00Z,35.67,-120.63,8.9,2.2,0,0,,10.0,30.100393,1018.9,,TRUE,TRUE,TRUE,,TRUE,,,,CLR,,,,,,,,VFR,1.9,,,,,,,,,,,METAR,245.0
KPRC 291453Z 34012KT 10SM CLR 07/M07 A3002 RMK AO2 SLP134 T00671067 53020,KPRC,2017-04-29T14:53:00Z,34.65,-112.42,6.7,-6.7,340,12,,10.0,30.02067,1013.4,,,TRUE,,,,,,,CLR,,,,,,,,VFR,2.0,,,,,,,,,,,METAR,1524.0
KPSC 291453Z 00000KT 10SM CLR 09/03 A3028 RMK AO2 SLP253 T00890033 53002,KPSC,2017-04-29T14:53:00Z,46.27,-119.12,8.9,3.3,0,0,,10.0,30.280512,1025.3,,,TRUE,,,,,,,CLR,,,,,,,,VFR,0.2,,,,,,,,,,,METAR,121.0
KPSX 291453Z AUTO 15025G36KT 7SM OVC015 28/24 A2962 RMK AO2 PK WND 14036/1432 SLP030 T02830239 56004,KPSX,2017-04-29T14:53:00Z,28.72,-96.25,28.3,23.9,150,25,36,7.0,29.619095,1003.0,,TRUE,TRUE,,,,,,,OVC,1500,,,,,,,MVFR,-0.4,,,,,,,,,,,METAR,5.0
KPTK 291453Z 04009KT 10SM FEW028 BKN065 OVC230 08/02 A3015 RMK AO2 SLP210 T00830017 51013,KPTK,2017-04-29T14:53:00Z,42.67,-83.42,8.3,1.7,40,9,,10.0,30.15059,1021.0,,,TRUE,,,,,,,FEW,2800,BKN,6500,OVC,23000,,,VFR,1.3,,,,,,,,,,,METAR,299.0
KPUW 291453Z AUTO 10009KT 10SM CLR 07/03 A3027 RMK AO2 SLP260 T00670028 52002,KPUW,2017-04-29T14:53:00Z,46.75,-117.12,6.7,2.8,100,9,,10.0,30.268702,1026.0,,TRUE,TRUE,,,,,,,CLR,,,,,,,,VFR,0.2,,,,,,,,,,,METAR,773.0
KRAC 291453Z AUTO 03018G30KT 10SM CLR 06/00 A3021 RMK AO2 PK WND 03030/1444 SLP236 T00560000 50002,KRAC,2017-04-29T14:53:00Z,42.77,-87.82,5.6,0.0,30,18,30,10.0,30.209646,1023.6,,TRUE,TRUE,,,,,,,CLR,,,,,,,,VFR,0.2,,,,,,,,,,,METAR,203.0
KRAL 291453Z 03013G19KT 10SM CLR 19/M07 A3002 RMK AO2 SLP149 T01891067 51016,KRAL,2017-04-29T14:53:00Z,33.95,-117.45,18.9,-6.7,30,13,19,10.0,30.02067,1014.9,,,TRUE,,,,,,,CLR,,,,,,,,VFR,1.6,,,,,,,,,,,METAR,252.0
KRBD 291453Z 18014G26KT 5SM HZ SCT024 BKN035 OVC042 27/22 A2956 RMK AO2 PK WND 19034/1436 SLP002 T02670222 53010,KRBD,2017-04-29T14:53:00Z,32.68,-96.87,26.7,22.2,180,14,26,5.0,29.56004,1000.2,,,TRUE,,,,,,HZ,SCT,2400,BKN,3500,OVC,4200,,,MVFR,1.0,,,,,,,,,,,METAR,203.0
KRBG 291453Z AUTO 00000KT 10SM CLR 05/04 A3031 RMK AO2 SLP266 T00500039 53004,KRBG,2017-04-29T14:53:00Z,43.23,-123.35,5.0,3.9,0,0,,10.0,30.31004,1026.6,,TRUE,TRUE,,,,,,,CLR,,,,,,,,VFR,0.4,,,,,,,,,,,METAR,154.0
KRDD 291453Z 30004KT 10SM CLR 14/04 A3018 RMK AO2 SLP217 T01390039 53006,KRDD,2017-04-29T14:53:00Z,40.52,-122.3,13.9,3.9,300,4,,10.0,30.180119,1021.7,,,TRUE,,,,,,,CLR,,,,,,,,VFR,0.6,,,,,,,,,,,METAR,155.0
KRHI 291453Z AUTO 06008KT 10SM CLR 05/M05 A3029 RMK AO2 SLP273 T00501050 50003 TSNO,KRHI,2017-04-29T14:53:00Z,45.63,-89.48,5.0,-5.0,60,8,,10.0,30.28937,1027.3,,TRUE,TRUE,,,TRUE,,,,CLR,,,,,,,,VFR,0.3,,,,,,,,,,,METAR,485.0
KRIL 291453Z AUTO 30007KT 10SM FEW120 05/M05 A3000 RMK AO2 SLP152 T00501050 51020,KRIL,2017-04-29T14:53:00Z,39.53,-107.73,5.0,-5.0,300,7,,10.0,30.0,1015.2,,TRUE,TRUE,,,,,,,FEW,12000,,,,,,,VFR,2.0,,,,,,,,,,,METAR,1678.0
KRIW 291453Z AUTO 30004KT 10SM CLR M01/M03 A3026 RMK AO2 SLP272 T10061033 51016,KRIW,2017-04-29T14:53:00Z,43.07,-108.47,-0.6,-3.3,300,4,,10.0,30.259842,1027.2,,TRUE,TRUE,,,,,,,CLR,,,,,,,,VFR,1.6,,,,,,,,,,,METAR,1697.0
KRKP 291453Z AUTO 14017G24KT 5SM HZ OVC011 28/24 A2959 RMK AO2 PK WND 14029/1401 CIG 009V012 SLP021 T02780239 55001,KRKP,2017-04-29T14:53:00Z,28.08,-97.05,27.8,23.9,140,17,24,5.0,29.589567,1002.1,,TRUE,TRUE,,,,,,HZ,OVC,1100,,,,,,,MVFR,-0.1,,,,,,,,,,,METAR,6.0
KRME 291453Z 28011KT 10SM OVC050 16/09 A3005 RMK AO2 SLP173 60000 T01560094 51017 $,KRME,2017-04-29T14:53:00Z,43.22,-75.4,15.6,9.4,280,11,,10.0,30.050198,1017.3,,,TRUE,TRUE,,,,,,OVC,5000,,,,,,,VFR,1.7,,,,,,0.005,,,,,METAR,154.0
KRMG 291453Z AUTO 14011KT 10SM CLR 27/19 A3012 RMK AO2 SLP188 T02720194 50006,KRMG,2017-04-29T14:53:00Z,34.35,-85.17,27.2,19.4,140,11,,10.0,30.121063,1018.8,,TRUE,TRUE,,,,,,,CLR,,,,,,,,VFR,0.6,,,,,,,,,,,METAR,193.0
KRNM 291453Z 05018KT 10SM CLR 19/M08 A2997 RMK AO2 SLP138 T01941083 53018 $,KRNM,2017-04-29T14:53:00Z,33.03,-116.92,19.4,-8.3,50,18,,10.0,29.970472,1013.8,,,TRUE,TRUE,,,,,,CLR,,,,,,,,VFR,1.8,,,,,,,,,,,METAR,427.0
KRNT 291453Z 14003KT 10SM CLR 07/04 A3029 RMK AO2 SLP263 T00720044 56004,KRNT,2017-04-29T14:53:00Z,47.5,-122.22,7.2,4.4,140,3,,10.0,30.28937,1026.3,,,TRUE,,,,,,,CLR,,,,,,,,VFR,-0.4,,,,,,,,,,,METAR,21.0
KRQE 291453Z AUTO 01006KT 10SM CLR 02/M04 A2990 RMK AO2 SLP095 T00221044 51008 TSNO,KRQE,2017-04-29T14:53:00Z,35.65,-109.07,2.2,-4.4,10,6,,10.0,29.899607,1009.5,,TRUE,TRUE,,,TRUE,,,,CLR,,,,,,,,VFR,0.8,,,,,,,,,,,METAR,2055.0
KRSL 291453Z AUTO 03018G26KT 6SM -RA BR OVC006 04/04 A2992 RMK AO2 PK WND 03029/1355 RAE10B52 SLP141 P0000 60009 T00440039 55014,KRSL,2017-04-29T14:53:00Z,38.87,-98.82,4.4,3.9,30,18,26,6.0,29.920275,1014.1,,TRUE,TRUE,,,,,,-RA BR,OVC,600,,,,,,,IFR,-1.4,,,,,0.005,0.09,,,,,METAR,567.0
KRSW 291453Z 12014G22KT 10SM SCT033 29/20 A3012 RMK AO2 SLP197 T02940200 50003,KRSW,2017-04-29T14:53:00Z,26.53,-81.75,29.4,20.0,120,14,22,10.0,30.121063,1019.7,,,TRUE,,,,,,,SCT,3300,,,,,,,VFR,0.3,,,,,,,,,,,METAR,10.0
KRTN 291453Z AUTO 02020G34KT 10SM UP BKN048 OVC060 M01/M07 A2989 RMK AO2 PK WND 36039/1440 UPB07SNE07 SLP114 P0000 60000 T10111067 58004,KRTN,2017-04-29T14:53:00Z,36.73,-104.5,-1.1,-6.7,20,20,34,10.0,29.890747,1011.4,,TRUE,TRUE,,,,,,UP,BKN,4800,OVC,6000,,,,,VFR,-0.4,,,,,0.005,0.005,,,,,METAR,1936.0
KRUE 291453Z AUTO 18007G15KT 140V220 10SM OVC034 26/20 A2971 RMK AO2 SLP053 T02610200 53004 $,KRUE,2017-04-29T14:53:00Z,35.25,-93.1,26.1,20.0,180,7,15,10.0,29.71063,1005.3,,TRUE,TRUE,TRUE,,,,,,OVC,3400,,,,,,,VFR,0.4,,,,,,,,,,,METAR,115.0
KRWF 291453Z AUTO 07011G16KT 10SM CLR 07/M04 A3030 RMK AO2 SLP268 T00721039 50017,KRWF,2017-04-29T14:53:00Z,44.55,-95.08,7.2,-3.9,70,11,16,10.0,30.301182,1026.8,,TRUE,TRUE,,,,,,,CLR,,,,,,,,VFR,1.7,,,,,,,,,,,METAR,311.0
KRWI 291453Z AUTO 23009KT 10SM FEW025 27/22 A3021 RMK AO2 SLP227 T02720217 50003 $,KRWI,2017-04-29T14:53:00Z,35.85,-77.9,27.2,21.7,230,9,,10.0,30.209646,1022.7,,TRUE,TRUE,TRUE,,,,,,FEW,2500,,,,,,,VFR,0.3,,,,,,,,,,,METAR,47.0
KRWL 291453Z AUTO 06017G23KT 10SM OVC046 M02/M06 A3018 RMK AO2 SNE03 SLP242 P0000 60000 T10221061 53013,KRWL,2017-04-29T14:53:00Z,41.78,-107.2,-2.2,-6.1,60,17,23,10.0,30.180119,1024.2,,TRUE,TRUE,,,,,,,OVC,4600,,,,,,,VFR,1.3,,,,,0.005,0.005,,,,,METAR,2077.0
KELY 291453Z AUTO 02015KT 10SM CLR 02/M06 A3020 RMK AO2 SLP224 T00221061 53019,KELY,2017-04-29T14:53:00Z,39.3,-114.85,2.2,-6.1,20,15,,10.0,30.200787,1022.4,,TRUE,TRUE,,,,,,,CLR,,,,,,,,VFR,1.9,,,,,,,,,,,METAR,1906.0
KELN 291453Z AUTO 00000KT 10SM CLR 05/00 A3023 RMK AO2 SLP244 T00500000 53003,KELN,2017-04-29T14:53:00Z,47.03,-120.53,5.0,0.0,0,0,,10.0,30.230314,1024.4,,TRUE,TRUE,,,,,,,CLR,,,,,,,,VFR,0.3,,,,,,,,,,,METAR,519.0
KEPH 291453Z AUTO 02007KT 10SM CLR 06/M01 A3023 RMK AO2 SLP240 T00561011 50005,KEPH,2017-04-29T14:53:00Z,47.3,-119.52,5.6,-1.1,20,7,,10.0,30.230314,1024.0,,TRUE,TRUE,,,,,,,CLR,,,,,,,,VFR,0.5,,,,,,,,,,,METAR,383.0
KENW 291453Z 04018KT 10SM CLR 06/01 A3018 RMK AO2 SLP226 T00610006 50003,KENW,2017-04-29T14:53:00Z,42.6,-87.93,6.1,0.6,40,18,,10.0,30.180119,1022.6,,,TRUE,,,,,,,CLR,,,,,,,,VFR,0.3,,,,,,,,,,,METAR,219.0
KEMP 291453Z AUTO 03013G22KT 4SM RA BR OVC007 07/07 A2985 RMK AO2 SLP111 P0021 60049 T00670067 58007,KEMP,2017-04-29T14:53:00Z,38.33,-96.2,6.7,6.7,30,13,22,4.0,29.84941,1011.1,,TRUE,TRUE,,,,,,RA BR,OVC,700,,,,,,,IFR,-0.7,,,,,0.21,0.49,,,,,METAR,367.0
KEVW 291453Z AUTO 01009KT 10SM CLR M03/M06 A3019 RMK AO2 SLP238 T10281061 51015,KEVW,2017-04-29T14:53:00Z,41.27,-111.03,-2.8,-6.1,10,9,,10.0,30.188976,1023.8,,TRUE,TRUE,,,,,,,CLR,,,,,,,,VFR,1.5,,,,,,,,,,,METAR,2177.0
KRXE 291453Z AUTO 03007KT 10SM CLR 03/M04 A3022 RMK AO2 SLP241 T00331044 51013 $,KRXE,2017-04-29T14:53:00Z,43.83,-111.8,3.3,-4.4,30,7,,10.0,30.221457,1024.1,,TRUE,TRUE,TRUE,,,,,,CLR,,,,,,,,VFR,1.3,,,,,,,,,,,METAR,1480.0
KSAC 291453Z 31006KT 10SM CLR 13/05 A3011 RMK AO2 SLP195 T01280050 53014,KSAC,2017-04-29T14:53:00Z,38.5,-121.5,12.8,5.0,310,6,,10.0,30.109253,1019.5,,,TRUE,,,,,,,CLR,,,,,,,,VFR,1.4,,,,,,,,,,,METAR,11.0
KSAV 291453Z 17012KT 10SM FEW022 SCT028 BKN250 29/21 A3021 RMK AO2 SLP230 T02940206 50008,KSAV,2017-04-29T14:53:00Z,32.12,-81.2,29.4,20.6,170,12,,10.0,30.209646,1023.0,,,TRUE,,,,,,,FEW,2200,SCT,2800,BKN,25000,,,VFR,0.8,,,,,,,,,,,SPECI,14.0
KSBA 291453Z 00000KT 7SM CLR 14/10 A3002 RMK AO2 SLP167 T01390100 53025,KSBA,2017-04-29T14:53:00Z,34.43,-119.85,13.9,10.0,0,0,,7.0,30.02067,1016.7,,,TRUE,,,,,,,CLR,,,,,,,,VFR,2.5,,,,,,,,,,,METAR,3.0
KSBM 291453Z AUTO 04019KT 10SM CLR 05/01 A3025 RMK AO2 PK WND 04026/1412 SLP251 T00500006 51017,KSBM,2017-04-29T14:53:00Z,43.78,-87.85,5.0,0.6,40,19,,10.0,30.250984,1025.1,,TRUE,TRUE,,,,,,,CLR,,,,,,,,VFR,1.7,,,,,,,,,,,METAR,232.0
KSDL 291453Z 31006KT 10SM CLR 17/M07 A2994 RMK AO2 SLP121 T01671072 51023,KSDL,2017-04-29T14:53:00Z,33.62,-111.92,16.7,-7.2,310,6,,10.0,29.940945,1012.1,,,TRUE,,,,,,,CLR,,,,,,,,VFR,2.3,,,,,,,,,,,METAR,447.0
KSEA 291453Z 15004KT 10SM BKN120 07/04 A3029 RMK AO2 SLP263 T00720044 56004,KSEA,2017-04-29T14:53:00Z,47.45,-122.32,7.2,4.4,150,4,,10.0,30.28937,1026.3,,,TRUE,,,,,,,BKN,12000,,,,,,,VFR,-0.4,,,,,,,,,,,METAR,136.0
KSDM 291453Z 00000KT 10SM CLR 21/M06 A2995 RMK AO2 SLP137 T02111056 51022,KSDM,2017-04-29T14:53:00Z,32.58,-117.0,21.1,-5.6,0,0,,10.0,29.949802,1013.7,,,TRUE,,,,,,,CLR,,,,,,,,VFR,2.2,,,,,,,,,,,METAR,159.0
KSEG 291453Z AUTO 06004KT 10SM CLR 18/16 A3003 RMK AO2 PRESFR SLP167 T01830161 58008,KSEG,2017-04-29T14:53:00Z,40.82,-76.87,18.3,16.1,60,4,,10.0,30.029528,1016.7,,TRUE,TRUE,,,,,,,CLR,,,,,,,,VFR,-0.8,,,,,,,,,,,METAR,134.0
KSFF 291453Z 00000KT 10SM CLR 09/02 A3025 RMK AO2 SLP246 T00940022 53005,KSFF,2017-04-29T14:53:00Z,47.68,-117.32,9.4,2.2,0,0,,10.0,30.250984,1024.6,,,TRUE,,,,,,,CLR,,,,,,,,VFR,0.5,,,,,,,,,,,METAR,609.0
KSFB 291453Z 14013KT 10SM FEW036 29/19 A3017 RMK AO2 SLP215 T02940189 51006,KSFB,2017-04-29T14:53:00Z,28.77,-81.22,29.4,18.9,140,13,,10.0,30.171259,1021.5,,,TRUE,,,,,,,FEW,3600,,,,,,,VFR,0.6,,,,,,,,,,,METAR,17.0
KGVL 291453Z AUTO 09006KT 10SM BKN055 26/20 A3020 RMK AO2 SLP211 T02560200 53001 $,KGVL,2017-04-29T14:53:00Z,34.27,-83.83,25.6,20.0,90,6,,10.0,30.200787,1021.1,,TRUE,TRUE,TRUE,,,,,,BKN,5500,,,,,,,VFR,0.1,,,,,,,,,,,METAR,386.0
KGUP 291453Z AUTO VRB04KT 10SM CLR 02/M05 A2991 RMK AO2 SLP109 T00221050 51010,KGUP,2017-04-29T14:53:00Z,35.52,-108.8,2.2,-5.0,0,4,,10.0,29.911417,1010.9,,TRUE,TRUE,,,,,,,CLR,,,,,,,,VFR,1.0,,,,,,,,,,,METAR,1971.0
KEWB 291453Z 24005KT 10SM BKN090 23/16 A2996 RMK AO2 SLP144 T02280156 56014,KEWB,2017-04-29T14:53:00Z,41.68,-70.95,22.8,15.6,240,5,,10.0,29.958662,1014.4,,,TRUE,,,,,,,BKN,9000,,,,,,,VFR,-1.4,,,,,,,,,,,METAR,23.0
KEYW 291453Z 10015G23KT 10SM FEW017 SCT032 28/24 A3010 RMK AO2 SLP193 T02830239 50009,KEYW,2017-04-29T14:53:00Z,24.55,-81.75,28.3,23.9,100,15,23,10.0,30.100393,1019.3,,,TRUE,,,,,,,FEW,1700,SCT,3200,,,,,VFR,0.9,,,,,,,,,,,METAR,5.0
KFAR 291453Z 18009KT 10SM CLR 09/M04 A3035 RMK AO2 SLP284 T00941044 51029,KFAR,2017-04-29T14:53:00Z,46.93,-96.82,9.4,-4.4,180,9,,10.0,30.351377,1028.4,,,TRUE,,,,,,,CLR,,,,,,,,VFR,2.9,,,,,,,,,,,METAR,277.0
KSGR 291453Z 16021G26KT 7SM OVC020 28/24 A2966 RMK AO2 PK WND 16026/1438 SLP044 T02830239 58002,KSGR,2017-04-29T14:53:00Z,29.62,-95.65,28.3,23.9,160,21,26,7.0,29.660433,1004.4,,,TRUE,,,,,,,OVC,2000,,,,,,,MVFR,-0.2,,,,,,,,,,,METAR,2.0
KSHN 291453Z AUTO 00000KT 10SM FEW011 SCT120 06/04 A3027 RMK AO2 SLP255 T00610044 55001,KSHN,2017-04-29T14:53:00Z,47.23,-123.13,6.1,4.4,0,0,,10.0,30.268702,1025.5,,TRUE,TRUE,,,,,,,FEW,1100,SCT,12000,,,,,VFR,-0.1,,,,,,,,,,,METAR,82.0
KMAF 291453Z 36021G31KT 10SM OVC016 12/06 A2978 RMK AO2 PK WND 35031/1401 SLP049 T01170056 51044,KMAF,2017-04-29T14:53:00Z,31.95,-102.2,11.7,5.6,360,21,31,10.0,29.778543,1004.9,,,TRUE,,,,,,,OVC,1600,,,,,,,MVFR,4.4,,,,,,,,,,,METAR,874.0
KMBS 291453Z 03012KT 10SM SCT028 BKN043 08/02 A3022 RMK AO2 SLP235 T00830017 51013,KMBS,2017-04-29T14:53:00Z,43.53,-84.08,8.3,1.7,30,12,,10.0,30.221457,1023.5,,,TRUE,,,,,,,SCT,2800,BKN,4300,,,,,VFR,1.3,,,,,,,,,,,METAR,202.0
KMCB 291453Z AUTO 17014G21KT 10SM BKN020 BKN027 OVC043 27/22 A2992 RMK AO2 SLP126 T02670217 51010 TSNO,KMCB,2017-04-29T14:53:00Z,31.18,-90.47,26.7,21.7,170,14,21,10.0,29.920275,1012.6,,TRUE,TRUE,,,TRUE,,,,BKN,2000,BKN,2700,OVC,4300,,,MVFR,1.0,,,,,,,,,,,METAR,124.0
KMCE 291453Z AUTO 36006KT 10SM CLR 12/03 A3009 RMK AO2 SLP188 T01220033 53020,KMCE,2017-04-29T14:53:00Z,37.28,-120.5,12.2,3.3,360,6,,10.0,30.088583,1018.8,,TRUE,TRUE,,,,,,,CLR,,,,,,,,VFR,2.0,,,,,,,,,,,METAR,47.0
KMCK 291453Z AUTO 01012KT 10SM OVC042 03/01 A3011 RMK AO2 SLP211 60005 T00330011 $,KMCK,2017-04-29T14:53:00Z,40.2,-100.58,3.3,1.1,10,12,,10.0,30.109253,1021.1,,TRUE,TRUE,TRUE,,,,,,OVC,4200,,,,,,,VFR,,,,,,,0.05,,,,,METAR,782.0
KMCN 291453Z 15005KT 8SM SCT055 SCT070 26/21 A3017 RMK AO2 SLP211 T02610211 51012,KMCN,2017-04-29T14:53:00Z,32.68,-83.65,26.1,21.1,150,5,,8.0,30.171259,1021.1,,,TRUE,,,,,,,SCT,5500,SCT,7000,,,,,VFR,1.2,,,,,,,,,,,METAR,109.0
KMCO 291453Z 13008G16KT 10SM SCT035 BKN250 29/19 A3017 RMK AO2 SLP214 T02890194 53005,KMCO,2017-04-29T14:53:00Z,28.42,-81.33,28.9,19.4,130,8,16,10.0,30.171259,1021.4,,,TRUE,,,,,,,SCT,3500,BKN,25000,,,,,VFR,0.5,,,,,,,,,,,METAR,29.0
KMCW 291453Z AUTO 06015KT 10SM CLR 06/01 A3022 RMK AO2 SLP235 T00610006 50010,KMCW,2017-04-29T14:53:00Z,43.15,-93.33,6.1,0.6,60,15,,10.0,30.221457,1023.5,,TRUE,TRUE,,,,,,,CLR,,,,,,,,VFR,1.0,,,,,,,,,,,METAR,369.0
KMDW 291453Z 02018G31KT 10SM BKN031 OVC065 08/03 A3012 RMK AO2 PK WND 01031/1446 SLP202 T00780028 58012 $,KMDW,2017-04-29T14:53:00Z,41.78,-87.75,7.8,2.8,20,18,31,10.0,30.121063,1020.2,,,TRUE,TRUE,,,,,,BKN,3100,OVC,6500,,,,,VFR,-1.2,,,,,,,,,,,METAR,188.0
KMFR 291453Z 00000KT 10SM CLR 06/03 A3029 RMK AO2 SLP259 T00560033 53006,KMFR,2017-04-29T14:53:00Z,42.38,-122.87,5.6,3.3,0,0,,10.0,30.28937,1025.9,,,TRUE,,,,,,,CLR,,,,,,,,VFR,0.6,,,,,,,,,,,METAR,396.0
KFAY 291453Z AUTO 22010KT 10SM CLR 28/21 A3021 RMK AO2 SLP223 T02830211 56003,KFAY,2017-04-29T14:53:00Z,34.98,-78.88,28.3,21.1,220,10,,10.0,30.209646,1022.3,,TRUE,TRUE,,,,,,,CLR,,,,,,,,VFR,-0.3,,,,,,,,,,,METAR,55.0
KFAT 291453Z 00000KT 10SM CLR 14/05 A3009 RMK AO2 SLP188 T01440050 53023,KFAT,2017-04-29T14:53:00Z,36.78,-119.72,14.4,5.0,0,0,,10.0,30.088583,1018.8,,,TRUE,,,,,,,CLR,,,,,,,,VFR,2.3,,,,,,,,,,,METAR,104.0
KFCM 291453Z 06008KT 10SM CLR 08/M04 A3030 RMK AO2 SLP265 T00831039 51015,KFCM,2017-04-29T14:53:00Z,44.83,-93.47,8.3,-3.9,60,8,,10.0,30.301182,1026.5,,,TRUE,,,,,,,CLR,,,,,,,,VFR,1.5,,,,,,,,,,,METAR,280.0
KMGM 291453Z 15012G19KT 10SM BKN023 27/20 A3009 RMK AO2 SLP187 T02670200 51017,KMGM,2017-04-29T14:53:00Z,32.3,-86.4,26.7,20.0,150,12,19,10.0,30.088583,1018.7,,,TRUE,,,,,,,BKN,2300,,,,,,,MVFR,1.7,,,,,,,,,,,METAR,63.0
KMGW 291453Z 21004KT 10SM OVC100 21/16 A3012 RMK AO2 SLP193 60000 T02060161 55018,KMGW,2017-04-29T14:53:00Z,39.65,-79.92,20.6,16.1,210,4,,10.0,30.121063,1019.3,,,TRUE,,,,,,,OVC,10000,,,,,,,VFR,-1.8,,,,,,0.005,,,,,METAR,378.0
KRYT 291453Z AUTO 24005KT 10SM CLR 23/14 A3004 RMK AO2 SLP160 60006 T02330144 56027 TSNO $,KRYT,2017-04-29T14:53:00Z,39.73,-77.43,23.3,14.4,240,5,,10.0,30.041338,1016.0,,TRUE,TRUE,TRUE,,TRUE,,,,CLR,,,,,,,,VFR,-2.7,,,,,,0.06,,,,,METAR,274.0
PAWI 291453Z AUTO 09012KT 10SM OVC065 M16/M18 A3004 RMK SLP173 T11561178 55000 TSNO VIA AUTODIAL,PAWI,2017-04-29T14:53:00Z,70.62,-159.85,-15.6,-17.8,90,12,,10.0,30.041338,1017.3,,TRUE,,,,TRUE,,,,OVC,6500,,,,,,,VFR,0.0,,,,,,,,,,,SPECI,27.0
PANN 291453Z AUTO 00000KT 10SM CLR 00/M02 A2999 RMK SLP163 T00001017 51001 TSNO VIA AUTODIAL,PANN,2017-04-29T14:53:00Z,64.55,-149.08,0.0,-1.7,0,0,,10.0,29.991142,1016.3,,TRUE,,,,TRUE,,,,CLR,,,,,,,,VFR,0.1,,,,,,,,,,,SPECI,110.0
PATK 291453Z AUTO 00000KT 10SM CLR M01/M01 A3005 RMK SLP182 T10061011 58008 TSNO VIA AUTODIAL,PATK,2017-04-29T14:53:00Z,62.3,-150.1,-0.6,-1.1,0,0,,10.0,30.050198,1018.2,,TRUE,,,,TRUE,,,,CLR,,,,,,,,VFR,-0.8,,,,,,,,,,,SPECI,109.0
MUCL 291453Z 09018KT 9000 SCT020 29/21 Q1017,MUCL,2017-04-29T14:53:00Z,21.63,-81.55,29.0,21.0,90,18,,5.59,30.029528,,,,,,,,,,,SCT,2000,,,,,,,VFR,,,,,,,,,,,,METAR,5.0
KP92 291453Z AUTO 14010G19KT 120V190 27/23 A2986 RMK AO1 SLP110 T02670233 50002,KP92,2017-04-29T14:53:00Z,29.57,-91.53,26.7,23.3,140,10,19,,29.861221,1011.0,,TRUE,TRUE,,,,,,,,,,,,,,,,0.2,,,,,,,,,,,METAR,1.0
K6R6 291453Z AUTO 34024G34KT 19/06 A2967 RMK AO1 PK WND 33036/1426 SLP014 T01940061 51025,K6R6,2017-04-29T14:53:00Z,30.05,-102.22,19.4,6.1,340,24,34,,29.66929,1001.4,,TRUE,TRUE,,,,,,,,,,,,,,,,2.5,,,,,,,,,,,METAR,701.0
KNIP 291453Z 16012KT 10SM SCT025 BKN250 28/20 A3019 RMK AO2 SLP219 T02830200 51010,KNIP,2017-04-29T14:53:00Z,30.22,-81.67,28.3,20.0,160,12,,10.0,30.188976,1021.9,,,TRUE,,,,,,,SCT,2500,BKN,25000,,,,,VFR,1.0,,,,,,,,,,,SPECI,7.0
PTTP 291453Z 07011KT 15SM SCT018TCU OVC300 28/24 A2984 RMK TCU ALQDS SLP105 60002 8/201 T02830237 57017,PTTP,2017-04-29T14:53:00Z,6.97,158.22,28.3,23.7,70,11,,15.0,29.840551,1010.5,,,,,,,,,,SCT,1800,OVC,30000,,,,,VFR,-1.7,,,,,,0.02,,,,,METAR,2.0
KMIW 291453Z AUTO 05022G27KT 10SM CLR 07/02 A3009 RMK AO2 PK WND 05027/1453 SLP196 T00670022 58007,KMIW,2017-04-29T14:53:00Z,42.12,-92.92,6.7,2.2,50,22,27,10.0,30.088583,1019.6,,TRUE,TRUE,,,,,,,CLR,,,,,,,,VFR,-0.7,,,,,,,,,,,METAR,296.0
KMIC 291453Z 09007KT 10SM CLR 07/M06 A3031 RMK AO2 SLP271 T00671056 51011,KMIC,2017-04-29T14:53:00Z,45.07,-93.35,6.7,-5.6,90,7,,10.0,30.31004,1027.1,,,TRUE,,,,,,,CLR,,,,,,,,VFR,1.1,,,,,,,,,,,METAR,265.0
KMIA 291453Z 11015KT 10SM SCT028 BKN040 BKN250 29/20 A3015 RMK AO2 SLP211 T02890200 53010 $,KMIA,2017-04-29T14:53:00Z,25.8,-80.28,28.9,20.0,110,15,,10.0,30.15059,1021.1,,,TRUE,TRUE,,,,,,SCT,2800,BKN,4000,BKN,25000,,,VFR,1.0,,,,,,,,,,,METAR,3.0
KMHT 291453Z 20007KT 10SM BKN120 BKN250 24/09 A2989 RMK AO2 SLP133 T02440089 56017,KMHT,2017-04-29T14:53:00Z,42.93,-71.43,24.4,8.9,200,7,,10.0,29.890747,1013.3,,,TRUE,,,,,,,BKN,12000,BKN,25000,,,,,VFR,-1.7,,,,,,,,,,,METAR,81.0
KMHE 291453Z AUTO 04010KT 10SM CLR 07/M03 A3027 RMK AO2 SLP260 T00721028 50013,KMHE,2017-04-29T14:53:00Z,43.77,-98.02,7.2,-2.8,40,10,,10.0,30.268702,1026.0,,TRUE,TRUE,,,,,,,CLR,,,,,,,,VFR,1.3,,,,,,,,,,,METAR,397.0
KMLB 291453Z 13016G21KT 10SM SCT020 29/21 A3018 RMK AO2 SLP219 T02940206 53009,KMLB,2017-04-29T14:53:00Z,28.1,-80.65,29.4,20.6,130,16,21,10.0,30.180119,1021.9,,,TRUE,,,,,,,SCT,2000,,,,,,,VFR,0.9,,,,,,,,,,,METAR,11.0
KMLS 291453Z AUTO 24005KT 10SM CLR 08/01 A3026 RMK AO2 SLP255 T00830011 53008,KMLS,2017-04-29T14:53:00Z,46.43,-105.88,8.3,1.1,240,5,,10.0,30.259842,1025.5,,TRUE,TRUE,,,,,,,CLR,,,,,,,,VFR,0.8,,,,,,,,,,,METAR,801.0
KSIY 291453Z AUTO 00000KT 10SM CLR 04/01 A3028 RMK AO2 SLP268 T00440011 53005,KSIY,2017-04-29T14:53:00Z,41.77,-122.47,4.4,1.1,0,0,,10.0,30.280512,1026.8,,TRUE,TRUE,,,,,,,CLR,,,,,,,,VFR,0.5,,,,,,,,,,,METAR,807.0
KSHR 291453Z AUTO 00000KT 10SM CLR 01/M04 A3027 RMK AO2 SLP280 T00061039 51015,KSHR,2017-04-29T14:53:00Z,44.77,-106.97,0.6,-3.9,0,0,,10.0,30.268702,1028.0,,TRUE,TRUE,,,,,,,CLR,,,,,,,,VFR,1.5,,,,,,,,,,,METAR,1202.0
KSMF 291453Z 31006KT 10SM CLR 13/06 A3011 RMK AO2 SLP194 T01280056 53013,KSMF,2017-04-29T14:53:00Z,38.7,-121.6,12.8,5.6,310,6,,10.0,30.109253,1019.4,,,TRUE,,,,,,,CLR,,,,,,,,VFR,1.3,,,,,,,,,,,METAR,6.0
KSLN 291453Z 01017KT 7SM -RA OVC009 07/05 A2989 RMK AO2 SLP124 P0002 60010 T00720050 56030,KSLN,2017-04-29T14:53:00Z,38.78,-97.65,7.2,5.0,10,17,,7.0,29.890747,1012.4,,,TRUE,,,,,,-RA,OVC,900,,,,,,,IFR,-3.0,,,,,0.02,0.1,,,,,METAR,385.0
KSJC 291453Z 28007KT 10SM CLR 17/04 A3010 RMK AO2 SLP192 T01670044 53015,KSJC,2017-04-29T14:53:00Z,37.37,-121.92,16.7,4.4,280,7,,10.0,30.100393,1019.2,,,TRUE,,,,,,,CLR,,,,,,,,VFR,1.5,,,,,,,,,,,METAR,24.0
KSNA 291453Z 04015G24KT 10SM CLR 22/M09 A2997 RMK AO2 PK WND 06030/1420 SLP147 T02221089 53022,KSNA,2017-04-29T14:53:00Z,33.67,-117.87,22.2,-8.9,40,15,24,10.0,29.970472,1014.7,,,TRUE,,,,,,,CLR,,,,,,,,VFR,2.2,,,,,,,,,,,METAR,16.0
KSMQ 291453Z AUTO VRB03KT 9SM CLR 24/18 A2998 RMK AO2 SLP151 T02440178 50002,KSMQ,2017-04-29T14:53:00Z,40.62,-74.67,24.4,17.8,0,3,,9.0,29.97933,1015.1,,TRUE,TRUE,,,,,,,CLR,,,,,,,,VFR,0.2,,,,,,,,,,,METAR,30.0
KSRQ 291453Z 12016G22KT 10SM FEW031 31/19 A3010 RMK AO2 SLP192 T03060194 50000,KSRQ,2017-04-29T14:53:00Z,27.4,-82.57,30.6,19.4,120,16,22,10.0,30.100393,1019.2,,,TRUE,,,,,,,FEW,3100,,,,,,,VFR,0.0,,,,,,,,,,,METAR,18.0
KSPG 291453Z 16015KT 10SM FEW031 27/22 A3010 RMK AO2 SLP192 T02720217 58002,KSPG,2017-04-29T14:53:00Z,27.77,-82.63,27.2,21.7,160,15,,10.0,30.100393,1019.2,,,TRUE,,,,,,,FEW,3100,,,,,,,VFR,-0.2,,,,,,,,,,,METAR,2.0
KSNY 291453Z AUTO 03011KT 10SM FEW026 OVC060 02/M03 A3021 RMK AO2 SNB20E30 SLP251 P0000 60000 T00171028 50025,KSNY,2017-04-29T14:53:00Z,41.1,-102.98,1.7,-2.8,30,11,,10.0,30.209646,1025.1,,TRUE,TRUE,,,,,,,FEW,2600,OVC,6000,,,,,VFR,2.5,,,,,0.005,0.005,,,,,METAR,1307.0
KSNS 291453Z 00000KT 8SM CLR 11/06 A3010 RMK AO2 SLP201 T01110061 53017,KSNS,2017-04-29T14:53:00Z,36.67,-121.6,11.1,6.1,0,0,,8.0,30.100393,1020.1,,,TRUE,,,,,,,CLR,,,,,,,,VFR,1.7,,,,,,,,,,,METAR,30.0
PAKW 291453Z AUTO 02007G17KT 10SM CLR 06/02 A2991 RMK AO2 SLP128 T00560022 56036 TSNO,PAKW,2017-04-29T14:53:00Z,55.58,-133.07,5.6,2.2,20,7,17,10.0,29.911417,1012.8,,TRUE,TRUE,,,TRUE,,,,CLR,,,,,,,,VFR,-3.6,,,,,,,,,,,METAR,15.0
KYKM 291453Z 27005KT 10SM CLR 08/01 A3026 RMK AO2 SLP248 T00830006 52003,KYKM,2017-04-29T14:53:00Z,46.57,-120.53,8.3,0.6,270,5,,10.0,30.259842,1024.8,,,TRUE,,,,,,,CLR,,,,,,,,VFR,0.3,,,,,,,,,,,METAR,324.0
KYIP 291453Z AUTO 06008KT 10SM OVC048 09/03 A3017 RMK AO2 SLP214 T00890028 53016,KYIP,2017-04-29T14:53:00Z,42.23,-83.53,8.9,2.8,60,8,,10.0,30.171259,1021.4,,TRUE,TRUE,,,,,,,OVC,4800,,,,,,,VFR,1.6,,,,,,,,,,,METAR,215.0
KWVI 291453Z AUTO 00000KT 4SM BR CLR 11/09 A3010 RMK AO2 SLP192 T01110094 53013,KWVI,2017-04-29T14:53:00Z,36.93,-121.78,11.1,9.4,0,0,,4.0,30.100393,1019.2,,TRUE,TRUE,,,,,,BR,CLR,,,,,,,,MVFR,1.3,,,,,,,,,,,METAR,43.0
KWRL 291453Z AUTO 22004KT 10SM CLR 03/01 A3026 RMK AO2 SLP266 T00330011 51012,KWRL,2017-04-29T14:53:00Z,43.97,-107.95,3.3,1.1,220,4,,10.0,30.259842,1026.6,,TRUE,TRUE,,,,,,,CLR,,,,,,,,VFR,1.2,,,,,,,,,,,METAR,1271.0
KTOR 291453Z AUTO 02009KT 10SM OVC080 01/M03 A3025 RMK AO2 SLP268 T00061028 50024,KTOR,2017-04-29T14:53:00Z,42.07,-104.15,0.6,-2.8,20,9,,10.0,30.250984,1026.8,,TRUE,TRUE,,,,,,,OVC,8000,,,,,,,VFR,2.4,,,,,,,,,,,METAR,1277.0
KTOI 291453Z AUTO 16007KT 10SM OVC020 26/22 A3012 RMK AO2 SLP193 T02560217 51017,KTOI,2017-04-29T14:53:00Z,31.85,-86.02,25.6,21.7,160,7,,10.0,30.121063,1019.3,,TRUE,TRUE,,,,,,,OVC,2000,,,,,,,MVFR,1.7,,,,,,,,,,,SPECI,118.0
KTMB 291453Z 12017G22KT 10SM SCT032 SCT042 29/20 A3015 RMK AO2 SLP209 T02940200 53011,KTMB,2017-04-29T14:53:00Z,25.65,-80.43,29.4,20.0,120,17,22,10.0,30.15059,1020.9,,,TRUE,,,,,,,SCT,3200,SCT,4200,,,,,VFR,1.1,,,,,,,,,,,METAR,2.0
KTLH 291453Z 17008KT 10SM BKN028 BKN250 27/22 A3013 RMK AO2 SLP202 T02720217 53011 $,KTLH,2017-04-29T14:53:00Z,30.4,-84.35,27.2,21.7,170,8,,10.0,30.129921,1020.2,,,TRUE,TRUE,,,,,,BKN,2800,BKN,25000,,,,,MVFR,1.1,,,,,,,,,,,METAR,19.0
KTKI 291453Z 18020G28KT 5SM HZ SCT023 OVC030 26/23 A2956 RMK AO2 PK WND 17030/1432 SLP006 T02610228 51007,KTKI,2017-04-29T14:53:00Z,33.18,-96.58,26.1,22.8,180,20,28,5.0,29.56004,1000.6,,,TRUE,,,,,,HZ,SCT,2300,OVC,3000,,,,,MVFR,0.7,,,,,,,,,,,METAR,179.0
KTIW 291453Z 17005KT 10SM SCT012 BKN100 07/06 A3029 RMK AO2 SLP259 T00670056 55004,KTIW,2017-04-29T14:53:00Z,47.27,-122.58,6.7,5.6,170,5,,10.0,30.28937,1025.9,,,TRUE,,,,,,,SCT,1200,BKN,10000,,,,,VFR,-0.4,,,,,,,,,,,METAR,89.0
KTHV 291453Z AUTO 23008KT 10SM CLR 23/17 A3004 RMK AO2 SLP172 60006 T02330167 58005,KTHV,2017-04-29T14:53:00Z,39.92,-76.88,23.3,16.7,230,8,,10.0,30.041338,1017.2,,TRUE,TRUE,,,,,,,CLR,,,,,,,,VFR,-0.5,,,,,,0.06,,,,,METAR,144.0
KTDZ 291453Z AUTO 06012G18KT 10SM SCT022 OVC036 09/06 A3017 RMK AO2 SLP216 T00890056 51022,KTDZ,2017-04-29T14:53:00Z,41.57,-83.48,8.9,5.6,60,12,18,10.0,30.171259,1021.6,,TRUE,TRUE,,,,,,,SCT,2200,OVC,3600,,,,,VFR,2.2,,,,,,,,,,,METAR,189.0
KTCS 291453Z AUTO 36004KT 10SM CLR 08/M01 A2985 RMK AO2 SLP073 T00781006 53009,KTCS,2017-04-29T14:53:00Z,33.23,-107.27,7.8,-0.6,360,4,,10.0,29.84941,1007.3,,TRUE,TRUE,,,,,,,CLR,,,,,,,,VFR,0.9,,,,,,,,,,,METAR,1469.0
KTCC 291453Z AUTO 03021G27KT 1 1/2SM -SN BR FEW008 OVC015 01/00 A2994 RMK AO2 PK WND 03027/1450 SLP130 P0000 60003 T00110000 56010,KTCC,2017-04-29T14:53:00Z,35.18,-103.6,1.1,0.0,30,21,27,1.5,29.940945,1013.0,,TRUE,TRUE,,,,,,-SN BR,FEW,800,OVC,1500,,,,,IFR,-1.0,,,,,0.005,0.03,,,,,METAR,1235.0
KSTS 291453Z 33005KT 10SM CLR 12/07 A3013 RMK AO2 SLP196 T01220072 53013,KSTS,2017-04-29T14:53:00Z,38.5,-122.82,12.2,7.2,330,5,,10.0,30.129921,1019.6,,,TRUE,,,,,,,CLR,,,,,,,,VFR,1.3,,,,,,,,,,,METAR,39.0
KSTP 291453Z 08010KT 10SM CLR 07/M03 A3033 RMK AO2 SLP273 T00671033 51010,KSTP,2017-04-29T14:53:00Z,44.93,-93.05,6.7,-3.3,80,10,,10.0,30.33071,1027.3,,,TRUE,,,,,,,CLR,,,,,,,,VFR,1.0,,,,,,,,,,,METAR,219.0
KSTC 291453Z 08006KT 10SM CLR 07/M04 A3033 RMK AO2 SLP288 T00671044 50024,KSTC,2017-04-29T14:53:00Z,45.55,-94.05,6.7,-4.4,80,6,,10.0,30.33071,1028.8,,,TRUE,,,,,,,CLR,,,,,,,,VFR,2.4,,,,,,,,,,,METAR,314.0
KSSI 291453Z AUTO 14010KT 10SM CLR 27/22 A3022 RMK AO2 SLP234 T02720222 51019,KSSI,2017-04-29T14:53:00Z,31.15,-81.38,27.2,22.2,140,10,,10.0,30.221457,1023.4,,TRUE,TRUE,,,,,,,CLR,,,,,,,,VFR,1.9,,,,,,,,,,,METAR,6.0
KLIT 291453Z 16012G24KT 10SM BKN025 BKN030 OVC050 26/22 A2977 RMK AO2 SLP081 BINOVC T02560222 50007 $,KLIT,2017-04-29T14:53:00Z,34.73,-92.23,25.6,22.2,160,12,24,10.0,29.769686,1008.1,,,TRUE,TRUE,,,,,,BKN,2500,BKN,3000,OVC,5000,,,MVFR,0.7,,,,,,,,,,,METAR,79.0
KLHX 291453Z AUTO 02011KT 1/2SM SN FG SCT004 OVC008 01/M01 A3010 RMK AO2 SLP195 P0003 60014 T00061006 53009,KLHX,2017-04-29T14:53:00Z,38.05,-103.52,0.6,-0.6,20,11,,0.5,30.100393,1019.5,,TRUE,TRUE,,,,,,SN FG,SCT,400,OVC,800,,,,,LIFR,0.9,,,,,0.03,0.14,,,,,METAR,1277.0
KFLD 291453Z AUTO 04014G20KT 10SM FEW028 06/M02 A3026 RMK AO2 SLP251 T00611017 50012,KFLD,2017-04-29T14:53:00Z,43.77,-88.48,6.1,-1.7,40,14,20,10.0,30.259842,1025.1,,TRUE,TRUE,,,,,,,FEW,2800,,,,,,,VFR,1.2,,,,,,,,,,,METAR,240.0
KFFC 291453Z AUTO 14006KT 10SM CLR 27/20 A3016 RMK AO2 SLP206 T02720200 50006,KFFC,2017-04-29T14:53:00Z,33.35,-84.57,27.2,20.0,140,6,,10.0,30.159449,1020.6,,TRUE,TRUE,,,,,,,CLR,,,,,,,,VFR,0.6,,,,,,,,,,,METAR,262.0
KFDY 291453Z AUTO 05017G25KT 4SM -RA OVC006 10/07 A3012 RMK AO2 CIG 004V009 SLP196 P0001 60004 T01000072 51044 TSNO,KFDY,2017-04-29T14:53:00Z,41.02,-83.67,10.0,7.2,50,17,25,4.0,30.121063,1019.6,,TRUE,TRUE,,,TRUE,,,-RA,OVC,600,,,,,,,IFR,4.4,,,,,0.01,0.04,,,,,METAR,247.0
PHLI 291453Z 34010KT 10SM BKN042 OVC055 20/14 A2990 RMK AO2 RAB30E40 SLP122 P0000 60001 T02000139 56006 $,PHLI,2017-04-29T14:53:00Z,21.97,-159.33,20.0,13.9,340,10,,10.0,29.899607,1012.2,,,TRUE,TRUE,,,,,,BKN,4200,OVC,5500,,,,,VFR,-0.6,,,,,0.005,0.01,,,,,METAR,45.0
PHKO 291453Z AUTO 14007KT 10SM CLR 23/18 A2986 RMK AO2 SLP110 T02330183 55000 TSNO,PHKO,2017-04-29T14:53:00Z,19.73,-156.05,23.3,18.3,140,7,,10.0,29.861221,1011.0,,TRUE,TRUE,,,TRUE,,,,CLR,,,,,,,,VFR,0.0,,,,,,,,,,,METAR,27.0
PHTO 291453Z 15007KT 10SM SCT038 21/17 A2986 RMK AO2 SLP109 60000 T02060167 55005,PHTO,2017-04-29T14:53:00Z,19.72,-155.05,20.6,16.7,150,7,,10.0,29.861221,1010.9,,,TRUE,,,,,,,SCT,3800,,,,,,,VFR,-0.5,,,,,,0.005,,,,,METAR,12.0
PHNL 291453Z 35011KT 10SM FEW026 SCT055 BKN070 20/18 A2987 RMK AO2 RAE48 SLP115 P0000 60000 T02000178 55000,PHNL,2017-04-29T14:53:00Z,21.33,-157.92,20.0,17.8,350,11,,10.0,29.870079,1011.5,,,TRUE,,,,,,,FEW,2600,SCT,5500,BKN,7000,,,VFR,0.0,,,,,0.005,0.005,,,,,METAR,4.0
PHJR 291453Z AUTO 05007G19KT 10SM FEW049 SCT060 OVC080 21/17 A2988 RMK AO2 SLP123 T02110167 56002 TSNO,PHJR,2017-04-29T14:53:00Z,21.32,-158.07,21.1,16.7,50,7,19,10.0,29.878937,1012.3,,TRUE,TRUE,,,TRUE,,,,FEW,4900,SCT,6000,OVC,8000,,,VFR,-0.2,,,,,,,,,,,METAR,15.0
PAAQ 291453Z AUTO 35007KT 10SM CLR 01/M03 A3003 RMK AO2 SLP174 T00061028 58008 TSNO,PAAQ,2017-04-29T14:53:00Z,61.6,-149.08,0.6,-2.8,350,7,,10.0,30.029528,1017.4,,TRUE,TRUE,,,TRUE,,,,CLR,,,,,,,,VFR,-0.8,,,,,,,,,,,METAR,73.0
PABI 291453Z 00000KT 10SM FEW001 BKN055 BKN100 BKN200 03/M01 A3000 RMK AO2 SLP174 SHRA VC NE/W-N VIRGA DSNT E-SE FU DSNT SW CLD BNK VC W-NW T00281011 55000 $,PABI,2017-04-29T14:53:00Z,64.0,-145.72,2.8,-1.1,0,0,,10.0,30.0,1017.4,,,TRUE,TRUE,,,,,,FEW,100,BKN,5500,BKN,10000,BKN,20000,VFR,0.0,,,,,,,,,,,SPECI,386.0
PABE 291453Z 00000KT 10SM OVC050 01/01 A2990 RMK AO2 SLP126 T00060006 58007 $,PABE,2017-04-29T14:53:00Z,60.78,-161.83,0.6,0.6,0,0,,10.0,29.899607,1012.6,,,TRUE,TRUE,,,,,,OVC,5000,,,,,,,VFR,-0.7,,,,,,,,,,,METAR,41.0
PABT 291453Z 35005KT 10SM FEW120 M03/M08 A3003 RMK AO2 SLP182 T10331083 56000 $,PABT,2017-04-29T14:53:00Z,66.92,-151.52,-3.3,-8.3,350,5,,10.0,30.029528,1018.2,,,TRUE,TRUE,,,,,,FEW,12000,,,,,,,VFR,0.0,,,,,,,,,,,METAR,195.0
PACV 291453Z 00000KT 10SM FEW028 SCT049 BKN100 01/01 A3006 RMK AO2 SLP180 I3000 T00060006 58017,PACV,2017-04-29T14:53:00Z,60.5,-145.47,0.6,0.6,0,0,,10.0,30.059055,1018.0,,,TRUE,,,,,,,FEW,2800,SCT,4900,BKN,10000,,,VFR,-1.7,,,,,,,,,,,METAR,12.0
PAEG 291453Z AUTO 00000KT 10SM OVC042 01/01 A2997 RMK AO2 SLP155 T00110006 58001 TSNO,PAEG,2017-04-29T14:53:00Z,64.78,-141.15,1.1,0.6,0,0,,10.0,29.970472,1015.5,,TRUE,TRUE,,,TRUE,,,,OVC,4200,,,,,,,VFR,-0.1,,,,,,,,,,,METAR,268.0
PAFA 291453Z COR 00000KT 10SM FEW040 SCT085 BKN110 BKN140 01/M01 A3000 RMK AO2 SLP164 T00111011 50001 $,PAFA,2017-04-29T14:53:00Z,64.8,-147.85,1.1,-1.1,0,0,,10.0,30.0,1016.4,TRUE,,TRUE,TRUE,,,,,,FEW,4000,SCT,8500,BKN,11000,BKN,14000,VFR,0.1,,,,,,,,,,,SPECI,132.0
PAEN 291453Z 02003KT 10SM FEW065 M01/M01 A3003 RMK AO2 SLP172 T10111011 56009,PAEN,2017-04-29T14:53:00Z,60.57,-151.25,-1.1,-1.1,20,3,,10.0,30.029528,1017.2,,,TRUE,,,,,,,FEW,6500,,,,,,,VFR,-0.9,,,,,,,,,,,METAR,27.0
PAIL 291453Z 06004KT 10SM BKN033 BKN043 02/01 A3000 RMK AO2 RAB18E52 SLP162 P0000 60000 T00220011 56006,PAIL,2017-04-29T14:53:00Z,59.75,-154.92,2.2,1.1,60,4,,10.0,30.0,1016.2,,,TRUE,,,,,,,BKN,3300,BKN,4300,,,,,VFR,-0.6,,,,,0.005,0.005,,,,,METAR,49.0
PAHO 291453Z 00000KT 10SM OVC055 04/00 A3003 RMK AO2 SLP168 T00390000 56007,PAHO,2017-04-29T14:53:00Z,59.63,-151.47,3.9,0.0,0,0,,10.0,30.029528,1016.8,,,TRUE,,,,,,,OVC,5500,,,,,,,VFR,-0.7,,,,,,,,,,,METAR,28.0
PAGY 291453Z AUTO 04003KT 10SM CLR 03/M01 A3009 RMK AO2 SLP188 T00281006 56017 TSNO,PAGY,2017-04-29T14:53:00Z,59.47,-135.3,2.8,-0.6,40,3,,10.0,30.088583,1018.8,,TRUE,TRUE,,,TRUE,,,,CLR,,,,,,,,VFR,-1.7,,,,,,,,,,,METAR,5.0
PAGK 291453Z AUTO 00000KT 10SM CLR M02/M04 A3003 RMK AO2 SLP189 T10221044 58007 TSNO,PAGK,2017-04-29T14:53:00Z,62.15,-145.45,-2.2,-4.4,0,0,,10.0,30.029528,1018.9,,TRUE,TRUE,,,TRUE,,,,CLR,,,,,,,,VFR,-0.7,,,,,,,,,,,METAR,481.0
TIST 291453Z 09010KT 10SM FEW041 FEW050 BKN065 24/24 A3009 RMK AO2 RAB21E35 SLP189 P0000 60001 T02440239 51008,TIST,2017-04-29T14:53:00Z,18.33,-64.98,24.4,23.9,90,10,,10.0,30.088583,1018.9,,,TRUE,,,,,,,FEW,4100,FEW,5000,BKN,6500,,,VFR,0.8,,,,,0.005,0.01,,,,,METAR,7.0
TISX 291453Z 11008KT 4SM -RA SCT016 BKN039 OVC060 25/23 A3009 RMK AO2 RAB25 SLP188 P0021 60021 T02500233 50005 $,TISX,2017-04-29T14:53:00Z,17.7,-64.8,25.0,23.3,110,8,,4.0,30.088583,1018.8,,,TRUE,TRUE,,,,,-RA,SCT,1600,BKN,3900,OVC,6000,,,MVFR,0.5,,,,,0.21,0.21,,,,,METAR,19.0
PAYA 291453Z AUTO 00000KT CLR 01/01 A3004 RMK AO2 SLP172 I1000 I3000 T00110006 58025 TSNO $,PAYA,2017-04-29T14:53:00Z,59.52,-139.67,1.1,0.6,0,0,,,30.041338,1017.2,,TRUE,TRUE,TRUE,,TRUE,,,,CLR,,,,,,,,,-2.5,,,,,,,,,,,METAR,11.0
PAWD 291453Z AUTO 36006KT 10SM FEW046 SCT060 01/01 A3005 RMK AO2 SLP174 T00110006 58007 TSNO,PAWD,2017-04-29T14:53:00Z,60.12,-149.42,1.1,0.6,360,6,,10.0,30.050198,1017.4,,TRUE,TRUE,,,TRUE,,,,FEW,4600,SCT,6000,,,,,VFR,-0.7,,,,,,,,,,,METAR,23.0
PAVL 291453Z AUTO 32006KT 10SM CLR M03/M03 A2999 RMK AO2 SLP156 I1001 I3001 T10331033 55002 TSNO $,PAVL,2017-04-29T14:53:00Z,67.73,-164.55,-3.3,-3.3,320,6,,10.0,29.991142,1015.6,,TRUE,TRUE,TRUE,,TRUE,,,,CLR,,,,,,,,VFR,-0.2,,,,,,,,,,,METAR,3.0
PATO 291453Z AUTO VRB05KT 10SM FEW035 BKN043 OVC055 02/01 A3007 RMK AO2 RAE05B34E44 SLP183 P0000 60002 T00220006 56013 TSNO,PATO,2017-04-29T14:53:00Z,60.78,-148.85,2.2,0.6,0,5,,10.0,30.070866,1018.3,,TRUE,TRUE,,,TRUE,,,,FEW,3500,BKN,4300,OVC,5500,,,VFR,-1.3,,,,,0.005,0.02,,,,,METAR,31.0
PASO 291453Z AUTO 19003KT 10SM FEW022 BKN110 01/00 A3002 RMK AO2 SLP167 T00060000 56007 TSNO,PASO,2017-04-29T14:53:00Z,59.45,-151.7,0.6,0.0,190,3,,10.0,30.02067,1016.7,,TRUE,TRUE,,,TRUE,,,,FEW,2200,BKN,11000,,,,,VFR,-0.7,,,,,,,,,,,METAR,9.0
PASI 291453Z 33005KT 10SM BKN200 04/02 A2995 RMK AO2 SLP142 T00390022 56036,PASI,2017-04-29T14:53:00Z,57.07,-135.35,3.9,2.2,330,5,,10.0,29.949802,1014.2,,,TRUE,,,,,,,BKN,20000,,,,,,,VFR,-3.6,,,,,,,,,,,METAR,5.0
PASC 291453Z 07012KT 10SM CLR M19/M21 A3012 RMK AO2 SLP201 I1001 I3001 T11891206 56003,PASC,2017-04-29T14:53:00Z,70.2,-148.47,-18.9,-20.6,70,12,,10.0,30.121063,1020.1,,,TRUE,,,,,,,CLR,,,,,,,,VFR,-0.3,,,,,,,,,,,SPECI,15.0
PAQT 291453Z AUTO 06006KT 10SM CLR M21/M22 A3014 RMK AO2 SLP209 T12111217 50001 TSNO,PAQT,2017-04-29T14:53:00Z,70.22,-151.0,-21.1,-21.7,60,6,,10.0,30.138779,1020.9,,TRUE,TRUE,,,TRUE,,,,CLR,,,,,,,,VFR,0.1,,,,,,,,,,,METAR,12.0
PAOT 291453Z 04005KT 10SM CLR 01/M01 A2997 RMK AO2 SLP150 T00111006 58001 $,PAOT,2017-04-29T14:53:00Z,66.87,-162.58,1.1,-0.6,40,5,,10.0,29.970472,1015.0,,,TRUE,TRUE,,,,,,CLR,,,,,,,,VFR,-0.1,,,,,,,,,,,METAR,3.0
PAOR 291453Z 00000KT 10SM SCT065 BKN070 03/M05 A2995 RMK AO2 SLP158 T00281050 58003,PAOR,2017-04-29T14:53:00Z,62.97,-141.93,2.8,-5.0,0,0,,10.0,29.949802,1015.8,,,TRUE,,,,,,,SCT,6500,BKN,7000,,,,,VFR,-0.3,,,,,,,,,,,METAR,523.0
PAOM 291453Z 06005KT 10SM SCT048 OVC060 03/M01 A2991 RMK AO2 SLP127 T00331011 56005 $,PAOM,2017-04-29T14:53:00Z,64.5,-165.43,3.3,-1.1,60,5,,10.0,29.911417,1012.7,,,TRUE,TRUE,,,,,,SCT,4800,OVC,6000,,,,,VFR,-0.5,,,,,,,,,,,METAR,11.0
PANT 291453Z AUTO 00000KT 10SM OVC050 08/00 A2992 RMK AO2 SLP134 T00830000 56042 TSNO,PANT,2017-04-29T14:53:00Z,55.03,-131.57,8.3,0.0,0,0,,10.0,29.920275,1013.4,,TRUE,TRUE,,,TRUE,,,,OVC,5000,,,,,,,VFR,-4.2,,,,,,,,,,,METAR,36.0
PANC 291453Z 00000KT 10SM SCT080 BKN200 02/00 A3004 RMK AO2 SLP173 T00170000 56008,PANC,2017-04-29T14:53:00Z,61.17,-150.0,1.7,0.0,0,0,,10.0,30.041338,1017.3,,,TRUE,,,,,,,SCT,8000,BKN,20000,,,,,VFR,-0.8,,,,,,,,,,,METAR,38.0
PAMR 291453Z 00000KT 10SM SCT080 BKN130 BKN200 02/02 A3004 RMK AO2 SLP174 T00220017 56008,PAMR,2017-04-29T14:53:00Z,61.22,-149.85,2.2,1.7,0,0,,10.0,30.041338,1017.4,,,TRUE,,,,,,,SCT,8000,BKN,13000,BKN,20000,,,VFR,-0.8,,,,,,,,,,,METAR,41.0
PAMC 291453Z AUTO 00000KT 10SM OVC070 M01/M02 A3001 RMK AO2 SLP169 I3000 T10111022 50000 TSNO,PAMC,2017-04-29T14:53:00Z,62.97,-155.62,-1.1,-2.2,0,0,,10.0,30.008858,1016.9,,TRUE,TRUE,,,TRUE,,,,OVC,7000,,,,,,,VFR,0.0,,,,,,,,,,,METAR,103.0
PALH 291453Z AUTO 00000KT 10SM OVC080 02/01 A3005 RMK AO2 SLP175 T00170006 57008 TSNO,PALH,2017-04-29T14:53:00Z,61.18,-149.97,1.7,0.6,0,0,,10.0,30.050198,1017.5,,TRUE,TRUE,,,TRUE,,,,OVC,8000,,,,,,,VFR,-0.8,,,,,,,,,,,METAR,22.0
PAKT 291453Z 00000KT 10SM FEW045 FEW060 04/03 A2995 RMK AO2 SLP142 HARBOR WIND 00000KT T00390033 56042,PAKT,2017-04-29T14:53:00Z,55.35,-131.7,3.9,3.3,0,0,,10.0,29.949802,1014.2,,,TRUE,,,,,,,FEW,4500,FEW,6000,,,,,VFR,-4.2,,,,,,,,,,,METAR,28.0
KMWT 291453Z AUTO 16011G20KT 120V210 9SM FEW023 26/21 A2967 RMK AO2 SLP034 60000 T02610211 58008,KMWT,2017-04-29T14:53:00Z,34.55,-93.58,26.1,21.1,160,11,20,9.0,29.66929,1003.4,,TRUE,TRUE,,,,,,,FEW,2300,,,,,,,VFR,-0.8,,,,,,0.005,,,,,METAR,214.0
KOQT 291453Z AUTO VRB04KT 10SM CLR 28/19 A3013 RMK AO2 SLP185 T02780189 53007,KOQT,2017-04-29T14:53:00Z,36.02,-84.23,27.8,18.9,0,4,,10.0,30.129921,1018.5,,TRUE,TRUE,,,,,,,CLR,,,,,,,,VFR,0.7,,,,,,,,,,,METAR,277.0
KLND 291453Z AUTO 14004KT 10SM OVC060 M02/M04 A3024 RMK AO2 SLP272 T10171039 51016,KLND,2017-04-29T14:53:00Z,42.82,-108.73,-1.7,-3.9,140,4,,10.0,30.239174,1027.2,,TRUE,TRUE,,,,,,,OVC,6000,,,,,,,VFR,1.6,,,,,,,,,,,METAR,1694.0
KLMT 291453Z 00000KT 10SM CLR 03/M01 A3027 RMK AO2 SLP249 I3000 T00281006 53006,KLMT,2017-04-29T14:53:00Z,42.15,-121.72,2.8,-0.6,0,0,,10.0,30.268702,1024.9,,,TRUE,,,,,,,CLR,,,,,,,,VFR,0.6,,,,,,,,,,,METAR,1246.0
KLLQ 291453Z AUTO 17012G19KT 10SM BKN024 OVC041 26/21 A2982 RMK AO2 SLP093 T02610211 58001,KLLQ,2017-04-29T14:53:00Z,33.63,-91.75,26.1,21.1,170,12,19,10.0,29.819881,1009.3,,TRUE,TRUE,,,,,,,BKN,2400,OVC,4100,,,,,MVFR,-0.1,,,,,,,,,,,METAR,83.0
KLOZ 291453Z AUTO 19011KT 160V220 10SM FEW035 26/17 A3010 RMK AO2 SLP179 T02610172 50009,KLOZ,2017-04-29T14:53:00Z,37.08,-84.07,26.1,17.2,190,11,,10.0,30.100393,1017.9,,TRUE,TRUE,,,,,,,FEW,3500,,,,,,,VFR,0.9,,,,,,,,,,,METAR,362.0
KLOU 291453Z 00000KT 10SM SCT050 21/19 A3009 RMK AO2 RAE08 SLP184 P0000 60004 T02060189 51046,KLOU,2017-04-29T14:53:00Z,38.22,-85.67,20.6,18.9,0,0,,10.0,30.088583,1018.4,,,TRUE,,,,,,,SCT,5000,,,,,,,VFR,4.6,,,,,0.005,0.04,,,,,METAR,164.0
KLOL 291453Z AUTO 00000KT 10SM CLR 03/M06 A3029 RMK AO2 SLP263 T00281056 53014 TSNO,KLOL,2017-04-29T14:53:00Z,40.07,-118.57,2.8,-5.6,0,0,,10.0,30.28937,1026.3,,TRUE,TRUE,,,TRUE,,,,CLR,,,,,,,,VFR,1.4,,,,,,,,,,,METAR,1189.0
KLNS 291453Z 26011KT 10SM CLR 23/19 A3005 RMK AO2 SLP174 P0001 60002 T02280194 53002,KLNS,2017-04-29T14:53:00Z,40.12,-76.3,22.8,19.4,260,11,,10.0,30.050198,1017.4,,,TRUE,,,,,,,CLR,,,,,,,,VFR,0.2,,,,,0.01,0.02,,,,,METAR,125.0
KLWD 291453Z AUTO 04016G27KT 5SM -RA BR OVC010 07/06 A2998 RMK AO2 PK WND 04028/1440 RAB19 SLP158 P0001 60001 T00670056 55013,KLWD,2017-04-29T14:53:00Z,40.63,-93.9,6.7,5.6,40,16,27,5.0,29.97933,1015.8,,TRUE,TRUE,,,,,,-RA BR,OVC,1000,,,,,,,MVFR,-1.3,,,,,0.01,0.01,,,,,METAR,346.0
KLVK 291453Z 33003KT 10SM CLR 17/01 A3011 RMK AO2 SLP193 T01670011 53012,KLVK,2017-04-29T14:53:00Z,37.7,-121.82,16.7,1.1,330,3,,10.0,30.109253,1019.3,,,TRUE,,,,,,,CLR,,,,,,,,VFR,1.2,,,,,,,,,,,METAR,117.0
KLVJ 291453Z AUTO 15020G29KT 5SM HZ BKN017 OVC022 28/23 A2969 RMK AO2 PK WND 15031/1355 SLP055 T02830233 50001,KLVJ,2017-04-29T14:53:00Z,29.52,-95.25,28.3,23.3,150,20,29,5.0,29.68996,1005.5,,TRUE,TRUE,,,,,,HZ,BKN,1700,OVC,2200,,,,,MVFR,0.1,,,,,,,,,,,METAR,12.0
KLUK 291453Z 31005KT 10SM -RA FEW070 OVC090 17/17 A3012 RMK AO2 LTG DSNT N-E TSE42 SLP196 TS MOV NE P0040 60135 T01670167 51038,KLUK,2017-04-29T14:53:00Z,39.1,-84.42,16.7,16.7,310,5,,10.0,30.121063,1019.6,,,TRUE,,,,,,-RA,FEW,7000,OVC,9000,,,,,VFR,3.8,,,,,0.4,1.35,,,,,METAR,155.0
KLSE 291453Z 06012G21KT 10SM CLR 08/M03 A3024 RMK AO2 SLP247 T00781028 50003,KLSE,2017-04-29T14:53:00Z,43.88,-91.25,7.8,-2.8,60,12,21,10.0,30.239174,1024.7,,,TRUE,,,,,,,CLR,,,,,,,,VFR,0.3,,,,,,,,,,,METAR,199.0
KMFE 291453Z 16017G23KT 5SM HZ SCT018 31/24 A2954 RMK AO2 PK WND 15027/1421 SLP002 T03060239 50000,KMFE,2017-04-29T14:53:00Z,26.18,-98.25,30.6,23.9,160,17,23,5.0,29.53937,1000.2,,,TRUE,,,,,,HZ,SCT,1800,,,,,,,MVFR,0.0,,,,,,,,,,,METAR,38.0
KMLT 291453Z AUTO 00000KT 10SM OVC100 13/11 A2983 RMK AO2 SLP107 T01280111 58016 TSNO,KMLT,2017-04-29T14:53:00Z,45.65,-68.7,12.8,11.1,0,0,,10.0,29.828741,1010.7,,TRUE,TRUE,,,TRUE,,,,OVC,10000,,,,,,,VFR,-1.6,,,,,,,,,,,METAR,123.0
KDTN 291453Z 15013G21KT 9SM BKN027 OVC033 27/22 A2971 RMK AO2 PK WND 16026/1433 SLP057 T02670222 51002 $,KDTN,2017-04-29T14:53:00Z,32.55,-93.75,26.7,22.2,150,13,21,9.0,29.71063,1005.7,,,TRUE,TRUE,,,,,,BKN,2700,OVC,3300,,,,,MVFR,0.2,,,,,,,,,,,METAR,53.0
KDRT 291453Z AUTO 13008KT 8SM BKN017 OVC023 24/21 A2958 RMK AO2 SLP999 T02440211 51018,KDRT,2017-04-29T14:53:00Z,29.37,-100.92,24.4,21.1,130,8,,8.0,29.58071,999.9,,TRUE,TRUE,,,,,,,BKN,1700,OVC,2300,,,,,MVFR,1.8,,,,,,,,,,,METAR,313.0
KDNL 291453Z AUTO 16008KT 10SM OVC016 26/21 A3020 RMK AO2 SLP221 T02610206 50002,KDNL,2017-04-29T14:53:00Z,33.47,-82.03,26.1,20.6,160,8,,10.0,30.200787,1022.1,,TRUE,TRUE,,,,,,,OVC,1600,,,,,,,MVFR,0.2,,,,,,,,,,,METAR,130.0
KDMN 291453Z AUTO 31012G20KT 10SM CLR 11/M05 A2984 RMK AO2 SLP056 T01111050 53009,KDMN,2017-04-29T14:53:00Z,32.27,-107.72,11.1,-5.0,310,12,20,10.0,29.840551,1005.6,,TRUE,TRUE,,,,,,,CLR,,,,,,,,VFR,0.9,,,,,,,,,,,METAR,1311.0
KDLS 291453Z AUTO 00000KT 10SM CLR 08/04 A3029 RMK AO2 SLP259 T00780044 51005,KDLS,2017-04-29T14:53:00Z,45.62,-121.17,7.8,4.4,0,0,,10.0,30.28937,1025.9,,TRUE,TRUE,,,,,,,CLR,,,,,,,,VFR,0.5,,,,,,,,,,,METAR,71.0
KDLN 291453Z AUTO 00000KT 10SM CLR 04/M04 A3023 RMK AO2 SLP242 T00391039 51011,KDLN,2017-04-29T14:53:00Z,45.25,-112.55,3.9,-3.9,0,0,,10.0,30.230314,1024.2,,TRUE,TRUE,,,,,,,CLR,,,,,,,,VFR,1.1,,,,,,,,,,,METAR,1591.0
KDHN 291453Z 17014G20KT 10SM BKN022 28/22 A3015 RMK AO2 SLP203 T02830222 51013,KDHN,2017-04-29T14:53:00Z,31.32,-85.45,28.3,22.2,170,14,20,10.0,30.15059,1020.3,,,TRUE,,,,,,,BKN,2200,,,,,,,MVFR,1.3,,,,,,,,,,,METAR,113.0
KDGW 291453Z AUTO 00000KT 8SM SCT100 M03/M04 A3028 RMK AO2 SLP288 I3000 T10281039 51029,KDGW,2017-04-29T14:53:00Z,42.8,-105.38,-2.8,-3.9,0,0,,8.0,30.280512,1028.8,,TRUE,TRUE,,,,,,,SCT,10000,,,,,,,VFR,2.9,,,,,,,,,,,METAR,1499.0
KDEW 291453Z AUTO 21005KT 10SM CLR 07/01 A3025 RMK AO2 SLP251 T00670011 53005 $,KDEW,2017-04-29T14:53:00Z,47.97,-117.43,6.7,1.1,210,5,,10.0,30.250984,1025.1,,TRUE,TRUE,TRUE,,,,,,CLR,,,,,,,,VFR,0.5,,,,,,,,,,,METAR,674.0
KDET 291453Z 04005KT 10SM OVC050 08/01 A3018 RMK AO2 PRESRR SLP221 T00780011 51016,KDET,2017-04-29T14:53:00Z,42.4,-83.02,7.8,1.1,40,5,,10.0,30.180119,1022.1,,,TRUE,,,,,,,OVC,5000,,,,,,,VFR,1.6,,,,,,,,,,,METAR,190.0
KDCU 291453Z AUTO 17012KT 9SM CLR 26/21 A3002 RMK AO2 SLP160 T02610206 51003,KDCU,2017-04-29T14:53:00Z,34.65,-86.95,26.1,20.6,170,12,,9.0,30.02067,1016.0,,TRUE,TRUE,,,,,,,CLR,,,,,,,,VFR,0.3,,,,,,,,,,,METAR,176.0
KDBQ 291453Z 05019G30KT 10SM CLR 07/01 A3012 RMK AO2 PK WND 04030/1444 SLP207 T00720011 58007,KDBQ,2017-04-29T14:53:00Z,42.4,-90.7,7.2,1.1,50,19,30,10.0,30.121063,1020.7,,,TRUE,,,,,,,CLR,,,,,,,,VFR,-0.7,,,,,,,,,,,METAR,326.0
KGIF 291453Z AUTO 13010KT 10SM SCT033 29/18 A3016 RMK AO2 SLP212 T02890183 50003,KGIF,2017-04-29T14:53:00Z,28.07,-81.75,28.9,18.3,130,10,,10.0,30.159449,1021.2,,TRUE,TRUE,,,,,,,SCT,3300,,,,,,,VFR,0.3,,,,,,,,,,,METAR,43.0
KGGW 291453Z AUTO 00000KT 10SM CLR 08/02 A3025 RMK AO2 SLP257 T00780022 50013,KGGW,2017-04-29T14:53:00Z,48.22,-106.62,7.8,2.2,0,0,,10.0,30.250984,1025.7,,TRUE,TRUE,,,,,,,CLR,,,,,,,,VFR,1.3,,,,,,,,,,,METAR,694.0
KGGG 291453Z 16016G22KT 7SM BKN022 OVC035 26/23 A2966 RMK AO2 PK WND 16028/1414 SLP037 T02610228 54000,KGGG,2017-04-29T14:53:00Z,32.38,-94.72,26.1,22.8,160,16,22,7.0,29.660433,1003.7,,,TRUE,,,,,,,BKN,2200,OVC,3500,,,,,MVFR,,,,,,,,,,,,METAR,107.0
KGFL 291453Z AUTO 26007KT 10SM OVC065 21/08 A2995 RMK AO2 SLP141 T02110083 50001,KGFL,2017-04-29T14:53:00Z,43.33,-73.62,21.1,8.3,260,7,,10.0,29.949802,1014.1,,TRUE,TRUE,,,,,,,OVC,6500,,,,,,,VFR,0.1,,,,,,,,,,,METAR,103.0
KGFK 291453Z 19003KT 10SM FEW150 FEW200 08/M04 A3034 RMK AO2 SLP281 T00831044 51025,KGFK,2017-04-29T14:53:00Z,47.95,-97.18,8.3,-4.4,190,3,,10.0,30.339567,1028.1,,,TRUE,,,,,,,FEW,15000,FEW,20000,,,,,VFR,2.5,,,,,,,,,,,METAR,258.0
KGEY 291453Z AUTO 12003KT 10SM SCT024 04/01 A3026 RMK AO2 SLP261 T00440006 51010,KGEY,2017-04-29T14:53:00Z,44.52,-108.08,4.4,0.6,120,3,,10.0,30.259842,1026.1,,TRUE,TRUE,,,,,,,SCT,2400,,,,,,,VFR,1.0,,,,,,,,,,,METAR,1191.0
KGEG 291453Z 17008KT 10SM FEW060 FEW100 06/02 A3024 RMK AO2 SLP245 ACSL E T00610017 53006,KGEG,2017-04-29T14:53:00Z,47.62,-117.53,6.1,1.7,170,8,,10.0,30.239174,1024.5,,,TRUE,,,,,,,FEW,6000,FEW,10000,,,,,VFR,0.6,,,,,,,,,,,METAR,735.0
KGCC 291453Z AUTO 00000KT CLR M02/M05 A3027 RMK AO2 SLP279 T10221050 51016 $,KGCC,2017-04-29T14:53:00Z,44.33,-105.55,-2.2,-5.0,0,0,,,30.268702,1027.9,,TRUE,TRUE,TRUE,,,,,,CLR,,,,,,,,,1.6,,,,,,,,,,,METAR,1320.0
KFYV 291453Z 17018G27KT 10SM -RA BKN021 OVC028 23/22 A2963 RMK AO2 PK WND 18029/1428 LTG DSNT NW RAB41 SLP022 P0000 60002 T02330217 56002 $,KFYV,2017-04-29T14:53:00Z,36.02,-94.17,23.3,21.7,170,18,27,10.0,29.630905,1002.2,,,TRUE,TRUE,,,,,-RA,BKN,2100,OVC,2800,,,,,MVFR,-0.2,,,,,0.005,0.02,,,,,METAR,379.0
KFXE 291453Z 12016G22KT 10SM SCT026 30/19 A3016 RMK AO2 SLP213 T03000194 53008,KFXE,2017-04-29T14:53:00Z,26.2,-80.18,30.0,19.4,120,16,22,10.0,30.159449,1021.3,,,TRUE,,,,,,,SCT,2600,,,,,,,VFR,0.8,,,,,,,,,,,METAR,6.0
KFWN 291453Z AUTO 21008G14KT 10SM FEW039 22/18 A3002 RMK AO2 SLP163 T02220178 50010,KFWN,2017-04-29T14:53:00Z,41.2,-74.63,22.2,17.8,210,8,14,10.0,30.02067,1016.3,,TRUE,TRUE,,,,,,,FEW,3900,,,,,,,VFR,1.0,,,,,,,,,,,METAR,133.0
KFVE 291453Z AUTO 18007KT 10SM FEW075 13/07 A2974 RMK AO2 SLP071 T01280067 58023,KFVE,2017-04-29T14:53:00Z,47.28,-68.3,12.8,6.7,180,7,,10.0,29.740158,1007.1,,TRUE,TRUE,,,,,,,FEW,7500,,,,,,,VFR,-2.3,,,,,,,,,,,METAR,301.0
KFUL 291453Z 06012G18KT 10SM CLR 22/M09 A2998 RMK AO2 SLP150 T02221089 53020,KFUL,2017-04-29T14:53:00Z,33.87,-117.98,22.2,-8.9,60,12,18,10.0,29.97933,1015.0,,,TRUE,,,,,,,CLR,,,,,,,,VFR,2.0,,,,,,,,,,,METAR,35.0
KFTY 291453Z COR 15007KT 10SM SCT055 27/20 A3015 RMK AO2 SLP199 T02670200 50005,KFTY,2017-04-29T14:53:00Z,33.78,-84.52,26.7,20.0,150,7,,10.0,30.15059,1019.9,TRUE,,TRUE,,,,,,,SCT,5500,,,,,,,VFR,0.5,,,,,,,,,,,METAR,263.0
KFST 291453Z AUTO 32015KT 10SM CLR 14/06 A2981 RMK AO2 PK WND 33028/1356 SLP054 T01440061 51031,KFST,2017-04-29T14:53:00Z,30.92,-102.92,14.4,6.1,320,15,,10.0,29.811024,1005.4,,TRUE,TRUE,,,,,,,CLR,,,,,,,,VFR,3.1,,,,,,,,,,,METAR,918.0
KFSM 291453Z 17016G30KT 10SM SCT026 BKN039 27/20 A2960 RMK AO2 PK WND 16030/1449 SLP019 T02670200 58003,KFSM,2017-04-29T14:53:00Z,35.33,-94.37,26.7,20.0,170,16,30,10.0,29.601377,1001.9,,,TRUE,,,,,,,SCT,2600,BKN,3900,,,,,VFR,-0.3,,,,,,,,,,,METAR,140.0
KFPR 291453Z 12019G24KT 10SM CLR 29/21 A3017 RMK AO2 SLP217 T02940211 53005,KFPR,2017-04-29T14:53:00Z,27.5,-80.38,29.4,21.1,120,19,24,10.0,30.171259,1021.7,,,TRUE,,,,,,,CLR,,,,,,,,VFR,0.5,,,,,,,,,,,METAR,13.0
KFOK 291453Z 25015KT 10SM SCT012 21/17 A3003 RMK AO2 SLP167 T02110167 50009,KFOK,2017-04-29T14:53:00Z,40.85,-72.62,21.1,16.7,250,15,,10.0,30.029528,1016.7,,,TRUE,,,,,,,SCT,1200,,,,,,,VFR,0.9,,,,,,,,,,,METAR,33.0
KFNT 291453Z 01012KT 10SM SCT029 08/02 A3018 RMK AO2 SLP223 T00830022 53009,KFNT,2017-04-29T14:53:00Z,42.97,-83.75,8.3,2.2,10,12,,10.0,30.180119,1022.3,,,TRUE,,,,,,,SCT,2900,,,,,,,VFR,0.9,,,,,,,,,,,METAR,233.0
KFNB 291453Z AUTO 03015G21KT 7SM -RA OVC026 07/04 A2995 RMK AO2 SLP147 P0003 60003 T00670044 56015,KFNB,2017-04-29T14:53:00Z,40.07,-95.58,6.7,4.4,30,15,21,7.0,29.949802,1014.7,,TRUE,TRUE,,,,,,-RA,OVC,2600,,,,,,,MVFR,-1.5,,,,,0.03,0.03,,,,,METAR,300.0
KFMY 291453Z 15016G22KT 10SM BKN033 30/21 A3011 RMK AO2 SLP199 T03000206 50003,KFMY,2017-04-29T14:53:00Z,26.58,-81.87,30.0,20.6,150,16,22,10.0,30.109253,1019.9,,,TRUE,,,,,,,BKN,3300,,,,,,,VFR,0.3,,,,,,,,,,,METAR,4.0
KFLL 291453Z 11018KT 10SM FEW026 BKN033 BKN250 28/21 A3015 RMK AO2 SLP208 T02830211 53009,KFLL,2017-04-29T14:53:00Z,26.07,-80.15,28.3,21.1,110,18,,10.0,30.15059,1020.8,,,TRUE,,,,,,,FEW,2600,BKN,3300,BKN,25000,,,VFR,0.9,,,,,,,,,,,METAR,3.0
KBLI 291453Z 00000KT 10SM CLR 08/06 A3029 RMK AO2 SLP263 T00780056 53003,KBLI,2017-04-29T14:53:00Z,48.8,-122.53,7.8,5.6,0,0,,10.0,30.28937,1026.3,,,TRUE,,,,,,,CLR,,,,,,,,VFR,0.3,,,,,,,,,,,METAR,50.0
KBKV 291453Z 14013G20KT 10SM SCT033 31/21 A3013 RMK AO2 SLP201 T03110206 58002,KBKV,2017-04-29T14:53:00Z,28.47,-82.45,31.1,20.6,140,13,20,10.0,30.129921,1020.1,,,TRUE,,,,,,,SCT,3300,,,,,,,VFR,-0.2,,,,,,,,,,,METAR,20.0
KBKE 291453Z AUTO 00000KT 10SM CLR 03/M01 A3026 RMK AO2 SLP262 T00281011 53002,KBKE,2017-04-29T14:53:00Z,44.85,-117.82,2.8,-1.1,0,0,,10.0,30.259842,1026.2,,TRUE,TRUE,,,,,,,CLR,,,,,,,,VFR,0.2,,,,,,,,,,,METAR,1024.0
KBIV 291453Z AUTO 03012G19KT 10SM CLR 10/02 A3016 RMK AO2 SLP193 T01000022 58003,KBIV,2017-04-29T14:53:00Z,42.75,-86.1,10.0,2.2,30,12,19,10.0,30.159449,1019.3,,TRUE,TRUE,,,,,,,CLR,,,,,,,,VFR,-0.3,,,,,,,,,,,METAR,208.0
KBHM 291453Z 15013G20KT 10SM FEW025 SCT250 27/19 A3008 RMK AO2 SLP177 T02670194 51005,KBHM,2017-04-29T14:53:00Z,33.57,-86.75,26.7,19.4,150,13,20,10.0,30.079725,1017.7,,,TRUE,,,,,,,FEW,2500,SCT,25000,,,,,VFR,0.5,,,,,,,,,,,METAR,197.0
KBGR 291453Z 21007KT 10SM BKN085 BKN110 17/11 A2985 RMK AO2 SLP106 T01720106 56024,KBGR,2017-04-29T14:53:00Z,44.8,-68.82,17.2,10.6,210,7,,10.0,29.84941,1010.6,,,TRUE,,,,,,,BKN,8500,BKN,11000,,,,,VFR,-2.4,,,,,,,,,,,METAR,57.0
KBGM 291453Z VRB04KT 10SM OVC028 17/09 A3005 RMK AO2 SLP171 T01720094 51011 $,KBGM,2017-04-29T14:53:00Z,42.22,-75.98,17.2,9.4,0,4,,10.0,30.050198,1017.1,,,TRUE,TRUE,,,,,,OVC,2800,,,,,,,MVFR,1.1,,,,,,,,,,,METAR,490.0
KBFM 291453Z 14019G24KT 6SM HZ BKN017 27/23 A3003 RMK AO2 PK WND 14028/1403 SLP168 T02720233 53007,KBFM,2017-04-29T14:53:00Z,30.62,-88.07,27.2,23.3,140,19,24,6.0,30.029528,1016.8,,,TRUE,,,,,,HZ,BKN,1700,,,,,,,MVFR,0.7,,,,,,,,,,,METAR,20.0
KBFI 291453Z 15007KT 10SM BKN140 BKN200 08/06 A3030 RMK AO2 SLP258 T00780056 56003,KBFI,2017-04-29T14:53:00Z,47.55,-122.32,7.8,5.6,150,7,,10.0,30.301182,1025.8,,,TRUE,,,,,,,BKN,14000,BKN,20000,,,,,VFR,-0.3,,,,,,,,,,,METAR,4.0
KBFF 291453Z AUTO 01008KT 10SM OVC075 02/M03 A3026 RMK AO2 SLP264 T00171033 50025,KBFF,2017-04-29T14:53:00Z,41.87,-103.58,1.7,-3.3,10,8,,10.0,30.259842,1026.4,,TRUE,TRUE,,,,,,,OVC,7500,,,,,,,VFR,2.5,,,,,,,,,,,METAR,1203.0
KBEH 291453Z AUTO 03007KT 340V070 10SM CLR 11/04 A3012 RMK AO2 SLP199 T01110039 57005,KBEH,2017-04-29T14:53:00Z,42.13,-86.42,11.1,3.9,30,7,,10.0,30.121063,1019.9,,TRUE,TRUE,,,,,,,CLR,,,,,,,,VFR,-0.5,,,,,,,,,,,METAR,191.0
KBDE 291453Z AUTO 11003KT 10SM CLR 08/M04 A3032 RMK AO2 SLP281 T00831044 53025 $,KBDE,2017-04-29T14:53:00Z,48.73,-94.62,8.3,-4.4,110,3,,10.0,30.318897,1028.1,,TRUE,TRUE,TRUE,,,,,,CLR,,,,,,,,VFR,2.5,,,,,,,,,,,METAR,329.0
KBCE 291453Z AUTO 36020G25KT 10SM FEW035 FEW044 02/M09 A3003 RMK AO2 PK WND 36026/1437 SLP134 T00221089 53017,KBCE,2017-04-29T14:53:00Z,37.7,-112.15,2.2,-8.9,360,20,25,10.0,30.029528,1013.4,,TRUE,TRUE,,,,,,,FEW,3500,FEW,4400,,,,,VFR,1.7,,,,,,,,,,,METAR,2312.0
KBBW 291453Z AUTO 02012G19KT 10SM OVC075 05/M03 A3015 RMK AO2 PK WND 06026/1400 SLP221 T00501028 51007,KBBW,2017-04-29T14:53:00Z,41.43,-99.63,5.0,-2.8,20,12,19,10.0,30.15059,1022.1,,TRUE,TRUE,,,,,,,OVC,7500,,,,,,,VFR,0.7,,,,,,,,,,,METAR,776.0
KBAF 291453Z 19007KT 10SM FEW050 24/13 A2995 RMK AO2 SLP139 T02390133 58006,KBAF,2017-04-29T14:53:00Z,42.17,-72.72,23.9,13.3,190,7,,10.0,29.949802,1013.9,,,TRUE,,,,,,,FEW,5000,,,,,,,VFR,-0.6,,,,,,,,,,,SPECI,83.0
KAZO 291453Z 02010KT 10SM CLR 11/04 A3014 RMK AO2 SLP209 T01110044 55000,KAZO,2017-04-29T14:53:00Z,42.23,-85.55,11.1,4.4,20,10,,10.0,30.138779,1020.9,,,TRUE,,,,,,,CLR,,,,,,,,VFR,0.0,,,,,,,,,,,METAR,272.0
KAXN 291453Z AUTO 16009KT 10SM CLR 06/M04 A3035 RMK AO2 SLP290 T00611039 50034,KAXN,2017-04-29T14:53:00Z,45.87,-95.4,6.1,-3.9,160,9,,10.0,30.351377,1029.0,,TRUE,TRUE,,,,,,,CLR,,,,,,,,VFR,3.4,,,,,,,,,,,METAR,433.0
KAWM 291453Z AUTO 19017G25KT 9SM OVC031 26/22 A2987 RMK AO2 PK WND 18027/1418 SLP111 T02560217 53013,KAWM,2017-04-29T14:53:00Z,35.13,-90.23,25.6,21.7,190,17,25,9.0,29.870079,1011.1,,TRUE,TRUE,,,,,,,OVC,3100,,,,,,,VFR,1.3,,,,,,,,,,,METAR,65.0
KAUS 291453Z 18016G26KT 5SM HZ BKN024 BKN033 OVC039 28/22 A2960 RMK AO2 PK WND 15027/1407 SLP012 T02780217 50003,KAUS,2017-04-29T14:53:00Z,30.18,-97.68,27.8,21.7,180,16,26,5.0,29.601377,1001.2,,,TRUE,,,,,,HZ,BKN,2400,BKN,3300,OVC,3900,,,MVFR,0.3,,,,,,,,,,,METAR,166.0
KAUG 291453Z AUTO 24009G22KT 10SM SCT080 24/06 A2985 RMK AO2 SLP108 T02390061 56020,KAUG,2017-04-29T14:53:00Z,44.32,-69.8,23.9,6.1,240,9,22,10.0,29.84941,1010.8,,TRUE,TRUE,,,,,,,SCT,8000,,,,,,,VFR,-2.0,,,,,,,,,,,METAR,109.0
KATY 291453Z AUTO 11007KT 10SM CLR 06/M06 A3030 RMK AO2 SLP275 T00611061 50027,KATY,2017-04-29T14:53:00Z,44.9,-97.15,6.1,-6.1,110,7,,10.0,30.301182,1027.5,,TRUE,TRUE,,,,,,,CLR,,,,,,,,VFR,2.7,,,,,,,,,,,METAR,532.0
KASX 291453Z AUTO 00000KT 10SM CLR 06/M03 A3037 RMK AO2 SLP294 T00561033 51033,KASX,2017-04-29T14:53:00Z,46.55,-90.92,5.6,-3.3,0,0,,10.0,30.369095,1029.4,,TRUE,TRUE,,,,,,,CLR,,,,,,,,VFR,3.3,,,,,,,,,,,METAR,251.0
KASE 291453Z 16003KT 10SM OVC100 M03/M10 A2998 RMK AO2 SLP133 T10281100 53019,KASE,2017-04-29T14:53:00Z,39.23,-106.87,-2.8,-10.0,160,3,,10.0,29.97933,1013.3,,,TRUE,,,,,,,OVC,10000,,,,,,,VFR,1.9,,,,,,,,,,,METAR,2354.0
KASD 291453Z AUTO 16015G23KT 10SM BKN016 BKN024 27/23 A2994 RMK AO2 PK WND 15027/1357 SLP139 T02720233 51005,KASD,2017-04-29T14:53:00Z,30.35,-89.82,27.2,23.3,160,15,23,10.0,29.940945,1013.9,,TRUE,TRUE,,,,,,,BKN,1600,BKN,2400,,,,,MVFR,0.5,,,,,,,,,,,METAR,9.0
KCDW 291453Z AUTO 29012G22KT 10SM SCT090 26/16 A3000 RMK AO2 SLP163 T02610156 50010 TSNO,KCDW,2017-04-29T14:53:00Z,40.88,-74.28,26.1,15.6,290,12,22,10.0,30.0,1016.3,,TRUE,TRUE,,,TRUE,,,,SCT,9000,,,,,,,VFR,1.0,,,,,,,,,,,METAR,64.0
KCDR 291453Z AUTO 23004KT 10SM OVC095 02/M02 A3030 RMK AO2 SLP287 T00221022 51025 $,KCDR,2017-04-29T14:53:00Z,42.83,-103.1,2.2,-2.2,230,4,,10.0,30.301182,1028.7,,TRUE,TRUE,TRUE,,,,,,OVC,9500,,,,,,,VFR,2.5,,,,,,,,,,,METAR,1010.0
KCDC 291453Z AUTO 01012G23KT 10SM SCT034 BKN042 OVC060 04/M03 A3010 RMK AO2 SLP186 T00391028 53020,KCDC,2017-04-29T14:53:00Z,37.7,-113.1,3.9,-2.8,10,12,23,10.0,30.100393,1018.6,,TRUE,TRUE,,,,,,,SCT,3400,BKN,4200,OVC,6000,,,VFR,2.0,,,,,,,,,,,METAR,1714.0
KCCR 291453Z 00000KT 10SM CLR 14/05 A3012 RMK AO2 SLP185 T01440050 53013,KCCR,2017-04-29T14:53:00Z,38.0,-122.05,14.4,5.0,0,0,,10.0,30.121063,1018.5,,,TRUE,,,,,,,CLR,,,,,,,,VFR,1.3,,,,,,,,,,,METAR,11.0
KCAG 291453Z AUTO 10009KT 10SM FEW060 OVC075 02/M08 A3007 RMK AO2 SLP192 T00171078 51020,KCAG,2017-04-29T14:53:00Z,40.5,-107.52,1.7,-7.8,100,9,,10.0,30.070866,1019.2,,TRUE,TRUE,,,,,,,FEW,6000,OVC,7500,,,,,VFR,2.0,,,,,,,,,,,METAR,1887.0
KBYI 291453Z AUTO 28012G19KT 10SM CLR 06/M02 A3024 RMK AO2 SLP237 T00561022 51021,KBYI,2017-04-29T14:53:00Z,42.55,-113.77,5.6,-2.2,280,12,19,10.0,30.239174,1023.7,,TRUE,TRUE,,,,,,,CLR,,,,,,,,VFR,2.1,,,,,,,,,,,METAR,1264.0
KBYG 291453Z AUTO 19004KT 10SM CLR 00/M08 A3027 RMK AO2 SLP271 T00001078 51018,KBYG,2017-04-29T14:53:00Z,44.38,-106.72,0.0,-7.8,190,4,,10.0,30.268702,1027.1,,TRUE,TRUE,,,,,,,CLR,,,,,,,,VFR,1.8,,,,,,,,,,,METAR,1497.0
KBWG 291453Z AUTO 21008KT 10SM SCT030 BKN038 27/21 A3004 RMK AO2 SLP164 T02720206 51018 TSNO,KBWG,2017-04-29T14:53:00Z,36.97,-86.42,27.2,20.6,210,8,,10.0,30.041338,1016.4,,TRUE,TRUE,,,TRUE,,,,SCT,3000,BKN,3800,,,,,VFR,1.8,,,,,,,,,,,METAR,168.0
KBVY 291453Z 23010KT 10SM FEW100 BKN200 25/12 A2991 RMK AO2 SLP121 T02500117 56019,KBVY,2017-04-29T14:53:00Z,42.58,-70.92,25.0,11.7,230,10,,10.0,29.911417,1012.1,,,TRUE,,,,,,,FEW,10000,BKN,20000,,,,,VFR,-1.9,,,,,,,,,,,METAR,28.0
KBUR 291453Z 02009KT 10SM CLR 21/M13 A3001 RMK AO2 SLP149 T02061133 53026,KBUR,2017-04-29T14:53:00Z,34.2,-118.37,20.6,-13.3,20,9,,10.0,30.008858,1014.9,,,TRUE,,,,,,,CLR,,,,,,,,VFR,2.6,,,,,,,,,,,SPECI,217.0
KBTM 291453Z AUTO 00000KT 10SM CLR 03/M02 A3024 RMK AO2 SLP245 T00281022 53009,KBTM,2017-04-29T14:53:00Z,45.97,-112.5,2.8,-2.2,0,0,,10.0,30.239174,1024.5,,TRUE,TRUE,,,,,,,CLR,,,,,,,,VFR,0.9,,,,,,,,,,,METAR,1688.0
KBTL 291453Z 03014KT 10SM CLR 10/04 A3014 RMK AO2 SLP211 T01000039 55000,KBTL,2017-04-29T14:53:00Z,42.32,-85.23,10.0,3.9,30,14,,10.0,30.138779,1021.1,,,TRUE,,,,,,,CLR,,,,,,,,VFR,0.0,,,,,,,,,,,METAR,290.0
KBRD 291453Z AUTO 16005KT 10SM CLR 07/M05 A3036 RMK AO2 SLP291 T00671050 51030,KBRD,2017-04-29T14:53:00Z,46.4,-94.13,6.7,-5.0,160,5,,10.0,30.360237,1029.1,,TRUE,TRUE,,,,,,,CLR,,,,,,,,VFR,3.0,,,,,,,,,,,METAR,372.0
KBPT 291453Z 15018G30KT 6SM VCTS HZ OVC010 26/23 A2973 RMK AO2 PK WND 13036/1401 LTG DSNT N-SE SLP067 60000 T02610233 58001,KBPT,2017-04-29T14:53:00Z,29.95,-94.03,26.1,23.3,150,18,30,6.0,29.731298,1006.7,,,TRUE,,,,,,VCTS HZ,OVC,1000,,,,,,,MVFR,-0.1,,,,,,0.005,,,,,METAR,5.0
KBPK 291453Z AUTO 21009G15KT 8SM BKN023 BKN029 OVC043 23/21 A2975 RMK AO2 SLP065 60005 T02280206 51010,KBPK,2017-04-29T14:53:00Z,36.37,-92.47,22.8,20.6,210,9,15,8.0,29.749016,1006.5,,TRUE,TRUE,,,,,,,BKN,2300,BKN,2900,OVC,4300,,,MVFR,1.0,,,,,,0.05,,,,,METAR,280.0
KBPI 291453Z AUTO 23005KT 10SM CLR M02/M07 A3021 RMK AO2 SLP236 T10171067 51011,KBPI,2017-04-29T14:53:00Z,42.58,-110.1,-1.7,-6.7,230,5,,10.0,30.209646,1023.6,,TRUE,TRUE,,,,,,,CLR,,,,,,,,VFR,1.1,,,,,,,,,,,METAR,2117.0
KBOI 291453Z 00000KT 10SM CLR 04/00 A3025 RMK AO2 SLP248 T00440000 52013,KBOI,2017-04-29T14:53:00Z,43.57,-116.23,4.4,0.0,0,0,,10.0,30.250984,1024.8,,,TRUE,,,,,,,CLR,,,,,,,,VFR,1.3,,,,,,,,,,,METAR,875.0
KBNO 291453Z AUTO 00000KT 10SM CLR 02/M02 A3027 RMK AO2 SLP262 T00171017 53008,KBNO,2017-04-29T14:53:00Z,43.6,-118.95,1.7,-1.7,0,0,,10.0,30.268702,1026.2,,TRUE,TRUE,,,,,,,CLR,,,,,,,,VFR,0.8,,,,,,,,,,,METAR,1264.0
KBNA 291453Z 18007KT 10SM FEW025 BKN250 27/20 A3002 RMK AO2 SLP157 T02670200 50009,KBNA,2017-04-29T14:53:00Z,36.12,-86.68,26.7,20.0,180,7,,10.0,30.02067,1015.7,,,TRUE,,,,,,,FEW,2500,BKN,25000,,,,,VFR,0.9,,,,,,,,,,,METAR,210.0
KBMQ 291453Z AUTO 17013G26KT 6SM HZ SCT025 OVC031 26/19 A2962 RMK AO2 PK WND 18027/1419 SLP012 T02560194 50003,KBMQ,2017-04-29T14:53:00Z,30.73,-98.23,25.6,19.4,170,13,26,6.0,29.619095,1001.2,,TRUE,TRUE,,,,,,HZ,SCT,2500,OVC,3100,,,,,VFR,0.3,,,,,,,,,,,METAR,389.0
KDAB 291453Z 11011G18KT 10SM FEW021 SCT031 BKN250 27/22 A3018 RMK AO2 SLP220 T02720222 53009,KDAB,2017-04-29T14:53:00Z,29.18,-81.07,27.2,22.2,110,11,18,10.0,30.180119,1022.0,,,TRUE,,,,,,,FEW,2100,SCT,3100,BKN,25000,,,VFR,0.9,,,,,,,,,,,SPECI,9.0
KCXO 291453Z 15014G21KT 7SM OVC016 26/23 A2967 RMK AO2 PK WND 14027/1358 SLP044 T02610233 58005,KCXO,2017-04-29T14:53:00Z,30.35,-95.42,26.1,23.3,150,14,21,7.0,29.66929,1004.4,,,TRUE,,,,,,,OVC,1600,,,,,,,MVFR,-0.5,,,,,,,,,,,METAR,75.0
KCUT 291453Z AUTO 05007KT 10SM OVC085 01/M12 A3025 RMK AO2 SLP267 T00061117 53022,KCUT,2017-04-29T14:53:00Z,43.73,-103.62,0.6,-11.7,50,7,,10.0,30.250984,1026.7,,TRUE,TRUE,,,,,,,OVC,8500,,,,,,,VFR,2.2,,,,,,,,,,,METAR,1725.0
KCSV 291453Z AUTO 19009G22KT 170V240 10SM CLR 25/17 A3014 RMK AO2 SLP184 T02500172 51011,KCSV,2017-04-29T14:53:00Z,35.95,-85.08,25.0,17.2,190,9,22,10.0,30.138779,1018.4,,TRUE,TRUE,,,,,,,CLR,,,,,,,,VFR,1.1,,,,,,,,,,,METAR,570.0
KCRQ 291453Z 03008KT 10SM CLR 21/M07 A2994 RMK AO2 SLP134 T02061072 53019,KCRQ,2017-04-29T14:53:00Z,33.13,-117.28,20.6,-7.2,30,8,,10.0,29.940945,1013.4,,,TRUE,,,,,,,CLR,,,,,,,,VFR,1.9,,,,,,,,,,,METAR,99.0
KCRE 291453Z 20007KT 10SM FEW010 26/23 A3024 RMK AO1 SLP241 T02560228 53003,KCRE,2017-04-29T14:53:00Z,33.82,-78.72,25.6,22.8,200,7,,10.0,30.239174,1024.1,,,TRUE,,,,,,,FEW,1000,,,,,,,VFR,0.3,,,,,,,,,,,METAR,10.0
KCPR 291453Z 07006KT 10SM SCT011 BKN045 M01/M03 A3026 RMK AO2 SLP275 T10111028 51022,KCPR,2017-04-29T14:53:00Z,42.9,-106.47,-1.1,-2.8,70,6,,10.0,30.259842,1027.5,,,TRUE,,,,,,,SCT,1100,BKN,4500,,,,,VFR,2.2,,,,,,,,,,,METAR,1621.0
KCOT 291453Z AUTO 15012G19KT 10SM SCT022 28/21 A2956 RMK AO2 SLP999 T02830206 58003,KCOT,2017-04-29T14:53:00Z,28.45,-99.22,28.3,20.6,150,12,19,10.0,29.56004,999.9,,TRUE,TRUE,,,,,,,SCT,2200,,,,,,,VFR,-0.3,,,,,,,,,,,METAR,140.0
KCNY 291453Z AUTO 01010KT 10SM OVC060 08/M06 A2999 RMK AO2 SLP140 T00781056 53021,KCNY,2017-04-29T14:53:00Z,38.77,-109.75,7.8,-5.6,10,10,,10.0,29.991142,1014.0,,TRUE,TRUE,,,,,,,OVC,6000,,,,,,,VFR,2.1,,,,,,,,,,,METAR,1390.0
KCNO 291453Z 08020G33KT 10SM CLR 21/M08 A3002 RMK AO2 PK WND 09033/1448 SLP160 T02061083 53031,KCNO,2017-04-29T14:53:00Z,33.98,-117.62,20.6,-8.3,80,20,33,10.0,30.02067,1016.0,,,TRUE,,,,,,,CLR,,,,,,,,VFR,3.1,,,,,,,,,,,METAR,207.0
KCNM 291453Z AUTO 33016KT 10SM -RA OVC048 08/07 A2987 RMK AO2 RAB05 SLP082 P0000 60000 T00780072 53019,KCNM,2017-04-29T14:53:00Z,32.33,-104.25,7.8,7.2,330,16,,10.0,29.870079,1008.2,,TRUE,TRUE,,,,,,-RA,OVC,4800,,,,,,,VFR,1.9,,,,,0.005,0.005,,,,,METAR,985.0
KCMX 291453Z AUTO 00000KT 10SM CLR 04/M07 A3032 RMK AO2 SLP279 T00391067 50027 $,KCMX,2017-04-29T14:53:00Z,47.17,-88.48,3.9,-6.7,0,0,,10.0,30.318897,1027.9,,TRUE,TRUE,TRUE,,,,,,CLR,,,,,,,,VFR,2.7,,,,,,,,,,,METAR,326.0
KCMI 291453Z 05014KT 6SM -RA BR OVC008 10/08 A3004 RMK AO2 PK WND 06031/1419 RAE16B51 CIG 006V011 SLP173 P0000 60016 T01000083 55003,KCMI,2017-04-29T14:53:00Z,40.03,-88.27,10.0,8.3,50,14,,6.0,30.041338,1017.3,,,TRUE,,,,,,-RA BR,OVC,800,,,,,,,IFR,-0.3,,,,,0.005,0.16,,,,,METAR,228.0
KCLM 291453Z AUTO 23004KT 10SM OVC100 07/04 A3029 RMK AO2 SLP259 T00670039 53002,KCLM,2017-04-29T14:53:00Z,48.12,-123.5,6.7,3.9,230,4,,10.0,30.28937,1025.9,,TRUE,TRUE,,,,,,,OVC,10000,,,,,,,VFR,0.2,,,,,,,,,,,METAR,85.0
KCLL 291453Z 17022G28KT 7SM OVC019 27/23 A2963 RMK AO2 PK WND 17028/1452 SLP029 60000 T02720233 58003,KCLL,2017-04-29T14:53:00Z,30.58,-96.37,27.2,23.3,170,22,28,7.0,29.630905,1002.9,,,TRUE,,,,,,,OVC,1900,,,,,,,MVFR,-0.3,,,,,,0.005,,,,,METAR,96.0
KCKB 291453Z 31003KT 10SM CLR 21/17 A3012 RMK AO2 SLP188 60007 T02060167 55015,KCKB,2017-04-29T14:53:00Z,39.3,-80.22,20.6,16.7,310,3,,10.0,30.121063,1018.8,,,TRUE,,,,,,,CLR,,,,,,,,VFR,-1.5,,,,,,0.07,,,,,METAR,360.0
KCHO 291453Z 18006KT 10SM CLR 28/21 A3013 RMK AO2 SLP194 T02780206 50003,KCHO,2017-04-29T14:53:00Z,38.13,-78.45,27.8,20.6,180,6,,10.0,30.129921,1019.4,,,TRUE,,,,,,,CLR,,,,,,,,VFR,0.3,,,,,,,,,,,METAR,192.0
KCHA 291453Z 16012G19KT 10SM SCT029 SCT042 BKN150 BKN250 27/19 A3011 RMK AO2 SLP188 T02670194 53003,KCHA,2017-04-29T14:53:00Z,35.03,-85.2,26.7,19.4,160,12,19,10.0,30.109253,1018.8,,,TRUE,,,,,,,SCT,2900,SCT,4200,BKN,15000,BKN,25000,VFR,0.3,,,,,,,,,,,METAR,210.0
KCGI 291453Z 10005KT 10SM FEW033 BKN070 21/19 A2992 RMK AO2 RAB17E25 SLP130 P0003 6//// T02110189 50016 $,KCGI,2017-04-29T14:53:00Z,37.23,-89.58,21.1,18.9,100,5,,10.0,29.920275,1013.0,,,TRUE,TRUE,,,,,,FEW,3300,BKN,7000,,,,,VFR,1.6,,,,,0.03,,,,,,METAR,102.0
KCEZ 291453Z AUTO 00000KT 10SM FEW002 M01/M01 A2991 RMK AO2 SLP125 T10111011 51011,KCEZ,2017-04-29T14:53:00Z,37.3,-108.63,-1.1,-1.1,0,0,,10.0,29.911417,1012.5,,TRUE,TRUE,,,,,,,FEW,200,,,,,,,VFR,1.1,,,,,,,,,,,METAR,1797.0
KARB 291453Z 04006KT 10SM OVC047 09/03 A3015 RMK AO2 SLP212 T00890033 53014,KARB,2017-04-29T14:53:00Z,42.22,-83.73,8.9,3.3,40,6,,10.0,30.15059,1021.2,,,TRUE,,,,,,,OVC,4700,,,,,,,VFR,1.4,,,,,,,,,,,METAR,251.0
KARA 291453Z 15026G34KT 10SM -RA BKN018 OVC034 28/22 A2984 RMK AO2 PK WND 15037/1441 SLP103 P0000 60000 T02830222 58004,KARA,2017-04-29T14:53:00Z,30.03,-91.88,28.3,22.2,150,26,34,10.0,29.840551,1010.3,,,TRUE,,,,,,-RA,BKN,1800,OVC,3400,,,,,MVFR,-0.4,,,,,0.005,0.005,,,,,METAR,18.0
KAPF 291453Z 12011KT 10SM BKN037 BKN045 31/20 A3012 RMK AO2 SLP197 T03060200 50006 $,KAPF,2017-04-29T14:53:00Z,26.15,-81.77,30.6,20.0,120,11,,10.0,30.121063,1019.7,,,TRUE,TRUE,,,,,,BKN,3700,BKN,4500,,,,,VFR,0.6,,,,,,,,,,,METAR,3.0
KAOO 291453Z AUTO 23010KT 10SM CLR 21/17 A3006 RMK AO2 SLP170 60001 T02110167 50001,KAOO,2017-04-29T14:53:00Z,40.3,-78.32,21.1,16.7,230,10,,10.0,30.059055,1017.0,,TRUE,TRUE,,,,,,,CLR,,,,,,,,VFR,0.1,,,,,,0.01,,,,,METAR,455.0
KANB 291453Z AUTO VRB06G16KT 10SM FEW060 28/21 A3010 RMK AO2 SLP181 T02780206 50005,KANB,2017-04-29T14:53:00Z,33.58,-85.85,27.8,20.6,0,6,16,10.0,30.100393,1018.1,,TRUE,TRUE,,,,,,,FEW,6000,,,,,,,VFR,0.5,,,,,,,,,,,METAR,183.0
KAMW 291453Z AUTO 05014G21KT 10SM BKN120 07/02 A3011 RMK AO2 SLP198 T00670022 58005,KAMW,2017-04-29T14:53:00Z,41.98,-93.62,6.7,2.2,50,14,21,10.0,30.109253,1019.8,,TRUE,TRUE,,,,,,,BKN,12000,,,,,,,VFR,-0.5,,,,,,,,,,,METAR,279.0
KAMG 291453Z AUTO 15010KT 10SM FEW024 28/22 A3019 RMK AO2 SLP218 T02830217 51013,KAMG,2017-04-29T14:53:00Z,31.53,-82.5,28.3,21.7,150,10,,10.0,30.188976,1021.8,,TRUE,TRUE,,,,,,,FEW,2400,,,,,,,VFR,1.3,,,,,,,,,,,METAR,59.0
KALW 291453Z 22005KT 10SM CLR 10/02 A3026 RMK AO2 SLP251 T01000022 53001,KALW,2017-04-29T14:53:00Z,46.1,-118.28,10.0,2.2,220,5,,10.0,30.259842,1025.1,,,TRUE,,,,,,,CLR,,,,,,,,VFR,0.1,,,,,,,,,,,METAR,363.0
KALI 291453Z AUTO 15013G22KT 8SM BKN022 OVC028 29/23 A2956 RMK AO2 SLP008 T02940228 50006 TSNO,KALI,2017-04-29T14:53:00Z,27.73,-98.02,29.4,22.8,150,13,22,8.0,29.56004,1000.8,,TRUE,TRUE,,,TRUE,,,,BKN,2200,OVC,2800,,,,,MVFR,0.6,,,,,,,,,,,METAR,53.0
KAIA 291453Z AUTO 35008KT 10SM OVC100 02/M02 A3024 RMK AO2 SLP260 T00171017 51026,KAIA,2017-04-29T14:53:00Z,42.05,-102.8,1.7,-1.7,350,8,,10.0,30.239174,1026.0,,TRUE,TRUE,,,,,,,OVC,10000,,,,,,,VFR,2.6,,,,,,,,,,,METAR,1196.0
KAGS 291453Z 19008KT 10SM OVC022 27/22 A3018 RMK AO2 SLP217 T02720217 50002,KAGS,2017-04-29T14:53:00Z,33.37,-81.97,27.2,21.7,190,8,,10.0,30.180119,1021.7,,,TRUE,,,,,,,OVC,2200,,,,,,,MVFR,0.2,,,,,,,,,,,METAR,44.0
KAGC 291453Z 23005KT 10SM CLR 21/16 A3007 RMK AO2 SLP183 60002 T02060156 56006 $,KAGC,2017-04-29T14:53:00Z,40.35,-79.92,20.6,15.6,230,5,,10.0,30.070866,1018.3,,,TRUE,TRUE,,,,,,CLR,,,,,,,,VFR,-0.6,,,,,,0.02,,,,,METAR,389.0
KAEX 291453Z 16019G28KT 7SM OVC025 27/22 A2978 RMK AO2 PK WND 16030/1438 SLP086 T02720217 52001 $,KAEX,2017-04-29T14:53:00Z,31.33,-92.57,27.2,21.7,160,19,28,7.0,29.778543,1008.6,,,TRUE,TRUE,,,,,,OVC,2500,,,,,,,MVFR,0.1,,,,,,,,,,,METAR,27.0
KADG 291453Z AUTO 09011KT 10SM OVC039 09/05 A3015 RMK AO2 SLP214 T00890050 53021 TSNO,KADG,2017-04-29T14:53:00Z,41.87,-84.08,8.9,5.0,90,11,,10.0,30.15059,1021.4,,TRUE,TRUE,,,TRUE,,,,OVC,3900,,,,,,,VFR,2.1,,,,,,,,,,,METAR,241.0
KABY 291453Z COR 16012KT 10SM FEW025 BKN075 28/21 A3017 RMK AO2 SLP213 T02830211 51018,KABY,2017-04-29T14:53:00Z,31.53,-84.2,28.3,21.1,160,12,,10.0,30.171259,1021.3,TRUE,,TRUE,,,,,,,FEW,2500,BKN,7500,,,,,VFR,1.8,,,,,,,,,,,SPECI,58.0
KABR 291453Z AUTO 15007KT 10SM CLR 08/M06 A3034 RMK AO2 SLP284 T00831061 51035,KABR,2017-04-29T14:53:00Z,45.45,-98.42,8.3,-6.1,150,7,,10.0,30.339567,1028.4,,TRUE,TRUE,,,,,,,CLR,,,,,,,,VFR,3.5,,,,,,,,,,,METAR,397.0
KVUO 291453Z AUTO 00000KT 10SM OVC007 07/07 A3031 RMK AO2 SLP264 T00720067 55000,KVUO,2017-04-29T14:53:00Z,45.62,-122.65,7.2,6.7,0,0,,10.0,30.31004,1026.4,,TRUE,TRUE,,,,,,,OVC,700,,,,,,,IFR,0.0,,,,,,,,,,,METAR,8.0
KVPC 291453Z AUTO 15007KT 120V190 10SM -RA CLR 27/20 A3014 RMK AO2 RAB07 SLP195 6//// T02670200 51003 PNO $,KVPC,2017-04-29T14:53:00Z,34.13,-84.85,26.7,20.0,150,7,,10.0,30.138779,1019.5,,TRUE,TRUE,TRUE,,,,,-RA,CLR,,,,,,,,VFR,0.3,,,,,,,,,,,METAR,222.0
KVGT 291453Z AUTO 33021G28KT 10SM CLR 15/M07 A3008 RMK AO2 PK WND 34029/1428 SLP195 T01501072 53017,KVGT,2017-04-29T14:53:00Z,36.22,-115.2,15.0,-7.2,330,21,28,10.0,30.079725,1019.5,,TRUE,TRUE,,,,,,,CLR,,,,,,,,VFR,1.7,,,,,,,,,,,METAR,671.0
KVEL 291453Z AUTO 04020G27KT 10SM BKN055 03/M08 A3014 RMK AO2 PK WND 04030/1411 SLP206 T00281078 53026,KVEL,2017-04-29T14:53:00Z,40.45,-109.52,2.8,-7.8,40,20,27,10.0,30.138779,1020.6,,TRUE,TRUE,,,,,,,BKN,5500,,,,,,,VFR,2.6,,,,,,,,,,,METAR,1604.0
KVCB 291453Z AUTO 36007KT 10SM CLR 19/00 A3012 RMK AO2 SLP198 T01890000 53014 TSNO,KVCB,2017-04-29T14:53:00Z,38.38,-121.95,18.9,0.0,360,7,,10.0,30.121063,1019.8,,TRUE,TRUE,,,TRUE,,,,CLR,,,,,,,,VFR,1.4,,,,,,,,,,,METAR,33.0
KUTS 291453Z AUTO 17014G22KT 7SM OVC018 27/22 A2965 RMK AO2 SLP035 T02670222 58007,KUTS,2017-04-29T14:53:00Z,30.75,-95.58,26.7,22.2,170,14,22,7.0,29.648623,1003.5,,TRUE,TRUE,,,,,,,OVC,1800,,,,,,,MVFR,-0.7,,,,,,,,,,,METAR,104.0
KUIL 291453Z AUTO 08006KT 10SM FEW075 BKN090 OVC110 05/04 A3027 RMK AO2 SLP250 T00500044 56005,KUIL,2017-04-29T14:53:00Z,47.93,-124.55,5.0,4.4,80,6,,10.0,30.268702,1025.0,,TRUE,TRUE,,,,,,,FEW,7500,BKN,9000,OVC,11000,,,VFR,-0.5,,,,,,,,,,,METAR,54.0
KUAO 291453Z 00000KT 10SM FEW040 07/04 A3032 RMK AO2 SLP267 T00670044 53001,KUAO,2017-04-29T14:53:00Z,45.25,-122.77,6.7,4.4,0,0,,10.0,30.318897,1026.7,,,TRUE,,,,,,,FEW,4000,,,,,,,VFR,0.1,,,,,,,,,,,METAR,59.0
KTYS 291453Z 00000KT 10SM SCT150 OVC250 26/18 A3011 RMK AO2 SLP186 T02610183 53006,KTYS,2017-04-29T14:53:00Z,35.82,-83.98,26.1,18.3,0,0,,10.0,30.109253,1018.6,,,TRUE,,,,,,,SCT,15000,OVC,25000,,,,,VFR,0.6,,,,,,,,,,,METAR,302.0
KTYR 291453Z 17014G25KT 10SM OVC023 26/22 A2964 RMK AO2 PK WND 16029/1430 SLP028 T02610222 55001,KTYR,2017-04-29T14:53:00Z,32.37,-95.4,26.1,22.2,170,14,25,10.0,29.639763,1002.8,,,TRUE,,,,,,,OVC,2300,,,,,,,MVFR,-0.1,,,,,,,,,,,METAR,165.0
KTVR 291453Z AUTO 17011G22KT 10SM -RA BKN034 OVC048 27/21 A2987 RMK AO2 SLP121 P0000 60000 T02670211 51011 TSNO,KTVR,2017-04-29T14:53:00Z,32.35,-91.03,26.7,21.1,170,11,22,10.0,29.870079,1012.1,,TRUE,TRUE,,,TRUE,,,-RA,BKN,3400,OVC,4800,,,,,VFR,1.1,,,,,0.005,0.005,,,,,METAR,26.0
KTVL 291453Z AUTO 00000KT 10SM CLR 02/M09 A3023 RMK AO2 SLP228 T00171094 51012,KTVL,2017-04-29T14:53:00Z,38.9,-120.0,1.7,-9.4,0,0,,10.0,30.230314,1022.8,,TRUE,TRUE,,,,,,,CLR,,,,,,,,VFR,1.2,,,,,,,,,,,METAR,1924.0
KTVC 291453Z 02011KT 10SM FEW050 SCT120 06/M02 A3027 RMK AO2 SLP254 T00561022 53016,KTVC,2017-04-29T14:53:00Z,44.73,-85.57,5.6,-2.2,20,11,,10.0,30.268702,1025.4,,,TRUE,,,,,,,FEW,5000,SCT,12000,,,,,VFR,1.6,,,,,,,,,,,METAR,190.0
KTUS 291453Z 25004KT 10SM CLR 15/M10 A2994 RMK AO2 SLP107 T01501100 51024 $,KTUS,2017-04-29T14:53:00Z,32.13,-110.95,15.0,-10.0,250,4,,10.0,29.940945,1010.7,,,TRUE,TRUE,,,,,,CLR,,,,,,,,VFR,2.4,,,,,,,,,,,METAR,776.0
KTTN 291453Z 24005KT 10SM BKN110 23/19 A3002 RMK AO2 SLP159 T02330194 50010 $,KTTN,2017-04-29T14:53:00Z,40.28,-74.82,23.3,19.4,240,5,,10.0,30.02067,1015.9,,,TRUE,TRUE,,,,,,BKN,11000,,,,,,,VFR,1.0,,,,,,,,,,,METAR,59.0
KTTD 291453Z 00000KT 10SM CLR 07/04 A3032 RMK AO2 SLP266 T00720044 53001,KTTD,2017-04-29T14:53:00Z,45.55,-122.42,7.2,4.4,0,0,,10.0,30.318897,1026.6,,,TRUE,,,,,,,CLR,,,,,,,,VFR,0.1,,,,,,,,,,,METAR,14.0
KTRL 291453Z AUTO 17016G23KT 6SM HZ FEW019 OVC027 27/22 A2958 RMK AO2 SLP011 T02670222 53001,KTRL,2017-04-29T14:53:00Z,32.72,-96.27,26.7,22.2,170,16,23,6.0,29.58071,1001.1,,TRUE,TRUE,,,,,,HZ,FEW,1900,OVC,2700,,,,,MVFR,0.1,,,,,,,,,,,METAR,145.0
KTRI 291453Z 00000KT 10SM BKN250 26/19 A3016 RMK AO2 SLP188 T02610189 51000,KTRI,2017-04-29T14:53:00Z,36.48,-82.4,26.1,18.9,0,0,,10.0,30.159449,1018.8,,,TRUE,,,,,,,BKN,25000,,,,,,,VFR,0.0,,,,,,,,,,,METAR,474.0
KTPA 291453Z 14009G17KT 10SM SCT025 BKN300 29/21 A3013 RMK AO2 SLP202 T02940211 50001,KTPA,2017-04-29T14:53:00Z,27.97,-82.53,29.4,21.1,140,9,17,10.0,30.129921,1020.2,,,TRUE,,,,,,,SCT,2500,BKN,30000,,,,,VFR,0.1,,,,,,,,,,,METAR,11.0
TJNR 291453Z AUTO 09005KT 10SM SCT060 27/25 A3011 RMK AO2 RAE21 SLP197 P0000 60018 T02670250 50002,TJNR,2017-04-29T14:53:00Z,18.25,-65.63,26.7,25.0,90,5,,10.0,30.109253,1019.7,,TRUE,TRUE,,,,,,,SCT,6000,,,,,,,VFR,0.2,,,,,0.005,0.18,,,,,METAR,12.0
KNUI 291453Z AUTO 27007KT 9SM CLR 27/22 A3013 RMK AO2 SLP201 T02670217 51019,KNUI,2017-04-29T14:53:00Z,38.15,-76.43,26.7,21.7,270,7,,9.0,30.129921,1020.1,,TRUE,TRUE,,,,,,,CLR,,,,,,,,VFR,1.9,,,,,,,,,,,METAR,7.0
KP68 291453Z AUTO 00000KT 01/M04 A3024 RMK AO1 SLP241 T00111044 51013,KP68,2017-04-29T14:53:00Z,39.6,-116.0,1.1,-4.4,0,0,,,30.239174,1024.1,,TRUE,TRUE,,,,,,,,,,,,,,,,1.3,,,,,,,,,,,METAR,1809.0
KNQX 291453Z 11019G23KT 10SM FEW025 BKN031 27/23 A3010 RMK AO2 SLP190 T02670233 50008 $,KNQX,2017-04-29T14:53:00Z,24.57,-81.67,26.7,23.3,110,19,23,10.0,30.100393,1019.0,,,TRUE,TRUE,,,,,,FEW,2500,BKN,3100,,,,,VFR,0.8,,,,,,,,,,,METAR,2.0
KSDB 291453Z AUTO 06015G26KT 10SM CLR 09/M09 A3012 RMK AO2 PK WND 07032/1423 SLP172 T00941089 53013,KSDB,2017-04-29T14:53:00Z,34.75,-118.72,9.4,-8.9,60,15,26,10.0,30.121063,1017.2,,TRUE,TRUE,,,,,,,CLR,,,,,,,,VFR,1.3,,,,,,,,,,,METAR,1377.0
KTWF 291453Z 25012KT 10SM CLR 06/M02 A3026 RMK AO2 SLP235 T00561022 53017,KTWF,2017-04-29T14:53:00Z,42.48,-114.48,5.6,-2.2,250,12,,10.0,30.259842,1023.5,,,TRUE,,,,,,,CLR,,,,,,,,VFR,1.7,,,,,,,,,,,METAR,1266.0
KSWO 291453Z 34017G22KT 10SM OVC008 09/08 A2972 RMK AO2 LTG DSNT W-N SLP059 P0007 60050 T00940083 53008 $,KSWO,2017-04-29T14:53:00Z,36.17,-97.08,9.4,8.3,340,17,22,10.0,29.719488,1005.9,,,TRUE,TRUE,,,,,,OVC,800,,,,,,,IFR,0.8,,,,,0.07,0.5,,,,,METAR,290.0
KSPW 291453Z AUTO 05015KT 10SM CLR 06/01 A3023 RMK AO2 SLP247 T00560006 50018,KSPW,2017-04-29T14:53:00Z,43.17,-95.22,5.6,0.6,50,15,,10.0,30.230314,1024.7,,TRUE,TRUE,,,,,,,CLR,,,,,,,,VFR,1.8,,,,,,,,,,,METAR,403.0
KPUC 291453Z AUTO 07012G16KT 10SM CLR 05/M07 A3005 RMK AO2 SLP184 T00501067 51017,KPUC,2017-04-29T14:53:00Z,39.62,-110.75,5.0,-6.7,70,12,16,10.0,30.050198,1018.4,,TRUE,TRUE,,,,,,,CLR,,,,,,,,VFR,1.7,,,,,,,,,,,METAR,2091.0
KHLC 291453Z AUTO 02013G25KT 6SM BR OVC013 04/03 A3003 RMK AO2 PK WND 02026/1420 SLP181 60010 T00390028 55010 TSNO,KHLC,2017-04-29T14:53:00Z,39.37,-99.83,3.9,2.8,20,13,25,6.0,30.029528,1018.1,,TRUE,TRUE,,,TRUE,,,BR,OVC,1300,,,,,,,MVFR,-1.0,,,,,,0.1,,,,,METAR,669.0
KBIL 291453Z 22009KT 10SM FEW060 FEW200 04/01 A3026 RMK AO2 SLP264 T00390011 51009,KBIL,2017-04-29T14:53:00Z,45.8,-108.55,3.9,1.1,220,9,,10.0,30.259842,1026.4,,,TRUE,,,,,,,FEW,6000,FEW,20000,,,,,VFR,0.9,,,,,,,,,,,METAR,1091.0
PTYA 291453Z VRB02KT 12SM FEW016 SCT300 27/25 A2987 RMK SLP115 8/101 T02660249 403080252 58003,PTYA,2017-04-29T14:53:00Z,9.48,138.08,26.6,24.9,0,2,,12.0,29.870079,1011.5,,,,,,,,,,FEW,1600,SCT,30000,,,,,VFR,-0.3,,,30.8,25.2,,,,,,,METAR,17.0
KUNV 291453Z 00000KT 10SM SKC 18/15 A3004,KUNV,2017-04-29T14:53:00Z,40.85,-77.83,18.0,15.0,0,0,,10.0,30.041338,,,,,,,,,,,SKC,,,,,,,,VFR,,,,,,,,,,,,METAR,378.0
KGJT 291453Z 33008KT 10SM BKN075 OVC090 07/M04 A2998 RMK AO2 SLP138 T00671044 51021 $,KGJT,2017-04-29T14:53:00Z,39.12,-108.52,6.7,-4.4,330,8,,10.0,29.97933,1013.8,,,TRUE,TRUE,,,,,,BKN,7500,OVC,9000,,,,,VFR,2.1,,,,,,,,,,,METAR,1475.0
KDVT 291453Z 35010KT 10SM CLR 17/M08 A2992 RMK AO2 SLP118 T01721078 51023,KDVT,2017-04-29T14:53:00Z,33.68,-112.07,17.2,-7.8,350,10,,10.0,29.920275,1011.8,,,TRUE,,,,,,,CLR,,,,,,,,VFR,2.3,,,,,,,,,,,METAR,443.0
KDUJ 291453Z AUTO 27011G16KT 10SM OVC008 16/14 A3007 RMK AO2 CIG 007V011 SLP178 T01610139 51003,KDUJ,2017-04-29T14:53:00Z,41.17,-78.9,16.1,13.9,270,11,16,10.0,30.070866,1017.8,,TRUE,TRUE,,,,,,,OVC,800,,,,,,,IFR,0.3,,,,,,,,,,,METAR,554.0
KDTW 291453Z 07008KT 10SM OVC050 08/02 A3017 RMK AO2 SLP218 T00830017 53015,KDTW,2017-04-29T14:53:00Z,42.23,-83.33,8.3,1.7,70,8,,10.0,30.171259,1021.8,,,TRUE,,,,,,,OVC,5000,,,,,,,VFR,1.5,,,,,,,,,,,METAR,195.0
KGLD 291453Z AUTO 02022G29KT 1 1/4SM -SN BR BKN006 OVC009 00/00 A3003 RMK AO2 PK WND 02029/1452 SLP188 P0000 60007 T00000000 58001,KGLD,2017-04-29T14:53:00Z,39.37,-101.7,0.0,0.0,20,22,29,1.25,30.029528,1018.8,,TRUE,TRUE,,,,,,-SN BR,BKN,600,OVC,900,,,,,IFR,-0.1,,,,,0.005,0.07,,,,,METAR,1113.0
KGMU 291453Z 00000KT 10SM SCT010 26/21 A3020 RMK AO2 SLP216 T02610206 50003 $,KGMU,2017-04-29T14:53:00Z,34.85,-82.35,26.1,20.6,0,0,,10.0,30.200787,1021.6,,,TRUE,TRUE,,,,,,SCT,1000,,,,,,,VFR,0.3,,,,,,,,,,,METAR,315.0
KGLR 291453Z AUTO VRB05KT 10SM CLR 06/M04 A3022 RMK AO2 SLP244 T00561039 53010,KGLR,2017-04-29T14:53:00Z,45.02,-84.68,5.6,-3.9,0,5,,10.0,30.221457,1024.4,,TRUE,TRUE,,,,,,,CLR,,,,,,,,VFR,1.0,,,,,,,,,,,METAR,407.0
KNFW 291452Z 19023G33KT 6SM HZ BKN026 BKN032 OVC040 28/21 A2957 RMK AO2 PK WND 17033/1449 SLP999 T02780211 53010 $,KNFW,2017-04-29T14:52:00Z,32.78,-97.43,27.8,21.1,190,23,33,6.0,29.568897,999.9,,,TRUE,TRUE,,,,,HZ,BKN,2600,BKN,3200,OVC,4000,,,MVFR,1.0,,,,,,,,,,,SPECI,198.0
KFIT 291452Z AUTO 26010KT 10SM CLR 26/10 A2994 RMK AO2 SLP137 T02610100 55008,KFIT,2017-04-29T14:52:00Z,42.55,-71.75,26.1,10.0,260,10,,10.0,29.940945,1013.7,,TRUE,TRUE,,,,,,,CLR,,,,,,,,VFR,-0.8,,,,,,,,,,,METAR,103.0
MMCT 291452Z 17010G30KT 8SM BKN030 31/24 A2989 RMK 8/400 MSGTX MMMD,MMCT,2017-04-29T14:52:00Z,20.63,-88.45,31.0,24.0,170,10,30,8.0,29.890747,,,,,,,,,,,BKN,3000,,,,,,,MVFR,,,,,,,,,,,,METAR,28.0
KBML 291452Z AUTO 24008G21KT 190V290 10SM BKN065 22/05 A2988 RMK AO2 SLP118 T02170050 58008,KBML,2017-04-29T14:52:00Z,44.58,-71.18,21.7,5.0,240,8,21,10.0,29.878937,1011.8,,TRUE,TRUE,,,,,,,BKN,6500,,,,,,,VFR,-0.8,,,,,,,,,,,METAR,345.0
PATA 291452Z 00000KT 10SM SCT060 BKN100 01/M03 A3001 RMK AO2 SLP167 T00111033 51004 PNO $,PATA,2017-04-29T14:52:00Z,65.17,-152.1,1.1,-3.3,0,0,,10.0,30.008858,1016.7,,,TRUE,TRUE,,,,,,SCT,6000,BKN,10000,,,,,VFR,0.4,,,,,,,,,,,METAR,67.0
PALP 291452Z 05012KT 10SM SKC M17/M20 A3014,PALP,2017-04-29T14:52:00Z,70.33,-150.93,-17.0,-20.0,50,12,,10.0,30.138779,,,,,,,,,,,SKC,,,,,,,,VFR,,,,,,,,,,,,METAR,5.0
KN60 291452Z AUTO 23010KT 10/M04 A3027 RMK AO1 SLP264 T01001044 53014,KN60,2017-04-29T14:52:00Z,47.65,-101.43,10.0,-4.4,230,10,,,30.268702,1026.4,,TRUE,TRUE,,,,,,,,,,,,,,,,1.4,,,,,,,,,,,METAR,582.0
KVTN 291452Z AUTO 07010KT 10SM BKN100 OVC120 07/M08 A3026 RMK AO2 SLP259 T00721078 51016,KVTN,2017-04-29T14:52:00Z,42.87,-100.55,7.2,-7.8,70,10,,10.0,30.259842,1025.9,,TRUE,TRUE,,,,,,,BKN,10000,OVC,12000,,,,,VFR,1.6,,,,,,,,,,,METAR,788.0
KTRM 291452Z AUTO 30011KT 10SM CLR 22/M08 A3001 RMK AO2 SLP165 T02221083 51019,KTRM,2017-04-29T14:52:00Z,33.63,-116.17,22.2,-8.3,300,11,,10.0,30.008858,1016.5,,TRUE,TRUE,,,,,,,CLR,,,,,,,,VFR,1.9,,,,,,,,,,,METAR,-35.0
KTAN 291452Z AUTO 21009KT 10SM CLR 24/15 A2995 RMK AO2 SLP142 T02440150 56013,KTAN,2017-04-29T14:52:00Z,41.88,-71.02,24.4,15.0,210,9,,10.0,29.949802,1014.2,,TRUE,TRUE,,,,,,,CLR,,,,,,,,VFR,-1.3,,,,,,,,,,,METAR,7.0
KSUX 291452Z 05014G20KT 10SM CLR 07/M01 A3018 RMK AO2 SLP227 T00721006 50011,KSUX,2017-04-29T14:52:00Z,42.38,-96.38,7.2,-0.6,50,14,20,10.0,30.180119,1022.7,,,TRUE,,,,,,,CLR,,,,,,,,VFR,1.1,,,,,,,,,,,METAR,338.0
KRAP 291452Z 34005KT 10SM BKN110 06/M04 A3029 RMK AO2 SLP277 T00611044 51026,KRAP,2017-04-29T14:52:00Z,44.05,-103.05,6.1,-4.4,340,5,,10.0,30.28937,1027.7,,,TRUE,,,,,,,BKN,11000,,,,,,,VFR,2.6,,,,,,,,,,,METAR,965.0
KPYM 291452Z AUTO 20006KT 10SM CLR 23/14 A2996 RMK AO2 SLP144 T02330144 56014 TSNO,KPYM,2017-04-29T14:52:00Z,41.92,-70.73,23.3,14.4,200,6,,10.0,29.958662,1014.4,,TRUE,TRUE,,,TRUE,,,,CLR,,,,,,,,VFR,-1.4,,,,,,,,,,,METAR,43.0
KPWK 291452Z 04013G25KT 10SM CLR 07/03 A3016 RMK AO2 PK WND 01028/1356 SLP216 T00670028 58004,KPWK,2017-04-29T14:52:00Z,42.12,-87.9,6.7,2.8,40,13,25,10.0,30.159449,1021.6,,,TRUE,,,,,,,CLR,,,,,,,,VFR,-0.4,,,,,,,,,,,METAR,203.0
KORE 291452Z AUTO VRB05KT 10SM FEW085 23/11 A2994 RMK AO2 RAB42E51 SLP137 P0000 60000 T02330111 56015 TSNO,KORE,2017-04-29T14:52:00Z,42.57,-72.28,23.3,11.1,0,5,,10.0,29.940945,1013.7,,TRUE,TRUE,,,TRUE,,,,FEW,8500,,,,,,,VFR,-1.5,,,,,0.005,0.005,,,,,METAR,164.0
KOMA 291452Z 01013KT 10SM BKN075 OVC095 07/02 A3007 RMK AO2 SLP187 60000 T00720017 56016,KOMA,2017-04-29T14:52:00Z,41.32,-95.9,7.2,1.7,10,13,,10.0,30.070866,1018.7,,,TRUE,,,,,,,BKN,7500,OVC,9500,,,,,VFR,-1.6,,,,,,0.005,,,,,METAR,312.0
KOKB 291452Z AUTO 05012G18KT 10SM CLR 22/M06 A2994 RMK AO2 SLP137 T02221056 53022,KOKB,2017-04-29T14:52:00Z,33.22,-117.35,22.2,-5.6,50,12,18,10.0,29.940945,1013.7,,TRUE,TRUE,,,,,,,CLR,,,,,,,,VFR,2.2,,,,,,,,,,,METAR,8.0
KMWH 291452Z 11003KT 10SM CLR 07/02 A3024 RMK AO2 SLP243 T00720017 53003,KMWH,2017-04-29T14:52:00Z,47.2,-119.32,7.2,1.7,110,3,,10.0,30.239174,1024.3,,,TRUE,,,,,,,CLR,,,,,,,,VFR,0.3,,,,,,,,,,,METAR,362.0
KMLF 291452Z AUTO 02018KT 10SM SCT035 06/M01 A3012 RMK AO2 SLP192 T00561006 53022,KMLF,2017-04-29T14:52:00Z,38.42,-113.02,5.6,-0.6,20,18,,10.0,30.121063,1019.2,,TRUE,TRUE,,,,,,,SCT,3500,,,,,,,VFR,2.2,,,,,,,,,,,METAR,1534.0
KMKE 291452Z 03019G27KT 10SM FEW018 OVC200 06/00 A3022 RMK AO2 PK WND 03027/1451 SLP238 T00560000 50007,KMKE,2017-04-29T14:52:00Z,42.95,-87.9,5.6,0.0,30,19,27,10.0,30.221457,1023.8,,,TRUE,,,,,,,FEW,1800,OVC,20000,,,,,VFR,0.7,,,,,,,,,,,METAR,206.0
KMEB 291452Z AUTO 20009KT 10SM FEW023 28/22 A3022 RMK AO2 SLP229 T02780217 56004 TSNO,KMEB,2017-04-29T14:52:00Z,34.78,-79.37,27.8,21.7,200,9,,10.0,30.221457,1022.9,,TRUE,TRUE,,,TRUE,,,,FEW,2300,,,,,,,VFR,-0.4,,,,,,,,,,,METAR,67.0
KMBG 291452Z AUTO 00000KT 10SM CLR 09/M03 A3029 RMK AO2 SLP268 T00891033 51027,KMBG,2017-04-29T14:52:00Z,45.55,-100.42,8.9,-3.3,0,0,,10.0,30.28937,1026.8,,TRUE,TRUE,,,,,,,CLR,,,,,,,,VFR,2.7,,,,,,,,,,,METAR,510.0
KISN 291452Z AUTO 00000KT 10SM CLR 08/M02 A3025 RMK AO2 SLP253 T00831022 50010 $,KISN,2017-04-29T14:52:00Z,48.17,-103.63,8.3,-2.2,0,0,,10.0,30.250984,1025.3,,TRUE,TRUE,TRUE,,,,,,CLR,,,,,,,,VFR,1.0,,,,,,,,,,,METAR,579.0
KIOW 291452Z AUTO 05019G27KT 10SM SCT028 OVC110 09/03 A3008 RMK AO2 PK WND 04030/1405 SLP190 T00890033 58001,KIOW,2017-04-29T14:52:00Z,41.63,-91.55,8.9,3.3,50,19,27,10.0,30.079725,1019.0,,TRUE,TRUE,,,,,,,SCT,2800,OVC,11000,,,,,VFR,-0.1,,,,,,,,,,,METAR,198.0
KIJD 291452Z AUTO 24008KT 200V270 10SM SCT055 27/15 A2997 RMK AO2 SLP147 T02670150 55007,KIJD,2017-04-29T14:52:00Z,41.75,-72.18,26.7,15.0,240,8,,10.0,29.970472,1014.7,,TRUE,TRUE,,,,,,,SCT,5500,,,,,,,VFR,-0.7,,,,,,,,,,,METAR,75.0
KIEN 291452Z AUTO 23003KT 10SM OVC100 04/M02 A3028 RMK AO2 SLP273 T00391017 51020,KIEN,2017-04-29T14:52:00Z,43.03,-102.52,3.9,-1.7,230,3,,10.0,30.280512,1027.3,,TRUE,TRUE,,,,,,,OVC,10000,,,,,,,VFR,2.0,,,,,,,,,,,METAR,998.0
KIAD 291452Z COR 21004KT 10SM FEW050 BKN095 BKN160 BKN210 26/17 A3009 RMK AO2 RAB08E19 SLP188 CB DSNT NE P0000 60000 T02560167 50000,KIAD,2017-04-29T14:52:00Z,38.93,-77.45,25.6,16.7,210,4,,10.0,30.088583,1018.8,TRUE,,TRUE,,,,,,,FEW,5000,BKN,9500,BKN,16000,BKN,21000,VFR,0.0,,,,,0.005,,,,,,SPECI,93.0
KHRL 291452Z 16026G33KT 5SM HZ CLR 31/24 A2954 RMK AO2 PK WND 16034/1430 SLP003 T03060244 58001,KHRL,2017-04-29T14:52:00Z,26.23,-97.65,30.6,24.4,160,26,33,5.0,29.53937,1000.3,,,TRUE,,,,,,HZ,CLR,,,,,,,,MVFR,-0.1,,,,,,,,,,,METAR,10.0
KHIE 291452Z AUTO 27009G18KT 10SM BKN070 23/07 A2989 RMK AO2 SLP122 T02280072 58008,KHIE,2017-04-29T14:52:00Z,44.37,-71.55,22.8,7.2,270,9,18,10.0,29.890747,1012.2,,TRUE,TRUE,,,,,,,BKN,7000,,,,,,,VFR,-0.8,,,,,,,,,,,METAR,318.0
KGLS 291452Z 15021G28KT 3SM HZ BKN015 OVC020 28/24 A2970 RMK AO2 PK WND 14032/1411 SLP058 T02780244 51004,KGLS,2017-04-29T14:52:00Z,29.27,-94.87,27.8,24.4,150,21,28,3.0,29.698818,1005.8,,,TRUE,,,,,,HZ,BKN,1500,OVC,2000,,,,,MVFR,0.4,,,,,,,,,,,METAR,6.0
KDVN 291452Z AUTO 05021G28KT 10SM SCT028 08/02 A3004 RMK AO2 PK WND 05029/1354 SLP177 T00780022 58014,KDVN,2017-04-29T14:52:00Z,41.62,-90.58,7.8,2.2,50,21,28,10.0,30.041338,1017.7,,TRUE,TRUE,,,,,,,SCT,2800,,,,,,,VFR,-1.4,,,,,,,,,,,METAR,230.0
KDPA 291452Z 04023G31KT 10SM CLR 08/01 A3011 RMK AO2 PK WND 03031/1446 SLP199 T00780006 58010 $,KDPA,2017-04-29T14:52:00Z,41.92,-88.25,7.8,0.6,40,23,31,10.0,30.109253,1019.9,,,TRUE,TRUE,,,,,,CLR,,,,,,,,VFR,-1.0,,,,,,,,,,,METAR,231.0
KDCA 291452Z 25008KT 10SM SCT090 OVC250 27/17 A3010 RMK AO2 SLP194 T02720172 50009,KDCA,2017-04-29T14:52:00Z,38.85,-77.03,27.2,17.2,250,8,,10.0,30.100393,1019.4,,,TRUE,,,,,,,SCT,9000,OVC,25000,,,,,VFR,0.9,,,,,,,,,,,METAR,18.0
KCVG 291452Z 10004KT 7SM FEW045 BKN075 OVC110 17/17 A3009 RMK AO2 LTG DSNT N-E RAE46 TSE32 PRESFR SLP183 MOV E P0014 60158 T01670167 50008 $,KCVG,2017-04-29T14:52:00Z,39.05,-84.67,16.7,16.7,100,4,,7.0,30.088583,1018.3,,,TRUE,TRUE,,,,,,FEW,4500,BKN,7500,OVC,11000,,,VFR,0.8,,,,,0.14,1.58,,,,,METAR,269.0
KCQX 291452Z AUTO 21005KT 10SM BKN110 18/15 A2998 RMK AO2 SLP152 T01780150 58009,KCQX,2017-04-29T14:52:00Z,41.68,-70.0,17.8,15.0,210,5,,10.0,29.97933,1015.2,,TRUE,TRUE,,,,,,,BKN,11000,,,,,,,VFR,-0.9,,,,,,,,,,,METAR,19.0
KCKV 291452Z AUTO 19009KT 10SM FEW026 BKN032 26/19 A3000 RMK AO2 SLP154 T02610194 51017,KCKV,2017-04-29T14:52:00Z,36.62,-87.42,26.1,19.4,190,9,,10.0,30.0,1015.4,,TRUE,TRUE,,,,,,,FEW,2600,BKN,3200,,,,,VFR,1.7,,,,,,,,,,,METAR,165.0
KCID 291452Z 06016G29KT 10SM CLR 08/02 A3007 RMK AO2 PK WND 03028/1430 SLP186 T00780022 58006,KCID,2017-04-29T14:52:00Z,41.88,-91.72,7.8,2.2,60,16,29,10.0,30.070866,1018.6,,,TRUE,,,,,,,CLR,,,,,,,,VFR,-0.6,,,,,,,,,,,METAR,264.0
KBLU 291452Z AUTO 07010G21KT 010V120 10SM CLR 06/M10 A3016 RMK AO2 PK WND 06027/1403 SLP188 T00611100 53009 TSNO,KBLU,2017-04-29T14:52:00Z,39.28,-120.7,6.1,-10.0,70,10,21,10.0,30.159449,1018.8,,TRUE,TRUE,,,TRUE,,,,CLR,,,,,,,,VFR,0.9,,,,,,,,,,,METAR,1609.0
KBLH 291452Z AUTO 35017G23KT 10SM FEW002 21/M06 A3001 RMK AO2 SLP158 T02061061 52026,KBLH,2017-04-29T14:52:00Z,33.62,-114.72,20.6,-6.1,350,17,23,10.0,30.008858,1015.8,,TRUE,TRUE,,,,,,,FEW,200,,,,,,,VFR,2.6,,,,,,,,,,,METAR,119.0
KBLF 291452Z AUTO 19008KT 10SM CLR 24/13 A3023 RMK AO2 SLP200 T02390133 55001 TSNO,KBLF,2017-04-29T14:52:00Z,37.3,-81.2,23.9,13.3,190,8,,10.0,30.230314,1020.0,,TRUE,TRUE,,,TRUE,,,,CLR,,,,,,,,VFR,-0.1,,,,,,,,,,,METAR,873.0
KBIS 291452Z 00000KT 10SM CLR 06/M02 A3032 RMK AO2 SLP279 T00561017 53020,KBIS,2017-04-29T14:52:00Z,46.77,-100.75,5.6,-1.7,0,0,,10.0,30.318897,1027.9,,,TRUE,,,,,,,CLR,,,,,,,,VFR,2.0,,,,,,,,,,,METAR,505.0
KBDR 291452Z 22010KT 9SM CLR 21/16 A3001 RMK AO2 SLP161 T02060156 50015 $,KBDR,2017-04-29T14:52:00Z,41.17,-73.13,20.6,15.6,220,10,,9.0,30.008858,1016.1,,,TRUE,TRUE,,,,,,CLR,,,,,,,,VFR,1.5,,,,,,,,,,,METAR,7.0
KATL 291452Z 17008KT 10SM SCT055 SCT250 26/19 A3016 RMK AO2 SLP203 T02610194 50007,KATL,2017-04-29T14:52:00Z,33.63,-84.45,26.1,19.4,170,8,,10.0,30.159449,1020.3,,,TRUE,,,,,,,SCT,5500,SCT,25000,,,,,VFR,0.7,,,,,,,,,,,METAR,296.0
KARR 291452Z 05021G29KT 10SM BKN060 OVC150 08/01 A3010 RMK AO2 PK WND 03032/1413 SLP195 T00830006 58011,KARR,2017-04-29T14:52:00Z,41.77,-88.48,8.3,0.6,50,21,29,10.0,30.100393,1019.5,,,TRUE,,,,,,,BKN,6000,OVC,15000,,,,,VFR,-1.1,,,,,,,,,,,METAR,215.0
KABQ 291452Z 09016KT 10SM FEW012 SCT020 OVC050 02/01 A2990 RMK AO2 RAE1353SNB36E50 SLP117 VIS NE-SE 3 MTNS OBSC NE-SE P0000 60006 T00170006 53008,KABQ,2017-04-29T14:52:00Z,35.05,-106.62,1.7,0.6,90,16,,10.0,29.899607,1011.7,,,TRUE,,,,,,,FEW,1200,SCT,2000,OVC,5000,,,VFR,0.8,,,,,0.005,0.06,,,,,METAR,1618.0
KABI 291452Z AUTO 34017G27KT 9SM OVC008 10/10 A2970 RMK AO2 RAE12B38E49 SLP039 P0000 60000 T01000100 53036 TSNO $,KABI,2017-04-29T14:52:00Z,32.42,-99.68,10.0,10.0,340,17,27,9.0,29.698818,1003.9,,TRUE,TRUE,TRUE,,TRUE,,,,OVC,800,,,,,,,IFR,3.6,,,,,0.005,0.005,,,,,METAR,548.0
KNHK 291452Z 26014KT 10SM FEW100 OVC250 26/23 A3012 RMK AO2 SLP200 T02610228 51019 $,KNHK,2017-04-29T14:52:00Z,38.27,-76.4,26.1,22.8,260,14,,10.0,30.121063,1020.0,,,TRUE,TRUE,,,,,,FEW,10000,OVC,25000,,,,,VFR,1.9,,,,,,,,,,,METAR,12.0
KCDJ 291452Z AUTO 04013G20KT 09/08 A2995 RMK AO1 PRESFR SLP145 P0010 60017 T00890083 53003,KCDJ,2017-04-29T14:52:00Z,39.82,-93.58,8.9,8.3,40,13,20,,29.949802,1014.5,,TRUE,TRUE,,,,,,,,,,,,,,,,0.3,,,,,0.1,,,,,,SPECI,234.0
KNRB 291452Z AUTO 15015KT 10SM FEW013 25/23 A3020 RMK AO2 SLP227 T02500233 51016 $,KNRB,2017-04-29T14:52:00Z,30.38,-81.42,25.0,23.3,150,15,,10.0,30.200787,1022.7,,TRUE,TRUE,TRUE,,,,,,FEW,1300,,,,,,,VFR,1.6,,,,,,,,,,,METAR,5.0
KREO 291452Z AUTO 15005KT 06/M01 A3026 RMK AO1 SLP247 T00611011 53005,KREO,2017-04-29T14:52:00Z,42.58,-117.87,6.1,-1.1,150,5,,,30.259842,1024.7,,TRUE,TRUE,,,,,,,,,,,,,,,,0.5,,,,,,,,,,,SPECI,1235.0
KNZY 291452Z 00000KT 10SM CLR 14/09 A2994 RMK AO2 SLP138 T01390094 53023 $,KNZY,2017-04-29T14:52:00Z,32.7,-117.22,13.9,9.4,0,0,,10.0,29.940945,1013.8,,,TRUE,TRUE,,,,,,CLR,,,,,,,,VFR,2.3,,,,,,,,,,,METAR,8.0
KBAN 291452Z AUTO 00000KT 10SM M02/M09 A3025 RMK AO2 SLP248 T10171094 $,KBAN,2017-04-29T14:52:00Z,38.35,-119.52,-1.7,-9.4,0,0,,10.0,30.250984,1024.8,,TRUE,TRUE,TRUE,,,,,,,,,,,,,,,,,,,,,,,,,,METAR,2057.0
KCZZ 291452Z AUTO 05019G29KT 16/M10 A2996 RMK AO1 PK WND 05031/1419 SLP121 T01561100 52017,KCZZ,2017-04-29T14:52:00Z,32.63,-116.47,15.6,-10.0,50,19,29,,29.958662,1012.1,,TRUE,TRUE,,,,,,,,,,,,,,,,1.7,,,,,,,,,,,SPECI,807.0
KP69 291452Z AUTO 00000KT 04/01 A3035 RMK AO1 SLP291 T00390011 50001,KP69,2017-04-29T14:52:00Z,46.15,-115.6,3.9,1.1,0,0,,,30.351377,1029.1,,TRUE,TRUE,,,,,,,,,,,,,,,,0.1,,,,,,,,,,,SPECI,480.0
KEST 291452Z AUTO 05015KT 10SM CLR 04/01 A3023 RMK AO2 SLP249 T00440006 50016,KEST,2017-04-29T14:52:00Z,43.4,-94.75,4.4,0.6,50,15,,10.0,30.230314,1024.9,,TRUE,TRUE,,,,,,,CLR,,,,,,,,VFR,1.6,,,,,,,,,,,SPECI,401.0
KAQW 291452Z AUTO 26009G15KT 10SM FEW044 OVC070 22/11 A2996 RMK AO2 SLP144 T02220106 56003,KAQW,2017-04-29T14:52:00Z,42.7,-73.17,22.2,10.6,260,9,15,10.0,29.958662,1014.4,,TRUE,TRUE,,,,,,,FEW,4400,OVC,7000,,,,,VFR,-0.3,,,,,,,,,,,SPECI,199.0
KAFN 291452Z AUTO 21006KT 10SM CLR 23/11 A2995 RMK AO2 SLP143 T02280111 57015,KAFN,2017-04-29T14:52:00Z,42.8,-72.0,22.8,11.1,210,6,,10.0,29.949802,1014.3,,TRUE,TRUE,,,,,,,CLR,,,,,,,,VFR,-1.5,,,,,,,,,,,SPECI,313.0
PABA 291452Z AUTO 07013KT 9SM -SN CLR M16/M18 A3017 RMK AO2 SNB43 SLP201 P0000 60000 T11561178 58004 FZRANO TSNO,PABA,2017-04-29T14:52:00Z,70.13,-143.58,-15.6,-17.8,70,13,,9.0,30.171259,1020.1,,TRUE,TRUE,,,TRUE,TRUE,,-SN,CLR,,,,,,,,VFR,-0.4,,,,,0.005,,,,,,SPECI,2.0
KMDH 291452Z 12006KT 10SM CLR 19/18 A2994 RMK AO2 RAE1355 SLP137 P0008 60100 T01890183 50012,KMDH,2017-04-29T14:52:00Z,37.78,-89.25,18.9,18.3,120,6,,10.0,29.940945,1013.7,,,TRUE,,,,,,,CLR,,,,,,,,VFR,1.2,,,,,0.08,,,,,,SPECI,130.0
KHUT 291452Z 01017G25KT 5SM RA BR OVC007 06/05 A2979 RMK AO2 PK WND 02028/1421 TSB16E31 SLP085 P0013 60037 T00610050 58026,KHUT,2017-04-29T14:52:00Z,38.07,-97.87,6.1,5.0,10,17,25,5.0,29.790354,1008.5,,,TRUE,,,,,,RA BR,OVC,700,,,,,,,IFR,-2.6,,,,,0.13,,,,,,SPECI,467.0
OICS 291451Z 19006KT 8000 FEW035CB SCT040 BKN090 21/13 Q1015,OICS,2017-04-29T14:51:00Z,35.25,47.02,21.0,13.0,190,6,,4.97,29.970472,,,,,,,,,,,FEW,3500,SCT,4000,BKN,9000,,,MVFR,,,,,,,,,,,,METAR,1373.0
PAEC 291451Z 00000KT 10SM FEW010 SCT090 00/M01 A2998 RMK NOSPECI FIRST,PAEC,2017-04-29T14:51:00Z,62.88,-149.83,0.0,-1.0,0,0,,10.0,29.97933,,,,,,,,,,,FEW,1000,SCT,9000,,,,,VFR,,,,,,,,,,,,SPECI,381.0
MUHG 291451Z 08014KT 050V110 9000 BKN020 28/21 Q1018,MUHG,2017-04-29T14:51:00Z,20.77,-76.32,28.0,21.0,80,14,,5.59,30.059055,,,,,,,,,,,BKN,2000,,,,,,,MVFR,,,,,,,,,,,,METAR,106.0
KMWN 291451Z 27045G56KT 90SM BKN010 OVC150 06/04 RMK BINOVC,KMWN,2017-04-29T14:51:00Z,44.27,-71.3,6.0,4.0,270,45,56,90.0,,,,,,,,,,,,BKN,1000,OVC,15000,,,,,MVFR,,,,,,,,,,,,METAR,1910.0
PTKK 291451Z 06007KT 15SM SCT014 SCT120 BKN280 28/25 A2983 RMK SLP105 8/171 T02780248 57014,PTKK,2017-04-29T14:51:00Z,7.47,151.85,27.8,24.8,60,7,,15.0,29.828741,1010.5,,,,,,,,,,SCT,1400,SCT,12000,BKN,28000,,,VFR,-1.4,,,,,,,,,,,METAR,2.0
KBVE 291451Z AUTO 15015G24KT 8SM BKN015 OVC021 27/24 A2996 RMK AO2 SLP144 T02670239 50003,KBVE,2017-04-29T14:51:00Z,29.32,-89.4,26.7,23.9,150,15,24,8.0,29.958662,1014.4,,TRUE,TRUE,,,,,,,BKN,1500,OVC,2100,,,,,MVFR,0.3,,,,,,,,,,,METAR,1.0
KP59 291451Z AUTO 36008KT 04/M02 A3034 RMK AO1 SLP283 T00441022 50035,KP59,2017-04-29T14:51:00Z,47.47,-87.88,4.4,-2.2,360,8,,,30.339567,1028.3,,TRUE,TRUE,,,,,,,,,,,,,,,,3.5,,,,,,,,,,,METAR,190.0
KBDL 291451Z 21008KT 10SM SCT038 BKN200 26/12 A2996 RMK AO2 SLP142 T02560117 58004,KBDL,2017-04-29T14:51:00Z,41.93,-72.68,25.6,11.7,210,8,,10.0,29.958662,1014.2,,,TRUE,,,,,,,SCT,3800,BKN,20000,,,,,VFR,-0.4,,,,,,,,,,,METAR,60.0
KP58 291451Z AUTO 01015G22KT 06/01 A3023 RMK AO1 SLP242 T00560006 51024 $,KP58,2017-04-29T14:51:00Z,44.02,-82.8,5.6,0.6,10,15,22,,30.230314,1024.2,,TRUE,TRUE,TRUE,,,,,,,,,,,,,,,2.4,,,,,,,,,,,SPECI,179.0
KHDO 291451Z AUTO 15011KT 5SM HZ BKN021 OVC027 27/21 A2959 RMK AO2 SLP003 T02670211 51003,KHDO,2017-04-29T14:51:00Z,29.37,-99.17,26.7,21.1,150,11,,5.0,29.589567,1000.3,,TRUE,TRUE,,,,,,HZ,BKN,2100,OVC,2700,,,,,MVFR,0.3,,,,,,,,,,,SPECI,282.0
KEWR 291451Z 26017KT 10SM FEW024 FEW220 BKN250 26/18 A2998 RMK AO2 PRESFR SLP152 T02560178 50006 $,KEWR,2017-04-29T14:51:00Z,40.68,-74.17,25.6,17.8,260,17,,10.0,29.97933,1015.2,,,TRUE,TRUE,,,,,,FEW,2400,FEW,22000,BKN,25000,,,VFR,0.6,,,,,,,,,,,SPECI,7.0
KELP 291451Z 15010KT 10SM -RA FEW028 BKN040 OVC100 07/03 A2986 RMK AO2 PRESFR SLP064 P0009 60010 T00670028 50010,KELP,2017-04-29T14:51:00Z,31.82,-106.38,6.7,2.8,150,10,,10.0,29.861221,1006.4,,,TRUE,,,,,,-RA,FEW,2800,BKN,4000,OVC,10000,,,VFR,1.0,,,,,0.09,0.1,,,,,METAR,1197.0
KEKN 291451Z AUTO 17008KT 10SM CLR 22/16 A3016 RMK AO2 SLP203 60000 T02220156 58018 TSNO,KEKN,2017-04-29T14:51:00Z,38.88,-79.85,22.2,15.6,170,8,,10.0,30.159449,1020.3,,TRUE,TRUE,,,TRUE,,,,CLR,,,,,,,,VFR,-1.8,,,,,,,,,,,SPECI,603.0
KDAW 291451Z AUTO 19008KT 170V250 10SM FEW070 25/09 A2988 RMK AO2 SLP115 T02500089 58016,KDAW,2017-04-29T14:51:00Z,43.28,-70.92,25.0,8.9,190,8,,10.0,29.878937,1011.5,,TRUE,TRUE,,,,,,,FEW,7000,,,,,,,VFR,-1.6,,,,,,,,,,,SPECI,100.0
KCSG 291451Z 18008KT 10SM BKN055 BKN070 27/20 A3013 RMK AO2 SLP198 T02720200 51015,KCSG,2017-04-29T14:51:00Z,32.52,-84.95,27.2,20.0,180,8,,10.0,30.129921,1019.8,,,TRUE,,,,,,,BKN,5500,BKN,7000,,,,,VFR,1.5,,,,,,,,,,,METAR,135.0
KCRP 291451Z COR 16021G27KT 6SM HZ BKN016 BKN025 28/24 A2959 RMK AO2 PK WND 16030/1425 SLP020 T02780244 53009,KCRP,2017-04-29T14:51:00Z,27.77,-97.5,27.8,24.4,160,21,27,6.0,29.589567,1002.0,TRUE,,TRUE,,,,,,HZ,BKN,1600,BKN,2500,,,,,MVFR,0.9,,,,,,,,,,,METAR,14.0
KCON 291451Z AUTO 22007KT 190V260 10SM CLR 26/08 A2990 RMK AO2 SLP125 T02560083 56015,KCON,2017-04-29T14:51:00Z,43.2,-71.5,25.6,8.3,220,7,,10.0,29.899607,1012.5,,TRUE,TRUE,,,,,,,CLR,,,,,,,,VFR,-1.5,,,,,,,,,,,SPECI,103.0
KBKW 291451Z AUTO 00000KT 10SM CLR 25/16 A3020 RMK AO2 SLP191 T02500156 58002 TSNO,KBKW,2017-04-29T14:51:00Z,37.8,-81.12,25.0,15.6,0,0,,10.0,30.200787,1019.1,,TRUE,TRUE,,,TRUE,,,,CLR,,,,,,,,VFR,-0.2,,,,,,,,,,,SPECI,764.0
KBHK 291451Z AUTO 23008KT 10SM CLR 08/M01 A3029 RMK AO2 SLP267 T00831011 53017,KBHK,2017-04-29T14:51:00Z,46.35,-104.25,8.3,-1.1,230,8,,10.0,30.28937,1026.7,,TRUE,TRUE,,,,,,,CLR,,,,,,,,VFR,1.7,,,,,,,,,,,SPECI,902.0
KAVX 291451Z AUTO 09013G23KT 10SM CLR 18/M07 A3002 RMK AO2 PK WND 07027/1437 SLP148 T01831072 53021 TSNO $,KAVX,2017-04-29T14:51:00Z,33.4,-118.42,18.3,-7.2,90,13,23,10.0,30.02067,1014.8,,TRUE,TRUE,TRUE,,TRUE,,,,CLR,,,,,,,,VFR,2.1,,,,,,,,,,,SPECI,482.0
KALB 291451Z 29009KT 10SM SCT065 BKN080 OVC200 22/09 A2998 RMK AO2 SLP150 OCNL BINOVC T02220094 51009,KALB,2017-04-29T14:51:00Z,42.75,-73.8,22.2,9.4,290,9,,10.0,29.97933,1015.0,,,TRUE,,,,,,,SCT,6500,BKN,8000,OVC,20000,,,VFR,0.9,,,,,,,,,,,SPECI,92.0
KAHN 291451Z VRB03KT 10SM FEW045 SCT055 27/22 A3017 RMK AO2 SLP211 T02720217 50000,KAHN,2017-04-29T14:51:00Z,33.95,-83.33,27.2,21.7,0,3,,10.0,30.171259,1021.1,,,TRUE,,,,,,,FEW,4500,SCT,5500,,,,,VFR,0.0,,,,,,,,,,,METAR,244.0
KACT 291451Z 18021G28KT 6SM HZ SCT026 SCT032 OVC042 27/22 A2959 RMK AO2 PK WND 17031/1426 SLP010 T02670217 53004 $,KACT,2017-04-29T14:51:00Z,31.62,-97.23,26.7,21.7,180,21,28,6.0,29.589567,1001.0,,,TRUE,TRUE,,,,,HZ,SCT,2600,SCT,3200,OVC,4200,,,VFR,0.4,,,,,,,,,,,METAR,151.0
KABE 291451Z 32009KT 10SM CLR 23/17 A3002 RMK AO2 SLP162 T02330172 50005,KABE,2017-04-29T14:51:00Z,40.65,-75.45,23.3,17.2,320,9,,10.0,30.02067,1016.2,,,TRUE,,,,,,,CLR,,,,,,,,VFR,0.5,,,,,,,,,,,SPECI,114.0
KSAT 291451Z 15012G21KT 8SM SCT023 BKN032 BKN250 27/21 A2961 RMK AO2 PK WND 15026/1417 SLP007 T02670211 50003,KSAT,2017-04-29T14:51:00Z,29.53,-98.47,26.7,21.1,150,12,21,8.0,29.610237,1000.7,,,TRUE,,,,,,,SCT,2300,BKN,3200,BKN,25000,,,VFR,0.3,,,,,,,,,,,METAR,243.0
KSAN 291451Z 00000KT 10SM CLR 19/12 A2996 RMK AO2 SLP144 T01890122 53022,KSAN,2017-04-29T14:51:00Z,32.73,-117.18,18.9,12.2,0,0,,10.0,29.958662,1014.4,,,TRUE,,,,,,,CLR,,,,,,,,VFR,2.2,,,,,,,,,,,METAR,12.0
KRDU 291451Z 22008KT 10SM SCT023 27/21 A3021 RMK AO2 SLP223 T02720211 53002,KRDU,2017-04-29T14:51:00Z,35.9,-78.78,27.2,21.1,220,8,,10.0,30.209646,1022.3,,,TRUE,,,,,,,SCT,2300,,,,,,,VFR,0.2,,,,,,,,,,,SPECI,130.0
KPWM 291451Z 19008KT 10SM SCT110 SCT200 23/09 A2988 RMK AO2 SLP117 T02330094 58016,KPWM,2017-04-29T14:51:00Z,43.65,-70.3,23.3,9.4,190,8,,10.0,29.878937,1011.7,,,TRUE,,,,,,,SCT,11000,SCT,20000,,,,,VFR,-1.6,,,,,,,,,,,SPECI,15.0
KPVD 291451Z 17005KT 10SM FEW075 FEW095 SCT120 SCT250 BKN300 22/15 A2997 RMK AO2 SLP148 T02170150 56009 $,KPVD,2017-04-29T14:51:00Z,41.72,-71.43,21.7,15.0,170,5,,10.0,29.970472,1014.8,,,TRUE,TRUE,,,,,,FEW,7500,FEW,9500,SCT,12000,SCT,25000,VFR,-0.9,,,,,,,,,,,SPECI,16.0
KPIT 291451Z 28007KT 10SM FEW022 SCT070 OVC140 21/18 A3008 RMK AO2 SLP190 60001 T02060178 53005 $,KPIT,2017-04-29T14:51:00Z,40.5,-80.27,20.6,17.8,280,7,,10.0,30.079725,1019.0,,,TRUE,TRUE,,,,,,FEW,2200,SCT,7000,OVC,14000,,,VFR,0.5,,,,,,,,,,,SPECI,357.0
KPHX 291451Z 31008G16KT 10SM CLR 18/M07 A2991 RMK AO2 SLP116 T01781072 51023,KPHX,2017-04-29T14:51:00Z,33.43,-112.02,17.8,-7.2,310,8,16,10.0,29.911417,1011.6,,,TRUE,,,,,,,CLR,,,,,,,,VFR,2.3,,,,,,,,,,,SPECI,336.0
KOXR 291451Z 06016KT 10SM CLR 22/M06 A3001 RMK AO2 PK WND 06026/1429 SLP160 T02171061 53023,KOXR,2017-04-29T14:51:00Z,34.2,-119.2,21.7,-6.1,60,16,,10.0,30.008858,1016.0,,,TRUE,,,,,,,CLR,,,,,,,,VFR,2.3,,,,,,,,,,,SPECI,20.0
KORD 291451Z 03021G28KT 10SM FEW032 SCT055 OVC180 08/01 A3013 RMK AO2 PK WND 03029/1353 SLP206 T00780006 58009,KORD,2017-04-29T14:51:00Z,41.98,-87.93,7.8,0.6,30,21,28,10.0,30.129921,1020.6,,,TRUE,,,,,,,FEW,3200,SCT,5500,OVC,18000,,,VFR,-0.9,,,,,,,,,,,SPECI,200.0
KMYL 291451Z AUTO 00000KT 10SM CLR 02/M04 A3021 RMK AO2 SLP241 T00221044 51008 $,KMYL,2017-04-29T14:51:00Z,44.9,-116.1,2.2,-4.4,0,0,,10.0,30.209646,1024.1,,TRUE,TRUE,TRUE,,,,,,CLR,,,,,,,,VFR,0.8,,,,,,,,,,,SPECI,1533.0
KMPV 291451Z AUTO 28008KT 240V310 10SM OVC060 19/08 A2996 RMK AO2 SLP141 T01940083 50001,KMPV,2017-04-29T14:51:00Z,44.2,-72.57,19.4,8.3,280,8,,10.0,29.958662,1014.1,,TRUE,TRUE,,,,,,,OVC,6000,,,,,,,VFR,0.1,,,,,,,,,,,SPECI,343.0
KLGU 291451Z AUTO 35005KT 10SM CLR 05/M01 A3021 RMK AO2 SLP226 T00501006 51015 TSNO,KLGU,2017-04-29T14:51:00Z,41.78,-111.85,5.0,-0.6,350,5,,10.0,30.209646,1022.6,,TRUE,TRUE,,,TRUE,,,,CLR,,,,,,,,VFR,1.5,,,,,,,,,,,SPECI,1355.0
KLGA 291451Z 26010G17KT 10SM FEW035 FEW080 SCT150 BKN250 26/18 A2999 RMK AO2 PRESFR SLP154 T02610178 50007,KLGA,2017-04-29T14:51:00Z,40.78,-73.88,26.1,17.8,260,10,17,10.0,29.991142,1015.4,,,TRUE,,,,,,,FEW,3500,FEW,8000,SCT,15000,BKN,25000,VFR,0.7,,,,,,,,,,,SPECI,11.0
KJFK 291451Z 23009KT 10SM FEW010 SCT080 SCT150 BKN250 23/20 A3001 RMK AO2 SLP162 T02280200 50008 $,KJFK,2017-04-29T14:51:00Z,40.63,-73.77,22.8,20.0,230,9,,10.0,30.008858,1016.2,,,TRUE,TRUE,,,,,,FEW,1000,SCT,8000,SCT,15000,BKN,25000,VFR,0.8,,,,,,,,,,,METAR,9.0
KILG 291451Z 24015G19KT 10SM CLR 24/18 A3006 RMK AO2 SLP177 T02440183 50003,KILG,2017-04-29T14:51:00Z,39.67,-75.6,24.4,18.3,240,15,19,10.0,30.059055,1017.7,,,TRUE,,,,,,,CLR,,,,,,,,VFR,0.3,,,,,,,,,,,SPECI,28.0
KIGM 291451Z AUTO 04010KT 360V060 10SM CLR 11/ A3006 RMK AO2 SLP139 T0111 53017 $,KIGM,2017-04-29T14:51:00Z,35.25,-113.93,11.1,,40,10,,10.0,30.059055,1013.9,,TRUE,TRUE,TRUE,,,,,,CLR,,,,,,,,VFR,1.7,,,,,,,,,,,SPECI,1032.0
KHTS 291451Z VRB03KT 10SM CLR 23/18 A3010 RMK AO2 SLP184 T02280183 51013,KHTS,2017-04-29T14:51:00Z,38.37,-82.55,22.8,18.3,0,3,,10.0,30.100393,1018.4,,,TRUE,,,,,,,CLR,,,,,,,,VFR,1.3,,,,,,,,,,,SPECI,254.0
KHSE 291451Z AUTO 23009KT 3SM HZ FEW016 26/22 A3024 RMK AO2 SLP240 T02560217 51007 TSNO,KHSE,2017-04-29T14:51:00Z,35.23,-75.62,25.6,21.7,230,9,,3.0,30.239174,1024.0,,TRUE,TRUE,,,TRUE,,,HZ,FEW,1600,,,,,,,MVFR,0.7,,,,,,,,,,,SPECI,3.0
KYNG 291451Z 27003KT 2SM -RA BR BKN004 OVC016 14/13 A3012 RMK AO2 RAB31 SLP200 CIG RGD P0001 60002 T01390128 53016,KYNG,2017-04-29T14:51:00Z,41.25,-80.67,13.9,12.8,270,3,,2.0,30.121063,1020.0,,,TRUE,,,,,,-RA BR,BKN,400,OVC,1600,,,,,LIFR,1.6,,,,,0.01,,,,,,SPECI,360.0
KVNY 291451Z 02015G20KT 10SM CLR 20/M13 A3002 RMK AO2 PK WND 04026/1439 SLP157 T02001128 53021,KVNY,2017-04-29T14:51:00Z,34.22,-118.48,20.0,-12.8,20,15,20,10.0,30.02067,1015.7,,,TRUE,,,,,,,CLR,,,,,,,,VFR,2.1,,,,,,,,,,,SPECI,245.0
KVCT 291451Z 16022G31KT 6SM HZ OVC017 28/24 A2963 RMK AO2 PK WND 17031/1448 SLP033 T02830239 53005,KVCT,2017-04-29T14:51:00Z,28.87,-96.93,28.3,23.9,160,22,31,6.0,29.630905,1003.3,,,TRUE,,,,,,HZ,OVC,1700,,,,,,,MVFR,0.5,,,,,,,,,,,METAR,31.0
KTEB 291451Z 28009G19KT 10SM SCT090 26/18 A2998 RMK AO2 SLP153 T02610183 50009,KTEB,2017-04-29T14:51:00Z,40.87,-74.05,26.1,18.3,280,9,19,10.0,29.97933,1015.3,,,TRUE,,,,,,,SCT,9000,,,,,,,VFR,0.9,,,,,,,,,,,SPECI,7.0
KSMX 291451Z 00000KT 10SM CLR 12/06 A3006 RMK AO2 SLP183 T01220061 53017,KSMX,2017-04-29T14:51:00Z,34.9,-120.45,12.2,6.1,0,0,,10.0,30.059055,1018.3,,,TRUE,,,,,,,CLR,,,,,,,,VFR,1.7,,,,,,,,,,,SPECI,74.0
KSMO 291451Z 01007KT 330V030 10SM CLR 22/M11 A2998 RMK AO2 SLP151 T02171106 53019 $,KSMO,2017-04-29T14:51:00Z,34.02,-118.45,21.7,-10.6,10,7,,10.0,29.97933,1015.1,,,TRUE,TRUE,,,,,,CLR,,,,,,,,VFR,1.9,,,,,,,,,,,SPECI,57.0
KSLK 291451Z AUTO 25015G21KT 10SM FEW055 BKN095 OVC110 16/06 A2997 RMK AO2 SLP147 T01610056 53008 TSNO,KSLK,2017-04-29T14:51:00Z,44.4,-74.2,16.1,5.6,250,15,21,10.0,29.970472,1014.7,,TRUE,TRUE,,,TRUE,,,,FEW,5500,BKN,9500,OVC,11000,,,VFR,0.8,,,,,,,,,,,SPECI,498.0
KNYC 291451Z AUTO VRB04KT 9SM CLR 25/18 A3002 RMK AO2 PRESFR SLP155 T02500183 50008 $,KNYC,2017-04-29T14:51:00Z,40.78,-73.97,25.0,18.3,0,4,,9.0,30.02067,1015.5,,TRUE,TRUE,TRUE,,,,,,CLR,,,,,,,,VFR,0.8,,,,,,,,,,,SPECI,11.0
KSNT 291451Z AUTO 00000KT M03/M07 A3025 RMK AO1 SLP234 T10331072 51011,KSNT,2017-04-29T14:51:00Z,44.17,-114.93,-3.3,-7.2,0,0,,,30.250984,1023.4,,TRUE,TRUE,,,,,,,,,,,,,,,,1.1,,,,,,,,,,,SPECI,1980.0
KSAD 291451Z AUTO 30012KT 10SM CLR 12/M09 A2988 RMK AO2 SLP088 T01221094 51023 $,KSAD,2017-04-29T14:51:00Z,32.85,-109.63,12.2,-9.4,300,12,,10.0,29.878937,1008.8,,TRUE,TRUE,TRUE,,,,,,CLR,,,,,,,,VFR,2.3,,,,,,,,,,,SPECI,962.0
KTPL 291451Z AUTO 17020G28KT 10SM BKN025 OVC034 26/22 A2960 RMK AO2 PK WND 18035/1431 SLP025 T02610222 51004,KTPL,2017-04-29T14:51:00Z,31.13,-97.4,26.1,22.2,170,20,28,10.0,29.601377,1002.5,,TRUE,TRUE,,,,,,,BKN,2500,OVC,3400,,,,,MVFR,0.4,,,,,,,,,,,SPECI,208.0
KJAC 291451Z 08010KT 10SM CLR 01/M06 A3020,KJAC,2017-04-29T14:51:00Z,43.62,-110.73,1.0,-6.0,80,10,,10.0,30.200787,,,,,,,,,,,CLR,,,,,,,,VFR,,,,,,,,,,,,METAR,1961.0
KHXD 291450Z 16009KT 10SM SCT013 27/23 A3023,KHXD,2017-04-29T14:50:00Z,32.22,-80.7,27.0,23.0,160,9,,10.0,30.230314,,,,,,,,,,,SCT,1300,,,,,,,VFR,,,,,,,,,,,,METAR,6.0
EGYM 291450Z AUTO 16007KT 9999 OVC050/// 14/05 Q1014,EGYM,2017-04-29T14:50:00Z,52.63,0.57,14.0,5.0,160,7,,6.21,29.940945,,,TRUE,,,,,,,,OVC,5000,,,,,,,VFR,,,,,,,,,,,,METAR,23.0
EGYD 291450Z AUTO 18012KT 9999 // OVC044/// 12/02 Q1013,EGYD,2017-04-29T14:50:00Z,53.03,-0.5,12.0,2.0,180,12,,6.21,29.911417,,,TRUE,,,,,,,,OVC,4400,,,,,,,VFR,,,,,,,,,,,,METAR,67.0
EGXZ 291450Z AUTO 15009KT 9999 BKN050/// 12/05 Q1012,EGXZ,2017-04-29T14:50:00Z,54.2,-1.38,12.0,5.0,150,9,,6.21,29.88189,,,TRUE,,,,,,,,BKN,5000,,,,,,,VFR,,,,,,,,,,,,METAR,28.0
EGXU 291450Z AUTO 17009KT 9999 // OVC050/// 12/04 Q1012,EGXU,2017-04-29T14:50:00Z,54.05,-1.25,12.0,4.0,170,9,,6.21,29.88189,,,TRUE,,,,,,,,OVC,5000,,,,,,,VFR,,,,,,,,,,,,METAR,16.0
EGXT 291450Z AUTO 14007KT 9999 OVC043/// 13/04 Q1013,EGXT,2017-04-29T14:50:00Z,52.62,-0.47,13.0,4.0,140,7,,6.21,29.911417,,,TRUE,,,,,,,,OVC,4300,,,,,,,VFR,,,,,,,,,,,,METAR,84.0
EGXS 291450Z AUTO 12016KT 9999 // OVC046/// 11/06 Q1014,EGXS,2017-04-29T14:50:00Z,53.48,0.15,11.0,6.0,120,16,,6.21,29.940945,,,TRUE,,,,,,,,OVC,4600,,,,,,,VFR,,,,,,,,,,,,METAR,3.0
EGXP 291450Z AUTO 19012KT 9999 // OVC044/// 12/03 Q1013,EGXP,2017-04-29T14:50:00Z,53.3,-0.55,12.0,3.0,190,12,,6.21,29.911417,,,TRUE,,,,,,,,OVC,4400,,,,,,,VFR,,,,,,,,,,,,METAR,61.0
EGXE 291450Z AUTO 15009KT 9999 BKN050/// 12/04 Q1012,EGXE,2017-04-29T14:50:00Z,54.28,-1.52,12.0,4.0,150,9,,6.21,29.88189,,,TRUE,,,,,,,,BKN,5000,,,,,,,VFR,,,,,,,,,,,,METAR,40.0
EGVP 291450Z AUTO 15014KT 9999 // OVC049/// 13/03 Q1012,EGVP,2017-04-29T14:50:00Z,51.13,-1.57,13.0,3.0,150,14,,6.21,29.88189,,,TRUE,,,,,,,,OVC,4900,,,,,,,VFR,,,,,,,,,,,,METAR,91.0
EGVO 291450Z AUTO 17010KT 9999 BKN049/// 13/03 Q1013,EGVO,2017-04-29T14:50:00Z,51.23,-0.95,13.0,3.0,170,10,,6.21,29.911417,,,TRUE,,,,,,,,BKN,4900,,,,,,,VFR,,,,,,,,,,,,METAR,123.0
EGUW 291450Z AUTO 16011KT 9999 BKN050/// 13/05 Q1014,EGUW,2017-04-29T14:50:00Z,52.12,0.97,13.0,5.0,160,11,,6.21,29.940945,,,TRUE,,,,,,,,BKN,5000,,,,,,,VFR,,,,,,,,,,,,METAR,87.0
EGUB 291450Z AUTO 14009KT 9999 // BKN046/// 14/03 Q1012,EGUB,2017-04-29T14:50:00Z,51.62,-1.07,14.0,3.0,140,9,,6.21,29.88189,,,TRUE,,,,,,,,BKN,4600,,,,,,,VFR,,,,,,,,,,,,METAR,63.0
EGQK 291450Z AUTO 15013KT 9999 FEW044/// OVC050/// 12/03 Q1010,EGQK,2017-04-29T14:50:00Z,57.65,-3.57,12.0,3.0,150,13,,6.21,29.822834,,,TRUE,,,,,,,,FEW,4400,OVC,5000,,,,,VFR,,,,,,,,,,,,METAR,7.0
EGOV 291450Z AUTO 15015KT 9999 OVC050/// 12/05 Q1009,EGOV,2017-04-29T14:50:00Z,53.25,-4.53,12.0,5.0,150,15,,6.21,29.793306,,,TRUE,,,,,,,,OVC,5000,,,,,,,VFR,,,,,,,,,,,,METAR,11.0
EGOP 291450Z AUTO 14016KT 9999 // OVC050/// 13/05 Q1009,EGOP,2017-04-29T14:50:00Z,51.72,-4.32,13.0,5.0,140,16,,6.21,29.793306,,,TRUE,,,,,,,,OVC,5000,,,,,,,VFR,,,,,,,,,,,,METAR,6.0
EGOM 291450Z AUTO 15008KT 9999 OVC047/// 11/03 Q1010,EGOM,2017-04-29T14:50:00Z,55.05,-2.55,11.0,3.0,150,8,,6.21,29.822834,,,TRUE,,,,,,,,OVC,4700,,,,,,,VFR,,,,,,,,,,,,METAR,325.0
EGDY 291450Z AUTO 14013KT 9999 BKN048/// 14/03 Q1011,EGDY,2017-04-29T14:50:00Z,51.0,-2.62,14.0,3.0,140,13,,6.21,29.852362,,,TRUE,,,,,,,,BKN,4800,,,,,,,VFR,,,,,,,,,,,,METAR,23.0
EGDR 291450Z AUTO 13022KT 9999 // FEW023/// 12/06 Q1008,EGDR,2017-04-29T14:50:00Z,50.08,-5.25,12.0,6.0,130,22,,6.21,29.763779,,,TRUE,,,,,,,,FEW,2300,,,,,,,VFR,,,,,,,,,,,,METAR,82.0
ENNO 291450Z VRB03KT 9999 SCT065 10/M05 Q1022,ENNO,2017-04-29T14:50:00Z,59.57,9.22,10.0,-5.0,0,3,,6.21,30.177166,,,,,,,,,,,SCT,6500,,,,,,,VFR,,,,,,,,,,,,METAR,19.0
OIHH 291450Z 12017KT 9999 FEW035CB SCT040 15/08 Q1018,OIHH,2017-04-29T14:50:00Z,34.87,48.55,15.0,8.0,120,17,,6.21,30.059055,,,,,,,,,,,FEW,3500,SCT,4000,,,,,VFR,,,,,,,,,,,,METAR,1757.0
OICK 291450Z 13010KT 4000 DU NSC 25/05 Q1016,OICK,2017-04-29T14:50:00Z,33.43,48.28,25.0,5.0,130,10,,2.49,30.0,,,,,,,,,,DU,CLR,,,,,,,,IFR,,,,,,,,,,,,METAR,1155.0
KHME 291450Z AUTO 11014KT //// // ////// 22/M11 Q1020,KHME,2017-04-29T14:50:00Z,,,22.0,-11.0,110,14,,,30.11811,,,TRUE,,,,,,,,,,,,,,,,,,,,,,,,,,,,METAR,
LOXZ 291450Z 15004KT 30KM FEW050CU BKN070SC 08/M03 Q1017,LOXZ,2017-04-29T14:50:00Z,47.2,14.75,8.0,-3.0,150,4,,18.64,30.029528,,,,,,,,,,,FEW,5000,,,,,,,VFR,,,,,,,,,,,,METAR,682.0
LIMZ 291450Z 04004KT 360V100 CAVOK 16/00 Q1015,LIMZ,2017-04-29T14:50:00Z,44.53,7.62,16.0,0.0,40,4,,6.21,29.970472,,,,,,,,,,,CAVOK,,,,,,,,VFR,,,,,,,,,,,,METAR,380.0
LIMP 291450Z 05008KT 9999 FEW030 18/03 Q1016,LIMP,2017-04-29T14:50:00Z,44.82,10.3,18.0,3.0,50,8,,6.21,30.0,,,,,,,,,,,FEW,3000,,,,,,,VFR,,,,,,,,,,,,METAR,50.0
LIMG 291450Z 18007KT CAVOK 18/M01 Q1014,LIMG,2017-04-29T14:50:00Z,44.03,8.12,18.0,-1.0,180,7,,6.21,29.940945,,,,,,,,,,,CAVOK,,,,,,,,VFR,,,,,,,,,,,,METAR,49.0
LIMA 291450Z /////KT CAVOK 17/M01 Q1015,LIMA,2017-04-29T14:50:00Z,45.08,7.6,17.0,-1.0,,,,6.21,29.970472,,,,,,,,,,,CAVOK,,,,,,,,VFR,,,,,,,,,,,,METAR,287.0
LICR 291450Z 01018KT CAVOK 19/09 Q1009,LICR,2017-04-29T14:50:00Z,38.07,15.65,19.0,9.0,10,18,,6.21,29.793306,,,,,,,,,,,CAVOK,,,,,,,,VFR,,,,,,,,,,,,METAR,21.0
LICD 291450Z 34022G31KT CAVOK 18/13 Q1011,LICD,2017-04-29T14:50:00Z,35.5,12.62,18.0,13.0,340,22,31,6.21,29.852362,,,,,,,,,,,CAVOK,,,,,,,,VFR,,,,,,,,,,,,METAR,20.0
LICB 291450Z 01009KT 320V060 9999 SCT050 24/11 Q1007,LICB,2017-04-29T14:50:00Z,37.0,14.62,24.0,11.0,10,9,,6.21,29.734253,,,,,,,,,,,SCT,5000,,,,,,,VFR,,,,,,,,,,,,METAR,220.0
LICA 291450Z 26008KT 8000 SCT008 BKN035 17/15 Q1010,LICA,2017-04-29T14:50:00Z,38.88,16.25,17.0,15.0,260,8,,4.97,29.822834,,,,,,,,,,,SCT,800,BKN,3500,,,,,MVFR,,,,,,,,,,,,METAR,15.0
LIRZ 291450Z 02014KT 9999 FEW050 16/04 Q1014,LIRZ,2017-04-29T14:50:00Z,43.1,12.5,16.0,4.0,20,14,,6.21,29.940945,,,,,,,,,,,FEW,5000,,,,,,,VFR,,,,,,,,,,,,METAR,205.0
LIRI 291450Z 02014KT 9999 FEW030 20/09 Q1010,LIRI,2017-04-29T14:50:00Z,40.62,14.92,20.0,9.0,20,14,,6.21,29.822834,,,,,,,,,,,FEW,3000,,,,,,,VFR,,,,,,,,,,,,METAR,40.0
LIBP 291450Z 02008KT 9999 SCT020 SCT080 16/10 Q1015,LIBP,2017-04-29T14:50:00Z,42.42,14.18,16.0,10.0,20,8,,6.21,29.970472,,,,,,,,,,,SCT,2000,SCT,8000,,,,,VFR,,,,,,,,,,,,METAR,11.0
LIBG 291450Z 01020KT 9999 FEW010 16/10 Q1011,LIBG,2017-04-29T14:50:00Z,40.52,17.38,16.0,10.0,10,20,,6.21,29.852362,,,,,,,,,,,FEW,1000,,,,,,,VFR,,,,,,,,,,,,METAR,69.0
LIBF 291450Z 32017KT 9999 FEW030 17/08 Q1013,LIBF,2017-04-29T14:50:00Z,41.42,15.52,17.0,8.0,320,17,,6.21,29.911417,,,,,,,,,,,FEW,3000,,,,,,,VFR,,,,,,,,,,,,METAR,80.0
LIPY 291450Z 36008KT 330V030 9999 FEW030 15/07 Q1016,LIPY,2017-04-29T14:50:00Z,43.62,13.37,15.0,7.0,360,8,,6.21,30.0,,,,,,,,,,,FEW,3000,,,,,,,VFR,,,,,,,,,,,,METAR,10.0
LIPO 291450Z 17004KT CAVOK 18/M01 Q1015,LIPO,2017-04-29T14:50:00Z,45.42,10.33,18.0,-1.0,170,4,,6.21,29.970472,,,,,,,,,,,CAVOK,,,,,,,,VFR,,,,,,,,,,,,METAR,109.0
LIRU 291450Z VRB03KT CAVOK 22/05 Q1011,LIRU,2017-04-29T14:50:00Z,41.95,12.5,22.0,5.0,0,3,,6.21,29.852362,,,,,,,,,,,CAVOK,,,,,,,,VFR,,,,,,,,,,,,METAR,24.0
LIQN 291450Z 31010KT CAVOK 19/03 Q1010,LIQN,2017-04-29T14:50:00Z,42.42,12.83,19.0,3.0,310,10,,6.21,29.822834,,,,,,,,,,,CAVOK,,,,,,,,VFR,,,,,,,,,,,,METAR,389.0
EGOS 291450Z AUTO 17010KT 9999 BKN049/// 13/03 Q1011,EGOS,2017-04-29T14:50:00Z,52.8,-2.67,13.0,3.0,170,10,,6.21,29.852362,,,TRUE,,,,,,,,BKN,4900,,,,,,,VFR,,,,,,,,,,,,METAR,76.0
EGDM 291450Z AUTO 14013KT 9999 BKN038/// 14/04 Q1012,EGDM,2017-04-29T14:50:00Z,51.17,-1.75,14.0,4.0,140,13,,6.21,29.88189,,,TRUE,,,,,,,,BKN,3800,,,,,,,VFR,,,,,,,,,,,,METAR,124.0
OOSA 291450Z 18007KT 9999 FEW025 29/22 Q1011 NOSIG,OOSA,2017-04-29T14:50:00Z,17.02,54.07,29.0,22.0,180,7,,6.21,29.852362,,,,,,TRUE,,,,,FEW,2500,,,,,,,VFR,,,,,,,,,,,,METAR,20.0
OOMS 291450Z 06006KT 7000 NSC 31/25 Q1008 NOSIG,OOMS,2017-04-29T14:50:00Z,23.57,58.27,31.0,25.0,60,6,,4.35,29.763779,,,,,,TRUE,,,,,CLR,,,,,,,,MVFR,,,,,,,,,,,,METAR,8.0
LGHI 291450Z 18006KT 110V230 CAVOK 24/07 Q1011,LGHI,2017-04-29T14:50:00Z,38.32,26.12,24.0,7.0,180,6,,6.21,29.852362,,,,,,,,,,,CAVOK,,,,,,,,VFR,,,,,,,,,,,,METAR,4.0
KOLV 291450Z 17010G23KT 10SM BKN030 A2989,KOLV,2017-04-29T14:50:00Z,34.98,-89.78,,,170,10,23,10.0,29.890747,,,,,,,,,,,BKN,3000,,,,,,,MVFR,,,,,,,,,,,,METAR,122.0
LTFG 291450Z VRB02KT CAVOK 26/10 Q1012,LTFG,2017-04-29T14:50:00Z,36.3,32.3,26.0,10.0,0,2,,6.21,29.88189,,,,,,,,,,,CAVOK,,,,,,,,VFR,,,,,,,,,,,,METAR,95.0
LTFD 291450Z 25007KT CAVOK 27/03 Q1011,LTFD,2017-04-29T14:50:00Z,39.55,27.02,27.0,3.0,250,7,,6.21,29.852362,,,,,,,,,,,CAVOK,,,,,,,,VFR,,,,,,,,,,,,METAR,16.0
LTCU 291450Z 01006KT 9999 BKN035 14/08 Q1018,LTCU,2017-04-29T14:50:00Z,38.87,40.58,14.0,8.0,10,6,,6.21,30.059055,,,,,,,,,,,BKN,3500,,,,,,,VFR,,,,,,,,,,,,METAR,1061.0
LTCN 291450Z 24009KT 210V270 9999 SCT040 26/04 Q1012 NOSIG,LTCN,2017-04-29T14:50:00Z,37.53,36.95,26.0,4.0,240,9,,6.21,29.88189,,,,,,TRUE,,,,,SCT,4000,,,,,,,VFR,,,,,,,,,,,,METAR,526.0
LTCB 291450Z 09007KT CAVOK 16/09 Q1014,LTCB,2017-04-29T14:50:00Z,39.72,43.03,16.0,9.0,90,7,,6.21,29.940945,,,,,,,,,,,CAVOK,,,,,,,,VFR,,,,,,,,,,,,METAR,1632.0
LTBH 291450Z 22007KT CAVOK 22/10 Q1012,LTBH,2017-04-29T14:50:00Z,40.13,26.42,22.0,10.0,220,7,,6.21,29.88189,,,,,,,,,,,CAVOK,,,,,,,,VFR,,,,,,,,,,,,METAR,3.0
MUCU 291450Z 16005KT 9999 SCT020 29/19 Q1017,MUCU,2017-04-29T14:50:00Z,19.97,-75.83,29.0,19.0,160,5,,6.21,30.029528,,,,,,,,,,,SCT,2000,,,,,,,VFR,,,,,,,,,,,,METAR,76.0
MUCM 291450Z 10014KT 070V130 9000 BKN018 29/19 Q1019,MUCM,2017-04-29T14:50:00Z,21.42,-77.85,29.0,19.0,100,14,,5.59,30.088583,,,,,,,,,,,BKN,1800,,,,,,,MVFR,,,,,,,,,,,,METAR,122.0
MUCC 291450Z 09014KT 060V120 9000 SCT020 29/22 Q1019,MUCC,2017-04-29T14:50:00Z,22.47,-78.33,29.0,22.0,90,14,,5.59,30.088583,,,,,,,,,,,SCT,2000,,,,,,,VFR,,,,,,,,,,,,METAR,4.0
MUSC 291450Z 10011KT 070V150 9000 BKN020 29/19 Q1019,MUSC,2017-04-29T14:50:00Z,22.5,-79.95,29.0,19.0,100,11,,5.59,30.088583,,,,,,,,,,,BKN,2000,,,,,,,MVFR,,,,,,,,,,,,METAR,103.0
MUVR 291450Z 10011G21KT 070V140 9000 SCT020 30/19 Q1019,MUVR,2017-04-29T14:50:00Z,23.03,-81.43,30.0,19.0,100,11,21,5.59,30.088583,,,,,,,,,,,SCT,2000,,,,,,,VFR,,,,,,,,,,,,METAR,65.0
LTFH 291450Z 24007KT CAVOK 15/10 Q1014 NOSIG,LTFH,2017-04-29T14:50:00Z,41.27,36.55,15.0,10.0,240,7,,6.21,29.940945,,,,,,TRUE,,,,,CAVOK,,,,,,,,VFR,,,,,,,,,,,,METAR,5.0
LTDA 291450Z 20008KT CAVOK 28/15 Q1011,LTDA,2017-04-29T14:50:00Z,36.37,36.28,28.0,15.0,200,8,,6.21,29.852362,,,,,,,,,,,CAVOK,,,,,,,,VFR,,,,,,,,,,,,METAR,82.0
LTCF 291450Z 15014KT 9999 -TSRA FEW020CB BKN050 08/05 Q1019,LTCF,2017-04-29T14:50:00Z,40.57,43.12,8.0,5.0,150,14,,6.21,30.088583,,,,,,,,,,-TSRA,FEW,2000,BKN,5000,,,,,VFR,,,,,,,,,,,,METAR,1795.0
LTCD 291450Z 13009KT 9999 BKN045 15/05 Q1018 NOSIG,LTCD,2017-04-29T14:50:00Z,39.72,39.5,15.0,5.0,130,9,,6.21,30.059055,,,,,,TRUE,,,,,BKN,4500,,,,,,,VFR,,,,,,,,,,,,METAR,1215.0
LTCA 291450Z 21005KT 140V230 9999 TS FEW025CB BKN030 19/07 Q1017 TEMPO 30015G25KT -TSRA,LTCA,2017-04-29T14:50:00Z,38.6,39.27,19.0,7.0,210,5,,6.21,30.029528,,,,,,,,,,TS,FEW,2500,BKN,3000,,,,,MVFR,,,,,,,,,,,,SPECI,882.0
LTBY 291450Z 03004KT 350V080 CAVOK 25/01 Q1014,LTBY,2017-04-29T14:50:00Z,39.82,30.52,25.0,1.0,30,4,,6.21,29.940945,,,,,,,,,,,CAVOK,,,,,,,,VFR,,,,,,,,,,,,METAR,789.0
LTAY 291450Z 28011KT 9999 FEW040 25/02 Q1014,LTAY,2017-04-29T14:50:00Z,37.77,29.68,25.0,2.0,280,11,,6.21,29.940945,,,,,,,,,,,FEW,4000,,,,,,,VFR,,,,,,,,,,,,METAR,849.0
LTAR 291450Z 31006KT 9999 BKN040 18/M08 Q1018,LTAR,2017-04-29T14:50:00Z,39.8,36.9,18.0,-8.0,310,6,,6.21,30.059055,,,,,,,,,,,BKN,4000,,,,,,,VFR,,,,,,,,,,,,METAR,1271.0
LTBQ 291450Z 03009KT 360V060 CAVOK 26/08 Q1012 NOSIG,LTBQ,2017-04-29T14:50:00Z,40.72,30.07,26.0,8.0,30,9,,6.21,29.88189,,,,,,TRUE,,,,,CAVOK,,,,,,,,VFR,,,,,,,,,,,,METAR,50.0
LTBF 291450Z VRB02KT CAVOK 29/07 Q1011 NOSIG,LTBF,2017-04-29T14:50:00Z,39.62,27.92,29.0,7.0,0,2,,6.21,29.852362,,,,,,TRUE,,,,,CAVOK,,,,,,,,VFR,,,,,,,,,,,,METAR,102.0
LTAN 291450Z 08007KT 9999 FEW040 23/M00 Q1015 NOSIG,LTAN,2017-04-29T14:50:00Z,37.97,32.53,23.0,0.0,80,7,,6.21,29.970472,,,,,,TRUE,,,,,FEW,4000,,,,,,,VFR,,,,,,,,,,,,METAR,1006.0
KEFD 291450Z 15020G29KT 7SM BKN013 BKN025 28/24 A2970,KEFD,2017-04-29T14:50:00Z,29.6,-95.17,28.0,24.0,150,20,29,7.0,29.698818,,,,,,,,,,,BKN,1300,BKN,2500,,,,,MVFR,,,,,,,,,,,,METAR,10.0
KOXC 291450Z 26011G17KT 10SM SCT050 BKN150 24/14 A3000,KOXC,2017-04-29T14:50:00Z,41.47,-73.13,24.0,14.0,260,11,17,10.0,30.0,,,,,,,,,,,SCT,5000,BKN,15000,,,,,VFR,,,,,,,,,,,,METAR,222.0
BGKK 291450Z 08018KT 9999 FEW032 BKN055 03/M03 Q1004,BGKK,2017-04-29T14:50:00Z,65.57,-37.13,3.0,-3.0,80,18,,6.21,29.64567,,,,,,,,,,,FEW,3200,BKN,5500,,,,,VFR,,,,,,,,,,,,METAR,34.0
MSLU 291450Z 00000KT 9999 VCSH FEW033 FEW040CB 29/26 Q1011 A2986,MSLU,2017-04-29T14:50:00Z,13.33,-87.88,29.0,26.0,0,0,,6.21,29.852362,,,,,,,,,,VCSH,FEW,3300,FEW,4000,,,,,VFR,,,,,,,,,,,,METAR,5.0
MSSM 291450Z 15003KT 9999 BKN037 30/25 Q1011 A2988,MSSM,2017-04-29T14:50:00Z,13.43,-88.12,30.0,25.0,150,3,,6.21,29.852362,,,,,,,,,,,BKN,3700,,,,,,,VFR,,,,,,,,,,,,METAR,80.0
MSSA 291450Z 12003KT 9999 FEW040 28/18 Q1018 A3008,MSSA,2017-04-29T14:50:00Z,13.97,-89.57,28.0,18.0,120,3,,6.21,30.059055,,,,,,,,,,,FEW,4000,,,,,,,VFR,,,,,,,,,,,,METAR,725.0
MSAC 291450Z 24002KT 6000 NSC 31/23 Q1009 A2982,MSAC,2017-04-29T14:50:00Z,13.57,-89.83,31.0,23.0,240,2,,3.73,29.793306,,,,,,,,,,,CLR,,,,,,,,MVFR,,,,,,,,,,,,METAR,15.0
LCRA 291450Z 26006KT CAVOK 25/08 Q1011 NOSIG,LCRA,2017-04-29T14:50:00Z,34.57,32.97,25.0,8.0,260,6,,6.21,29.852362,,,,,,TRUE,,,,,CAVOK,,,,,,,,VFR,,,,,,,,,,,,METAR,23.0
LXGB 291450Z 05007KT 9999 FEW005 BKN060 16/15 Q1014 TEMPO -RA 6000 SCT012,LXGB,2017-04-29T14:50:00Z,36.13,-5.33,16.0,15.0,50,7,,6.21,29.940945,,,,,,,,,,,FEW,500,BKN,6000,,,,,VFR,,,,,,,,,,,,METAR,5.0
KFIN 291450Z 12012KT 10SM SCT022 28/22 A3019,KFIN,2017-04-29T14:50:00Z,29.47,-81.2,28.0,22.0,120,12,,10.0,30.188976,,,,,,,,,,,SCT,2200,,,,,,,VFR,,,,,,,,,,,,METAR,10.0
FHAW 291450Z 14016KT 9999 FEW020 SCT022 BKN300 29/21 Q1013 WHT,FHAW,2017-04-29T14:50:00Z,-7.97,-14.4,29.0,21.0,140,16,,6.21,29.911417,,,,,,,,,,,FEW,2000,SCT,2200,BKN,30000,,,VFR,,,,,,,,,,,,METAR,79.0
EGXW 291450Z 20013KT 9999 FEW044 BKN050 13/01 Q1013 BLU NOSIG,EGXW,2017-04-29T14:50:00Z,53.18,-0.52,13.0,1.0,200,13,,6.21,29.911417,,,,,,TRUE,,,,,FEW,4400,BKN,5000,,,,,VFR,,,,,,,,,,,,METAR,70.0
EGXV 291450Z AUTO 21011KT 9999 BKN046/// 13/02 Q1013,EGXV,2017-04-29T14:50:00Z,53.87,-0.45,13.0,2.0,210,11,,6.21,29.911417,,,TRUE,,,,,,,,BKN,4600,,,,,,,VFR,,,,,,,,,,,,METAR,6.0
EGXC 291450Z 18011KT 9999 FEW045 SCT050 14/03 Q1013 BLU,EGXC,2017-04-29T14:50:00Z,53.1,-0.17,14.0,3.0,180,11,,6.21,29.911417,,,,,,,,,,,FEW,4500,SCT,5000,,,,,VFR,,,,,,,,,,,,METAR,7.0
EGVN 291450Z 13010KT 9999 FEW032 BKN048 13/04 Q1012 BLU NOSIG,EGVN,2017-04-29T14:50:00Z,51.77,-1.58,13.0,4.0,130,10,,6.21,29.88189,,,,,,TRUE,,,,,FEW,3200,BKN,4800,,,,,VFR,,,,,,,,,,,,METAR,88.0
EGQS 291450Z 15017KT 9999 SCT042 BKN060 12/01 Q1010 BLU,EGQS,2017-04-29T14:50:00Z,57.72,-3.32,12.0,1.0,150,17,,6.21,29.822834,,,,,,,,,,,SCT,4200,BKN,6000,,,,,VFR,,,,,,,,,,,,METAR,13.0
EGQM 291450Z AUTO 13010KT 5000 HZ FEW004/// OVC050/// 09/08 Q1012,EGQM,2017-04-29T14:50:00Z,55.42,-1.6,9.0,8.0,130,10,,3.11,29.88189,,,TRUE,,,,,,,HZ,FEW,400,OVC,5000,,,,,MVFR,,,,,,,,,,,,METAR,23.0
EGQL 291450Z 15016KT CAVOK 12/05 Q1011 BLU,EGQL,2017-04-29T14:50:00Z,56.38,-2.87,12.0,5.0,150,16,,6.21,29.852362,,,,,,,,,,,CAVOK,,,,,,,,VFR,,,,,,,,,,,,METAR,12.0
EGDX 291450Z 12009KT 9999 FEW035 BKN050 12/06 Q1010 BLU,EGDX,2017-04-29T14:50:00Z,51.4,-3.43,12.0,6.0,120,9,,6.21,29.822834,,,,,,,,,,,FEW,3500,BKN,5000,,,,,VFR,,,,,,,,,,,,METAR,50.0
LSMM 291450Z AUTO 05010KT 010V080 9999NDV NCD 12/01 Q1015 RMK,LSMM,2017-04-29T14:50:00Z,46.75,8.12,12.0,1.0,50,10,,,29.970472,,,TRUE,,,,,,,,CLR,,,,,,,,,,,,,,,,,,,,METAR,577.0
LSME 291450Z AUTO 04006KT 350V080 9999NDV NCD 12/M00 Q1016 RMK,LSME,2017-04-29T14:50:00Z,47.1,8.3,12.0,0.0,40,6,,,30.0,,,TRUE,,,,,,,,CLR,,,,,,,,,,,,,,,,,,,,METAR,427.0
LSMD 291450Z AUTO 13005KT 080V190 9999NDV NCD 13/M03 Q1016 RMK,LSMD,2017-04-29T14:50:00Z,47.4,8.65,13.0,-3.0,130,5,,,30.0,,,TRUE,,,,,,,,CLR,,,,,,,,,,,,,,,,,,,,METAR,448.0
EGWU 291450Z 19010KT 9999 SCT038 BKN048 15/02 Q1013 NOSIG,EGWU,2017-04-29T14:50:00Z,51.55,-0.42,15.0,2.0,190,10,,6.21,29.911417,,,,,,TRUE,,,,,SCT,3800,BKN,4800,,,,,VFR,,,,,,,,,,,,METAR,40.0
LGKF 291450Z 10009KT 9999 FEW016 SCT025 BKN080 23/06 Q1009,LGKF,2017-04-29T14:50:00Z,38.12,20.5,23.0,6.0,100,9,,6.21,29.793306,,,,,,,,,,,FEW,1600,SCT,2500,BKN,8000,,,VFR,,,,,,,,,,,,METAR,18.0
LIPB 291450Z VRB03KT 9999 FEW070 20/M05 Q1013,LIPB,2017-04-29T14:50:00Z,46.47,11.32,20.0,-5.0,0,3,,6.21,29.911417,,,,,,,,,,,FEW,7000,,,,,,,VFR,,,,,,,,,,,,METAR,241.0
EDVE 291450Z 33007KT CAVOK 11/M01 Q1018,EDVE,2017-04-29T14:50:00Z,52.32,10.55,11.0,-1.0,330,7,,6.21,30.059055,,,,,,,,,,,CAVOK,,,,,,,,VFR,,,,,,,,,,,,METAR,88.0
ENAT 291450Z AUTO 08009KT 9999 NCD 06/M07 Q1032 RMK WIND 700FT 06008KT,ENAT,2017-04-29T14:50:00Z,69.97,23.37,6.0,-7.0,80,9,,6.21,30.47244,,,TRUE,,,,,,,,CLR,,,,,,,,VFR,,,,,,,,,,,,METAR,3.0
ENGC 291450Z 19027KT 9999 VCSH FEW015TCU BKN030 06/03 Q1019 W06/S4,ENGC,2017-04-29T14:50:00Z,61.02,2.02,6.0,3.0,190,27,,6.21,30.088583,,,,,,,,,,VCSH,FEW,1500,BKN,3000,,,,,MVFR,,,,,,,,,,,,METAR,10.0
EETU 291450Z 13006KT 090V160 1800 DZ BR OVC002 05/05 Q1007,EETU,2017-04-29T14:50:00Z,58.32,26.68,5.0,5.0,130,6,,1.12,29.734253,,,,,,,,,,DZ BR,OVC,200,,,,,,,LIFR,,,,,,,,,,,,METAR,67.0
EEKE 291450Z 02016KT 6000 SNRA BKN007 OVC012 01/01 Q1008,EEKE,2017-04-29T14:50:00Z,58.23,22.52,1.0,1.0,20,16,,3.73,29.763779,,,,,,,,,,SN RA,BKN,700,OVC,1200,,,,,IFR,,,,,,,,,,,,METAR,4.0
ENSO 291450Z 13014KT CAVOK 11/M05 Q1021,ENSO,2017-04-29T14:50:00Z,59.78,5.33,11.0,-5.0,130,14,,6.21,30.147638,,,,,,,,,,,CAVOK,,,,,,,,VFR,,,,,,,,,,,,METAR,49.0
ENMS 291450Z 10006KT 9999 CAVOK 07/M08 Q1027 RMK WIND 412FT 12005KT 030V170,ENMS,2017-04-29T14:50:00Z,65.78,13.22,7.0,-8.0,100,6,,6.21,30.324802,,,,,,,,,,,CAVOK,,,,,,,,VFR,,,,,,,,,,,,METAR,70.0
LGKZ 291450Z 00000KT CAVOK 22/10 Q1012,LGKZ,2017-04-29T14:50:00Z,40.28,21.83,22.0,10.0,0,0,,6.21,29.88189,,,,,,,,,,,CAVOK,,,,,,,,VFR,,,,,,,,,,,,METAR,628.0
LGZA 291450Z 16012KT 9999 FEW020 SCT080 21/08 Q1009,LGZA,2017-04-29T14:50:00Z,37.75,20.87,21.0,8.0,160,12,,6.21,29.793306,,,,,,,,,,,FEW,2000,SCT,8000,,,,,VFR,,,,,,,,,,,,METAR,3.0
LGSK 291450Z 34004KT CAVOK 20/15 Q1011,LGSK,2017-04-29T14:50:00Z,39.18,23.5,20.0,15.0,340,4,,6.21,29.852362,,,,,,,,,,,CAVOK,,,,,,,,VFR,,,,,,,,,,,,METAR,15.0
ENSB 291450Z 25025KT 9999 FEW015 SCT025 00/M03 Q1020 RMK WIND 1400FT 23028G45KT,ENSB,2017-04-29T14:50:00Z,78.25,15.47,0.0,-3.0,250,25,,6.21,30.11811,,,,,,,,,,,FEW,1500,SCT,2500,,,,,VFR,,,,,,,,,,,,METAR,29.0
LGPA 291450Z 15006KT CAVOK 22/08 Q1012,LGPA,2017-04-29T14:50:00Z,37.0,25.13,22.0,8.0,150,6,,6.21,29.88189,,,,,,,,,,,CAVOK,,,,,,,,VFR,,,,,,,,,,,,METAR,36.0
LGNX 291450Z 18010KT CAVOK 23/13 Q1012,LGNX,2017-04-29T14:50:00Z,37.08,25.37,23.0,13.0,180,10,,6.21,29.88189,,,,,,,,,,,CAVOK,,,,,,,,VFR,,,,,,,,,,,,METAR,4.0
EGYP 291450Z 36018G29KT 9999 -RA FEW010 OVC050 07/05 Q0994 BLU TEMPO SCT010 GRN,EGYP,2017-04-29T14:50:00Z,-51.82,-58.45,7.0,5.0,360,18,29,6.21,29.350393,,,,,,,,,,-RA,FEW,1000,OVC,5000,,,,,VFR,,,,,,,,,,,,METAR,74.0
KHYI 291450Z 17017G23KT 7SM BKN025 BKN036 27/22 A2962,KHYI,2017-04-29T14:50:00Z,29.88,-97.87,27.0,22.0,170,17,23,7.0,29.619095,,,,,,,,,,,BKN,2500,BKN,3600,,,,,MVFR,,,,,,,,,,,,METAR,182.0
KHQZ 291450Z 16016G24KT 5SM BR OVC023 27/22 A2958,KHQZ,2017-04-29T14:50:00Z,32.75,-96.53,27.0,22.0,160,16,24,5.0,29.58071,,,,,,,,,,BR,OVC,2300,,,,,,,MVFR,,,,,,,,,,,,METAR,136.0
LSZL 291450Z AUTO 25006KT 9999NDV NCD 17/M03 Q1014 RMK,LSZL,2017-04-29T14:50:00Z,46.17,8.88,17.0,-3.0,250,6,,,29.940945,,,TRUE,,,,,,,,CLR,,,,,,,,,,,,,,,,,,,,METAR,600.0
BGBW 291450Z 31004KT 270V350 9999 BKN180 05/M10 Q0998,BGBW,2017-04-29T14:50:00Z,61.17,-45.42,5.0,-10.0,310,4,,6.21,29.468504,,,,,,,,,,,BKN,18000,,,,,,,VFR,,,,,,,,,,,,METAR,26.0
OAMS 291450Z 25003KT 9999 FEW070 20/04 Q1024 BLU+BLU+,OAMS,2017-04-29T14:50:00Z,36.7,67.2,20.0,4.0,250,3,,6.21,30.236221,,,,,,,,,,,FEW,7000,,,,,,,VFR,,,,,,,,,,,,METAR,378.0
EEEI 291450Z 03019KT 1000 +SNRA OVC005 00/00 Q1010 R06/690294 NOSIG,EEEI,2017-04-29T14:50:00Z,59.27,24.2,0.0,0.0,30,19,,0.62,29.822834,,,,,,TRUE,,,,+SN +RA,OVC,500,,,,,,,LIFR,,,,,,,,,,,,METAR,20.0
EGPN 291450Z 12013KT 9999 FEW032 11/06 Q1011,EGPN,2017-04-29T14:50:00Z,56.45,-3.02,11.0,6.0,120,13,,6.21,29.852362,,,,,,,,,,,FEW,3200,,,,,,,VFR,,,,,,,,,,,,METAR,4.0
EGNX 291450Z 15011KT 9999 BKN047 12/03 Q1013,EGNX,2017-04-29T14:50:00Z,52.82,-1.32,12.0,3.0,150,11,,6.21,29.911417,,,,,,,,,,,BKN,4700,,,,,,,VFR,,,,,,,,,,,,METAR,94.0
BGGH 291450Z 06021KT 9999 BKN150 M04/M09 Q0996,BGGH,2017-04-29T14:50:00Z,64.2,-51.68,-4.0,-9.0,60,21,,6.21,29.409449,,,,,,,,,,,BKN,15000,,,,,,,VFR,,,,,,,,,,,,METAR,70.0
BGJN 291450Z 04007KT 9999 FEW200 M07/M18 Q1005,BGJN,2017-04-29T14:50:00Z,69.25,-51.07,-7.0,-18.0,40,7,,6.21,29.675198,,,,,,,,,,,FEW,20000,,,,,,,VFR,,,,,,,,,,,,METAR,25.0
BGSF 291450Z AUTO VRB01KT 9999NDV NCD M05/M15 Q1003,BGSF,2017-04-29T14:50:00Z,67.0,-50.72,-5.0,-15.0,0,1,,,29.616142,,,TRUE,,,,,,,,CLR,,,,,,,,,,,,,,,,,,,,METAR,53.0
PTPN 291450Z 09008KT 15SM SCT018TCU BKN120 OVC300 28/25 A298,PTPN,2017-04-29T14:50:00Z,6.97,158.22,28.0,25.0,90,8,,15.0,,,,,,,,,,,,SCT,1800,BKN,12000,OVC,30000,,,VFR,,,,,,,,,,,,METAR,2.0
EKOD 291450Z 05007KT 020V090 9999 FEW021 SCT080 08/05 Q1019,EKOD,2017-04-29T14:50:00Z,55.47,10.32,8.0,5.0,50,7,,6.21,30.088583,,,,,,,,,,,FEW,2100,SCT,8000,,,,,VFR,,,,,,,,,,,,METAR,17.0
KHOB 291450Z 01019G25KT 10SM BKN017 OVC039 09/05 A2981,KHOB,2017-04-29T14:50:00Z,32.67,-103.22,9.0,5.0,10,19,25,10.0,29.811024,,,,,,,,,,,BKN,1700,OVC,3900,,,,,MVFR,,,,,,,,,,,,METAR,1115.0
LSMS 291450Z 22003KT 150V280 9999 FEW080 17/M08 Q1013 RMK BLU+,LSMS,2017-04-29T14:50:00Z,46.22,7.32,17.0,-8.0,220,3,,6.21,29.911417,,,,,,,,,,,FEW,8000,,,,,,,VFR,,,,,,,,,,,,METAR,481.0
LSMA 291450Z AUTO 05006KT 9999NDV NCD 12/01 Q1016 RMK,LSMA,2017-04-29T14:50:00Z,46.95,8.28,12.0,1.0,50,6,,,30.0,,,TRUE,,,,,,,,CLR,,,,,,,,,,,,,,,,,,,,METAR,444.0
MSSS 291450Z 18002KT 5000 HZ BKN047 26/22 Q1016 A3001,MSSS,2017-04-29T14:50:00Z,13.7,-89.12,26.0,22.0,180,2,,3.11,30.0,,,,,,,,,,HZ,BKN,4700,,,,,,,MVFR,,,,,,,,,,,,METAR,616.0
MSLP 291450Z 11004KT 030V160 8000 FEW072 33/21 Q1011 A2987 HZ NOSIG,MSLP,2017-04-29T14:50:00Z,13.43,-89.05,33.0,21.0,110,4,,4.97,29.852362,,,,,,TRUE,,,,HZ,FEW,7200,,,,,,,MVFR,,,,,,,,,,,,METAR,25.0
PTRO 291450Z 00000KT 15SM SCT016 BKN300 26/24 A2987 ,PTRO,2017-04-29T14:50:00Z,7.37,134.55,26.0,24.0,0,0,,15.0,29.870079,,,,,,,,,,,SCT,1600,BKN,30000,,,,,VFR,,,,,,,,,,,,METAR,54.0
KEKM 291450Z 04009KT 10SM SCT060 11/05 A3011,KEKM,2017-04-29T14:50:00Z,41.72,-86.0,11.0,5.0,40,9,,10.0,30.109253,,,,,,,,,,,SCT,6000,,,,,,,VFR,,,,,,,,,,,,METAR,237.0
KWDG 291450Z 01017G25KT 5SM -TSRA SCT010 BKN065CB OVC090 08/08 A2973 RMK OCNL LTGICCCCG OHD TS OHD MOV NE,KWDG,2017-04-29T14:50:00Z,36.37,-97.77,8.0,8.0,10,17,25,5.0,29.731298,,,,,,,,,,-TSRA,SCT,1000,BKN,6500,OVC,9000,,,MVFR,,,,,,,,,,,,SPECI,356.0
KOCF 291450Z 17008G14KT 10SM SCT031 28/19 A3017,KOCF,2017-04-29T14:50:00Z,29.17,-82.22,28.0,19.0,170,8,14,10.0,30.171259,,,,,,,,,,,SCT,3100,,,,,,,VFR,,,,,,,,,,,,METAR,27.0
KMTN 291450Z 23007G15KT 10SM SCT095 SCT110 BKN250 25/20 A3010,KMTN,2017-04-29T14:50:00Z,39.32,-76.42,25.0,20.0,230,7,15,10.0,30.100393,,,,,,,,,,,SCT,9500,SCT,11000,BKN,25000,,,VFR,,,,,,,,,,,,METAR,7.0
KEGE 291450Z 00000KT 10SM OVC110 M01/M08 A3006,KEGE,2017-04-29T14:50:00Z,39.63,-106.92,-1.0,-8.0,0,0,,10.0,30.059055,,,,,,,,,,,OVC,11000,,,,,,,VFR,,,,,,,,,,,,METAR,1993.0
KDAG 291450Z AUTO 05005KT 10SM CLR 16/M09 A3013 RMK AO2 SLP186 T01611089 53022,KDAG,2017-04-29T14:50:00Z,34.85,-116.78,16.1,-8.9,50,5,,10.0,30.129921,1018.6,,TRUE,TRUE,,,,,,,CLR,,,,,,,,VFR,2.2,,,,,,,,,,,SPECI,587.0
KVQQ 291450Z 15011G20KT 10SM BKN027 28/21 A3018,KVQQ,2017-04-29T14:50:00Z,30.22,-81.88,28.0,21.0,150,11,20,10.0,30.180119,,,,,,,,,,,BKN,2700,,,,,,,MVFR,,,,,,,,,,,,METAR,25.0
KTZR 291450Z 09003KT 5SM TSRA SCT004 BKN065 OVC095 17/17 A3007 RMK OCNL LTGCCCA TS ENE MOV ENE,KTZR,2017-04-29T14:50:00Z,39.9,-83.13,17.0,17.0,90,3,,5.0,30.070866,,,,,,,,,,TSRA,SCT,400,BKN,6500,OVC,9500,,,MVFR,,,,,,,,,,,,SPECI,276.0
KCWA 291450Z 04009KT 10SM SCT250 05/M03 A3028,KCWA,2017-04-29T14:50:00Z,44.78,-89.67,5.0,-3.0,40,9,,10.0,30.280512,,,,,,,,,,,SCT,25000,,,,,,,VFR,,,,,,,,,,,,METAR,389.0
LLSD 291450Z 33010KT CAVOK 22/16 Q1011,LLSD,2017-04-29T14:50:00Z,32.12,34.78,22.0,16.0,330,10,,6.21,29.852362,,,,,,,,,,,CAVOK,,,,,,,,VFR,,,,,,,,,,,,METAR,14.0
LLIB 291450Z 31010KT CAVOK 27/04 Q1011,LLIB,2017-04-29T14:50:00Z,32.98,35.57,27.0,4.0,310,10,,6.21,29.852362,,,,,,,,,,,CAVOK,,,,,,,,VFR,,,,,,,,,,,,METAR,282.0
LLHA 291450Z 32007KT CAVOK 21/16 Q1012,LLHA,2017-04-29T14:50:00Z,32.78,35.02,21.0,16.0,320,7,,6.21,29.88189,,,,,,,,,,,CAVOK,,,,,,,,VFR,,,,,,,,,,,,METAR,8.0
LLET 291450Z 02012KT CAVOK 34/M03 Q1008 RMK FEW120,LLET,2017-04-29T14:50:00Z,29.55,34.95,34.0,-3.0,20,12,,6.21,29.763779,,,,,,,,,,,CAVOK,,,,,,,,VFR,,,,,,,,,,,,METAR,13.0
KEMT 291450Z 16006KT 10SM CLR 20/M07 A3000,KEMT,2017-04-29T14:50:00Z,34.07,-118.02,20.0,-7.0,160,6,,10.0,30.0,,,,,,,,,,,CLR,,,,,,,,VFR,,,,,,,,,,,,METAR,90.0
KBCT 291450Z 13010G20KT 10SM SCT030 28/22 A3017,KBCT,2017-04-29T14:50:00Z,26.38,-80.1,28.0,22.0,130,10,20,10.0,30.171259,,,,,,,,,,,SCT,3000,,,,,,,VFR,,,,,,,,,,,,METAR,4.0
TJBQ 291450Z 11008G14KT 10SM SCT080 24/22 A3009,TJBQ,2017-04-29T14:50:00Z,18.5,-67.13,24.0,22.0,110,8,14,10.0,30.088583,,,,,,,,,,,SCT,8000,,,,,,,VFR,,,,,,,,,,,,METAR,72.0
HLLM 291450Z 31010KT 7000 BKN018 19/13 Q1013,HLLM,2017-04-29T14:50:00Z,32.9,13.28,19.0,13.0,310,10,,4.35,29.911417,,,,,,,,,,,BKN,1800,,,,,,,MVFR,,,,,,,,,,,,METAR,11.0
TJIG 291450Z 14010KT 10SM SCT030 BKN060 27/22 A3011,TJIG,2017-04-29T14:50:00Z,18.45,-66.1,27.0,22.0,140,10,,10.0,30.109253,,,,,,,,,,,SCT,3000,BKN,6000,,,,,VFR,,,,,,,,,,,,METAR,3.0
KNQA 291450Z 16008G18KT 10SM BKN028 OVC034 25/21 A2990,KNQA,2017-04-29T14:50:00Z,35.35,-89.87,25.0,21.0,160,8,18,10.0,29.899607,,,,,,,,,,,BKN,2800,OVC,3400,,,,,MVFR,,,,,,,,,,,,METAR,86.0
KBOW 291450Z 14013KT 10SM SCT034 28/19 A3015,KBOW,2017-04-29T14:50:00Z,27.93,-81.77,28.0,19.0,140,13,,10.0,30.15059,,,,,,,,,,,SCT,3400,,,,,,,VFR,,,,,,,,,,,,METAR,39.0
KOMN 291450Z 12010G15KT 7SM BKN018 28/22 A3019,KOMN,2017-04-29T14:50:00Z,29.3,-81.12,28.0,22.0,120,10,15,7.0,30.188976,,,,,,,,,,,BKN,1800,,,,,,,MVFR,,,,,,,,,,,,METAR,9.0
KGTR 291450Z 17016G22KT 10SM BKN022 OVC027 25/19 A2994,KGTR,2017-04-29T14:50:00Z,33.45,-88.57,25.0,19.0,170,16,22,10.0,29.940945,,,,,,,,,,,BKN,2200,OVC,2700,,,,,MVFR,,,,,,,,,,,,METAR,80.0
KGTU 291450Z 15013G22KT 9SM SCT024 BKN031 OVC037 27/20 A2961,KGTU,2017-04-29T14:50:00Z,30.68,-97.68,27.0,20.0,150,13,22,9.0,29.610237,,,,,,,,,,,SCT,2400,BKN,3100,OVC,3700,,,VFR,,,,,,,,,,,,METAR,240.0
KGPM 291450Z 17019G30KT 7SM BKN024 27/21 A2957,KGPM,2017-04-29T14:50:00Z,32.7,-97.05,27.0,21.0,170,19,30,7.0,29.568897,,,,,,,,,,,BKN,2400,,,,,,,MVFR,,,,,,,,,,,,METAR,180.0
KALN 291450Z 09007KT 4SM TSRA BR OVC005 14/13 A2998,KALN,2017-04-29T14:50:00Z,38.88,-90.03,14.0,13.0,90,7,,4.0,29.97933,,,,,,,,,,TSRA BR,OVC,500,,,,,,,IFR,,,,,,,,,,,,METAR,166.0
KLAL 291450Z 15016KT 10SM BKN026 29/20 A3016,KLAL,2017-04-29T14:50:00Z,27.97,-82.02,29.0,20.0,150,16,,10.0,30.159449,,,,,,,,,,,BKN,2600,,,,,,,MVFR,,,,,,,,,,,,METAR,43.0
OAKB 291450Z 01021G40KT 330V070 CAVOK 17/M16 Q1020 NOSIG RMK BLU BLU,OAKB,2017-04-29T14:50:00Z,34.55,69.22,17.0,-16.0,10,21,40,6.21,30.11811,,,,,,TRUE,,,,,CAVOK,,,,,,,,VFR,,,,,,,,,,,,SPECI,1791.0
KJQF 291450Z 21006KT 7SM BKN019 26/20 A3024,KJQF,2017-04-29T14:50:00Z,35.38,-80.72,26.0,20.0,210,6,,7.0,30.239174,,,,,,,,,,,BKN,1900,,,,,,,MVFR,,,,,,,,,,,,METAR,210.0
MMSD 291449Z 07008KT 10SM SKC 23/17 A2984 RMK SLP094 52018 900 ISOL SC/CI HZY,MMSD,2017-04-29T14:49:00Z,23.13,-109.7,23.0,17.0,70,8,,10.0,29.840551,1009.4,,,,,,,,,,SKC,,,,,,,,VFR,1.8,,,,,,,,,,,METAR,109.0
MMCE 291449Z 12021KT 5SM BKN300 31/24 A2975 RMK SLP071 52007 956 8/008 HZY,MMCE,2017-04-29T14:49:00Z,18.65,-91.8,31.0,24.0,120,21,,5.0,29.749016,1007.1,,,,,,,,,,BKN,30000,,,,,,,MVFR,0.7,,,,,,,,,,,METAR,2.0
MMPQ 291449Z 07005KT 3SM HZ BKN080 BKN200 29/25 A2964 RMK 8/038 MSGTX MMMD,MMPQ,2017-04-29T14:49:00Z,17.53,-91.98,29.0,25.0,70,5,,3.0,29.639763,,,,,,,,,,HZ,BKN,8000,BKN,20000,,,,,MVFR,,,,,,,,,,,,METAR,61.0
KCIC 291449Z 31008KT 40SM SKC 09/03 A3017,KCIC,2017-04-29T14:49:00Z,39.78,-121.83,9.0,3.0,310,8,,40.0,30.171259,,,,,,,,,,,SKC,,,,,,,,VFR,,,,,,,,,,,,METAR,73.0
KRYN 291449Z 30008KT 10SM CLR 14/M09 A2995,KRYN,2017-04-29T14:49:00Z,32.15,-111.17,14.0,-9.0,300,8,,10.0,29.949802,,,,,,,,,,,CLR,,,,,,,,VFR,,,,,,,,,,,,METAR,737.0
KSBD 291449Z 35012G19KT 10SM SKC 20/-09 A3005,KSBD,2017-04-29T14:49:00Z,34.08,-117.25,,,350,12,19,10.0,30.050198,,,,,,,,,,,SKC,,,,,,,,VFR,,,,,,,,,,,,METAR,353.0
MMVR 291448Z 21006KT 6SM SCT070 BKN250 27/19 A2966 RMK SLP032 52001 962 8/038 HZY,MMVR,2017-04-29T14:48:00Z,19.15,-96.18,27.0,19.0,210,6,,6.0,29.660433,1003.2,,,,,,,,,,SCT,7000,BKN,25000,,,,,VFR,0.1,,,,,,,,,,,METAR,16.0
MMMZ 291448Z 14004KT 14SM BKN028 25/18 A2988 RMK SLP106 52013 955 8/500 LWR CU 3QUAD,MMMZ,2017-04-29T14:48:00Z,23.17,-106.27,25.0,18.0,140,4,,14.0,29.878937,1010.6,,,,,,,,,,BKN,2800,,,,,,,MVFR,1.3,,,,,,,,,,,METAR,10.0
MMGL 291448Z 00000KT 10SM SKC 18/01 A3014 RMK SLP088 52020 904,MMGL,2017-04-29T14:48:00Z,20.52,-103.32,18.0,1.0,0,0,,10.0,30.138779,1008.8,,,,,,,,,,SKC,,,,,,,,VFR,2.0,,,,,,,,,,,SPECI,1528.0
MMEP 291448Z 00000KT 12SM SKC 18/05 A2998 RMK SLP155 51008 959,MMEP,2017-04-29T14:48:00Z,21.42,-104.85,18.0,5.0,0,0,,12.0,29.97933,1015.5,,,,,,,,,,SKC,,,,,,,,VFR,0.8,,,,,,,,,,,SPECI,922.0
KFDK 291448Z 23007KT 10SM CLR 24/20 A3010,KFDK,2017-04-29T14:48:00Z,39.42,-77.37,24.0,20.0,230,7,,10.0,30.100393,,,,,,,,,,,CLR,,,,,,,,VFR,,,,,,,,,,,,METAR,92.0
PAEL 291448Z 09010KT 25SM SCT010 BKN200 04/03 A3001 RMK SEA 0 SWELL 2 SW SPB E06012KT NOSPECI,PAEL,2017-04-29T14:48:00Z,58.2,-136.35,4.0,3.0,90,10,,25.0,30.008858,,,,,,,,,,,SCT,1000,BKN,20000,,,,,VFR,,,,,,,,,,,,SPECI,3.0
KIWA 291448Z 35012KT 30SM SKC 17/M07 A2992,KIWA,2017-04-29T14:48:00Z,33.3,-111.65,17.0,-7.0,350,12,,30.0,29.920275,,,,,,,,,,,SKC,,,,,,,,VFR,,,,,,,,,,,,METAR,412.0
KAEG 291448Z VRB03KTKT 10SM SCT070 BKN050 02/00 A2990,KAEG,2017-04-29T14:48:00Z,35.13,-106.8,2.0,0.0,,,,10.0,29.899607,,,,,,,,,,,SCT,7000,BKN,5000,,,,,VFR,,,,,,,,,,,,METAR,1779.0
KJDN 291448Z AUTO 00000KT 06/03 A3025 RMK AO1 SLP257 T00610028 50007,KJDN,2017-04-29T14:48:00Z,47.33,-106.95,6.1,2.8,0,0,,,30.250984,1025.7,,TRUE,TRUE,,,,,,,,,,,,,,,,0.7,,,,,,,,,,,METAR,801.0
KESN 291448Z 26010G15KT 10SM SCT0120 27/20 A3015,KESN,2017-04-29T14:48:00Z,38.8,-76.07,27.0,20.0,260,10,15,10.0,30.15059,,,,,,,,,,,,,,,,,,,,,,,,,,,,,,,SPECI,22.0
KASG 291448Z 17013G20KT 10SM BKN023 BKN029 OVC036 24/22 A2965,KASG,2017-04-29T14:48:00Z,36.17,-94.12,24.0,22.0,170,13,20,10.0,29.648623,,,,,,,,,,,BKN,2300,BKN,2900,OVC,3600,,,MVFR,,,,,,,,,,,,METAR,412.0
KSEE 291447Z 00000KT 10SM SKC 15/06 A2995,KSEE,2017-04-29T14:47:00Z,32.82,-116.97,15.0,6.0,0,0,,10.0,29.949802,,,,,,,,,,,SKC,,,,,,,,VFR,,,,,,,,,,,,METAR,117.0
KBVI 291447Z 00000KT 10SM BKN009 OVC015 17/15 A3010,KBVI,2017-04-29T14:47:00Z,40.77,-80.4,17.0,15.0,0,0,,10.0,30.100393,,,,,,,,,,,BKN,900,OVC,1500,,,,,IFR,,,,,,,,,,,,METAR,382.0
KFFZ 291447Z 33015KT 40SM SKC A2992,KFFZ,2017-04-29T14:47:00Z,33.47,-111.72,,,330,15,,40.0,29.920275,,,,,,,,,,,SKC,,,,,,,,VFR,,,,,,,,,,,,METAR,424.0
MMTO 291447Z 00000KT 3SM BR HZ BKN070 18/M01 A3035 RMK SLP064 52017 908 8/030 CI,MMTO,2017-04-29T14:47:00Z,19.35,-99.57,18.0,-1.0,0,0,,3.0,30.351377,1006.4,,,,,,,,,BR HZ,BKN,7000,,,,,,,MVFR,1.7,,,,,,,,,,,METAR,2576.0
MMPS 291447Z 18005KT 6SM SCT090 BKN200 27/21 A3000 RMK 8/031 HZY,MMPS,2017-04-29T14:47:00Z,15.87,-97.07,27.0,21.0,180,5,,6.0,30.0,,,,,,,,,,,SCT,9000,BKN,20000,,,,,VFR,,,,,,,,,,,,METAR,88.0
MMMX 291447Z 16010KT 6SM FEW100 BKN200 24/M02 A3023 NOSIG RMK SLP004 52002 910 8/038 HZY,MMMX,2017-04-29T14:47:00Z,19.42,-99.08,24.0,-2.0,160,10,,6.0,30.230314,1000.4,,,,,TRUE,,,,,FEW,10000,BKN,20000,,,,,VFR,0.2,,,,,,,,,,,METAR,2238.0
MMRX 291447Z 15010G20KT 5SM SCT015 28/22 A2954 RMK SLP004 52004 961 8/500 HZ FU BLDU,MMRX,2017-04-29T14:47:00Z,26.02,-98.22,28.0,22.0,150,10,20,5.0,29.53937,1000.4,,,,,,,,,,SCT,1500,,,,,,,MVFR,0.4,,,,,,,,,,,SPECI,39.0
KTOA 291447Z 00000KT 10SM SKC 20/M04 A2998,KTOA,2017-04-29T14:47:00Z,33.78,-118.32,20.0,-4.0,0,0,,10.0,29.97933,,,,,,,,,,,SKC,,,,,,,,VFR,,,,,,,,,,,,METAR,31.0
KHUM 291447Z 14017G25KT 5SM HZ BKN013 28/24 2991,KHUM,2017-04-29T14:47:00Z,29.57,-90.67,28.0,24.0,140,17,25,5.0,,,,,,,,,,,HZ,BKN,1300,,,,,,,MVFR,,,,,,,,,,,,METAR,3.0
MMMD 291447Z 12020KT 7SM SCT015 BKN300 31/22 A2983 RMK SLP102 52011 957 8/108 HZY,MMMD,2017-04-29T14:47:00Z,20.95,-89.65,31.0,22.0,120,20,,7.0,29.828741,1010.2,,,,,,,,,,SCT,1500,BKN,30000,,,,,VFR,1.1,,,,,,,,,,,METAR,10.0
KSQL 291447Z 28005KT 10SM SKC 18/01 A3012,KSQL,2017-04-29T14:47:00Z,37.52,-122.25,18.0,1.0,280,5,,10.0,30.121063,,,,,,,,,,,SKC,,,,,,,,VFR,,,,,,,,,,,,METAR,1.0
KSUA 291447Z 13016G25KT 7SM SCT025 29/22 A3019,KSUA,2017-04-29T14:47:00Z,27.18,-80.22,29.0,22.0,130,16,25,7.0,30.188976,,,,,,,,,,,SCT,2500,,,,,,,VFR,,,,,,,,,,,,METAR,6.0
KRYY 291447Z 17006KT 10SM BKN060 26/19 A3012,KRYY,2017-04-29T14:47:00Z,34.02,-84.6,26.0,19.0,170,6,,10.0,30.121063,,,,,,,,,,,BKN,6000,,,,,,,VFR,,,,,,,,,,,,METAR,317.0
KSUN 291447Z 32005KT 10SM FEW120 03/M07 A3024,KSUN,2017-04-29T14:47:00Z,43.5,-114.28,3.0,-7.0,320,5,,10.0,30.239174,,,,,,,,,,,FEW,12000,,,,,,,VFR,,,,,,,,,,,,METAR,1620.0
KPAO 291447Z 29008KT 10SM SKC 16/05 A3011,KPAO,2017-04-29T14:47:00Z,37.47,-122.12,16.0,5.0,290,8,,10.0,30.109253,,,,,,,,,,,SKC,,,,,,,,VFR,,,,,,,,,,,,METAR,2.0
KGYH 291447Z 24006KT 10SM SCT015 26/21 A3019,KGYH,2017-04-29T14:47:00Z,34.75,-82.38,26.0,21.0,240,6,,10.0,30.188976,,,,,,,,,,,SCT,1500,,,,,,,VFR,,,,,,,,,,,,METAR,292.0
KFWS 291447Z 17017G35KT 4SM HZ BKN027 BKN036 28/21 A2957,KFWS,2017-04-29T14:47:00Z,32.57,-97.3,28.0,21.0,170,17,35,4.0,29.568897,,,,,,,,,,HZ,BKN,2700,BKN,3600,,,,,MVFR,,,,,,,,,,,,METAR,208.0
KCQT 291447Z AUTO 00000KT 10SM CLR 21/M04 A2997 RMK AO2 SLP147 T02111039 53019,KCQT,2017-04-29T14:47:00Z,34.02,-118.28,21.1,-3.9,0,0,,10.0,29.970472,1014.7,,TRUE,TRUE,,,,,,,CLR,,,,,,,,VFR,1.9,,,,,,,,,,,METAR,56.0
KGEU 291447Z 31011KT 10SM SKC 18/M06 A2995,KGEU,2017-04-29T14:47:00Z,33.53,-112.3,18.0,-6.0,310,11,,10.0,29.949802,,,,,,,,,,,SKC,,,,,,,,VFR,,,,,,,,,,,,METAR,325.0
KADS 291447Z 17022G34KT 5SM HZ BKN022 27/21 A2956,KADS,2017-04-29T14:47:00Z,32.97,-96.82,27.0,21.0,170,22,34,5.0,29.56004,,,,,,,,,,HZ,BKN,2200,,,,,,,MVFR,,,,,,,,,,,,METAR,196.0
KPOC 291447Z 00000KT 10SM CLR 18/M08 A3002,KPOC,2017-04-29T14:47:00Z,34.1,-117.77,18.0,-8.0,0,0,,10.0,30.02067,,,,,,,,,,,CLR,,,,,,,,VFR,,,,,,,,,,,,METAR,308.0
KGYR 291447Z 33009KT 10SM SKC 17/M04 A2994,KGYR,2017-04-29T14:47:00Z,33.42,-112.37,17.0,-4.0,330,9,,10.0,29.940945,,,,,,,,,,,SKC,,,,,,,,VFR,,,,,,,,,,,,METAR,295.0
KCHD 291447Z 34008KT 10SM CLR 18/M06 A2991,KCHD,2017-04-29T14:47:00Z,33.27,-111.82,18.0,-6.0,340,8,,10.0,29.911417,,,,,,,,,,,CLR,,,,,,,,VFR,,,,,,,,,,,,METAR,379.0
KRHV 291447Z VRB05KT 10SM SKC 16/06 A3012,KRHV,2017-04-29T14:47:00Z,37.32,-121.82,16.0,6.0,0,5,,10.0,30.121063,,,,,,,,,,,SKC,,,,,,,,VFR,,,,,,,,,,,,METAR,41.0
MMTM 291446Z 10008KT 4SM BKN200 29/23 A2961 RMK SLP025 52011 973 8/008 HZY,MMTM,2017-04-29T14:46:00Z,22.27,-97.87,29.0,23.0,100,8,,4.0,29.610237,1002.5,,,,,,,,,,BKN,20000,,,,,,,MVFR,1.1,,,,,,,,,,,METAR,24.0
MMOX 291446Z 00000KT 8SM BKN200 21/12 A3018 RMK SLP077 52002 910 8/008 HZY ISOL AC,MMOX,2017-04-29T14:46:00Z,17.0,-96.72,21.0,12.0,0,0,,8.0,30.180119,1007.7,,,,,,,,,,BKN,20000,,,,,,,VFR,0.2,,,,,,,,,,,METAR,1528.0
MMCN 291446Z 14008KT 8SM FEW015 22/16 A2984 RMK SLP105 8/500 ISOL CI HZY,MMCN,2017-04-29T14:46:00Z,27.4,-109.83,22.0,16.0,140,8,,8.0,29.840551,1010.5,,,,,,,,,,FEW,1500,,,,,,,VFR,,,,,,,,,,,,METAR,43.0
MMZC 291446Z 21010G20KT 10SM SKC 18/M02 A3015,MMZC,2017-04-29T14:46:00Z,22.9,-102.68,18.0,-2.0,210,10,20,10.0,30.15059,,,,,,,,,,,SKC,,,,,,,,VFR,,,,,,,,,,,,METAR,2177.0
MMSP 291446Z 21014KT 10SM SKC 20/M08 A3008 RMK SLP019 52003 903,MMSP,2017-04-29T14:46:00Z,22.25,-100.93,20.0,-8.0,210,14,,10.0,30.079725,1001.9,,,,,,,,,,SKC,,,,,,,,VFR,0.3,,,,,,,,,,,SPECI,1903.0
MMLO 291446Z 00000KT 8SM SKC 21/M01 A3021 RMK SLP092 52015 906 HZY,MMLO,2017-04-29T14:46:00Z,21.0,-101.47,21.0,-1.0,0,0,,8.0,30.209646,1009.2,,,,,,,,,,SKC,,,,,,,,VFR,1.5,,,,,,,,,,,SPECI,1819.0
MMAS 291446Z 20008KT 10SM SKC 16/M04 A3018,MMAS,2017-04-29T14:46:00Z,21.7,-102.32,16.0,-4.0,200,8,,10.0,30.180119,,,,,,,,,,,SKC,,,,,,,,VFR,,,,,,,,,,,,METAR,1863.0
KMMU 291445Z 29014G21KT 10SM SCT120 26/17 A3001,KMMU,2017-04-29T14:45:00Z,40.78,-74.42,26.0,17.0,290,14,21,10.0,30.008858,,,,,,,,,,,SCT,12000,,,,,,,VFR,,,,,,,,,,,,METAR,57.0
LHBC 291445Z 00000KT 9999 -RA FEW020 OVC083 11/06 Q1016,LHBC,2017-04-29T14:45:00Z,46.68,21.17,11.0,6.0,0,0,,6.21,30.0,,,,,,,,,,-RA,FEW,2000,OVC,8300,,,,,VFR,,,,,,,,,,,,METAR,86.0
MMZH 291445Z 21003KT 5SM SCT020 BKN100 27/21 A2991 RMK SLP115 52012 916 8/530 HZY LWR SC NE,MMZH,2017-04-29T14:45:00Z,17.6,-101.47,27.0,21.0,210,3,,5.0,29.911417,1011.5,,,,,,,,,,SCT,2000,BKN,10000,,,,,MVFR,1.2,,,,,,,,,,,METAR,6.0
MMQT 291445Z 29010KT 7SM SCT250 20/00 A3019 RMK 8/001 HZY,MMQT,2017-04-29T14:45:00Z,20.62,-100.18,20.0,0.0,290,10,,7.0,30.188976,,,,,,,,,,,SCT,25000,,,,,,,VFR,,,,,,,,,,,,METAR,1919.0
MMPB 291445Z 16006KT 7SM SCT220 18/03 A3026 RMK 8/002 HZY,MMPB,2017-04-29T14:45:00Z,19.17,-98.37,18.0,3.0,160,6,,7.0,30.259842,,,,,,,,,,,SCT,22000,,,,,,,VFR,,,,,,,,,,,,METAR,2244.0
MMCB 291445Z 13002KT 4SM SCT220 25/05 A3007 RMK 8/005 HZY,MMCB,2017-04-29T14:45:00Z,18.83,-99.27,25.0,5.0,130,2,,4.0,30.070866,,,,,,,,,,,SCT,22000,,,,,,,MVFR,,,,,,,,,,,,METAR,1560.0
MMTC 291445Z 17012KT 10SM SCT200 28/01 A2982 RMK SLP977 52014 963 8/002,MMTC,2017-04-29T14:45:00Z,25.57,-103.4,28.0,1.0,170,12,,10.0,29.819881,997.7,,,,,,,,,,SCT,20000,,,,,,,VFR,1.4,,,,,,,,,,,SPECI,1124.0
MMLT 291445Z 00000KT 8SM FEW020 SCT100 22/16 A2981 RMK SLP095 8/530,MMLT,2017-04-29T14:45:00Z,26.02,-111.33,22.0,16.0,0,0,,8.0,29.811024,1009.5,,,,,,,,,,FEW,2000,SCT,10000,,,,,VFR,,,,,,,,,,,,METAR,15.0
MMHO 291445Z 00000KT 10SM SCT025 22/17 A2989 RMK SLP117 52025 940 8/500 ISOL AC HZY,MMHO,2017-04-29T14:45:00Z,29.08,-111.05,22.0,17.0,0,0,,10.0,29.890747,1011.7,,,,,,,,,,SCT,2500,,,,,,,VFR,2.5,,,,,,,,,,,METAR,184.0
KLJF 291445Z AUTO 08006KT 10SM CLR 07/M02 A3032 RMK AO2,KLJF,2017-04-29T14:45:00Z,45.1,-94.52,7.0,-2.0,80,6,,10.0,30.318897,,,TRUE,TRUE,,,,,,,CLR,,,,,,,,VFR,,,,,,,,,,,,METAR,348.0
KSWF 291445Z 26012G22KT 15SM SCT040 BKN120 22/17 A3002,KSWF,2017-04-29T14:45:00Z,41.5,-74.08,22.0,17.0,260,12,22,15.0,30.02067,,,,,,,,,,,SCT,4000,BKN,12000,,,,,VFR,,,,,,,,,,,,METAR,150.0
MMUN 291445Z 11016KT 6SM BKN015TCU BKN300 30/25 A2996 RMK SLP142 52007 913 8/208 HZY,MMUN,2017-04-29T14:45:00Z,21.02,-86.85,30.0,25.0,110,16,,6.0,29.958662,1014.2,,,,,,,,,,BKN,1500,BKN,30000,,,,,MVFR,0.7,,,,,,,,,,,METAR,10.0
KBJC 291445Z 35010KT 3/4SM -SN OVC005 M01/M02 A3016,KBJC,2017-04-29T14:45:00Z,39.9,-105.1,-1.0,-2.0,350,10,,0.75,30.159449,,,,,,,,,,-SN,OVC,500,,,,,,,LIFR,,,,,,,,,,,,METAR,1724.0
KTRK 291445Z 00000KT 10SM SKC M01/M07 A3026 RMK NOSPECI,KTRK,2017-04-29T14:45:00Z,39.32,-120.12,-1.0,-7.0,0,0,,10.0,30.259842,,,,,,,,,,,SKC,,,,,,,,VFR,,,,,,,,,,,,METAR,1798.0
KCGF 291445Z 03006KT 1 1/2SM BR VV003 09/08 A3015,KCGF,2017-04-29T14:45:00Z,41.57,-81.47,9.0,8.0,30,6,,1.5,30.15059,,,,,,,,,,BR,OVX,0,,,,,,,LIFR,,,,,,,,,,,300,METAR,268.0
KLBE 291445Z 28008KT 10SM OVC150 21/17 A3009,KLBE,2017-04-29T14:45:00Z,40.27,-79.4,21.0,17.0,280,8,,10.0,30.088583,,,,,,,,,,,OVC,15000,,,,,,,VFR,,,,,,,,,,,,METAR,361.0
KCWF 291445Z 15022G31KT 7SM OVC015 20/17 A2978,KCWF,2017-04-29T14:45:00Z,30.22,-93.15,20.0,17.0,150,22,31,7.0,29.778543,,,,,,,,,,,OVC,1500,,,,,,,MVFR,,,,,,,,,,,,METAR,4.0
KATW 291445Z 05014G20KT 10SM SCT050 BKN120 05/M05 A3025,KATW,2017-04-29T14:45:00Z,44.27,-88.52,5.0,-5.0,50,14,20,10.0,30.250984,,,,,,,,,,,SCT,5000,BKN,12000,,,,,VFR,,,,,,,,,,,,METAR,280.0
KJVL 291445Z 05013G21KT 10SM SKC 09/02 A3016,KJVL,2017-04-29T14:45:00Z,42.62,-89.05,9.0,2.0,50,13,21,10.0,30.159449,,,,,,,,,,,SKC,,,,,,,,VFR,,,,,,,,,,,,METAR,246.0
KMYR 291445Z 19007KT 10SM FEW014 SCT025 27/23 A3025,KMYR,2017-04-29T14:45:00Z,33.67,-78.92,27.0,23.0,190,7,,10.0,30.250984,,,,,,,,,,,FEW,1400,SCT,2500,,,,,VFR,,,,,,,,,,,,METAR,8.0
KANE 291445Z 06009KT 10SM BKN250 07/M03 A3032,KANE,2017-04-29T14:45:00Z,45.15,-93.22,7.0,-3.0,60,9,,10.0,30.318897,,,,,,,,,,,BKN,25000,,,,,,,VFR,,,,,,,,,,,,METAR,278.0
KSAW 291445Z 03015G21KT 10SM SKC 03/M06 A3030,KSAW,2017-04-29T14:45:00Z,46.35,-87.4,3.0,-6.0,30,15,21,10.0,30.301182,,,,,,,,,,,SKC,,,,,,,,VFR,,,,,,,,,,,,METAR,372.0
KMWA 291445Z 12010KT 7SM SCT070 SCT100 OVC200 20/19 A2996,KMWA,2017-04-29T14:45:00Z,37.77,-89.02,20.0,19.0,120,10,,7.0,29.958662,,,,,,,,,,,SCT,7000,SCT,10000,OVC,20000,,,VFR,,,,,,,,,,,,METAR,144.0
KMHR 291445Z 35005KT 10SM SKC 12/02 A3009,KMHR,2017-04-29T14:45:00Z,38.53,-121.28,12.0,2.0,350,5,,10.0,30.088583,,,,,,,,,,,SKC,,,,,,,,VFR,,,,,,,,,,,,METAR,29.0
KMER 291445Z 00000KT 10SM SKC 12/MM A3009,KMER,2017-04-29T14:45:00Z,37.38,-120.57,12.0,,0,0,,10.0,30.088583,,,,,,,,,,,SKC,,,,,,,,VFR,,,,,,,,,,,,METAR,57.0
KGYY 291445Z 36015G30KT 10SM OVC030 08/03 A3013,KGYY,2017-04-29T14:45:00Z,41.62,-87.42,8.0,3.0,360,15,30,10.0,30.129921,,,,,,,,,,,OVC,3000,,,,,,,MVFR,,,,,,,,,,,,METAR,180.0
KMWC 291445Z 05015G22KT 10SM SKC 05/M03 A3023,KMWC,2017-04-29T14:45:00Z,43.12,-88.03,5.0,-3.0,50,15,22,10.0,30.230314,,,,,,,,,,,SKC,,,,,,,,VFR,,,,,,,,,,,,METAR,227.0
KBBG 291445Z 11009KT 1/8SM -RAFG OVC002 18/18 A2972 RMK LTG DSNT W-N,KBBG,2017-04-29T14:45:00Z,36.53,-93.2,18.0,18.0,110,9,,0.13,29.719488,,,,,,,,,,-RA FG,OVC,200,,,,,,,LIFR,,,,,,,,,,,,SPECI,397.0
KBAK 291445Z 19006KT 4SM -RABR BKN005 BKN014 OVC120 17/16 A3009,KBAK,2017-04-29T14:45:00Z,39.27,-85.9,17.0,16.0,190,6,,4.0,30.088583,,,,,,,,,,-RA BR,BKN,500,BKN,1400,OVC,12000,,,IFR,,,,,,,,,,,,METAR,200.0
MMNL 291444Z 16007KT 4SM BKN015 26/22 A2955 RMK SLP989 52006 961 8/500 HZY,MMNL,2017-04-29T14:44:00Z,27.42,-99.57,26.0,22.0,160,7,,4.0,29.551182,998.9,,,,,,,,,,BKN,1500,,,,,,,MVFR,0.6,,,,,,,,,,,SPECI,148.0
MMDO 291444Z 17005KT 14SM SKC 17/M07 A3008 RMK SLP052 52011 964,MMDO,2017-04-29T14:44:00Z,24.12,-104.52,17.0,-7.0,170,5,,14.0,30.079725,1005.2,,,,,,,,,,SKC,,,,,,,,VFR,1.1,,,,,,,,,,,METAR,1857.0
MMVA 291444Z 00000KT 5SM BKN120 31/24 A2976 RMK SLP080 52015 900 8/020 HZY,MMVA,2017-04-29T14:44:00Z,18.0,-92.82,31.0,24.0,0,0,,5.0,29.760826,1008.0,,,,,,,,,,BKN,12000,,,,,,,MVFR,1.5,,,,,,,,,,,METAR,13.0
MMBT 291443Z 27007KT 8SM SKC 27/18 A2995,MMBT,2017-04-29T14:43:00Z,15.77,-96.27,27.0,18.0,270,7,,8.0,29.949802,,,,,,,,,,,SKC,,,,,,,,VFR,,,,,,,,,,,,METAR,143.0
MMTJ 291443Z 09010KT 8SM SKC 21/M12 A2996 RMK SLP148 52021 940 HZY,MMTJ,2017-04-29T14:43:00Z,32.53,-116.97,21.0,-12.0,90,10,,8.0,29.958662,1014.8,,,,,,,,,,SKC,,,,,,,,VFR,2.1,,,,,,,,,,,METAR,152.0
MMCP 291443Z 09012G22KT 7SM BKN260 31/24 A2975 RMK SLP076 52003 902 8/001,MMCP,2017-04-29T14:43:00Z,19.82,-90.5,31.0,24.0,90,12,22,7.0,29.749016,1007.6,,,,,,,,,,BKN,26000,,,,,,,VFR,0.3,,,,,,,,,,,METAR,5.0
MMCM 291443Z 12013G25KT 7SM BKN015 30/25 A2989 RMK SLP120 5//// 920 8/600 HZY,MMCM,2017-04-29T14:43:00Z,18.5,-88.33,30.0,25.0,120,13,25,7.0,29.890747,1012.0,,,,,,,,,,BKN,1500,,,,,,,MVFR,,,,,,,,,,,,METAR,12.0
MMMA 291442Z 15010G20KT 5SM SCT015 30/25 A2985 RMK SLP017 52007 960 8/100 HZ,MMMA,2017-04-29T14:42:00Z,25.77,-97.52,30.0,25.0,150,10,20,5.0,29.84941,1001.7,,,,,,,,,,SCT,1500,,,,,,,MVFR,0.7,,,,,,,,,,,METAR,8.0
MMCS 291442Z 16006KT 6SM RA FEW010 OVC030 06/06 A2985 RMK SLP050 52024 941 60175 8/7// COND VRB,MMCS,2017-04-29T14:42:00Z,31.62,-106.42,6.0,6.0,160,6,,6.0,29.84941,1005.0,,,,,,,,,RA,FEW,1000,OVC,3000,,,,,MVFR,2.4,,,,,,,,,,,SPECI,1171.0
MMSL 291442Z 28013KT 9SM FEW025 SCT220 18/13 A2990 RMK 8/508,MMSL,2017-04-29T14:42:00Z,22.95,-109.93,18.0,13.0,280,13,,9.0,29.899607,,,,,,,,,,,FEW,2500,SCT,22000,,,,,VFR,,,,,,,,,,,,METAR,140.0
MMTP 291442Z 00000KT 8SM SKC 31/23 A2988 RMK SLP142 52013 915 HZY,MMTP,2017-04-29T14:42:00Z,14.77,-92.37,31.0,23.0,0,0,,8.0,29.878937,1014.2,,,,,,,,,,SKC,,,,,,,,VFR,1.3,,,,,,,,,,,METAR,29.0
MMAA 291441Z 17004KT 6SM BKN300 27/22 A2991 RMK SLP126 52017 917 8/008 HZY,MMAA,2017-04-29T14:41:00Z,16.75,-99.75,27.0,22.0,170,4,,6.0,29.911417,1012.6,,,,,,,,,,BKN,30000,,,,,,,VFR,1.7,,,,,,,,,,,METAR,5.0
MMLP 291441Z 19007KT 10SM BKN030 18/11 A2990 RMK SLP124 52012 952 8/500 HZY,MMLP,2017-04-29T14:41:00Z,24.07,-110.37,18.0,11.0,190,7,,10.0,29.899607,1012.4,,,,,,,,,,BKN,3000,,,,,,,MVFR,1.2,,,,,,,,,,,METAR,21.0
MMLM 291441Z 14012KT 8SM BKN020 22/17 A2983 RMK SLP102 8/500 OCNL DROPS,MMLM,2017-04-29T14:41:00Z,25.67,-109.07,22.0,17.0,140,12,,8.0,29.828741,1010.2,,,,,,,,,,BKN,2000,,,,,,,MVFR,,,,,,,,,,,,METAR,4.0
MMCL 291441Z 10008KT 10SM BKN015 24/17 A2986 RMK SLP111 52017 962 8/500,MMCL,2017-04-29T14:41:00Z,24.77,-107.47,24.0,17.0,100,8,,10.0,29.861221,1011.1,,,,,,,,,,BKN,1500,,,,,,,MVFR,1.7,,,,,,,,,,,METAR,39.0
MMPA 291440Z 18005KT 5SM BKN280 28/23 A2966 RMK SLP025 52015 975 8/008 HZY,MMPA,2017-04-29T14:40:00Z,20.5,-97.47,28.0,23.0,180,5,,5.0,29.660433,1002.5,,,,,,,,,,BKN,28000,,,,,,,MVFR,1.5,,,,,,,,,,,METAR,142.0
MMPG 291440Z 12006KT 4SM BKN015 26/22 A2957 RMK 8/500 HZ BR,MMPG,2017-04-29T14:40:00Z,28.65,-100.52,26.0,22.0,120,6,,4.0,29.568897,,,,,,,,,,,BKN,1500,,,,,,,MVFR,,,,,,,,,,,,SPECI,250.0
MMCV 291440Z 18008KT 10SM SKC 30/17 A2958 RMK SLP010 57003 970,MMCV,2017-04-29T14:40:00Z,23.72,-98.97,30.0,17.0,180,8,,10.0,29.58071,1001.0,,,,,,,,,,SKC,,,,,,,,VFR,-0.3,,,,,,,,,,,SPECI,238.0
MMCU 291440Z 22005KT 10SM OVC200 20/02 A2984 RMK SLP020 52020 953 8/002 BINOVC,MMCU,2017-04-29T14:40:00Z,28.7,-105.97,20.0,2.0,220,5,,10.0,29.840551,1002.0,,,,,,,,,,OVC,20000,,,,,,,VFR,2.0,,,,,,,,,,,SPECI,1372.0
MMML 291440Z 32011KT 10SM SKC 21/M10 A3000 RMK SLP159 5//// 946,MMML,2017-04-29T14:40:00Z,32.62,-115.23,21.0,-10.0,320,11,,10.0,30.0,1015.9,,,,,,,,,,SKC,,,,,,,,VFR,,,,,,,,,,,,METAR,22.0
MMGM 291440Z 00000KT 10SM FEW020 23/21 A2980 RMK 8/400 HZY,MMGM,2017-04-29T14:40:00Z,27.95,-110.92,23.0,21.0,0,0,,10.0,29.799213,,,,,,,,,,,FEW,2000,,,,,,,VFR,,,,,,,,,,,,METAR,20.0
MMZO 291440Z 00000KT 6SM BKN020 BKN250 23/19 A2990 RMK SLP/// 5//// 9// 8/505 HZ FU,MMZO,2017-04-29T14:40:00Z,19.13,-104.57,23.0,19.0,0,0,,6.0,29.899607,,,,,,,,,,,BKN,2000,BKN,25000,,,,,MVFR,,,,,,,,,,,,SPECI,8.0
MMPN 291440Z 00000KT 7SM BKN280 20/07 A3014 RMK SLP/// 5//// 9// 6//// 8/001 HZY FU,MMPN,2017-04-29T14:40:00Z,19.38,-102.02,20.0,7.0,0,0,,7.0,30.138779,,,,,,,,,,,BKN,28000,,,,,,,VFR,,,,,,,,,,,,SPECI,1593.0
MMIA 291440Z 00000KT 8SM SCT200 24/12 A3002 RMK SLP/// 5//// 9// 8/001,MMIA,2017-04-29T14:40:00Z,19.27,-103.57,24.0,12.0,0,0,,8.0,30.02067,,,,,,,,,,,SCT,20000,,,,,,,VFR,,,,,,,,,,,,SPECI,723.0
MMTG 291440Z 00000KT 6SM BKN300 28/16 A2990 RMK SLP087 50009 955 8/001 HZY LYR FU NW,MMTG,2017-04-29T14:40:00Z,16.57,-93.03,28.0,16.0,0,0,,6.0,29.899607,1008.7,,,,,,,,,,BKN,30000,,,,,,,VFR,0.9,,,,,,,,,,,METAR,528.0
MMIO 291440Z 00000KT 10SM SKC 30/11 A2990,MMIO,2017-04-29T14:40:00Z,25.55,-100.93,30.0,11.0,0,0,,10.0,29.899607,,,,,,,,,,,SKC,,,,,,,,VFR,,,,,,,,,,,,METAR,1790.0
VOGO 291430Z 33010G15KT 6000 FEW020 31/23 Q1009 NOSIG,VOGO,2017-04-29T14:30:00Z,15.38,73.83,31.0,23.0,330,10,15,3.73,29.793306,,,,,,TRUE,,,,,FEW,2000,,,,,,,MVFR,,,,,,,,,,,,METAR,52.0
VOGO 291430Z 33010G15KT 6000 FEW020 31/23 Q1009 NOSIG,VOGO,2017-04-29T14:30:00Z,15.38,73.83,31.0,23.0,330,10,15,3.73,29.793306,,,,,,TRUE,,,,,FEW,2000,,,,,,,MVFR,,,,,,,,,,,,METAR,52.0
UUOK 291430Z 17004MPS 110V210 CAVOK 24/04 Q1016 R30/CLRD65 NOSIG RMK QFE743/0991,UUOK,2017-04-29T14:30:00Z,51.75,36.28,24.0,4.0,170,8,,6.21,30.0,,,,,,TRUE,,,,,CAVOK,,,,,,,,VFR,,,,,,,,,,,,METAR,209.0
VIAG 291430Z 18010KT 6000 SCT025 FEWCB030 BKN090 33/11 Q1006 TEMPO 23015G25KT 2000 TSRA,VIAG,2017-04-29T14:30:00Z,27.13,77.97,33.0,11.0,180,10,,3.73,29.704725,,,,,,,,,,,SCT,2500,BKN,9000,,,,,MVFR,,,,,,,,,,,,METAR,169.0
