No errors
No warnings
263 ms
data source=metars
4811 results
raw_text,station_id,observation_time,latitude,longitude,temp_c,dewpoint_c,wind_dir_degrees,wind_speed_kt,wind_gust_kt,visibility_statute_mi,altim_in_hg,sea_level_pressure_mb,corrected,auto,auto_station,maintenance_indicator_on,no_signal,lightning_sensor_off,freezing_rain_sensor_off,present_weather_sensor_off,wx_string,sky_cover,cloud_base_ft_agl,sky_cover,cloud_base_ft_agl,sky_cover,cloud_base_ft_agl,sky_cover,cloud_base_ft_agl,flight_category,three_hr_pressure_tendency_mb,maxT_c,minT_c,maxT24hr_c,minT24hr_c,precip_in,pcp3hr_in,pcp6hr_in,pcp24hr_in,snow_in,vert_vis_ft,metar_type,elevation_m
EHKD 061525Z AUTO 03010KT 360V070 9999 NCD 14/10 Q1012 BLU 04010KT 9999 FEW016,EHKD,2017-05-06T15:25:00Z,52.92,4.77,14.0,10.0,30,10,,6.21,29.88189,,,TRUE,,,,,,,,FEW,1600,,,,,,,VFR,,,,,,,,,,,,METAR,14.0
KGEV 061525Z AUTO 31017G27KT 10SM BKN031 08/01 A2962 RMK AO2 T00750006,KGEV,2017-05-06T15:25:00Z,36.43,-81.42,7.5,0.6,310,17,27,10.0,29.619095,,,TRUE,TRUE,,,,,,,BKN,3100,,,,,,,VFR,,,,,,,,,,,,SPECI,969.0
KFBG 061524Z AUTO 28011G18KT 10SM -RA SCT019 BKN024 BKN049 14/11 A2960 RMK AO2 CIG 019V024 SLP026,KFBG,2017-05-06T15:24:00Z,35.12,-78.92,14.0,11.0,280,11,18,10.0,29.601377,1002.6,,TRUE,TRUE,,,,,,-RA,SCT,1900,BKN,2400,BKN,4900,,,MVFR,,,,,,,,,,,,SPECI,74.0
CYPD 061524Z AUTO 13015G27KT 6SM -RA BR OVC003 08/07 A3020 RMK SLP233,CYPD,2017-05-06T15:24:00Z,45.67,-61.37,8.0,7.0,130,15,27,6.0,30.200787,1023.3,,TRUE,,,,,,,-RA BR,OVC,300,,,,,,,LIFR,,,,,,,,,,,,SPECI,114.0
CYTR 061523Z 36004KT 10SM -DZ OVC009 11/10 A2930 RMK SF8 SLP926,CYTR,2017-05-06T15:23:00Z,44.12,-77.52,11.0,10.0,360,4,,10.0,29.300198,992.6,,,,,,,,,-DZ,OVC,900,,,,,,,IFR,,,,,,,,,,,,SPECI,86.0
KDUJ 061523Z AUTO 26009KT 3SM BR BKN007 BKN011 OVC018 06/04 A2939 RMK AO2 T00610044 $,KDUJ,2017-05-06T15:23:00Z,41.17,-78.9,6.1,4.4,260,9,,3.0,29.388779,,,TRUE,TRUE,TRUE,,,,,BR,BKN,700,BKN,1100,OVC,1800,,,IFR,,,,,,,,,,,,SPECI,554.0
KBML 061523Z AUTO 12018G25KT 10SM FEW026 SCT035 13/10 A2954 RMK AO2 PRESFR T01330100,KBML,2017-05-06T15:23:00Z,44.58,-71.18,13.3,10.0,120,18,25,10.0,29.53937,,,TRUE,TRUE,,,,,,,FEW,2600,SCT,3500,,,,,VFR,,,,,,,,,,,,SPECI,345.0
PAEH 061523Z AUTO 13019G24KT 10SM BKN010 04/03 A2944 RMK AO2 SLP977,PAEH,2017-05-06T15:23:00Z,58.65,-162.07,4.0,3.0,130,19,24,10.0,29.438976,997.7,,TRUE,TRUE,,,,,,,BKN,1000,,,,,,,MVFR,,,,,,,,,,,,SPECI,161.0
KPOB 061523Z AUTO 29008KT 10SM -RA BKN020 BKN070 BKN140 14/11 A2960 RMK AO2 SLP026 $,KPOB,2017-05-06T15:23:00Z,35.17,-79.02,14.0,11.0,290,8,,10.0,29.601377,1002.6,,TRUE,TRUE,TRUE,,,,,-RA,BKN,2000,BKN,7000,BKN,14000,,,MVFR,,,,,,,,,,,,SPECI,66.0
EGUL 061523Z AUTO 03010KT 9999 OVC024 12/11 A2991 RMK AO2 SLP132,EGUL,2017-05-06T15:23:00Z,52.42,0.57,12.0,11.0,30,10,,6.21,29.911417,1013.2,,TRUE,TRUE,,,,,,,OVC,2400,,,,,,,MVFR,,,,,,,,,,,,METAR,10.0
CYRJ 061523Z CCA 09008G15KT 2SM SHRA BR OVC010 05/04 A2957 RMK FG6SF2 CVCTV CLD EMBD SLP021,CYRJ,2017-05-06T15:23:00Z,48.52,-72.27,5.0,4.0,90,8,15,2.0,29.568897,1002.1,,,,,,,,,SHRA BR,OVC,1000,,,,,,,IFR,,,,,,,,,,,,SPECI,179.0
KDVP 061523Z AUTO 00000KT 10SM CLR 17/00 A3000 RMK AO2 T01680003,KDVP,2017-05-06T15:23:00Z,43.98,-95.78,16.8,0.3,0,0,,10.0,30.0,,,TRUE,TRUE,,,,,,,CLR,,,,,,,,VFR,,,,,,,,,,,,SPECI,495.0
KHMN 061522Z AUTO 23004KT 1 3/4SM HZ CLR 22/M03 A3003 RMK AO2 SLP099 $,KHMN,2017-05-06T15:22:00Z,32.85,-106.08,22.0,-3.0,230,4,,1.75,30.029528,1009.9,,TRUE,TRUE,TRUE,,,,,HZ,CLR,,,,,,,,IFR,,,,,,,,,,,,SPECI,1248.0
KPSM 061522Z 110030KT 1 1/4SM BR OVC002 14/14 A2955 RMK AO2A VIS SE 3/4,KPSM,2017-05-06T15:22:00Z,43.07,-70.82,14.0,14.0,110,30,,1.25,29.551182,,,,TRUE,,,,,,BR,OVC,200,,,,,,,LIFR,,,,,,,,,,,,SPECI,31.0
KWST 061522Z AUTO 16009KT 4SM BR OVC002 13/13 A2953 RMK AO2 RAE10 P0000 T01330128,KWST,2017-05-06T15:22:00Z,41.35,-71.8,13.3,12.8,160,9,,4.0,29.530512,,,TRUE,TRUE,,,,,,BR,OVC,200,,,,,,,LIFR,,,,,,0.005,,,,,,SPECI,21.0
KPIT 061522Z 29014KT 7SM -RA SCT012 BKN019 OVC025 08/06 A2949 RMK AO2 P0001 T00780061,KPIT,2017-05-06T15:22:00Z,40.5,-80.27,7.8,6.1,290,14,,7.0,29.489174,,,,TRUE,,,,,,-RA,SCT,1200,BKN,1900,OVC,2500,,,MVFR,,,,,,0.01,,,,,,SPECI,357.0
KMPV 061522Z AUTO 16008G18KT 10SM OVC015 15/13 A2949 RMK AO2 T01500133,KMPV,2017-05-06T15:22:00Z,44.2,-72.57,15.0,13.3,160,8,18,10.0,29.489174,,,TRUE,TRUE,,,,,,,OVC,1500,,,,,,,MVFR,,,,,,,,,,,,SPECI,343.0
KDAW 061522Z AUTO 02004KT 1/2SM FG OVC002 13/12 A2954 RMK AO2 T01280117,KDAW,2017-05-06T15:22:00Z,43.28,-70.92,12.8,11.7,20,4,,0.5,29.53937,,,TRUE,TRUE,,,,,,FG,OVC,200,,,,,,,LIFR,,,,,,,,,,,,SPECI,100.0
CYEV 061522Z 00000KT 5SM BR OVC004 M02/M04 A3007 RMK ST8 SLP189,CYEV,2017-05-06T15:22:00Z,68.32,-133.5,-2.0,-4.0,0,0,,5.0,30.070866,1018.9,,,,,,,,,BR,OVC,400,,,,,,,LIFR,,,,,,,,,,,,SPECI,68.0
CYGK 061522Z 02004KT 3SM -RADZ BR BKN003 OVC007 11/10 A2928 RMK SF6SF2 CIG RAG SLP919 DENSITY ALT 600FT,CYGK,2017-05-06T15:22:00Z,44.22,-76.58,11.0,10.0,20,4,,3.0,29.279528,991.9,,,,,,,,,-RA -DZ BR,BKN,300,OVC,700,,,,,LIFR,,,,,,,,,,,,SPECI,93.0
CYPR 061522Z AUTO 28007KT 240V310 9SM -RA FEW023 BKN034 OVC048 07/04 A3002 RMK SLP167,CYPR,2017-05-06T15:22:00Z,54.28,-130.42,7.0,4.0,280,7,,9.0,30.02067,1016.7,,TRUE,,,,,,,-RA,FEW,2300,BKN,3400,OVC,4800,,,VFR,,,,,,,,,,,,SPECI,34.0
CYMT 061522Z AUTO 06009KT 4SM -RA BR OVC006 04/03 A2959 RMK SLP038,CYMT,2017-05-06T15:22:00Z,49.77,-74.52,4.0,3.0,60,9,,4.0,29.589567,1003.8,,TRUE,,,,,,,-RA BR,OVC,600,,,,,,,IFR,,,,,,,,,,,,SPECI,387.0
K0CO 061522Z AUTO 29013G26KT 10SM CLR 06/00 A3042 RMK AO2,K0CO,2017-05-06T15:22:00Z,39.8,-105.77,6.0,0.0,290,13,26,10.0,30.41929,,,TRUE,TRUE,,,,,,,CLR,,,,,,,,VFR,,,,,,,,,,,,METAR,3807.0
CYTE 061521Z AUTO 29018KT 5/8SM -SN VV010 M08/M09 A3009 RMK SLP198,CYTE,2017-05-06T15:21:00Z,64.22,-76.52,-8.0,-9.0,290,18,,0.63,30.088583,1019.8,,TRUE,,,,,,,-SN,OVX,0,,,,,,,LIFR,,,,,,,,,,,1000,SPECI,47.0
KNUI 061521Z AUTO 21013KT 10SM SCT030 OVC039 17/11 A2943 RMK AO2 T01670111,KNUI,2017-05-06T15:21:00Z,38.15,-76.43,16.7,11.1,210,13,,10.0,29.430119,,,TRUE,TRUE,,,,,,,SCT,3000,OVC,3900,,,,,VFR,,,,,,,,,,,,SPECI,7.0
CYDL 061521Z AUTO VRB07KT 9SM OVC049 03/02 A2977 RMK SLP098,CYDL,2017-05-06T15:21:00Z,58.42,-130.02,3.0,2.0,0,7,,9.0,29.769686,1009.8,,TRUE,,,,,,,,OVC,4900,,,,,,,VFR,,,,,,,,,,,,SPECI,816.0
KCGS 061521Z AUTO 28006KT 10SM SCT020 SCT029 OVC050 14/11 A2941 RMK AO1 T01350108,KCGS,2017-05-06T15:21:00Z,38.98,-76.92,13.5,10.8,280,6,,10.0,29.409449,,,TRUE,TRUE,,,,,,,SCT,2000,SCT,2900,OVC,5000,,,VFR,,,,,,,,,,,,SPECI,15.0
K2W6 061521Z AUTO 22010G17KT 10SM SCT029 BKN037 OVC050 16/10 A2944 RMK AO1,K2W6,2017-05-06T15:21:00Z,38.32,-76.55,16.0,10.0,220,10,17,10.0,29.438976,,,TRUE,TRUE,,,,,,,SCT,2900,BKN,3700,OVC,5000,,,VFR,,,,,,,,,,,,SPECI,44.0
KGTB 061521Z AUTO 26009G16KT 10SM BKN002 OVC035 13/11 A2928 RMK AO2 RAE11DZB11E21 CIG 002V038 BKN V SCT PRESRR SLP916,KGTB,2017-05-06T15:21:00Z,44.07,-75.72,13.0,11.0,260,9,16,10.0,29.279528,991.6,,TRUE,TRUE,,,,,,,BKN,200,OVC,3500,,,,,LIFR,,,,,,,,,,,,SPECI,207.0
KADW 061521Z AUTO 28011G17KT 6SM -RA BR SCT011 OVC031 13/11 A2941 RMK AO2 CIG 008 RWY19L SLP965 $,KADW,2017-05-06T15:21:00Z,38.82,-76.87,13.0,11.0,280,11,17,6.0,29.409449,996.5,,TRUE,TRUE,TRUE,,,,,-RA BR,SCT,1100,OVC,3100,,,,,VFR,,,,,,,,,,,,SPECI,86.0
KTWF 061521Z 27010KT 1/2SM FG VV003 11/11 A2977 RMK AO2 T01060106,KTWF,2017-05-06T15:21:00Z,42.48,-114.48,10.6,10.6,270,10,,0.5,29.769686,,,,TRUE,,,,,,FG,OVX,0,,,,,,,LIFR,,,,,,,,,,,300,SPECI,1266.0
KOXR 061521Z 26011KT 2 1/2SM BR OVC005 13/12 A2982 RMK AO2 CIG 004V009 T01280122,KOXR,2017-05-06T15:21:00Z,34.2,-119.2,12.8,12.2,260,11,,2.5,29.819881,,,,TRUE,,,,,,BR,OVC,500,,,,,,,IFR,,,,,,,,,,,,SPECI,20.0
KILM 061521Z AUTO 27013KT 10SM BKN028 OVC037 15/09 A2962 RMK AO2 T01500094,KILM,2017-05-06T15:21:00Z,34.27,-77.9,15.0,9.4,270,13,,10.0,29.619095,,,TRUE,TRUE,,,,,,,BKN,2800,OVC,3700,,,,,MVFR,,,,,,,,,,,,SPECI,9.0
KHSE 061521Z AUTO 25016G22KT 5SM HZ BKN027 20/12 A2956 RMK AO2 T02000122 TSNO,KHSE,2017-05-06T15:21:00Z,35.23,-75.62,20.0,12.2,250,16,22,5.0,29.56004,,,TRUE,TRUE,,,TRUE,,,HZ,BKN,2700,,,,,,,MVFR,,,,,,,,,,,,SPECI,3.0
KCMA 061521Z 24009KT 2 1/2SM -RA BR BKN006 OVC011 14/13 A2982 RMK AO2 RAB16 CIG 004V008 P0000 T01440133,KCMA,2017-05-06T15:21:00Z,34.22,-119.1,14.4,13.3,240,9,,2.5,29.819881,,,,TRUE,,,,,,-RA BR,BKN,600,OVC,1100,,,,,IFR,,,,,,0.005,,,,,,SPECI,23.0
KBFD 061521Z AUTO 29011KT 3SM RA BR OVC004 05/04 A2936 RMK AO2 P0004 T00500044,KBFD,2017-05-06T15:21:00Z,41.8,-78.63,5.0,4.4,290,11,,3.0,29.359253,,,TRUE,TRUE,,,,,,RA BR,OVC,400,,,,,,,LIFR,,,,,,0.04,,,,,,SPECI,647.0
CYOY 061521Z AUTO 09010KT 070V130 1 1/4SM +RA VV005 10/06 A2957,CYOY,2017-05-06T15:21:00Z,46.88,-71.5,10.0,6.0,90,10,,1.25,29.568897,,,TRUE,,,,,,,+RA,OVX,0,,,,,,,LIFR,,,,,,,,,,,500,SPECI,168.0
CYOO 061521Z AUTO 35017G23KT 9SM FEW015 OVC025 08/06 A2933 RMK SLP937,CYOO,2017-05-06T15:21:00Z,43.92,-78.9,8.0,6.0,350,17,23,9.0,29.329725,993.7,,TRUE,,,,,,,,FEW,1500,OVC,2500,,,,,MVFR,,,,,,,,,,,,SPECI,139.0
ESNL 061520Z AUTO 04004KT 360V080 9999 FEW047/// OVC059/// 08/M04 Q1019,ESNL,2017-05-06T15:20:00Z,64.55,18.72,8.0,-4.0,40,4,,6.21,30.088583,,,TRUE,,,,,,,,FEW,4700,OVC,5900,,,,,VFR,,,,,,,,,,,,METAR,214.0
ESUT 061520Z AUTO 32011KT 9999 NCD 02/M04 Q1019,ESUT,2017-05-06T15:20:00Z,65.8,15.08,2.0,-4.0,320,11,,6.21,30.088583,,,TRUE,,,,,,,,CLR,,,,,,,,VFR,,,,,,,,,,,,METAR,463.0
ESNX 061520Z AUTO VRB03KT 9999 OVC044/// 04/M05 Q1019,ESNX,2017-05-06T15:20:00Z,65.58,19.28,4.0,-5.0,0,3,,6.21,30.088583,,,TRUE,,,,,,,,OVC,4400,,,,,,,VFR,,,,,,,,,,,,METAR,379.0
ESUD 061520Z AUTO 10004KT 060V140 9999 OVC057/// 08/M03 Q1018,ESUD,2017-05-06T15:20:00Z,64.97,17.7,8.0,-3.0,100,4,,6.21,30.059055,,,TRUE,,,,,,,,OVC,5700,,,,,,,VFR,,,,,,,,,,,,METAR,279.0
KBDL 061520Z 16014KT 10SM SCT019 BKN038 OVC048 18/14 A2946 RMK AO2 T01780139,KBDL,2017-05-06T15:20:00Z,41.93,-72.68,17.8,13.9,160,14,,10.0,29.459646,,,,TRUE,,,,,,,SCT,1900,BKN,3800,OVC,4800,,,VFR,,,,,,,,,,,,SPECI,60.0
KQFX 061520Z AUTO 09001KT 9999 CLR 09/05 A2999 RMK A02 TSNO,KQFX,2017-05-06T15:20:00Z,,,9.0,5.0,90,1,,6.21,29.991142,,,TRUE,TRUE,,,TRUE,,,,CLR,,,,,,,,VFR,,,,,,,,,,,,METAR,
KQFW 061520Z AUTO 24002KT 9999 CLR 10/02 A2999 RMK A02 TSNO,KQFW,2017-05-06T15:20:00Z,,,10.0,2.0,240,2,,6.21,29.991142,,,TRUE,TRUE,,,TRUE,,,,CLR,,,,,,,,VFR,,,,,,,,,,,,METAR,
KQFV 061520Z AUTO 30005KT 9999 CLR 10/M02 A2998 RMK A02 TSNO,KQFV,2017-05-06T15:20:00Z,,,10.0,-2.0,300,5,,6.21,29.97933,,,TRUE,TRUE,,,TRUE,,,,CLR,,,,,,,,VFR,,,,,,,,,,,,METAR,
KQFU 061520Z AUTO 25002KT 9999 CLR 11/03 A3003 RMK A02 TSNO,KQFU,2017-05-06T15:20:00Z,,,11.0,3.0,250,2,,6.21,30.029528,,,TRUE,TRUE,,,TRUE,,,,CLR,,,,,,,,VFR,,,,,,,,,,,,METAR,
KQFT 061520Z AUTO 17002KT 9999 CLR 09/04 A2999 RMK A02 TSNO,KQFT,2017-05-06T15:20:00Z,,,9.0,4.0,170,2,,6.21,29.991142,,,TRUE,TRUE,,,TRUE,,,,CLR,,,,,,,,VFR,,,,,,,,,,,,METAR,
KQFB 061520Z AUTO 13002KT 9999 CLR 13/02 A3005 RMK A02 TSNO,KQFB,2017-05-06T15:20:00Z,,,13.0,2.0,130,2,,6.21,30.050198,,,TRUE,TRUE,,,TRUE,,,,CLR,,,,,,,,VFR,,,,,,,,,,,,METAR,
KQEY 061520Z AUTO 10003KT 9999 CLR 11/03 A2975 RMK A02 TSNO,KQEY,2017-05-06T15:20:00Z,,,11.0,3.0,100,3,,6.21,29.749016,,,TRUE,TRUE,,,TRUE,,,,CLR,,,,,,,,VFR,,,,,,,,,,,,METAR,
KQEX 061520Z AUTO 31003KT 9999 CLR 15/00 A2993 RMK A02 TSNO,KQEX,2017-05-06T15:20:00Z,,,15.0,0.0,310,3,,6.21,29.929134,,,TRUE,TRUE,,,TRUE,,,,CLR,,,,,,,,VFR,,,,,,,,,,,,METAR,
KQEW 061520Z AUTO 22002KT 9999 CLR 13/02 A2999 RMK A02 TSNO,KQEW,2017-05-06T15:20:00Z,,,13.0,2.0,220,2,,6.21,29.991142,,,TRUE,TRUE,,,TRUE,,,,CLR,,,,,,,,VFR,,,,,,,,,,,,METAR,
KQEV 061520Z AUTO 29002KT 9999 CLR 12/07 A2999 RMK A02 TSNO,KQEV,2017-05-06T15:20:00Z,,,12.0,7.0,290,2,,6.21,29.991142,,,TRUE,TRUE,,,TRUE,,,,CLR,,,,,,,,VFR,,,,,,,,,,,,METAR,
KQER 061520Z AUTO 19001KT 9999 CLR 11/M01 A2992 RMK A02 TSNO,KQER,2017-05-06T15:20:00Z,,,11.0,-1.0,190,1,,6.21,29.920275,,,TRUE,TRUE,,,TRUE,,,,CLR,,,,,,,,VFR,,,,,,,,,,,,METAR,
KQEQ 061520Z AUTO 19002KT 9999 CLR 09/06 A3003 RMK A02 TSNO,KQEQ,2017-05-06T15:20:00Z,,,9.0,6.0,190,2,,6.21,30.029528,,,TRUE,TRUE,,,TRUE,,,,CLR,,,,,,,,VFR,,,,,,,,,,,,METAR,
KQEP 061520Z AUTO 10001KT 9999 CLR 10/04 A3002 RMK A02 TSNO,KQEP,2017-05-06T15:20:00Z,,,10.0,4.0,100,1,,6.21,30.02067,,,TRUE,TRUE,,,TRUE,,,,CLR,,,,,,,,VFR,,,,,,,,,,,,METAR,
KQEN 061520Z AUTO 25015G34KT 9999 CLR 07/M05 A2986 RMK A02 TSNO,KQEN,2017-05-06T15:20:00Z,,,7.0,-5.0,250,15,34,6.21,29.861221,,,TRUE,TRUE,,,TRUE,,,,CLR,,,,,,,,VFR,,,,,,,,,,,,METAR,
KQEL 061520Z AUTO 23002KT 9999 CLR 11/01 A3005 RMK A02 TSNO,KQEL,2017-05-06T15:20:00Z,,,11.0,1.0,230,2,,6.21,30.050198,,,TRUE,TRUE,,,TRUE,,,,CLR,,,,,,,,VFR,,,,,,,,,,,,METAR,
KQEI 061520Z AUTO 13001KT 9999 CLR 10/01 A2996 RMK A02 TSNO,KQEI,2017-05-06T15:20:00Z,,,10.0,1.0,130,1,,6.21,29.958662,,,TRUE,TRUE,,,TRUE,,,,CLR,,,,,,,,VFR,,,,,,,,,,,,METAR,
LSZC 061520Z AUTO 05006KT 7000 -RA BKN049 SCT060 12/11 Q1011,LSZC,2017-05-06T15:20:00Z,46.97,8.38,12.0,11.0,50,6,,4.35,29.852362,,,TRUE,,,,,,,-RA,BKN,4900,SCT,6000,,,,,MVFR,,,,,,,,,,,,METAR,450.0
LSZS 061520Z VRB01KT 9999 -RA SCT020 OVC030 05/02 Q1012 RMK T,LSZS,2017-05-06T15:20:00Z,46.53,9.88,5.0,2.0,0,1,,6.21,29.88189,,,,,,,,,,-RA,SCT,2000,OVC,3000,,,,,MVFR,,,,,,,,,,,,METAR,1706.0
LSZR 061520Z AUTO 26011KT 230V290 9999 BKN060 BKN080 15/09 Q1009,LSZR,2017-05-06T15:20:00Z,47.48,9.57,15.0,9.0,260,11,,6.21,29.793306,,,TRUE,,,,,,,,BKN,6000,BKN,8000,,,,,VFR,,,,,,,,,,,,METAR,398.0
LSZG 061520Z 23016KT 8000 RA SCT006 BKN011 OVC029 11/10 Q1011 NOSIG,LSZG,2017-05-06T15:20:00Z,47.17,7.42,11.0,10.0,230,16,,4.97,29.852362,,,,,,TRUE,,,,RA,SCT,600,BKN,1100,OVC,2900,,,MVFR,,,,,,,,,,,,METAR,430.0
LSGS 061520Z 26005KT 7000 RA FEW020 SCT030 OVC070 12/10 Q1012,LSGS,2017-05-06T15:20:00Z,46.22,7.32,12.0,10.0,260,5,,4.35,29.88189,,,,,,,,,,RA,FEW,2000,SCT,3000,OVC,7000,,,MVFR,,,,,,,,,,,,METAR,481.0
LSGC 061520Z 23012KT 190V260 9999 -RA FEW016 SCT021 BKN028 09/06 Q1011,LSGC,2017-05-06T15:20:00Z,47.08,6.8,9.0,6.0,230,12,,6.21,29.852362,,,,,,,,,,-RA,FEW,1600,SCT,2100,BKN,2800,,,MVFR,,,,,,,,,,,,METAR,1027.0
LSZA 061520Z 19003KT 7000 -RA FEW007 SCT042 OVC050 12/11 Q1013 NOSIG,LSZA,2017-05-06T15:20:00Z,46.0,8.92,12.0,11.0,190,3,,4.35,29.911417,,,,,,TRUE,,,,-RA,FEW,700,SCT,4200,OVC,5000,,,MVFR,,,,,,,,,,,,METAR,276.0
LSZB 061520Z AUTO 29006KT 260V330 9999 -RA FEW034 OVC047 11/09 Q1012,LSZB,2017-05-06T15:20:00Z,46.92,7.5,11.0,9.0,290,6,,6.21,29.88189,,,TRUE,,,,,,,-RA,FEW,3400,OVC,4700,,,,,VFR,,,,,,,,,,,,METAR,505.0
LSGG 061520Z 23010KT 9999 VCSH FEW010 SCT045 OVC080 12/10 Q1013 NOSIG,LSGG,2017-05-06T15:20:00Z,46.25,6.12,12.0,10.0,230,10,,6.21,29.911417,,,,,,TRUE,,,,VCSH,FEW,1000,SCT,4500,OVC,8000,,,VFR,,,,,,,,,,,,METAR,416.0
LSZH 061520Z 28005KT 250V310 9999 -RA FEW015 SCT045 BKN062 12/09 Q1011 RERA TEMPO RA,LSZH,2017-05-06T15:20:00Z,47.48,8.53,12.0,9.0,280,5,,6.21,29.852362,,,,,,,,,,-RA,FEW,1500,SCT,4500,BKN,6200,,,VFR,,,,,,,,,,,,METAR,432.0
PKWA 061520Z AUTO 10011KT 10SM SCT019 SCT027 28/24 A2986 RMK AO2 T02770239,PKWA,2017-05-06T15:20:00Z,8.72,167.72,27.7,23.9,100,11,,10.0,29.861221,,,TRUE,TRUE,,,,,,,SCT,1900,SCT,2700,,,,,VFR,,,,,,,,,,,,SPECI,8.0
LGRP 061520Z 25011KT 9999 FEW018 23/15 Q1011 NOSIG,LGRP,2017-05-06T15:20:00Z,36.4,28.08,23.0,15.0,250,11,,6.21,29.852362,,,,,,TRUE,,,,,FEW,1800,,,,,,,VFR,,,,,,,,,,,,METAR,5.0
LGKR 061520Z 30010KT 9999 FEW018 23/10 Q1015 NOSIG,LGKR,2017-05-06T15:20:00Z,39.62,19.92,23.0,10.0,300,10,,6.21,29.970472,,,,,,TRUE,,,,,FEW,1800,,,,,,,VFR,,,,,,,,,,,,METAR,2.0
LGIR 061520Z 29015KT 9999 FEW025 25/18 Q1011 NOSIG,LGIR,2017-05-06T15:20:00Z,35.32,25.17,25.0,18.0,290,15,,6.21,29.852362,,,,,,TRUE,,,,,FEW,2500,,,,,,,VFR,,,,,,,,,,,,METAR,39.0
LGAV 061520Z 06013KT 9999 FEW025 22/08 Q1012 NOSIG,LGAV,2017-05-06T15:20:00Z,37.93,23.95,22.0,8.0,60,13,,6.21,29.88189,,,,,,TRUE,,,,,FEW,2500,,,,,,,VFR,,,,,,,,,,,,METAR,94.0
ENZV 061520Z 30006KT CAVOK 13/06 Q1017 NOSIG,ENZV,2017-05-06T15:20:00Z,58.87,5.62,13.0,6.0,300,6,,6.21,30.029528,,,,,,TRUE,,,,,CAVOK,,,,,,,,VFR,,,,,,,,,,,,METAR,9.0
ENVA 061520Z 27007KT 9999 FEW025 BKN034 10/06 Q1021 RMK WIND 670FT 29008KT,ENVA,2017-05-06T15:20:00Z,63.47,10.92,10.0,6.0,270,7,,6.21,30.147638,,,,,,,,,,,FEW,2500,BKN,3400,,,,,VFR,,,,,,,,,,,,METAR,17.0
ENOL 061520Z 01014KT 9999 BKN020 07/02 Q1022 NOSIG,ENOL,2017-05-06T15:20:00Z,63.7,9.58,7.0,2.0,10,14,,6.21,30.177166,,,,,,TRUE,,,,,BKN,2000,,,,,,,MVFR,,,,,,,,,,,,METAR,7.0
ENGM 061520Z 05007KT 340V100 CAVOK 20/M02 Q1015 NOSIG,ENGM,2017-05-06T15:20:00Z,60.2,11.1,20.0,-2.0,50,7,,6.21,29.970472,,,,,,TRUE,,,,,CAVOK,,,,,,,,VFR,,,,,,,,,,,,METAR,204.0
ENDU 061520Z AUTO 28012KT 9999 -SN OVC045/// 01/M03 Q1023 RMK WIND 1100FT 28012KT WIND 2200FT 28015KT,ENDU,2017-05-06T15:20:00Z,69.03,18.55,1.0,-3.0,280,12,,6.21,30.206694,,,TRUE,,,,,,,-SN,OVC,4500,,,,,,,VFR,,,,,,,,,,,,METAR,79.0
ENBO 061520Z 01013KT 9999 FEW030 06/M03 Q1024,ENBO,2017-05-06T15:20:00Z,67.27,14.37,6.0,-3.0,10,13,,6.21,30.236221,,,,,,,,,,,FEW,3000,,,,,,,VFR,,,,,,,,,,,,METAR,13.0
ENBR 061520Z 33010KT CAVOK 17/05 Q1017 NOSIG RMK WIND 1200FT 29007KT,ENBR,2017-05-06T15:20:00Z,60.28,5.22,17.0,5.0,330,10,,6.21,30.029528,,,,,,TRUE,,,,,CAVOK,,,,,,,,VFR,,,,,,,,,,,,METAR,50.0
ENAN 061520Z AUTO 27009KT 9999 FEW007/// SCT027/// OVC042/// 03/00 Q1024,ENAN,2017-05-06T15:20:00Z,69.28,16.13,3.0,0.0,270,9,,6.21,30.236221,,,TRUE,,,,,,,,FEW,700,SCT,2700,OVC,4200,,,VFR,,,,,,,,,,,,METAR,14.0
ENSF 061520Z AUTO 01023KT 9999NDV BKN008/// ///// Q//// W///S4,ENSF,2017-05-06T15:20:00Z,61.25,1.85,,,10,23,,,,,,TRUE,,,,,,,,BKN,800,,,,,,,,,,,,,,,,,,,METAR,10.0
ENFB 061520Z AUTO 02022KT 9999NDV OVC008/// 08/07 Q1021 W///S4,ENFB,2017-05-06T15:20:00Z,61.2,1.83,8.0,7.0,20,22,,,30.147638,,,TRUE,,,,,,,,OVC,800,,,,,,,,,,,,,,,,,,,METAR,10.0
ENSL 061520Z 35012KT 0050 FG VV001 09/07 Q1019 W08/S/,ENSL,2017-05-06T15:20:00Z,58.37,1.9,9.0,7.0,350,12,,0.03,30.088583,,,,,,,,,,FG,OVX,0,,,,,,,LIFR,,,,,,,,,,,100,METAR,50.0
ENOA 061520Z 36023KT 2500 BR VV003 08/07 Q1019 W///S4,ENOA,2017-05-06T15:20:00Z,60.5,2.83,8.0,7.0,360,23,,1.55,30.088583,,,,,,,,,,BR,OVX,0,,,,,,,LIFR,,,,,,,,,,,300,METAR,5.0
ENHE 061520Z 05023KT 9999 BKN030 05/M01 Q1025 W///S4,ENHE,2017-05-06T15:20:00Z,65.33,2.33,5.0,-1.0,50,23,,6.21,30.265747,,,,,,,,,,,BKN,3000,,,,,,,MVFR,,,,,,,,,,,,METAR,1.0
ENEK 061520Z 36009KT CAVOK 10/07 Q1018 W08/S3,ENEK,2017-05-06T15:20:00Z,56.53,3.25,10.0,7.0,360,9,,6.21,30.059055,,,,,,,,,,,CAVOK,,,,,,,,VFR,,,,,,,,,,,,METAR,3.0
ENWV 061520Z AUTO 02009KT 9999NDV NCD 11/02 Q//// W///S2,ENWV,2017-05-06T15:20:00Z,,,11.0,2.0,20,9,,,,,,TRUE,,,,,,,,CLR,,,,,,,,,,,,,,,,,,,,METAR,
ENUG 061520Z AUTO 03015KT 9999NDV BKN027/// BKN048/// 02/M06 Q1021 W06/S5,ENUG,2017-05-06T15:20:00Z,,,2.0,-6.0,30,15,,,30.147638,,,TRUE,,,,,,,,BKN,2700,BKN,4800,,,,,,,,,,,,,,,,,METAR,
ENLA 061520Z AUTO 36008KT 9999NDV NCD 13/09 Q1017 W///S2,ENLA,2017-05-06T15:20:00Z,59.1,2.83,13.0,9.0,360,8,,,30.029528,,,TRUE,,,,,,,,CLR,,,,,,,,,,,,,,,,,,,,METAR,4.0
ENHM 061520Z 01015KT 0500 FG VV003 08/07 Q1019 W08/S3,ENHM,2017-05-06T15:20:00Z,59.57,2.23,8.0,7.0,10,15,,0.31,30.088583,,,,,,,,,,FG,OVX,0,,,,,,,LIFR,,,,,,,,,,,300,METAR,10.0
ENQA 061520Z AUTO 01025KT 0250NDV -SHRA FG NCD 07/07 Q1018 W06/S4,ENQA,2017-05-06T15:20:00Z,60.65,3.72,7.0,7.0,10,25,,,30.059055,,,TRUE,,,,,,,-SHRA FG,CLR,,,,,,,,,,,,,,,,,,,,METAR,20.0
ENQC 061520Z AUTO 36022KT 9999NDV OVC003/// 08/07 Q1018 W///S4,ENQC,2017-05-06T15:20:00Z,60.88,3.62,8.0,7.0,360,22,,,30.059055,,,TRUE,,,,,,,,OVC,300,,,,,,,,,,,,,,,,,,,METAR,20.0
ENSE 061520Z AUTO 03022KT 9999NDV FEW009/// BKN012/// OVC015/// 08/07 Q1021 W///S3,ENSE,2017-05-06T15:20:00Z,61.45,2.15,8.0,7.0,30,22,,,30.147638,,,TRUE,,,,,,,,FEW,900,BKN,1200,OVC,1500,,,,,,,,,,,,,,,METAR,10.0
ENQR 061520Z AUTO 03022KT 9999NDV BKN008/// 08/07 Q1021 W///S3,ENQR,2017-05-06T15:20:00Z,61.35,2.22,8.0,7.0,30,22,,,30.147638,,,TRUE,,,,,,,,BKN,800,,,,,,,,,,,,,,,,,,,METAR,10.0
ENHF 061520Z AUTO 03014KT 9999 -SN FEW003/// SCT014/// BKN018/// M01/M04 Q1020 RMK WIND 1254FT 36023KT,ENHF,2017-05-06T15:20:00Z,70.67,23.67,-1.0,-4.0,30,14,,6.21,30.11811,,,TRUE,,,,,,,-SN,FEW,300,SCT,1400,BKN,1800,,,MVFR,,,,,,,,,,,,METAR,81.0
ENBN 061520Z AUTO 35018KT //// R22///// NCD 07/01 Q1021,ENBN,2017-05-06T15:20:00Z,65.47,12.22,7.0,1.0,350,18,,,30.147638,,,TRUE,,,,,,,,CLR,,,,,,,,,,,,,,,,,,,,METAR,9.0
LGSR 061520Z 26018KT CAVOK 21/15 Q1011,LGSR,2017-05-06T15:20:00Z,36.4,25.48,21.0,15.0,260,18,,6.21,29.852362,,,,,,,,,,,CAVOK,,,,,,,,VFR,,,,,,,,,,,,METAR,40.0
LGMT 061520Z 34009KT 300V360 9999 FEW020 24/13 Q1012,LGMT,2017-05-06T15:20:00Z,39.05,26.6,24.0,13.0,340,9,,6.21,29.88189,,,,,,,,,,,FEW,2000,,,,,,,VFR,,,,,,,,,,,,METAR,17.0
LGKV 061520Z 12008KT 9999 FEW020 20/10 Q1011,LGKV,2017-05-06T15:20:00Z,40.92,24.62,20.0,10.0,120,8,,6.21,29.852362,,,,,,,,,,,FEW,2000,,,,,,,VFR,,,,,,,,,,,,METAR,5.0
LGEL 061520Z 08013KT 9999 FEW025 26/06 Q1010,LGEL,2017-05-06T15:20:00Z,38.07,23.55,26.0,6.0,80,13,,6.21,29.822834,,,,,,,,,,,FEW,2500,,,,,,,VFR,,,,,,,,,,,,METAR,31.0
LGAL 061520Z VRB02KT 9999 SCT030 19/11 Q1011,LGAL,2017-05-06T15:20:00Z,40.85,25.95,19.0,11.0,0,2,,6.21,29.852362,,,,,,,,,,,SCT,3000,,,,,,,VFR,,,,,,,,,,,,METAR,3.0
LGMK 061520Z 02010KT CAVOK 23/13 Q1012,LGMK,2017-05-06T15:20:00Z,37.43,25.35,23.0,13.0,20,10,,6.21,29.88189,,,,,,,,,,,CAVOK,,,,,,,,VFR,,,,,,,,,,,,METAR,123.0
LGKP 061520Z 25010KT CAVOK 24/12 Q1012,LGKP,2017-05-06T15:20:00Z,35.42,27.15,24.0,12.0,250,10,,6.21,29.88189,,,,,,,,,,,CAVOK,,,,,,,,VFR,,,,,,,,,,,,METAR,20.0
LGBL 061520Z 11016KT 9999 FEW040 24/06 Q1010,LGBL,2017-05-06T15:20:00Z,39.22,22.8,24.0,6.0,110,16,,6.21,29.822834,,,,,,,,,,,FEW,4000,,,,,,,VFR,,,,,,,,,,,,METAR,26.0
LGTS 061520Z 35012G22KT CAVOK 24/05 Q1011 NOSIG,LGTS,2017-05-06T15:20:00Z,40.52,22.97,24.0,5.0,350,12,22,6.21,29.852362,,,,,,TRUE,,,,,CAVOK,,,,,,,,VFR,,,,,,,,,,,,METAR,7.0
LGSM 061520Z 15005KT CAVOK 22/17 Q1010,LGSM,2017-05-06T15:20:00Z,37.68,26.92,22.0,17.0,150,5,,6.21,29.822834,,,,,,,,,,,CAVOK,,,,,,,,VFR,,,,,,,,,,,,METAR,6.0
LGSA 061520Z 32015G25KT CAVOK 26/16 Q1012,LGSA,2017-05-06T15:20:00Z,35.53,24.13,26.0,16.0,320,15,25,6.21,29.88189,,,,,,,,,,,CAVOK,,,,,,,,VFR,,,,,,,,,,,,METAR,135.0
LGLM 061520Z 13008KT 9999 FEW018 21/11 Q1011,LGLM,2017-05-06T15:20:00Z,39.92,25.23,21.0,11.0,130,8,,6.21,29.852362,,,,,,,,,,,FEW,1800,,,,,,,VFR,,,,,,,,,,,,METAR,5.0
LGKO 061520Z 29008KT CAVOK 22/15 Q1011,LGKO,2017-05-06T15:20:00Z,36.8,27.08,22.0,15.0,290,8,,6.21,29.852362,,,,,,,,,,,CAVOK,,,,,,,,VFR,,,,,,,,,,,,METAR,125.0
LGKL 061520Z 31013KT 9999 FEW025 26/08 Q1012,LGKL,2017-05-06T15:20:00Z,37.07,22.02,26.0,8.0,310,13,,6.21,29.88189,,,,,,,,,,,FEW,2500,,,,,,,VFR,,,,,,,,,,,,METAR,8.0
LGAD 061520Z 31007KT 9999 FEW025 23/13 Q1014,LGAD,2017-05-06T15:20:00Z,37.92,21.27,23.0,13.0,310,7,,6.21,29.940945,,,,,,,,,,,FEW,2500,,,,,,,VFR,,,,,,,,,,,,METAR,12.0
EDSB 061520Z 21010KT 6000 RA FEW010 SCT025 BKN060 13/12 Q1010,EDSB,2017-05-06T15:20:00Z,48.78,8.08,13.0,12.0,210,10,,3.73,29.822834,,,,,,,,,,RA,FEW,1000,SCT,2500,BKN,6000,,,MVFR,,,,,,,,,,,,METAR,124.0
EDQM 061520Z 06007KT 030V140 9999 SCT047 16/04 Q1010,EDQM,2017-05-06T15:20:00Z,50.3,11.85,16.0,4.0,60,7,,6.21,29.822834,,,,,,,,,,,SCT,4700,,,,,,,VFR,,,,,,,,,,,,METAR,568.0
EDNY 061520Z 26006KT 220V340 9999 FEW038 OVC068 15/11 Q1009,EDNY,2017-05-06T15:20:00Z,47.67,9.52,15.0,11.0,260,6,,6.21,29.793306,,,,,,,,,,,FEW,3800,OVC,6800,,,,,VFR,,,,,,,,,,,,METAR,424.0
EDMA 061520Z 02006KT 350V110 CAVOK 20/07 Q1007,EDMA,2017-05-06T15:20:00Z,48.42,10.92,20.0,7.0,20,6,,6.21,29.734253,,,,,,,,,,,CAVOK,,,,,,,,VFR,,,,,,,,,,,,METAR,463.0
EDLW 061520Z 07010KT 010V090 CAVOK 18/07 Q1009,EDLW,2017-05-06T15:20:00Z,51.52,7.62,18.0,7.0,70,10,,6.21,29.793306,,,,,,,,,,,CAVOK,,,,,,,,VFR,,,,,,,,,,,,METAR,127.0
EDLP 061520Z 08009KT 9999 SCT045 17/06 Q1010,EDLP,2017-05-06T15:20:00Z,51.62,8.62,17.0,6.0,80,9,,6.21,29.822834,,,,,,,,,,,SCT,4500,,,,,,,VFR,,,,,,,,,,,,METAR,213.0
EDLN 061520Z 06008KT 020V110 9999 FEW044 20/09 Q1008,EDLN,2017-05-06T15:20:00Z,51.23,6.5,20.0,9.0,60,8,,6.21,29.763779,,,,,,,,,,,FEW,4400,,,,,,,VFR,,,,,,,,,,,,METAR,38.0
EDHL 061520Z 06009KT 9999 FEW020 13/09 Q1014,EDHL,2017-05-06T15:20:00Z,53.8,10.72,13.0,9.0,60,9,,6.21,29.940945,,,,,,,,,,,FEW,2000,,,,,,,VFR,,,,,,,,,,,,METAR,16.0
EDGS 061520Z 13007KT 100V160 9999 SCT038 16/08 Q1010,EDGS,2017-05-06T15:20:00Z,50.7,8.08,16.0,8.0,130,7,,6.21,29.822834,,,,,,,,,,,SCT,3800,,,,,,,VFR,,,,,,,,,,,,METAR,602.0
EDXW 061520Z 06005KT 020V100 9999 FEW025 12/08 Q1015,EDXW,2017-05-06T15:20:00Z,54.92,8.33,12.0,8.0,60,5,,6.21,29.970472,,,,,,,,,,,FEW,2500,,,,,,,VFR,,,,,,,,,,,,METAR,20.0
EDTY 061520Z 04005KT 010V070 CAVOK 20/05 Q1008,EDTY,2017-05-06T15:20:00Z,49.12,9.78,20.0,5.0,40,5,,6.21,29.763779,,,,,,,,,,,CAVOK,,,,,,,,VFR,,,,,,,,,,,,METAR,400.0
EDJA 061520Z 36005KT CAVOK 17/07 Q1008,EDJA,2017-05-06T15:20:00Z,47.98,10.23,17.0,7.0,360,5,,6.21,29.763779,,,,,,,,,,,CAVOK,,,,,,,,VFR,,,,,,,,,,,,METAR,633.0
EDHK 061520Z 03007KT 9999 OVC018 10/08 Q1015,EDHK,2017-05-06T15:20:00Z,54.38,10.15,10.0,8.0,30,7,,6.21,29.970472,,,,,,,,,,,OVC,1800,,,,,,,MVFR,,,,,,,,,,,,METAR,31.0
EDHI 061520Z 08005KT 040V120 9999 BKN033 15/09 Q1013,EDHI,2017-05-06T15:20:00Z,53.53,9.83,15.0,9.0,80,5,,6.21,29.911417,,,,,,,,,,,BKN,3300,,,,,,,VFR,,,,,,,,,,,,METAR,13.0
EDAH 061520Z 04004KT 9999 BKN018 10/07 Q1015,EDAH,2017-05-06T15:20:00Z,53.87,14.15,10.0,7.0,40,4,,6.21,29.970472,,,,,,,,,,,BKN,1800,,,,,,,MVFR,,,,,,,,,,,,METAR,28.0
EDVK 061520Z 07008KT 9999 SCT046 17/07 Q1010,EDVK,2017-05-06T15:20:00Z,51.38,9.37,17.0,7.0,70,8,,6.21,29.822834,,,,,,,,,,,SCT,4600,,,,,,,VFR,,,,,,,,,,,,METAR,285.0
EDLV 061520Z 04008KT 330V090 CAVOK 20/09 Q1009,EDLV,2017-05-06T15:20:00Z,51.6,6.15,20.0,9.0,40,8,,6.21,29.793306,,,,,,,,,,,CAVOK,,,,,,,,VFR,,,,,,,,,,,,METAR,32.0
EDFM 061520Z 24006KT 170V280 CAVOK 22/09 Q1008,EDFM,2017-05-06T15:20:00Z,49.47,8.52,22.0,9.0,240,6,,6.21,29.763779,,,,,,,,,,,CAVOK,,,,,,,,VFR,,,,,,,,,,,,METAR,100.0
EDFH 061520Z 15005KT 120V180 CAVOK 15/07 Q1009,EDFH,2017-05-06T15:20:00Z,49.95,7.27,15.0,7.0,150,5,,6.21,29.793306,,,,,,,,,,,CAVOK,,,,,,,,VFR,,,,,,,,,,,,METAR,498.0
ENTO 061520Z VRB02KT CAVOK 20/03 Q1015,ENTO,2017-05-06T15:20:00Z,59.2,10.27,20.0,3.0,0,2,,6.21,29.970472,,,,,,,,,,,CAVOK,,,,,,,,VFR,,,,,,,,,,,,METAR,88.0
ENRY 061520Z 27004KT 220V340 CAVOK 22/03 Q1015,ENRY,2017-05-06T15:20:00Z,59.37,10.77,22.0,3.0,270,4,,6.21,29.970472,,,,,,,,,,,CAVOK,,,,,,,,VFR,,,,,,,,,,,,METAR,53.0
ENRO 061520Z AUTO 35010KT 9999NDV OVC016/// 07/04 Q1018,ENRO,2017-05-06T15:20:00Z,62.57,11.33,7.0,4.0,350,10,,,30.059055,,,TRUE,,,,,,,,OVC,1600,,,,,,,,,,,,,,,,,,,METAR,626.0
ENHD 061520Z 30006KT 280V340 CAVOK 13/09 Q1017,ENHD,2017-05-06T15:20:00Z,59.35,5.22,13.0,9.0,300,6,,6.21,30.029528,,,,,,,,,,,CAVOK,,,,,,,,VFR,,,,,,,,,,,,METAR,24.0
ENCN 061520Z 21010KT CAVOK 16/07 Q1016,ENCN,2017-05-06T15:20:00Z,58.2,8.07,16.0,7.0,210,10,,6.21,30.0,,,,,,,,,,,CAVOK,,,,,,,,VFR,,,,,,,,,,,,METAR,17.0
ENAL 061520Z 03018KT 9999 FEW010 OVC015 09/06 Q1021,ENAL,2017-05-06T15:20:00Z,62.57,6.12,9.0,6.0,30,18,,6.21,30.147638,,,,,,,,,,,FEW,1000,OVC,1500,,,,,MVFR,,,,,,,,,,,,METAR,22.0
ENNA 061520Z AUTO 32012KT 9999 FEW019/// SCT030/// BKN037/// M00/M05 Q1020 RMK WIND 1800FT 33019KT,ENNA,2017-05-06T15:20:00Z,70.07,24.97,0.0,-5.0,320,12,,6.21,30.11811,,,TRUE,,,,,,,,FEW,1900,SCT,3000,BKN,3700,,,VFR,,,,,,,,,,,,METAR,8.0
ENML 061520Z 03012KT 360V060 9999 FEW012 SCT046 14/07 Q1020,ENML,2017-05-06T15:20:00Z,62.75,7.27,14.0,7.0,30,12,,6.21,30.11811,,,,,,,,,,,FEW,1200,SCT,4600,,,,,VFR,,,,,,,,,,,,METAR,3.0
ENKR 061520Z AUTO 34017KT 9999 FEW025/// SCT061/// M02/M07 Q1016 RMK WIND 731FT 32019KT,ENKR,2017-05-06T15:20:00Z,69.72,29.88,-2.0,-7.0,340,17,,6.21,30.0,,,TRUE,,,,,,,,FEW,2500,SCT,6100,,,,,VFR,,,,,,,,,,,,METAR,91.0
ENKB 061520Z 03016KT 9999 SCT015 BKN021 08/04 Q1021 RMK WIND 745FT 03022KT,ENKB,2017-05-06T15:20:00Z,63.12,7.82,8.0,4.0,30,16,,6.21,30.147638,,,,,,,,,,,SCT,1500,BKN,2100,,,,,MVFR,,,,,,,,,,,,METAR,62.0
ENFL 061520Z 32016KT 9999 FEW005 14/07 Q1016,ENFL,2017-05-06T15:20:00Z,61.57,5.02,14.0,7.0,320,16,,6.21,30.0,,,,,,,,,,,FEW,500,,,,,,,VFR,,,,,,,,,,,,METAR,9.0
LIRQ 061520Z 06006KT 9999 BKN070 17/12 Q1010,LIRQ,2017-05-06T15:20:00Z,43.78,11.18,17.0,12.0,60,6,,6.21,29.822834,,,,,,,,,,,BKN,7000,,,,,,,VFR,,,,,,,,,,,,METAR,38.0
LIRN 061520Z 21006KT 190V250 9999 SCT060 22/11 Q1012 NOSIG,LIRN,2017-05-06T15:20:00Z,40.88,14.3,22.0,11.0,210,6,,6.21,29.88189,,,,,,TRUE,,,,,SCT,6000,,,,,,,VFR,,,,,,,,,,,,METAR,72.0
LIRF 061520Z 16016G26KT CAVOK 22/12 Q1011 NOSIG,LIRF,2017-05-06T15:20:00Z,41.78,12.22,22.0,12.0,160,16,26,6.21,29.852362,,,,,,TRUE,,,,,CAVOK,,,,,,,,VFR,,,,,,,,,,,,METAR,3.0
LIRA 061520Z 18012KT CAVOK 23/10 Q1012,LIRA,2017-05-06T15:20:00Z,41.8,12.58,23.0,10.0,180,12,,6.21,29.88189,,,,,,,,,,,CAVOK,,,,,,,,VFR,,,,,,,,,,,,METAR,101.0
LIML 061520Z 36005KT 310V020 4000 RA SCT030 BKN070 14/12 Q1012 NOSIG,LIML,2017-05-06T15:20:00Z,45.47,9.27,14.0,12.0,360,5,,2.49,29.88189,,,,,,TRUE,,,,RA,SCT,3000,BKN,7000,,,,,IFR,,,,,,,,,,,,METAR,103.0
LIMJ 061520Z 01003KT 310V060 9999 -DZ FEW026 OVC040 14/13 Q1011,LIMJ,2017-05-06T15:20:00Z,44.42,8.83,14.0,13.0,10,3,,6.21,29.852362,,,,,,,,,,-DZ,FEW,2600,OVC,4000,,,,,VFR,,,,,,,,,,,,METAR,3.0
LIMF 061520Z 32008KT 9999 FEW012 OVC070 12/09 Q1013,LIMF,2017-05-06T15:20:00Z,45.22,7.65,12.0,9.0,320,8,,6.21,29.911417,,,,,,,,,,,FEW,1200,OVC,7000,,,,,VFR,,,,,,,,,,,,METAR,287.0
LIME 061520Z 01008KT 9999 -RA SCT045 SCT080 13/11 Q1012 NOSIG,LIME,2017-05-06T15:20:00Z,45.67,9.68,13.0,11.0,10,8,,6.21,29.88189,,,,,,TRUE,,,,-RA,SCT,4500,SCT,8000,,,,,VFR,,,,,,,,,,,,METAR,237.0
LIMC 061520Z 35008KT 6000 RA BKN045 OVC070 13/12 Q1013 NOSIG,LIMC,2017-05-06T15:20:00Z,45.62,8.72,13.0,12.0,350,8,,3.73,29.911417,,,,,,TRUE,,,,RA,BKN,4500,OVC,7000,,,,,MVFR,,,,,,,,,,,,METAR,211.0
LIEO 061520Z 23025G36KT 9999 SCT030 23/14 Q1012,LIEO,2017-05-06T15:20:00Z,40.88,9.52,23.0,14.0,230,25,36,6.21,29.88189,,,,,,,,,,,SCT,3000,,,,,,,VFR,,,,,,,,,,,,METAR,13.0
LIEE 061520Z 28017KT 9999 SCT025 23/15 Q1014,LIEE,2017-05-06T15:20:00Z,39.25,9.07,23.0,15.0,280,17,,6.21,29.940945,,,,,,,,,,,SCT,2500,,,,,,,VFR,,,,,,,,,,,,METAR,4.0
LIEA 061520Z 25011G21KT 9999 FEW016 BKN018 18/14 Q1015,LIEA,2017-05-06T15:20:00Z,40.62,8.27,18.0,14.0,250,11,21,6.21,29.970472,,,,,,,,,,,FEW,1600,BKN,1800,,,,,MVFR,,,,,,,,,,,,METAR,23.0
LOWK 061520Z 20007KT 160V260 9999 FEW065 BKN100 BKN150 19/04 Q1010 NOSIG,LOWK,2017-05-06T15:20:00Z,46.65,14.32,19.0,4.0,200,7,,6.21,29.822834,,,,,,TRUE,,,,,FEW,6500,BKN,10000,BKN,15000,,,VFR,,,,,,,,,,,,METAR,441.0
LOWG 061520Z 20006KT 150V230 9999 FEW070 SCT160 BKN300 20/06 Q1009 NOSIG,LOWG,2017-05-06T15:20:00Z,47.0,15.42,20.0,6.0,200,6,,6.21,29.793306,,,,,,TRUE,,,,,FEW,7000,SCT,16000,BKN,30000,,,VFR,,,,,,,,,,,,METAR,347.0
LOWI 061520Z 14017G36KT 080V210 9999 FEW120 BKN250 18/03 Q1007 NOSIG,LOWI,2017-05-06T15:20:00Z,47.27,11.33,18.0,3.0,140,17,36,6.21,29.734253,,,,,,TRUE,,,,,FEW,12000,BKN,25000,,,,,VFR,,,,,,,,,,,,METAR,581.0
LOWS 061520Z 03008KT 350V050 9999 FEW070 BKN120 20/09 Q1006 NOSIG,LOWS,2017-05-06T15:20:00Z,47.78,13.02,20.0,9.0,30,8,,6.21,29.704725,,,,,,TRUE,,,,,FEW,7000,BKN,12000,,,,,VFR,,,,,,,,,,,,METAR,430.0
LOWL 061520Z 10010KT 070V130 9999 FEW050 BKN300 21/08 Q1007 NOSIG,LOWL,2017-05-06T15:20:00Z,48.22,14.18,21.0,8.0,100,10,,6.21,29.734253,,,,,,TRUE,,,,,FEW,5000,BKN,30000,,,,,VFR,,,,,,,,,,,,METAR,313.0
LOWW 061520Z 13011KT 9999 FEW045 SCT300 21/10 Q1009 NOSIG,LOWW,2017-05-06T15:20:00Z,48.12,16.57,21.0,10.0,130,11,,6.21,29.793306,,,,,,TRUE,,,,,FEW,4500,SCT,30000,,,,,VFR,,,,,,,,,,,,METAR,190.0
LIPZ 061520Z 11006KT 090V150 9999 SCT070 17/10 Q1013 NOSIG,LIPZ,2017-05-06T15:20:00Z,45.5,12.35,17.0,10.0,110,6,,6.21,29.911417,,,,,,TRUE,,,,,SCT,7000,,,,,,,VFR,,,,,,,,,,,,METAR,6.0
LIPX 061520Z 07007KT 9000 RA BKN070 14/11 Q1012,LIPX,2017-05-06T15:20:00Z,45.38,10.87,14.0,11.0,70,7,,5.59,29.88189,,,,,,,,,,RA,BKN,7000,,,,,,,VFR,,,,,,,,,,,,METAR,68.0
LIPQ 061520Z VRB02KT 9999 FEW035 SCT070 19/08 Q1012,LIPQ,2017-05-06T15:20:00Z,45.82,13.47,19.0,8.0,0,2,,6.21,29.88189,,,,,,,,,,,FEW,3500,SCT,7000,,,,,VFR,,,,,,,,,,,,METAR,12.0
LIPH 061520Z VRB02KT 9999 FEW040 18/10 Q1013,LIPH,2017-05-06T15:20:00Z,45.63,12.17,18.0,10.0,0,2,,6.21,29.911417,,,,,,,,,,,FEW,4000,,,,,,,VFR,,,,,,,,,,,,METAR,23.0
LIPE 061520Z 09004KT 010V150 1700 SHRA FEW004 SCT015 SCT020CB BKN035 15/15 Q1011 RETS,LIPE,2017-05-06T15:20:00Z,44.52,11.3,15.0,15.0,90,4,,1.06,29.852362,,,,,,,,,,SHRA,FEW,400,SCT,1500,SCT,2000,BKN,3500,IFR,,,,,,,,,,,,METAR,42.0
LICJ 061520Z 03008KT 010V070 CAVOK 22/16 Q1014,LICJ,2017-05-06T15:20:00Z,38.17,13.08,22.0,16.0,30,8,,6.21,29.940945,,,,,,,,,,,CAVOK,,,,,,,,VFR,,,,,,,,,,,,METAR,34.0
LICC 061520Z 08011KT 9999 SCT020 19/14 Q1016,LICC,2017-05-06T15:20:00Z,37.47,15.05,19.0,14.0,80,11,,6.21,30.0,,,,,,,,,,,SCT,2000,,,,,,,VFR,,,,,,,,,,,,METAR,17.0
LIBD 061520Z VRB01KT 9999 FEW040 16/13 Q1018,LIBD,2017-05-06T15:20:00Z,41.12,16.77,16.0,13.0,0,1,,6.21,30.059055,,,,,,,,,,,FEW,4000,,,,,,,VFR,,,,,,,,,,,,METAR,44.0
KW29 061520Z AUTO 24014G20KT 210V270 10SM OVC026 15/11 A2940 RMK AO2,KW29,2017-05-06T15:20:00Z,38.98,-76.33,15.0,11.0,240,14,20,10.0,29.40059,,,TRUE,TRUE,,,,,,,OVC,2600,,,,,,,MVFR,,,,,,,,,,,,SPECI,15.0
KDMW 061520Z AUTO 23014G20KT 10SM RA BKN013 OVC018 11/10 A2938 RMK AO2,KDMW,2017-05-06T15:20:00Z,39.6,-77.0,11.0,10.0,230,14,20,10.0,29.379921,,,TRUE,TRUE,,,,,,RA,BKN,1300,OVC,1800,,,,,MVFR,,,,,,,,,,,,SPECI,241.0
KCGE 061520Z AUTO 20013G21KT 10SM SCT025 OVC031 16/11 A2943 RMK A01,KCGE,2017-05-06T15:20:00Z,38.53,-76.03,16.0,11.0,200,13,21,10.0,29.430119,,,TRUE,TRUE,,,,,,,SCT,2500,OVC,3100,,,,,VFR,,,,,,,,,,,,SPECI,6.0
K2G4 061520Z AUTO 28007G21KT 242V312 4SM BR BKN003 OVC006 02/02 A2946 RMK AO1,K2G4,2017-05-06T15:20:00Z,39.58,-79.33,2.0,2.0,280,7,21,4.0,29.459646,,,TRUE,TRUE,,,,,,BR,BKN,300,OVC,600,,,,,LIFR,,,,,,,,,,,,SPECI,894.0
ELLX 061520Z VRB01KT 9999 -RA FEW048 BKN060 13/10 Q1009 NOSIG,ELLX,2017-05-06T15:20:00Z,49.63,6.2,13.0,10.0,0,1,,6.21,29.793306,,,,,,TRUE,,,,-RA,FEW,4800,BKN,6000,,,,,VFR,,,,,,,,,,,,METAR,379.0
EBOS 061520Z 03015KT 8000 NSC 13/09 Q1010 NOSIG,EBOS,2017-05-06T15:20:00Z,51.2,2.87,13.0,9.0,30,15,,4.97,29.822834,,,,,,TRUE,,,,,CLR,,,,,,,,MVFR,,,,,,,,,,,,METAR,5.0
EBLG 061520Z 05011KT 020V100 CAVOK 18/09 Q1008 NOSIG,EBLG,2017-05-06T15:20:00Z,50.63,5.45,18.0,9.0,50,11,,6.21,29.763779,,,,,,TRUE,,,,,CAVOK,,,,,,,,VFR,,,,,,,,,,,,METAR,178.0
EBCI 061520Z 18010KT 9999 FEW045 16/09 Q1008 NOSIG,EBCI,2017-05-06T15:20:00Z,50.47,4.45,16.0,9.0,180,10,,6.21,29.763779,,,,,,TRUE,,,,,FEW,4500,,,,,,,VFR,,,,,,,,,,,,METAR,192.0
EBBR 061520Z 05007KT CAVOK 20/10 Q1008 NOSIG,EBBR,2017-05-06T15:20:00Z,50.9,4.5,20.0,10.0,50,7,,6.21,29.763779,,,,,,TRUE,,,,,CAVOK,,,,,,,,VFR,,,,,,,,,,,,METAR,58.0
EBAW 061520Z 07009KT CAVOK 20/07 Q1008 NOSIG,EBAW,2017-05-06T15:20:00Z,51.2,4.47,20.0,7.0,70,9,,6.21,29.763779,,,,,,TRUE,,,,,CAVOK,,,,,,,,VFR,,,,,,,,,,,,METAR,14.0
EGKA 061520Z 04012KT 8000 FEW030 16/08 Q1011,EGKA,2017-05-06T15:20:00Z,50.83,-0.3,16.0,8.0,40,12,,4.97,29.852362,,,,,,,,,,,FEW,3000,,,,,,,MVFR,,,,,,,,,,,,METAR,2.0
EGPH 061520Z 06013KT CAVOK 13/07 Q1020,EGPH,2017-05-06T15:20:00Z,55.95,-3.35,13.0,7.0,60,13,,6.21,30.11811,,,,,,,,,,,CAVOK,,,,,,,,VFR,,,,,,,,,,,,METAR,41.0
ESND 061520Z AUTO VRB03KT 9999 OVC032/// 10/03 Q1018,ESND,2017-05-06T15:20:00Z,62.05,14.42,10.0,3.0,0,3,,6.21,30.059055,,,TRUE,,,,,,,,OVC,3200,,,,,,,VFR,,,,,,,,,,,,METAR,359.0
ESUP 061520Z AUTO 34008KT 300V020 9999 BKN046/// 02/M08 Q1020,ESUP,2017-05-06T15:20:00Z,67.25,23.07,2.0,-8.0,340,8,,6.21,30.11811,,,TRUE,,,,,,,,BKN,4600,,,,,,,VFR,,,,,,,,,,,,METAR,165.0
ESST 061520Z AUTO 09008KT 060V120 9999 OVC140/// 17/05 Q1016,ESST,2017-05-06T15:20:00Z,60.15,12.98,17.0,5.0,90,8,,6.21,30.0,,,TRUE,,,,,,,,OVC,14000,,,,,,,VFR,,,,,,,,,,,,METAR,120.0
ESNV 061520Z AUTO 11009KT 9999 BKN061/// 09/06 Q1018,ESNV,2017-05-06T15:20:00Z,64.58,16.83,9.0,6.0,110,9,,6.21,30.059055,,,TRUE,,,,,,,,BKN,6100,,,,,,,VFR,,,,,,,,,,,,METAR,348.0
ESKM 061520Z AUTO 09005KT 9999 FEW039/// BKN044/// 12/03 Q1018,ESKM,2017-05-06T15:20:00Z,60.97,14.52,12.0,3.0,90,5,,6.21,30.059055,,,TRUE,,,,,,,,FEW,3900,BKN,4400,,,,,VFR,,,,,,,,,,,,METAR,193.0
ESGR 061520Z AUTO 10007KT 040V140 9999 SCT055/// 20/05 Q1015,ESGR,2017-05-06T15:20:00Z,58.45,13.97,20.0,5.0,100,7,,6.21,29.970472,,,TRUE,,,,,,,,SCT,5500,,,,,,,VFR,,,,,,,,,,,,METAR,105.0
EGPE 061520Z 06012KT 9999 FEW025 13/09 Q1022,EGPE,2017-05-06T15:20:00Z,57.52,-4.03,13.0,9.0,60,12,,6.21,30.177166,,,,,,,,,,,FEW,2500,,,,,,,VFR,,,,,,,,,,,,METAR,9.0
EGNR 061520Z 07006KT 9999 FEW028 BKN036 13/06 Q1016,EGNR,2017-05-06T15:20:00Z,53.17,-2.97,13.0,6.0,70,6,,6.21,30.0,,,,,,,,,,,FEW,2800,BKN,3600,,,,,VFR,,,,,,,,,,,,METAR,10.0
EGNJ 061520Z 05012KT 010V080 9999 BKN014 OVC019 11/07 Q1016,EGNJ,2017-05-06T15:20:00Z,53.57,-0.35,11.0,7.0,50,12,,6.21,30.0,,,,,,,,,,,BKN,1400,OVC,1900,,,,,MVFR,,,,,,,,,,,,METAR,31.0
EGNH 061520Z 06013KT 030V090 9999 BKN035 13/06 Q1016,EGNH,2017-05-06T15:20:00Z,53.77,-3.02,13.0,6.0,60,13,,6.21,30.0,,,,,,,,,,,BKN,3500,,,,,,,VFR,,,,,,,,,,,,METAR,10.0
EGAE 061520Z 03016KT CAVOK 16/05 Q1018,EGAE,2017-05-06T15:20:00Z,55.03,-7.15,16.0,5.0,30,16,,6.21,30.059055,,,,,,,,,,,CAVOK,,,,,,,,VFR,,,,,,,,,,,,METAR,9.0
EGSH 061520Z 04009KT 6000 BKN016 11/07 Q1014 NOSIG,EGSH,2017-05-06T15:20:00Z,52.68,1.28,11.0,7.0,40,9,,3.73,29.940945,,,,,,TRUE,,,,,BKN,1600,,,,,,,MVFR,,,,,,,,,,,,METAR,36.0
ESNZ 061520Z 29008KT 9999 SCT049 10/02 Q1017,ESNZ,2017-05-06T15:20:00Z,63.17,14.5,10.0,2.0,290,8,,6.21,30.029528,,,,,,,,,,,SCT,4900,,,,,,,VFR,,,,,,,,,,,,METAR,370.0
ESNU 061520Z 10010KT 9999 SCT043 04/M05 Q1021 R14/09//95,ESNU,2017-05-06T15:20:00Z,63.78,20.27,4.0,-5.0,100,10,,6.21,30.147638,,,,,,,,,,,SCT,4300,,,,,,,VFR,,,,,,,,,,,,METAR,14.0
ESNS 061520Z AUTO 09007KT 9999 SCT057/// 04/M06 Q1021,ESNS,2017-05-06T15:20:00Z,64.62,21.07,4.0,-6.0,90,7,,6.21,30.147638,,,TRUE,,,,,,,,SCT,5700,,,,,,,VFR,,,,,,,,,,,,METAR,49.0
ESNQ 061520Z AUTO 35010KT 9999 SCT038/// 01/M09 Q1020,ESNQ,2017-05-06T15:20:00Z,67.82,20.32,1.0,-9.0,350,10,,6.21,30.11811,,,TRUE,,,,,,,,SCT,3800,,,,,,,VFR,,,,,,,,,,,,METAR,452.0
ESNO 061520Z AUTO 12010KT 9999 BKN042/// OVC066/// 04/M03 Q1020,ESNO,2017-05-06T15:20:00Z,63.38,18.97,4.0,-3.0,120,10,,6.21,30.11811,,,TRUE,,,,,,,,BKN,4200,OVC,6600,,,,,VFR,,,,,,,,,,,,METAR,103.0
ESNN 061520Z AUTO 15009KT 9999 SCT039/// OVC053/// 06/M04 Q1021,ESNN,2017-05-06T15:20:00Z,62.52,17.43,6.0,-4.0,150,9,,6.21,30.147638,,,TRUE,,,,,,,,SCT,3900,OVC,5300,,,,,VFR,,,,,,,,,,,,METAR,10.0
ESNK 061520Z AUTO 16009KT 9999 OVC039/// 06/M04 Q1020,ESNK,2017-05-06T15:20:00Z,63.03,17.77,6.0,-4.0,160,9,,6.21,30.11811,,,TRUE,,,,,,,,OVC,3900,,,,,,,VFR,,,,,,,,,,,,METAR,19.0
ESNG 061520Z AUTO 02009KT 9999 OVC047/// 02/M08 Q1020,ESNG,2017-05-06T15:20:00Z,67.13,20.82,2.0,-8.0,20,9,,6.21,30.11811,,,TRUE,,,,,,,,OVC,4700,,,,,,,VFR,,,,,,,,,,,,METAR,310.0
EGSC 061520Z 03009KT 9999 FEW021 BKN025 13/07 Q1013,EGSC,2017-05-06T15:20:00Z,52.2,0.17,13.0,7.0,30,9,,6.21,29.911417,,,,,,,,,,,FEW,2100,BKN,2500,,,,,MVFR,,,,,,,,,,,,METAR,15.0
EGMW 061520Z 03014KT 7000 OVC010 10/08 Q1013,EGMW,2017-05-06T15:20:00Z,,,10.0,8.0,30,14,,4.35,29.911417,,,,,,,,,,,OVC,1000,,,,,,,MVFR,,,,,,,,,,,,METAR,
EGCN 061520Z 06011KT 030V090 9999 BKN021 BKN027 12/07 Q1017,EGCN,2017-05-06T15:20:00Z,53.48,-1.0,12.0,7.0,60,11,,6.21,30.029528,,,,,,,,,,,BKN,2100,BKN,2700,,,,,MVFR,,,,,,,,,,,,METAR,17.0
EGBJ 061520Z 05010KT 9999 FEW022 SCT026 BKN040 13/07 Q1014,EGBJ,2017-05-06T15:20:00Z,51.9,-2.17,13.0,7.0,50,10,,6.21,29.940945,,,,,,,,,,,FEW,2200,SCT,2600,BKN,4000,,,VFR,,,,,,,,,,,,METAR,29.0
EGBE 061520Z 04010KT 9999 SCT012 BKN020 11/08 Q1014 RERA,EGBE,2017-05-06T15:20:00Z,52.37,-1.47,11.0,8.0,40,10,,6.21,29.940945,,,,,,,,,,,SCT,1200,BKN,2000,,,,,MVFR,,,,,,,,,,,,METAR,82.0
ESSV 061520Z 36011KT CAVOK 12/04 Q1016,ESSV,2017-05-06T15:20:00Z,57.67,18.35,12.0,4.0,360,11,,6.21,30.0,,,,,,,,,,,CAVOK,,,,,,,,VFR,,,,,,,,,,,,METAR,47.0
ESSP 061520Z AUTO 05006KT 9999 OVC048/// 15/06 Q1016,ESSP,2017-05-06T15:20:00Z,58.57,16.25,15.0,6.0,50,6,,6.21,30.0,,,TRUE,,,,,,,,OVC,4800,,,,,,,VFR,,,,,,,,,,,,METAR,8.0
ESSD 061520Z AUTO 07004KT 030V100 8000 -DZ BKN018/// OVC024/// 08/07 Q1018,ESSD,2017-05-06T15:20:00Z,60.42,15.5,8.0,7.0,70,4,,4.97,30.059055,,,TRUE,,,,,,,-DZ,BKN,1800,OVC,2400,,,,,MVFR,,,,,,,,,,,,METAR,161.0
ESSB 061520Z AUTO 04008KT 9999 OVC044/// 13/03 Q1017,ESSB,2017-05-06T15:20:00Z,59.35,17.93,13.0,3.0,40,8,,6.21,30.029528,,,TRUE,,,,,,,,OVC,4400,,,,,,,VFR,,,,,,,,,,,,METAR,11.0
ESSA 061520Z 03012KT 9999 BKN042 12/03 Q1017 NOSIG,ESSA,2017-05-06T15:20:00Z,59.63,17.93,12.0,3.0,30,12,,6.21,30.029528,,,,,,TRUE,,,,,BKN,4200,,,,,,,VFR,,,,,,,,,,,,METAR,61.0
ESOW 061520Z AUTO 03010KT 9999 OVC040/// 13/03 Q1018,ESOW,2017-05-06T15:20:00Z,59.57,16.62,13.0,3.0,30,10,,6.21,30.059055,,,TRUE,,,,,,,,OVC,4000,,,,,,,VFR,,,,,,,,,,,,METAR,31.0
ESOK 061520Z 06011KT CAVOK 18/05 Q1016,ESOK,2017-05-06T15:20:00Z,59.45,13.33,18.0,5.0,60,11,,6.21,30.0,,,,,,,,,,,CAVOK,,,,,,,,VFR,,,,,,,,,,,,METAR,107.0
ESOE 061520Z AUTO 08011KT 9999 OVC032/// 14/07 Q1017,ESOE,2017-05-06T15:20:00Z,59.22,15.05,14.0,7.0,80,11,,6.21,30.029528,,,TRUE,,,,,,,,OVC,3200,,,,,,,VFR,,,,,,,,,,,,METAR,57.0
ESKN 061520Z 03009KT 9999 BKN043 14/05 Q1016,ESKN,2017-05-06T15:20:00Z,58.78,16.9,14.0,5.0,30,9,,6.21,30.0,,,,,,,,,,,BKN,4300,,,,,,,VFR,,,,,,,,,,,,METAR,43.0
EGTE 061520Z 03007KT 8000 FEW020 SCT030 16/09 Q1012,EGTE,2017-05-06T15:20:00Z,50.72,-3.42,16.0,9.0,30,7,,4.97,29.88189,,,,,,,,,,,FEW,2000,SCT,3000,,,,,MVFR,,,,,,,,,,,,METAR,30.0
EGJJ 061520Z 06005KT 3000 -RA BR BKN005 11/10 Q1012 NOSIG,EGJJ,2017-05-06T15:20:00Z,49.22,-2.2,11.0,10.0,60,5,,1.86,29.88189,,,,,,TRUE,,,,-RA BR,BKN,500,,,,,,,IFR,,,,,,,,,,,,METAR,84.0
EGJB 061520Z 06005KT 1800 -RA BR SCT003 BKN004 11/10 Q1012 RERA,EGJB,2017-05-06T15:20:00Z,49.42,-2.6,11.0,10.0,60,5,,1.12,29.88189,,,,,,,,,,-RA BR,SCT,300,BKN,400,,,,,LIFR,,,,,,,,,,,,METAR,102.0
EGHQ 061520Z VRB03KT 6000 -RA SCT018 BKN030 11/09 Q1013,EGHQ,2017-05-06T15:20:00Z,50.43,-5.0,11.0,9.0,0,3,,3.73,29.911417,,,,,,,,,,-RA,SCT,1800,BKN,3000,,,,,MVFR,,,,,,,,,,,,METAR,119.0
EGHE 061520Z 10014KT 2500 -RADZ BR SCT002 BKN003 11/11 Q1013,EGHE,2017-05-06T15:20:00Z,49.92,-6.28,11.0,11.0,100,14,,1.55,29.911417,,,,,,,,,,-RA -DZ BR,SCT,200,BKN,300,,,,,LIFR,,,,,,,,,,,,METAR,31.0
EGHC 061520Z 10015KT 3500 -RA BR SCT003 BKN005 10/10 Q1012,EGHC,2017-05-06T15:20:00Z,50.1,-5.67,10.0,10.0,100,15,,2.17,29.88189,,,,,,,,,,-RA BR,SCT,300,BKN,500,,,,,IFR,,,,,,,,,,,,METAR,122.0
EGPD 061520Z AUTO 35013KT 9999 SCT017 12/07 Q1021 TEMPO BKN012,EGPD,2017-05-06T15:20:00Z,57.2,-2.22,12.0,7.0,350,13,,6.21,30.147638,,,TRUE,,,,,,,,SCT,1700,,,,,,,VFR,,,,,,,,,,,,METAR,65.0
EGNX 061520Z 06008KT 9999 BKN016 10/07 Q1015,EGNX,2017-05-06T15:20:00Z,52.82,-1.32,10.0,7.0,60,8,,6.21,29.970472,,,,,,,,,,,BKN,1600,,,,,,,MVFR,,,,,,,,,,,,METAR,94.0
EGNM 061520Z 06011KT 020V090 9999 SCT020 BKN028 10/06 Q1016,EGNM,2017-05-06T15:20:00Z,53.87,-1.63,10.0,6.0,60,11,,6.21,30.0,,,,,,,,,,,SCT,2000,BKN,2800,,,,,MVFR,,,,,,,,,,,,METAR,208.0
EGLC 061520Z AUTO 03010KT 340V060 9999 FEW032 15/08 Q1012,EGLC,2017-05-06T15:20:00Z,51.5,0.05,15.0,8.0,30,10,,6.21,29.88189,,,TRUE,,,,,,,,FEW,3200,,,,,,,VFR,,,,,,,,,,,,METAR,5.0
EGGW 061520Z AUTO 03009KT 350V050 9999 OVC020 12/07 Q1013,EGGW,2017-05-06T15:20:00Z,51.87,-0.37,12.0,7.0,30,9,,6.21,29.911417,,,TRUE,,,,,,,,OVC,2000,,,,,,,MVFR,,,,,,,,,,,,METAR,160.0
EGFF 061520Z AUTO 06012KT 9999 BKN038 14/07 Q1013,EGFF,2017-05-06T15:20:00Z,51.38,-3.35,14.0,7.0,60,12,,6.21,29.911417,,,TRUE,,,,,,,,BKN,3800,,,,,,,VFR,,,,,,,,,,,,METAR,67.0
EGAC 061520Z 03010KT CAVOK 16/03 Q1017,EGAC,2017-05-06T15:20:00Z,54.62,-5.87,16.0,3.0,30,10,,6.21,30.029528,,,,,,,,,,,CAVOK,,,,,,,,VFR,,,,,,,,,,,,METAR,5.0
EGAA 061520Z 06012KT CAVOK 16/03 Q1018,EGAA,2017-05-06T15:20:00Z,54.63,-6.22,16.0,3.0,60,12,,6.21,30.059055,,,,,,,,,,,CAVOK,,,,,,,,VFR,,,,,,,,,,,,METAR,81.0
EGTK 061520Z 04009KT 9999 FEW028 BKN034 13/07 Q1013,EGTK,2017-05-06T15:20:00Z,51.83,-1.32,13.0,7.0,40,9,,6.21,29.911417,,,,,,,,,,,FEW,2800,BKN,3400,,,,,VFR,,,,,,,,,,,,METAR,82.0
EGTC 061520Z 02011KT 9999 BKN023 12/09 Q1013,EGTC,2017-05-06T15:20:00Z,52.07,-0.62,12.0,9.0,20,11,,6.21,29.911417,,,,,,,,,,,BKN,2300,,,,,,,MVFR,,,,,,,,,,,,METAR,111.0
EGMD 061520Z 03017KT 8000 FEW017 13/09 Q1011,EGMD,2017-05-06T15:20:00Z,50.95,0.92,13.0,9.0,30,17,,4.97,29.852362,,,,,,,,,,,FEW,1700,,,,,,,MVFR,,,,,,,,,,,,METAR,3.0
EGMC 061520Z 07011KT 6000 SCT024 14/08 Q1012,EGMC,2017-05-06T15:20:00Z,51.57,0.7,14.0,8.0,70,11,,3.73,29.88189,,,,,,,,,,,SCT,2400,,,,,,,MVFR,,,,,,,,,,,,METAR,15.0
EGLF 061520Z 04008KT 360V070 9999 BKN030 15/07 Q1012,EGLF,2017-05-06T15:20:00Z,51.28,-0.77,15.0,7.0,40,8,,6.21,29.88189,,,,,,,,,,,BKN,3000,,,,,,,MVFR,,,,,,,,,,,,METAR,65.0
EGKB 061520Z 02009KT 360V060 6000 SCT025 14/08 Q1012,EGKB,2017-05-06T15:20:00Z,51.32,0.02,14.0,8.0,20,9,,3.73,29.88189,,,,,,,,,,,SCT,2500,,,,,,,MVFR,,,,,,,,,,,,METAR,183.0
EGHH 061520Z 04011KT 9999 FEW042 BKN049 18/09 Q1011,EGHH,2017-05-06T15:20:00Z,50.78,-1.83,18.0,9.0,40,11,,6.21,29.852362,,,,,,,,,,,FEW,4200,BKN,4900,,,,,VFR,,,,,,,,,,,,METAR,11.0
EGCC 061520Z AUTO 06007KT 040V110 9999 OVC027 12/06 Q1016 NOSIG,EGCC,2017-05-06T15:20:00Z,53.35,-2.27,12.0,6.0,60,7,,6.21,30.0,,,TRUE,,,TRUE,,,,,OVC,2700,,,,,,,MVFR,,,,,,,,,,,,METAR,78.0
EGSS 061520Z AUTO 02008KT 9999 OVC023 13/08 Q1013,EGSS,2017-05-06T15:20:00Z,51.88,0.22,13.0,8.0,20,8,,6.21,29.911417,,,TRUE,,,,,,,,OVC,2300,,,,,,,MVFR,,,,,,,,,,,,METAR,106.0
EGPK 061520Z 07010KT 020V100 9999 FEW035 17/01 Q1019,EGPK,2017-05-06T15:20:00Z,55.5,-4.57,17.0,1.0,70,10,,6.21,30.088583,,,,,,,,,,,FEW,3500,,,,,,,VFR,,,,,,,,,,,,METAR,20.0
EGPF 061520Z AUTO 08015KT 9999 NCD 16/02 Q1019,EGPF,2017-05-06T15:20:00Z,55.87,-4.42,16.0,2.0,80,15,,6.21,30.088583,,,TRUE,,,,,,,,CLR,,,,,,,,VFR,,,,,,,,,,,,METAR,8.0
EGLL 061520Z AUTO 03006KT 340V070 9999 OVC028 15/08 Q1012,EGLL,2017-05-06T15:20:00Z,51.48,-0.45,15.0,8.0,30,6,,6.21,29.88189,,,TRUE,,,,,,,,OVC,2800,,,,,,,MVFR,,,,,,,,,,,,METAR,24.0
EGKK 061520Z 03012KT 9000 SCT032 BKN045 15/07 Q1012,EGKK,2017-05-06T15:20:00Z,51.13,-0.17,15.0,7.0,30,12,,5.59,29.88189,,,,,,,,,,,SCT,3200,BKN,4500,,,,,VFR,,,,,,,,,,,,METAR,62.0
EGBB 061520Z 05009KT 020V090 9999 OVC015 10/07 Q1015,EGBB,2017-05-06T15:20:00Z,52.47,-1.75,10.0,7.0,50,9,,6.21,29.970472,,,,,,,,,,,OVC,1500,,,,,,,MVFR,,,,,,,,,,,,METAR,99.0
EGPO 061520Z AUTO 04015KT 9999 BKN004/// 12/09 Q1023,EGPO,2017-05-06T15:20:00Z,58.22,-6.32,12.0,9.0,40,15,,6.21,30.206694,,,TRUE,,,,,,,,BKN,400,,,,,,,LIFR,,,,,,,,,,,,METAR,13.0
EGPM 061520Z AUTO 01011KT 9999 OVC001/// 09/08 Q1023,EGPM,2017-05-06T15:20:00Z,60.42,-1.3,9.0,8.0,10,11,,6.21,30.206694,,,TRUE,,,,,,,,OVC,100,,,,,,,LIFR,,,,,,,,,,,,METAR,22.0
EGPL 061520Z AUTO 07013KT 9999 NCD 14/07 Q1022,EGPL,2017-05-06T15:20:00Z,57.47,-7.37,14.0,7.0,70,13,,6.21,30.177166,,,TRUE,,,,,,,,CLR,,,,,,,,VFR,,,,,,,,,,,,METAR,6.0
EGPC 061520Z AUTO 36011KT 9999 NCD 14/07 Q1022,EGPC,2017-05-06T15:20:00Z,58.45,-3.07,14.0,7.0,360,11,,6.21,30.177166,,,TRUE,,,,,,,,CLR,,,,,,,,VFR,,,,,,,,,,,,METAR,39.0
EGPA 061520Z 36011KT 9999 FEW012 12/09 Q1023,EGPA,2017-05-06T15:20:00Z,58.95,-2.88,12.0,9.0,360,11,,6.21,30.206694,,,,,,,,,,,FEW,1200,,,,,,,VFR,,,,,,,,,,,,METAR,21.0
EGPB 061520Z 04011KT 6000 SCT003 BKN004 10/08 Q1022 TEMPO 4000 BR,EGPB,2017-05-06T15:20:00Z,59.87,-1.3,10.0,8.0,40,11,,3.73,30.177166,,,,,,,,,,,SCT,300,BKN,400,,,,,LIFR,,,,,,,,,,,,METAR,5.0
EGNV 061520Z 03010KT 9999 SCT014 BKN041 11/07 Q1018,EGNV,2017-05-06T15:20:00Z,54.52,-1.42,11.0,7.0,30,10,,6.21,30.059055,,,,,,,,,,,SCT,1400,BKN,4100,,,,,VFR,,,,,,,,,,,,METAR,37.0
EGNT 061520Z 03011KT 9999 FEW020 11/07 Q1018,EGNT,2017-05-06T15:20:00Z,55.02,-1.7,11.0,7.0,30,11,,6.21,30.059055,,,,,,,,,,,FEW,2000,,,,,,,VFR,,,,,,,,,,,,METAR,81.0
EGNS 061520Z 06013KT CAVOK 14/04 Q1016 NOSIG,EGNS,2017-05-06T15:20:00Z,54.08,-4.63,14.0,4.0,60,13,,6.21,30.0,,,,,,TRUE,,,,,CAVOK,,,,,,,,VFR,,,,,,,,,,,,METAR,17.0
EGHI 061520Z 02010KT 350V060 9999 FEW036 SCT049 15/06 Q1012,EGHI,2017-05-06T15:20:00Z,50.95,-1.35,15.0,6.0,20,10,,6.21,29.88189,,,,,,,,,,,FEW,3600,SCT,4900,,,,,VFR,,,,,,,,,,,,METAR,14.0
EGGP 061520Z 06012KT 9999 BKN030 12/06 Q1016,EGGP,2017-05-06T15:20:00Z,53.32,-2.85,12.0,6.0,60,12,,6.21,30.0,,,,,,,,,,,BKN,3000,,,,,,,MVFR,,,,,,,,,,,,METAR,26.0
EGGD 061520Z AUTO 04012KT 020V090 9999 FEW027 13/07 Q1013,EGGD,2017-05-06T15:20:00Z,51.37,-2.72,13.0,7.0,40,12,,6.21,29.911417,,,TRUE,,,,,,,,FEW,2700,,,,,,,VFR,,,,,,,,,,,,METAR,189.0
ESSL 061520Z 06010KT 030V130 CAVOK 16/07 Q1016,ESSL,2017-05-06T15:20:00Z,58.38,15.67,16.0,7.0,60,10,,6.21,30.0,,,,,,,,,,,CAVOK,,,,,,,,VFR,,,,,,,,,,,,METAR,52.0
ESPE 061520Z AUTO 04005KT 020V080 9999 OVC060/// 05/M05 Q1020,ESPE,2017-05-06T15:20:00Z,65.88,20.15,5.0,-5.0,40,5,,6.21,30.11811,,,TRUE,,,,,,,,OVC,6000,,,,,,,VFR,,,,,,,,,,,,METAR,182.0
ESPA 061520Z 03004KT 330V080 CAVOK 06/M07 Q1021,ESPA,2017-05-06T15:20:00Z,65.53,22.12,6.0,-7.0,30,4,,6.21,30.147638,,,,,,,,,,,CAVOK,,,,,,,,VFR,,,,,,,,,,,,METAR,34.0
ESIB 061520Z AUTO 02010KT 9999 NCD 16/08 Q1015,ESIB,2017-05-06T15:20:00Z,58.42,12.68,16.0,8.0,20,10,,6.21,29.970472,,,TRUE,,,,,,,,CLR,,,,,,,,VFR,,,,,,,,,,,,METAR,74.0
ESDF 061520Z AUTO 16007KT 9999 NCD 18/M03 Q1014,ESDF,2017-05-06T15:20:00Z,56.27,15.27,18.0,-3.0,160,7,,6.21,29.940945,,,TRUE,,,,,,,,CLR,,,,,,,,VFR,,,,,,,,,,,,METAR,74.0
ESCF 061520Z AUTO 04013KT 020V080 9999 FEW056/// 16/09 Q1016,ESCF,2017-05-06T15:20:00Z,58.38,15.52,16.0,9.0,40,13,,6.21,30.0,,,TRUE,,,,,,,,FEW,5600,,,,,,,VFR,,,,,,,,,,,,METAR,117.0
CWZQ 061520Z AUTO 35034G56KT 12/07 RMK AO1 T01180074,CWZQ,2017-05-06T15:20:00Z,46.53,-61.05,11.8,7.4,350,34,56,,,,,TRUE,TRUE,,,,,,,,,,,,,,,,,,,,,,,,,,,METAR,17.0
EKRN 061520Z AUTO 25004KT 9999NDV NCD 10/06 Q1015,EKRN,2017-05-06T15:20:00Z,55.07,14.75,10.0,6.0,250,4,,,29.970472,,,TRUE,,,,,,,,CLR,,,,,,,,,,,,,,,,,,,,METAR,16.0
EKEB 061520Z AUTO 25006KT 9999NDV FEW061/// 15/07 Q1015,EKEB,2017-05-06T15:20:00Z,55.52,8.55,15.0,7.0,250,6,,,29.970472,,,TRUE,,,,,,,,FEW,6100,,,,,,,,,,,,,,,,,,,METAR,29.0
EKAH 061520Z AUTO 16004KT 120V200 9999NDV NCD 18/M01 Q1015,EKAH,2017-05-06T15:20:00Z,56.28,10.62,18.0,-1.0,160,4,,,29.970472,,,TRUE,,,,,,,,CLR,,,,,,,,,,,,,,,,,,,,METAR,25.0
EKRK 061520Z AUTO 13001KT 9999NDV NCD 17/04 Q1014,EKRK,2017-05-06T15:20:00Z,55.57,12.12,17.0,4.0,130,1,,,29.940945,,,TRUE,,,,,,,,CLR,,,,,,,,,,,,,,,,,,,,METAR,44.0
EKYT 061520Z 32005KT 270V350 CAVOK 20/09 Q1014,EKYT,2017-05-06T15:20:00Z,57.1,9.87,20.0,9.0,320,5,,6.21,29.940945,,,,,,,,,,,CAVOK,,,,,,,,VFR,,,,,,,,,,,,METAR,3.0
EKBI 061520Z AUTO 13005KT 090V170 9999NDV FEW059/// 17/02 Q1015,EKBI,2017-05-06T15:20:00Z,55.72,9.15,17.0,2.0,130,5,,,29.970472,,,TRUE,,,,,,,,FEW,5900,,,,,,,,,,,,,,,,,,,METAR,66.0
EKCH 061520Z 19006KT CAVOK 15/03 Q1015 NOSIG,EKCH,2017-05-06T15:20:00Z,55.62,12.67,15.0,3.0,190,6,,6.21,29.970472,,,,,,TRUE,,,,,CAVOK,,,,,,,,VFR,,,,,,,,,,,,METAR,5.0
EKSB 061520Z 05002KT 9999 SCT022 BKN035 13/09 Q1015,EKSB,2017-05-06T15:20:00Z,54.97,9.8,13.0,9.0,50,2,,6.21,29.970472,,,,,,,,,,,SCT,2200,BKN,3500,,,,,VFR,,,,,,,,,,,,METAR,23.0
ESTL 061520Z AUTO 31013KT 9999NDV NCD 18/02 Q1014,ESTL,2017-05-06T15:20:00Z,56.07,13.2,18.0,2.0,310,13,,,29.940945,,,TRUE,,,,,,,,CLR,,,,,,,,,,,,,,,,,,,,SPECI,43.0
ESTA 061520Z AUTO 30011KT 9999 NCD 15/03 Q1014,ESTA,2017-05-06T15:20:00Z,56.28,12.83,15.0,3.0,300,11,,6.21,29.940945,,,TRUE,,,,,,,,CLR,,,,,,,,VFR,,,,,,,,,,,,METAR,47.0
ESMX 061520Z AUTO 07008KT 030V110 9999 BKN082/// 19/06 Q1013,ESMX,2017-05-06T15:20:00Z,56.92,14.72,19.0,6.0,70,8,,6.21,29.911417,,,TRUE,,,,,,,,BKN,8200,,,,,,,VFR,,,,,,,,,,,,METAR,186.0
ESMT 061520Z AUTO 30009KT 9999 NCD 17/01 Q1014,ESMT,2017-05-06T15:20:00Z,56.67,12.82,17.0,1.0,300,9,,6.21,29.940945,,,TRUE,,,,,,,,CLR,,,,,,,,VFR,,,,,,,,,,,,METAR,30.0
ESMS 061520Z 24006KT CAVOK 17/05 Q1014,ESMS,2017-05-06T15:20:00Z,55.53,13.37,17.0,5.0,240,6,,6.21,29.940945,,,,,,,,,,,CAVOK,,,,,,,,VFR,,,,,,,,,,,,METAR,106.0
ESMQ 061520Z AUTO 04011KT 9999 NCD 15/06 Q1015,ESMQ,2017-05-06T15:20:00Z,56.68,16.3,15.0,6.0,40,11,,6.21,29.970472,,,TRUE,,,,,,,,CLR,,,,,,,,VFR,,,,,,,,,,,,METAR,16.0
ESMK 061520Z AUTO 14005KT 9999 NCD 20/M02 Q1013,ESMK,2017-05-06T15:20:00Z,55.92,14.07,20.0,-2.0,140,5,,6.21,29.911417,,,TRUE,,,,,,,,CLR,,,,,,,,VFR,,,,,,,,,,,,METAR,23.0
ESGJ 061520Z 01011KT CAVOK 17/06 Q1014,ESGJ,2017-05-06T15:20:00Z,57.77,14.07,17.0,6.0,10,11,,6.21,29.940945,,,,,,,,,,,CAVOK,,,,,,,,VFR,,,,,,,,,,,,METAR,232.0
ESGG 061520Z 02007KT 340V060 CAVOK 20/07 Q1014,ESGG,2017-05-06T15:20:00Z,57.67,12.3,20.0,7.0,20,7,,6.21,29.940945,,,,,,,,,,,CAVOK,,,,,,,,VFR,,,,,,,,,,,,METAR,169.0
EFKT 061520Z AUTO 36008KT 310V050 9999 -SHSN OVC031 M01/M05 Q1019,EFKT,2017-05-06T15:20:00Z,67.7,24.85,-1.0,-5.0,360,8,,6.21,30.088583,,,TRUE,,,,,,,-SHSN,OVC,3100,,,,,,,VFR,,,,,,,,,,,,METAR,643.0
EFKS 061520Z AUTO 33011G21KT 280V020 9999 BKN046 M00/M10 Q1015,EFKS,2017-05-06T15:20:00Z,66.0,29.23,0.0,-10.0,330,11,21,6.21,29.970472,,,TRUE,,,,,,,,BKN,4600,,,,,,,VFR,,,,,,,,,,,,METAR,263.0
EFKI 061520Z AUTO 34007KT 310V020 9999 FEW047 03/M07 Q1017,EFKI,2017-05-06T15:20:00Z,64.27,27.67,3.0,-7.0,340,7,,6.21,30.029528,,,TRUE,,,,,,,,FEW,4700,,,,,,,VFR,,,,,,,,,,,,METAR,136.0
EFKE 061520Z AUTO 01009KT 330V040 CAVOK 03/M07 Q1020,EFKE,2017-05-06T15:20:00Z,65.77,24.57,3.0,-7.0,10,9,,6.21,30.11811,,,TRUE,,,,,,,,CAVOK,,,,,,,,VFR,,,,,,,,,,,,METAR,15.0
EFET 061520Z AUTO 35010KT 320V020 CAVOK M01/M08 Q1019,EFET,2017-05-06T15:20:00Z,68.37,23.43,-1.0,-8.0,350,10,,6.21,30.088583,,,TRUE,,,,,,,,CAVOK,,,,,,,,VFR,,,,,,,,,,,,METAR,306.0
EFUT 061520Z AUTO 36010KT 300V060 CAVOK 09/M04 Q1014,EFUT,2017-05-06T15:20:00Z,60.88,26.92,9.0,-4.0,360,10,,6.21,29.940945,,,TRUE,,,,,,,,CAVOK,,,,,,,,VFR,,,,,,,,,,,,METAR,100.0
EFSI 061520Z AUTO 36011KT 310V050 CAVOK 06/M06 Q1018,EFSI,2017-05-06T15:20:00Z,62.7,22.83,6.0,-6.0,360,11,,6.21,30.059055,,,TRUE,,,,,,,,CAVOK,,,,,,,,VFR,,,,,,,,,,,,METAR,91.0
EFSA 061520Z AUTO 03005KT 340V090 CAVOK 06/M06 Q1015,EFSA,2017-05-06T15:20:00Z,61.95,28.93,6.0,-6.0,30,5,,6.21,29.970472,,,TRUE,,,,,,,,CAVOK,,,,,,,,VFR,,,,,,,,,,,,METAR,95.0
EFMI 061520Z AUTO VRB06KT CAVOK 08/M05 Q1015,EFMI,2017-05-06T15:20:00Z,61.68,27.2,8.0,-5.0,0,6,,6.21,29.970472,,,TRUE,,,,,,,,CAVOK,,,,,,,,VFR,,,,,,,,,,,,METAR,138.0
EFLP 061520Z 02010KT 350V050 9999 FEW046 07/M05 Q1014,EFLP,2017-05-06T15:20:00Z,61.07,28.13,7.0,-5.0,20,10,,6.21,29.940945,,,,,,,,,,,FEW,4600,,,,,,,VFR,,,,,,,,,,,,METAR,106.0
EFJO 061520Z AUTO 34008KT 310V040 CAVOK 05/M08 Q1015,EFJO,2017-05-06T15:20:00Z,62.67,29.62,5.0,-8.0,340,8,,6.21,29.970472,,,TRUE,,,,,,,,CAVOK,,,,,,,,VFR,,,,,,,,,,,,METAR,117.0
EFPO 061520Z AUTO 36010KT 320V040 CAVOK 11/M08 Q1016,EFPO,2017-05-06T15:20:00Z,61.47,21.8,11.0,-8.0,360,10,,6.21,30.0,,,TRUE,,,,,,,,CAVOK,,,,,,,,VFR,,,,,,,,,,,,METAR,17.0
EFKK 061520Z 36017KT 330V040 CAVOK 03/M07 Q1020,EFKK,2017-05-06T15:20:00Z,63.72,23.13,3.0,-7.0,360,17,,6.21,30.11811,,,,,,,,,,,CAVOK,,,,,,,,VFR,,,,,,,,,,,,METAR,25.0
EFHA 061520Z AUTO 01008KT CAVOK 09/M05 Q1015,EFHA,2017-05-06T15:20:00Z,61.85,24.8,9.0,-5.0,10,8,,6.21,29.970472,,,TRUE,,,,,,,,CAVOK,,,,,,,,VFR,,,,,,,,,,,,METAR,145.0
EFKU 061520Z AUTO 01009KT CAVOK 05/M07 Q1016,EFKU,2017-05-06T15:20:00Z,63.02,27.8,5.0,-7.0,10,9,,6.21,30.0,,,TRUE,,,,,,,,CAVOK,,,,,,,,VFR,,,,,,,,,,,,METAR,102.0
EFJY 061520Z AUTO 01009KT CAVOK 07/M08 Q1016,EFJY,2017-05-06T15:20:00Z,62.4,25.68,7.0,-8.0,10,9,,6.21,30.0,,,TRUE,,,,,,,,CAVOK,,,,,,,,VFR,,,,,,,,,,,,METAR,145.0
EDDV 061520Z 09012KT 9999 SCT012 BKN014 BKN042 14/10 Q1013 BECMG BKN015,EDDV,2017-05-06T15:20:00Z,52.47,9.68,14.0,10.0,90,12,,6.21,29.911417,,,,,,,,,,,SCT,1200,BKN,1400,BKN,4200,,,MVFR,,,,,,,,,,,,SPECI,54.0
EDDT 061520Z 09009KT 050V140 9999 FEW030 BKN060 15/09 Q1013 NOSIG,EDDT,2017-05-06T15:20:00Z,52.57,13.32,15.0,9.0,90,9,,6.21,29.911417,,,,,,TRUE,,,,,FEW,3000,BKN,6000,,,,,VFR,,,,,,,,,,,,METAR,37.0
EDDS 061520Z 26008KT 9999 FEW040 SCT050 BKN080 18/09 Q1008 NOSIG,EDDS,2017-05-06T15:20:00Z,48.67,9.22,18.0,9.0,260,8,,6.21,29.763779,,,,,,TRUE,,,,,FEW,4000,SCT,5000,BKN,8000,,,VFR,,,,,,,,,,,,METAR,419.0
EDDN 061520Z 09007KT 050V150 CAVOK 21/06 Q1008 NOSIG,EDDN,2017-05-06T15:20:00Z,49.5,11.08,21.0,6.0,90,7,,6.21,29.763779,,,,,,TRUE,,,,,CAVOK,,,,,,,,VFR,,,,,,,,,,,,METAR,312.0
EDDM 061520Z 07004KT 360V120 CAVOK 20/05 Q1007 NOSIG,EDDM,2017-05-06T15:20:00Z,48.35,11.82,20.0,5.0,70,4,,6.21,29.734253,,,,,,TRUE,,,,,CAVOK,,,,,,,,VFR,,,,,,,,,,,,METAR,447.0
EDDL 061520Z 03012KT 360V060 CAVOK 20/10 Q1008 NOSIG,EDDL,2017-05-06T15:20:00Z,51.3,6.77,20.0,10.0,30,12,,6.21,29.763779,,,,,,TRUE,,,,,CAVOK,,,,,,,,VFR,,,,,,,,,,,,METAR,44.0
EDDK 061520Z 11008KT 050V160 CAVOK 21/07 Q1008 NOSIG,EDDK,2017-05-06T15:20:00Z,50.87,7.15,21.0,7.0,110,8,,6.21,29.763779,,,,,,TRUE,,,,,CAVOK,,,,,,,,VFR,,,,,,,,,,,,METAR,99.0
EDDH 061520Z 07007KT 010V110 9999 FEW026 BKN027 15/10 Q1013 NOSIG,EDDH,2017-05-06T15:20:00Z,53.63,10.0,15.0,10.0,70,7,,6.21,29.911417,,,,,,TRUE,,,,,FEW,2600,BKN,2700,,,,,MVFR,,,,,,,,,,,,METAR,16.0
EDDF 061520Z 10006KT 040V160 CAVOK 22/06 Q1008 NOSIG,EDDF,2017-05-06T15:20:00Z,50.05,8.6,22.0,6.0,100,6,,6.21,29.763779,,,,,,TRUE,,,,,CAVOK,,,,,,,,VFR,,,,,,,,,,,,METAR,113.0
EDDW 061520Z 09012KT 9999 FEW020 BKN035 14/09 Q1013 NOSIG,EDDW,2017-05-06T15:20:00Z,53.03,8.8,14.0,9.0,90,12,,6.21,29.911417,,,,,,TRUE,,,,,FEW,2000,BKN,3500,,,,,VFR,,,,,,,,,,,,METAR,5.0
EDDR 061520Z 20006KT 170V230 9999 -RA SCT020 BKN065 13/10 Q1010 NOSIG,EDDR,2017-05-06T15:20:00Z,49.22,7.1,13.0,10.0,200,6,,6.21,29.822834,,,,,,TRUE,,,,-RA,SCT,2000,BKN,6500,,,,,VFR,,,,,,,,,,,,METAR,320.0
EDDP 061520Z 08011KT 020V100 9999 SCT030 SCT230 17/10 Q1011 NOSIG,EDDP,2017-05-06T15:20:00Z,51.43,12.23,17.0,10.0,80,11,,6.21,29.852362,,,,,,TRUE,,,,,SCT,3000,SCT,23000,,,,,VFR,,,,,,,,,,,,METAR,149.0
EDDG 061520Z 04011KT 360V090 9999 SCT038 SCT250 17/08 Q1011 NOSIG,EDDG,2017-05-06T15:20:00Z,52.13,7.7,17.0,8.0,40,11,,6.21,29.852362,,,,,,TRUE,,,,,SCT,3800,SCT,25000,,,,,VFR,,,,,,,,,,,,METAR,52.0
EDDE 061520Z 06010KT 9999 SCT027 16/11 Q1010 NOSIG,EDDE,2017-05-06T15:20:00Z,50.98,10.97,16.0,11.0,60,10,,6.21,29.822834,,,,,,TRUE,,,,,SCT,2700,,,,,,,VFR,,,,,,,,,,,,METAR,323.0
EDDC 061520Z 07011KT 9999 BKN039 17/10 Q1011 NOSIG,EDDC,2017-05-06T15:20:00Z,51.13,13.75,17.0,10.0,70,11,,6.21,29.852362,,,,,,TRUE,,,,,BKN,3900,,,,,,,VFR,,,,,,,,,,,,METAR,226.0
EDDB 061520Z 06009KT 030V100 9999 FEW027 BKN066 OVC250 15/09 Q1013 NOSIG,EDDB,2017-05-06T15:20:00Z,52.38,13.53,15.0,9.0,60,9,,6.21,29.911417,,,,,,TRUE,,,,,FEW,2700,BKN,6600,OVC,25000,,,VFR,,,,,,,,,,,,METAR,48.0
KPSF 061520Z AUTO 13013G26KT 10SM SCT023 BKN044 OVC065 17/12 A2939 RMK AO2 PK WND 13026/1511 T01670122,KPSF,2017-05-06T15:20:00Z,42.43,-73.28,16.7,12.2,130,13,26,10.0,29.388779,,,TRUE,TRUE,,,,,,,SCT,2300,BKN,4400,OVC,6500,,,VFR,,,,,,,,,,,,SPECI,355.0
EVLA 061520Z AUTO 34005KT 290V020 9999 NCD 14/05 Q1013,EVLA,2017-05-06T15:20:00Z,56.52,21.1,14.0,5.0,340,5,,6.21,29.911417,,,TRUE,,,,,,,,CLR,,,,,,,,VFR,,,,,,,,,,,,METAR,4.0
EVVA 061520Z AUTO 34009KT CAVOK 09/06 Q1014,EVVA,2017-05-06T15:20:00Z,57.35,21.55,9.0,6.0,340,9,,6.21,29.940945,,,TRUE,,,,,,,,CAVOK,,,,,,,,VFR,,,,,,,,,,,,METAR,6.0
EKSP 061520Z 14004KT 100V200 9999 FEW025 BKN044 14/08 Q1015,EKSP,2017-05-06T15:20:00Z,55.22,9.27,14.0,8.0,140,4,,6.21,29.970472,,,,,,,,,,,FEW,2500,BKN,4400,,,,,VFR,,,,,,,,,,,,METAR,40.0
EKKA 061520Z AUTO 08004KT 030V110 9999NDV NCD 21/M00 Q1014,EKKA,2017-05-06T15:20:00Z,56.3,9.12,21.0,0.0,80,4,,,29.940945,,,TRUE,,,,,,,,CLR,,,,,,,,,,,,,,,,,,,,METAR,52.0
KMTN 061520Z 21016KT 5SM -DZBR BKN019 OVC026 14/13 A2940,KMTN,2017-05-06T15:20:00Z,39.32,-76.42,14.0,13.0,210,16,,5.0,29.40059,,,,,,,,,,-DZ BR,BKN,1900,OVC,2600,,,,,MVFR,,,,,,,,,,,,SPECI,7.0
CYOA 061520Z 12020G25KT 1 1/2SM DRSN BR OVC003 M05/M06 A3008 RMK ST8,CYOA,2017-05-06T15:20:00Z,64.7,-110.62,-5.0,-6.0,120,20,25,1.5,30.079725,,,,,,,,,,DRSN BR,OVC,300,,,,,,,LIFR,,,,,,,,,,,,SPECI,469.0
PAGS 061520Z AUTO 14004KT 10SM SCT015 BKN022 05/04 A2997 RMK AO2,PAGS,2017-05-06T15:20:00Z,58.42,-135.73,5.0,4.0,140,4,,10.0,29.970472,,,TRUE,TRUE,,,,,,,SCT,1500,BKN,2200,,,,,MVFR,,,,,,,,,,,,SPECI,9.0
EFIV 061520Z AUTO 31010KT 290V350 9999 -SHSN BKN024 M02/M07 Q1018,EFIV,2017-05-06T15:20:00Z,68.62,27.42,-2.0,-7.0,310,10,,6.21,30.059055,,,TRUE,,,,,,,-SHSN,BKN,2400,,,,,,,MVFR,,,,,,,,,,,,METAR,148.0
EFMA 061520Z AUTO 35014KT CAVOK 10/M01 Q1016,EFMA,2017-05-06T15:20:00Z,60.12,19.88,10.0,-1.0,350,14,,6.21,30.0,,,TRUE,,,,,,,,CAVOK,,,,,,,,VFR,,,,,,,,,,,,METAR,6.0
EFRO 061520Z AUTO 34012KT 9999 SCT049 01/M09 Q1018,EFRO,2017-05-06T15:20:00Z,66.57,25.82,1.0,-9.0,340,12,,6.21,30.059055,,,TRUE,,,,,,,,SCT,4900,,,,,,,VFR,,,,,,,,,,,,METAR,201.0
EFOU 061520Z AUTO 34015KT 9999 SCT055/// 03/M08 Q1019,EFOU,2017-05-06T15:20:00Z,64.92,25.37,3.0,-8.0,340,15,,6.21,30.088583,,,TRUE,,,,,,,,SCT,5500,,,,,,,VFR,,,,,,,,,,,,METAR,15.0
EFVA 061520Z AUTO 03015KT CAVOK 06/M06 Q1019,EFVA,2017-05-06T15:20:00Z,63.03,21.77,6.0,-6.0,30,15,,6.21,30.088583,,,TRUE,,,,,,,,CAVOK,,,,,,,,VFR,,,,,,,,,,,,METAR,4.0
EFTU 061520Z AUTO 02008KT 320V050 CAVOK 15/M04 Q1014,EFTU,2017-05-06T15:20:00Z,60.52,22.27,15.0,-4.0,20,8,,6.21,29.940945,,,TRUE,,,,,,,,CAVOK,,,,,,,,VFR,,,,,,,,,,,,METAR,59.0
EFTP 061520Z AUTO 03009KT CAVOK 11/M04 Q1015,EFTP,2017-05-06T15:20:00Z,61.42,23.62,11.0,-4.0,30,9,,6.21,29.970472,,,TRUE,,,,,,,,CAVOK,,,,,,,,VFR,,,,,,,,,,,,METAR,112.0
EFHK 061520Z 36012KT CAVOK 12/M02 Q1013 NOSIG,EFHK,2017-05-06T15:20:00Z,60.32,24.97,12.0,-2.0,360,12,,6.21,29.911417,,,,,,TRUE,,,,,CAVOK,,,,,,,,VFR,,,,,,,,,,,,METAR,56.0
EYVI 061520Z 33007KT 270V020 CAVOK 20/07 Q1011 NOSIG,EYVI,2017-05-06T15:20:00Z,54.63,25.28,20.0,7.0,330,7,,6.21,29.852362,,,,,,TRUE,,,,,CAVOK,,,,,,,,VFR,,,,,,,,,,,,METAR,197.0
EYPA 061520Z 34007KT 290V020 CAVOK 12/04 Q1013,EYPA,2017-05-06T15:20:00Z,55.97,21.08,12.0,4.0,340,7,,6.21,29.911417,,,,,,,,,,,CAVOK,,,,,,,,VFR,,,,,,,,,,,,METAR,10.0
KMQJ 061520Z AUTO 36012KT 10SM CLR 12/04 A2972 RMK AO1,KMQJ,2017-05-06T15:20:00Z,39.85,-85.9,12.0,4.0,360,12,,10.0,29.719488,,,TRUE,TRUE,,,,,,,CLR,,,,,,,,VFR,,,,,,,,,,,,SPECI,263.0
KJMR 061520Z AUTO 04003KT 10SM CLR 12/03 A3003 RMK AO2,KJMR,2017-05-06T15:20:00Z,45.88,-93.27,12.0,3.0,40,3,,10.0,30.029528,,,TRUE,TRUE,,,,,,,CLR,,,,,,,,VFR,,,,,,,,,,,,SPECI,309.0
CYSF 061520Z AUTO 09011G18KT 9SM OVC075 05/01 A3003 RMK SLP183,CYSF,2017-05-06T15:20:00Z,59.25,-105.82,5.0,1.0,90,11,18,9.0,30.029528,1018.3,,TRUE,,,,,,,,OVC,7500,,,,,,,VFR,,,,,,,,,,,,SPECI,250.0
EYSA 061520Z 31011KT CAVOK 21/M03 Q1011 BLU NOSIG,EYSA,2017-05-06T15:20:00Z,55.9,23.4,21.0,-3.0,310,11,,6.21,29.852362,,,,,,TRUE,,,,,CAVOK,,,,,,,,VFR,,,,,,,,,,,,METAR,135.0
EYKA 061520Z VRB04KT CAVOK 22/07 Q1011,EYKA,2017-05-06T15:20:00Z,54.97,24.08,22.0,7.0,0,4,,6.21,29.852362,,,,,,,,,,,CAVOK,,,,,,,,VFR,,,,,,,,,,,,METAR,77.0
EKVG 061520Z AUTO 34022KT 9999NDV NCD 08/05 Q1027,EKVG,2017-05-06T15:20:00Z,62.07,-7.3,8.0,5.0,340,22,,,30.324802,,,TRUE,,,,,,,,CLR,,,,,,,,,,,,,,,,,,,,METAR,85.0
EVRA 061520Z 35010KT CAVOK 13/07 Q1012 NOSIG,EVRA,2017-05-06T15:20:00Z,56.92,23.97,13.0,7.0,350,10,,6.21,29.88189,,,,,,TRUE,,,,,CAVOK,,,,,,,,VFR,,,,,,,,,,,,METAR,10.0
EETN 061520Z 06009KT 030V100 CAVOK 13/M01 Q1012 NOSIG,EETN,2017-05-06T15:20:00Z,59.4,24.82,13.0,-1.0,60,9,,6.21,29.88189,,,,,,TRUE,,,,,CAVOK,,,,,,,,VFR,,,,,,,,,,,,METAR,40.0
KSUT 061520Z AUTO 26014G22KT 10SM SCT029 SCT034 17/09 A2963 RMK AO2 T01720093,KSUT,2017-05-06T15:20:00Z,33.93,-78.08,17.2,9.3,260,14,22,10.0,29.630905,,,TRUE,TRUE,,,,,,,SCT,2900,SCT,3400,,,,,VFR,,,,,,,,,,,,SPECI,8.0
KONX 061520Z AUTO 21011G17KT 170V230 10SM SCT026 BKN032 19/11 A2952 RMK AO2 T01860107,KONX,2017-05-06T15:20:00Z,36.4,-76.02,18.6,10.7,210,11,17,10.0,29.518702,,,TRUE,TRUE,,,,,,,SCT,2600,BKN,3200,,,,,VFR,,,,,,,,,,,,SPECI,5.0
LLBG 061520Z 30007KT CAVOK 23/15 Q1014 NOSIG,LLBG,2017-05-06T15:20:00Z,32.0,34.88,23.0,15.0,300,7,,6.21,29.940945,,,,,,TRUE,,,,,CAVOK,,,,,,,,VFR,,,,,,,,,,,,SPECI,49.0
VNKT 061520Z 20003KT 6000 -TSRA FEW020 FEW025CB SCT030 BKN100 18/16 Q1018 NOSIG CB TO SE S SW W AND NW,VNKT,2017-05-06T15:20:00Z,27.68,85.37,18.0,16.0,200,3,,3.73,30.059055,,,,,,TRUE,,,,-TSRA,FEW,2000,FEW,2500,SCT,3000,BKN,10000,MVFR,,,,,,,,,,,,METAR,1337.0
LATI 061520Z 33007KT 9999 FEW035 BKN150 19/11 Q1016 NOSIG,LATI,2017-05-06T15:20:00Z,41.42,19.72,19.0,11.0,330,7,,6.21,30.0,,,,,,TRUE,,,,,FEW,3500,BKN,15000,,,,,VFR,,,,,,,,,,,,METAR,90.0
KSIF 061520Z AUTO 27003KT 10SM SCT039 BKN050 OVC085 13/05 A2959 RMK AO2 T01270051,KSIF,2017-05-06T15:20:00Z,36.43,-79.85,12.7,5.1,270,3,,10.0,29.589567,,,TRUE,TRUE,,,,,,,SCT,3900,BKN,5000,OVC,8500,,,VFR,,,,,,,,,,,,METAR,211.0
KPGV 061520Z AUTO 22011G16KT 10SM SCT023 OVC032 15/11 A2960 RMK AO2,KPGV,2017-05-06T15:20:00Z,35.62,-77.4,15.0,11.0,220,11,16,10.0,29.601377,,,TRUE,TRUE,,,,,,,SCT,2300,OVC,3200,,,,,VFR,,,,,,,,,,,,METAR,8.0
KIXA 061520Z AUTO 23008KT 10SM SCT027 SCT036 BKN048 16/10 A2952 RMK AO2,KIXA,2017-05-06T15:20:00Z,36.33,-77.63,16.0,10.0,230,8,,10.0,29.518702,,,TRUE,TRUE,,,,,,,SCT,2700,SCT,3600,BKN,4800,,,VFR,,,,,,,,,,,,METAR,44.0
KDLP 061520Z AUTO 10SM CLR 26/09 A3005 RMK A01,KDLP,2017-05-06T15:20:00Z,29.12,-89.55,26.0,9.0,,,,10.0,30.050198,,,TRUE,TRUE,,,,,,,CLR,,,,,,,,VFR,,,,,,,,,,,,METAR,36.0
KGWW 061520Z AUTO 22010KT 10SM SCT023 BKN036 OVC049 15/11 A2958 RMK AO2 T01460106,KGWW,2017-05-06T15:20:00Z,35.47,-77.97,14.6,10.6,220,10,,10.0,29.58071,,,TRUE,TRUE,,,,,,,SCT,2300,BKN,3600,OVC,4900,,,VFR,,,,,,,,,,,,METAR,41.0
KEZS 061520Z AUTO 03011G17KT 10SM CLR 13/00 A2990 RMK AO2 T01261003,KEZS,2017-05-06T15:20:00Z,44.78,-88.57,12.6,-0.3,30,11,17,10.0,29.899607,,,TRUE,TRUE,,,,,,,CLR,,,,,,,,VFR,,,,,,,,,,,,METAR,248.0
KQC5 061519Z AUTO 33003KT 9999 -TSRA FEW048 30/23 A2984 RMK AO2 RAB10 TSB19 SLPNO WND DATA ESTMD,KQC5,2017-05-06T15:19:00Z,,,30.0,23.0,330,3,,6.21,29.840551,,,TRUE,TRUE,,,,,,-TSRA,FEW,4800,,,,,,,VFR,,,,,,,,,,,,SPECI,
PACD 061519Z AUTO 14010KT 8SM RA OVC008 04/04 A2928 RMK AO2 CIG 005V011 P0003 T00440044 TSNO,PACD,2017-05-06T15:19:00Z,55.2,-162.72,4.4,4.4,140,10,,8.0,29.279528,,,TRUE,TRUE,,,TRUE,,,RA,OVC,800,,,,,,,IFR,,,,,,0.03,,,,,,SPECI,30.0
KPBG 061519Z AUTO 12007KT 10SM FEW008 FEW021 BKN048 13/11 A2939 RMK AO2 RAE1456 P0000 T01280111,KPBG,2017-05-06T15:19:00Z,44.65,-73.47,12.8,11.1,120,7,,10.0,29.388779,,,TRUE,TRUE,,,,,,,FEW,800,FEW,2100,BKN,4800,,,VFR,,,,,,0.005,,,,,,SPECI,72.0
KBOS 061519Z 18008KT 3SM R04R/5500VP6000FT -RA BR FEW015 SCT020 OVC038 17/17 A2955 RMK AO2 P0004 T01720167,KBOS,2017-05-06T15:19:00Z,42.37,-71.02,17.2,16.7,180,8,,3.0,29.551182,,,,TRUE,,,,,,-RA BR,FEW,1500,SCT,2000,OVC,3800,,,MVFR,,,,,,0.04,,,,,,SPECI,6.0
KTNB 061519Z AUTO 28019G31KT 10SM SCT022 SCT029 07/01 A2963 RMK AO2,KTNB,2017-05-06T15:19:00Z,36.2,-81.65,7.0,1.0,280,19,31,10.0,29.630905,,,TRUE,TRUE,,,,,,,SCT,2200,SCT,2900,,,,,VFR,,,,,,,,,,,,SPECI,911.0
KLYV 061519Z AUTO 15004KT 10SM CLR 17/01 A2999 RMK AO2,KLYV,2017-05-06T15:19:00Z,43.62,-96.22,17.0,1.0,150,4,,10.0,29.991142,,,TRUE,TRUE,,,,,,,CLR,,,,,,,,VFR,,,,,,,,,,,,SPECI,436.0
PAHY 061518Z AUTO 29005KT 10SM OVC028 08/02 A3001 RMK AO2,PAHY,2017-05-06T15:18:00Z,55.2,-132.83,8.0,2.0,290,5,,10.0,30.008858,,,TRUE,TRUE,,,,,,,OVC,2800,,,,,,,MVFR,,,,,,,,,,,,METAR,1.0
KBKL 061518Z 31018G25KT 6SM BR BKN014 OVC020 07/05 A2955 RMK AO2 PK WND 31029/1503 RAE17 P0000 T00720050,KBKL,2017-05-06T15:18:00Z,41.53,-81.67,7.2,5.0,310,18,25,6.0,29.551182,,,,TRUE,,,,,,BR,BKN,1400,OVC,2000,,,,,MVFR,,,,,,0.005,,,,,,SPECI,184.0
CYHZ 061518Z 15013G23KT 1/8SM R23/0900FT/N R14/1000FT/N -SHRA FG VV001 11/11 A3000 RMK FG8 SLP164,CYHZ,2017-05-06T15:18:00Z,44.87,-63.5,11.0,11.0,150,13,23,0.13,30.0,1016.4,,,,,,,,,-SHRA FG,OVX,0,,,,,,,LIFR,,,,,,,,,,,100,SPECI,145.0
KVTP 061518Z AUTO 10SM CLR 12/M02 A3042 RMK AO2,KVTP,2017-05-06T15:18:00Z,37.5,-105.17,12.0,-2.0,,,,10.0,30.41929,,,TRUE,TRUE,,,,,,,CLR,,,,,,,,VFR,,,,,,,,,,,,METAR,3114.0
KDLZ 061518Z AUTO 32009G17KT 10SM BKN026 BKN031 OVC037 10/05 A2963 RMK AO2,KDLZ,2017-05-06T15:18:00Z,40.28,-83.12,10.0,5.0,320,9,17,10.0,29.630905,,,TRUE,TRUE,,,,,,,BKN,2600,BKN,3100,OVC,3700,,,MVFR,,,,,,,,,,,,METAR,289.0
K4I3 061518Z AUTO 30015G22KT 10SM BKN031 BKN037 10/05 A2960 RMK AO2,K4I3,2017-05-06T15:18:00Z,40.33,-82.53,10.0,5.0,300,15,22,10.0,29.601377,,,TRUE,TRUE,,,,,,,BKN,3100,BKN,3700,,,,,VFR,,,,,,,,,,,,METAR,363.0
CYPX 061518Z AUTO 10004KT 6SM -SN OVC010 M12/M15 A3037 RMK SLP290,CYPX,2017-05-06T15:18:00Z,60.03,-77.27,-12.0,-15.0,100,4,,6.0,30.369095,1029.0,,TRUE,,,,,,,-SN,OVC,1000,,,,,,,MVFR,,,,,,,,,,,,SPECI,23.0
CYGP 061517Z CCA 09014KT 3SM -RA BR FEW008 OVC010 04/03 A3006 RMK ST2SC6 VIS W 11/2 SLP181,CYGP,2017-05-06T15:17:00Z,48.77,-64.47,4.0,3.0,90,14,,3.0,30.059055,1018.1,,,,,,,,,-RA BR,FEW,800,OVC,1000,,,,,MVFR,,,,,,,,,,,,SPECI,33.0
LTBF 061517Z 02006KT 350V050 9999 -TSRA FEW025CB BKN030 18/11 Q1011 BECMG NSW RMK RWY18 29012KT,LTBF,2017-05-06T15:17:00Z,39.62,27.92,18.0,11.0,20,6,,6.21,29.852362,,,,,,,,,,-TSRA,FEW,2500,BKN,3000,,,,,MVFR,,,,,,,,,,,,SPECI,102.0
KPMU 061517Z AUTO 26008G15KT 10SM CLR 20/09 A2995 RMK AO2,KPMU,2017-05-06T15:17:00Z,34.37,-89.9,20.0,9.0,260,8,15,10.0,29.949802,,,TRUE,TRUE,,,,,,,CLR,,,,,,,,VFR,,,,,,,,,,,,SPECI,67.0
KLWA 061517Z AUTO 33014G22KT 310V010 10SM SCT010 08/05 A2977 RMK AO2 T00800045,KLWA,2017-05-06T15:17:00Z,42.35,-86.25,8.0,4.5,330,14,22,10.0,29.769686,,,TRUE,TRUE,,,,,,,SCT,1000,,,,,,,VFR,,,,,,,,,,,,METAR,203.0
KBAX 061517Z AUTO 35022G32KT 10SM SCT027 09/03 A2961 RMK AO2 T00890027,KBAX,2017-05-06T15:17:00Z,43.78,-82.98,8.9,2.7,350,22,32,10.0,29.610237,,,TRUE,TRUE,,,,,,,SCT,2700,,,,,,,VFR,,,,,,,,,,,,METAR,234.0
CYQA 061517Z AUTO 35009G15KT 5SM -RA BR BKN010 OVC015 05/05 A2939 RMK SLP963,CYQA,2017-05-06T15:17:00Z,44.97,-79.28,5.0,5.0,350,9,15,5.0,29.388779,996.3,,TRUE,,,,,,,-RA BR,BKN,1000,OVC,1500,,,,,MVFR,,,,,,,,,,,,SPECI,282.0
CYBC 061517Z AUTO 06015KT 2SM -RA BR FEW010 OVC022 05/05 A2983 RMK SLP105,CYBC,2017-05-06T15:17:00Z,49.12,-68.2,5.0,5.0,60,15,,2.0,29.828741,1010.5,,TRUE,,,,,,,-RA BR,FEW,1000,OVC,2200,,,,,IFR,,,,,,,,,,,,SPECI,22.0
YGFN 061517Z AUTO 00000KT 9999 // NCD 11/10 Q1024,YGFN,2017-05-06T15:17:00Z,-29.77,153.03,11.0,10.0,0,0,,6.21,30.236221,,,TRUE,,,,,,,,CLR,,,,,,,,VFR,,,,,,,,,,,,SPECI,34.0
K04V 061517Z AUTO 00000KT 10SM CLR 15/M01 A3019 RMK AO2,K04V,2017-05-06T15:17:00Z,38.1,-106.17,15.0,-1.0,0,0,,10.0,30.188976,,,TRUE,TRUE,,,,,,,CLR,,,,,,,,VFR,,,,,,,,,,,,METAR,2385.0
KPVD 061517Z 17013KT 2 1/2SM -RA BR BKN004 BKN025 OVC043 15/15 A2956 RMK AO2 P0001 T01500150,KPVD,2017-05-06T15:17:00Z,41.72,-71.43,15.0,15.0,170,13,,2.5,29.56004,,,,TRUE,,,,,,-RA BR,BKN,400,BKN,2500,OVC,4300,,,LIFR,,,,,,0.01,,,,,,METAR,16.0
KCAR 061517Z AUTO 08007KT 7SM -RA OVC005 11/10 A2972 RMK AO2 P0001 T01110100,KCAR,2017-05-06T15:17:00Z,46.87,-68.02,11.1,10.0,80,7,,7.0,29.719488,,,TRUE,TRUE,,,,,,-RA,OVC,500,,,,,,,IFR,,,,,,0.01,,,,,,METAR,191.0
KFVE 061517Z AUTO 09008G15KT 1 1/4SM -RA BR OVC003 08/07 A2973 RMK AO2 P0000 T00830072,KFVE,2017-05-06T15:17:00Z,47.28,-68.3,8.3,7.2,90,8,15,1.25,29.731298,,,TRUE,TRUE,,,,,,-RA BR,OVC,300,,,,,,,LIFR,,,,,,0.005,,,,,,METAR,301.0
KFIG 061517Z AUTO 24008KT 7SM -RA BKN011 BKN018 OVC022 07/06 A2939 RMK AO2 RAB11 P0000 T00720061,KFIG,2017-05-06T15:17:00Z,41.05,-78.42,7.2,6.1,240,8,,7.0,29.388779,,,TRUE,TRUE,,,,,,-RA,BKN,1100,BKN,1800,OVC,2200,,,MVFR,,,,,,0.005,,,,,,METAR,462.0
KSKA 061517Z AUTO 20010KT 10SM -RA SCT026 BKN034 OVC042 05/04 A2995 RMK AO2 RAB17 SLP151,KSKA,2017-05-06T15:17:00Z,47.62,-117.65,5.0,4.0,200,10,,10.0,29.949802,1015.1,,TRUE,TRUE,,,,,,-RA,SCT,2600,BKN,3400,OVC,4200,,,VFR,,,,,,,,,,,,SPECI,750.0
KGYL 061517Z AUTO 10SM CLR 14/07 A2999 RMK AO2 T01410071,KGYL,2017-05-06T15:17:00Z,44.77,-94.08,14.1,7.1,,,,10.0,29.991142,,,TRUE,TRUE,,,,,,,CLR,,,,,,,,VFR,,,,,,,,,,,,METAR,302.0
KPOV 061517Z AUTO 30014G19KT 3SM DZ OVC007 06/05 A2953 RMK AO2 T00560045,KPOV,2017-05-06T15:17:00Z,41.22,-81.25,5.6,4.5,300,14,19,3.0,29.530512,,,TRUE,TRUE,,,,,,DZ,OVC,700,,,,,,,IFR,,,,,,,,,,,,METAR,365.0
KPCW 061517Z AUTO 31011KT 10SM BKN018 12/08 A2960 RMK AO2 $,KPCW,2017-05-06T15:17:00Z,41.52,-82.87,12.0,8.0,310,11,,10.0,29.601377,,,TRUE,TRUE,TRUE,,,,,,BKN,1800,,,,,,,MVFR,,,,,,,,,,,,METAR,178.0
KTHV 061517Z AUTO 22009KT 6SM -RA BR BKN016 OVC024 12/10 A2935 RMK AO2 RAB12 P0000 T01170100 TSNO,KTHV,2017-05-06T15:17:00Z,39.92,-76.88,11.7,10.0,220,9,,6.0,29.350393,,,TRUE,TRUE,,,TRUE,,,-RA BR,BKN,1600,OVC,2400,,,,,MVFR,,,,,,0.005,,,,,,METAR,144.0
KTTN 061517Z 20012KT 10SM BKN027 BKN035 OVC043 16/10 A2939 RMK AO2 T01610100,KTTN,2017-05-06T15:17:00Z,40.28,-74.82,16.1,10.0,200,12,,10.0,29.388779,,,,TRUE,,,,,,,BKN,2700,BKN,3500,OVC,4300,,,MVFR,,,,,,,,,,,,METAR,59.0
KAVC 061516Z AUTO 24010G17KT 200V260 10SM SCT040 SCT049 OVC110 16/08 A2957 RMK AO2 T01570079,KAVC,2017-05-06T15:16:00Z,36.68,-78.03,15.7,7.9,240,10,17,10.0,29.568897,,,TRUE,TRUE,,,,,,,SCT,4000,SCT,4900,OVC,11000,,,VFR,,,,,,,,,,,,SPECI,135.0
MPMG 061516Z 13004KT 080V190 6000 -RA FEW008 SCT013CB SCT080 27/26 Q1013 RWY WET TEMPO 5000 TSRA,MPMG,2017-05-06T15:16:00Z,8.98,-79.57,27.0,26.0,130,4,,3.73,29.911417,,,,,,,,,,-RA,FEW,800,SCT,1300,SCT,8000,,,MVFR,,,,,,,,,,,,METAR,13.0
KTOC 061516Z AUTO 26008G17KT 10SM CLR 19/03 A2974 RMK AO2,KTOC,2017-05-06T15:16:00Z,34.6,-83.3,19.0,3.0,260,8,17,10.0,29.740158,,,TRUE,TRUE,,,,,,,CLR,,,,,,,,VFR,,,,,,,,,,,,SPECI,304.0
KLPR 061516Z AUTO 32013G20KT 10SM FEW020 SCT025 OVC034 08/03 A2958 RMK AO2 T00780028 $,KLPR,2017-05-06T15:16:00Z,41.35,-82.18,7.8,2.8,320,13,20,10.0,29.58071,,,TRUE,TRUE,TRUE,,,,,,FEW,2000,SCT,2500,OVC,3400,,,VFR,,,,,,,,,,,,METAR,241.0
KIRS 061516Z AUTO 31008G15KT 10SM SCT036 11/03 A2969 RMK AO2,KIRS,2017-05-06T15:16:00Z,41.8,-85.43,11.0,3.0,310,8,15,10.0,29.68996,,,TRUE,TRUE,,,,,,,SCT,3600,,,,,,,VFR,,,,,,,,,,,,METAR,282.0
PAZK 061516Z AUTO 00000KT 10SM CLR 01/M09 A2978 RMK AO1,PAZK,2017-05-06T15:16:00Z,61.93,-147.17,1.0,-9.0,0,0,,10.0,29.778543,,,TRUE,TRUE,,,,,,,CLR,,,,,,,,VFR,,,,,,,,,,,,METAR,1003.0
PAVD 061516Z 00000KT 10SM FEW150 BKN250 03/M01 A2993 RMK AO1 1447Z WEA: NONE TWR WND 00000KT,PAVD,2017-05-06T15:16:00Z,61.13,-146.25,3.0,-1.0,0,0,,10.0,29.929134,,,,TRUE,,,,,,,FEW,15000,BKN,25000,,,,,VFR,,,,,,,,,,,,METAR,37.0
PASH 061516Z AUTO 10005KT 1/2SM OVC003 A2990 RMK AO1 PNO,PASH,2017-05-06T15:16:00Z,66.27,-166.08,,,100,5,,0.5,29.899607,,,TRUE,TRUE,,,,,,,OVC,300,,,,,,,LIFR,,,,,,,,,,,,METAR,2.0
PASD 061516Z 00000KT 5SM OVC006 04/03 A2938 RMK AO1 WEA: -DZ BR (DA),PASD,2017-05-06T15:16:00Z,55.33,-160.5,4.0,3.0,0,0,,5.0,29.379921,,,,TRUE,,,,,,-DZ,OVC,600,,,,,,,IFR,,,,,,,,,,,,METAR,7.0
PANV 061516Z AUTO 04004KT 10SM SCT055 BKN075 OVC100 04/M02 A2965 RMK AO1,PANV,2017-05-06T15:16:00Z,62.65,-160.18,4.0,-2.0,40,4,,10.0,29.648623,,,TRUE,TRUE,,,,,,,SCT,5500,BKN,7500,OVC,10000,,,VFR,,,,,,,,,,,,METAR,99.0
PANI 061516Z AUTO 11008KT 10SM BKN033 OVC043 06/01 A2964 RMK AO1,PANI,2017-05-06T15:16:00Z,61.58,-159.53,6.0,1.0,110,8,,10.0,29.639763,,,TRUE,TRUE,,,,,,,BKN,3300,OVC,4300,,,,,VFR,,,,,,,,,,,,METAR,26.0
PAMD 061516Z AUTO 12008KT 10SM CLR 06/03 A2990 RMK AO1,PAMD,2017-05-06T15:16:00Z,59.43,-146.3,6.0,3.0,120,8,,10.0,29.899607,,,TRUE,TRUE,,,,,,,CLR,,,,,,,,VFR,,,,,,,,,,,,METAR,14.0
PAKP 061516Z AUTO 00000KT 10SM FEW047 FEW060 M01/M04 A2980 RMK AO1,PAKP,2017-05-06T15:16:00Z,68.13,-151.73,-1.0,-4.0,0,0,,10.0,29.799213,,,TRUE,TRUE,,,,,,,FEW,4700,FEW,6000,,,,,VFR,,,,,,,,,,,,METAR,642.0
PAKK 061516Z AUTO 36011G15KT 320V030 10SM CLR 01/M10 A2972 RMK AO1,PAKK,2017-05-06T15:16:00Z,64.93,-161.15,1.0,-10.0,360,11,15,10.0,29.719488,,,TRUE,TRUE,,,,,,,CLR,,,,,,,,VFR,,,,,,,,,,,,METAR,47.0
PAIN 061516Z AUTO 17003KT 10SM CLR 02/M05 A2979 RMK AO1,PAIN,2017-05-06T15:16:00Z,63.73,-148.92,2.0,-5.0,170,3,,10.0,29.790354,,,TRUE,TRUE,,,,,,,CLR,,,,,,,,VFR,,,,,,,,,,,,METAR,524.0
PAGL 061516Z AUTO 30008KT 10SM SCT075 00/M05 A2974 RMK AO1,PAGL,2017-05-06T15:16:00Z,64.55,-163.03,0.0,-5.0,300,8,,10.0,29.740158,,,TRUE,TRUE,,,,,,,SCT,7500,,,,,,,VFR,,,,,,,,,,,,METAR,8.0
PAAK 061516Z 32014G27KT 10SM SCT019 OVC026 04/M01 A2906 RMK AO1,PAAK,2017-05-06T15:16:00Z,52.22,-174.2,4.0,-1.0,320,14,27,10.0,29.061024,,,,TRUE,,,,,,,SCT,1900,OVC,2600,,,,,MVFR,,,,,,,,,,,,METAR,17.0
KY63 061516Z AUTO 00000KT 10SM CLR 18/03 A2998 RMK AO2 T01820029,KY63,2017-05-06T15:16:00Z,45.98,-96.0,18.2,2.9,0,0,,10.0,29.97933,,,TRUE,TRUE,,,,,,,CLR,,,,,,,,VFR,,,,,,,,,,,,METAR,367.0
KXVG 061516Z AUTO 00000KT 10SM CLR 14/03 A3000 RMK AO2,KXVG,2017-05-06T15:16:00Z,46.98,-94.2,14.0,3.0,0,0,,10.0,30.0,,,TRUE,TRUE,,,,,,,CLR,,,,,,,,VFR,,,,,,,,,,,,METAR,407.0
KRGK 061516Z AUTO 03004KT 10SM CLR 15/03 A2997 RMK AO2,KRGK,2017-05-06T15:16:00Z,44.58,-92.48,15.0,3.0,30,4,,10.0,29.970472,,,TRUE,TRUE,,,,,,,CLR,,,,,,,,VFR,,,,,,,,,,,,METAR,239.0
KOWX 061516Z AUTO 31014G21KT 10SM SCT025 SCT030 10/06 A2967 RMK AO1,KOWX,2017-05-06T15:16:00Z,41.03,-83.98,10.0,6.0,310,14,21,10.0,29.66929,,,TRUE,TRUE,,,,,,,SCT,2500,SCT,3000,,,,,VFR,,,,,,,,,,,,METAR,233.0
KAUM 061516Z AUTO 04008KT 10SM CLR 14/04 A2996 RMK AO2,KAUM,2017-05-06T15:16:00Z,43.67,-92.92,14.0,4.0,40,8,,10.0,29.958662,,,TRUE,TRUE,,,,,,,CLR,,,,,,,,VFR,,,,,,,,,,,,METAR,375.0
KAJO 061516Z AUTO 35006KT 10SM BKN023 BKN030 OVC044 16/12 A2983 RMK AO2,KAJO,2017-05-06T15:16:00Z,33.9,-117.6,16.0,12.0,350,6,,10.0,29.828741,,,TRUE,TRUE,,,,,,,BKN,2300,BKN,3000,OVC,4400,,,MVFR,,,,,,,,,,,,METAR,163.0
K4BM 061516Z AUTO 24004KT 10SM CLR 08/M03 A3040 RMK AO2,K4BM,2017-05-06T15:16:00Z,39.05,-105.52,8.0,-3.0,240,4,,10.0,30.398623,,,TRUE,TRUE,,,,,,,CLR,,,,,,,,VFR,,,,,,,,,,,,METAR,3438.0
KMZH 061516Z AUTO 00000KT 10SM CLR 08/05 A3001 RMK AO2,KMZH,2017-05-06T15:16:00Z,46.42,-92.8,8.0,5.0,0,0,,10.0,30.008858,,,TRUE,TRUE,,,,,,,CLR,,,,,,,,VFR,,,,,,,,,,,,METAR,328.0
KI69 061516Z AUTO 27006KT 10SM BKN046 OVC110 11/07 A2971 RMK AO2 T01050065,KI69,2017-05-06T15:16:00Z,39.08,-84.22,10.5,6.5,270,6,,10.0,29.71063,,,TRUE,TRUE,,,,,,,BKN,4600,OVC,11000,,,,,VFR,,,,,,,,,,,,METAR,255.0
KHYX 061516Z AUTO 32015G21KT 10SM CLR 12/02 A2964 RMK AO2,KHYX,2017-05-06T15:16:00Z,43.43,-83.87,12.0,2.0,320,15,21,10.0,29.639763,,,TRUE,TRUE,,,,,,,CLR,,,,,,,,VFR,,,,,,,,,,,,METAR,183.0
K40B 061516Z AUTO 08007KT 11/10 A2964 RMK AO1 SLP047 T01080103 58011,K40B,2017-05-06T15:16:00Z,46.62,-69.52,10.8,10.3,80,7,,,29.639763,1004.7,,TRUE,TRUE,,,,,,,,,,,,,,,,-1.1,,,,,,,,,,,METAR,314.0
KSYR 061516Z 26012KT 10SM SCT007 OVC015 11/11 A2931 RMK AO2 RAE15 CIG 006 NW P0000 T01060106 $,KSYR,2017-05-06T15:16:00Z,43.12,-76.1,10.6,10.6,260,12,,10.0,29.309055,,,,TRUE,TRUE,,,,,,SCT,700,OVC,1500,,,,,MVFR,,,,,,0.005,,,,,,METAR,127.0
PADK 061516Z AUTO 35023G30KT 10SM SCT013 BKN022 OVC036 03/M02 A2928 RMK AO1,PADK,2017-05-06T15:16:00Z,51.88,-176.65,3.0,-2.0,350,23,30,10.0,29.279528,,,TRUE,TRUE,,,,,,,SCT,1300,BKN,2200,OVC,3600,,,MVFR,,,,,,,,,,,,METAR,4.0
KMCD 061516Z AUTO 35014G22KT 10SM CLR 10/M01 A2973 RMK AO2 T01001009,KMCD,2017-05-06T15:16:00Z,45.85,-84.63,10.0,-0.9,350,14,22,10.0,29.731298,,,TRUE,TRUE,,,,,,,CLR,,,,,,,,VFR,,,,,,,,,,,,METAR,226.0
KFUL 061516Z 18003KT 10SM SCT023 OVC032 16/13 A2982 RMK AO2 T01610133,KFUL,2017-05-06T15:16:00Z,33.87,-117.98,16.1,13.3,180,3,,10.0,29.819881,,,,TRUE,,,,,,,SCT,2300,OVC,3200,,,,,VFR,,,,,,,,,,,,METAR,35.0
KETH 061516Z AUTO 00000KT 10SM CLR 18/03 A2999 RMK AO2,KETH,2017-05-06T15:16:00Z,45.78,-96.55,18.0,3.0,0,0,,10.0,29.991142,,,TRUE,TRUE,,,,,,,CLR,,,,,,,,VFR,,,,,,,,,,,,METAR,313.0
KELM 061516Z 27006KT 1 3/4SM +RA OVC013 12/09 A2929 RMK AO2 RAB01 P0004 T01170089,KELM,2017-05-06T15:16:00Z,42.15,-76.9,11.7,8.9,270,6,,1.75,29.291338,,,,TRUE,,,,,,+RA,OVC,1300,,,,,,,IFR,,,,,,0.04,,,,,,METAR,302.0
KPHN 061516Z AUTO 33012G20KT 300V360 10SM BKN025 OVC034 08/03 A2957 RMK AO2,KPHN,2017-05-06T15:16:00Z,42.92,-82.52,8.0,3.0,330,12,20,10.0,29.568897,,,TRUE,TRUE,,,,,,,BKN,2500,OVC,3400,,,,,MVFR,,,,,,,,,,,,METAR,198.0
KOWD 061516Z 17009KT 1 3/4SM -RA BR FEW007 BKN014 OVC045 18/17 A2953 RMK AO2 RAB1454 P0002 T01830172,KOWD,2017-05-06T15:16:00Z,42.18,-71.17,18.3,17.2,170,9,,1.75,29.530512,,,,TRUE,,,,,,-RA BR,FEW,700,BKN,1400,OVC,4500,,,IFR,,,,,,0.02,,,,,,METAR,19.0
KTGI 061516Z AUTO 21021G25KT 10SM BKN025 OVC031 17/12 A2946 RMK AO1,KTGI,2017-05-06T15:16:00Z,37.82,-75.98,17.0,12.0,210,21,25,10.0,29.459646,,,TRUE,TRUE,,,,,,,BKN,2500,OVC,3100,,,,,MVFR,,,,,,,,,,,,METAR,2.0
KAYS 061515Z AUTO 29015G21KT 10SM CLR 21/07 A2986 RMK AO2 T02060074,KAYS,2017-05-06T15:15:00Z,31.25,-82.4,20.6,7.4,290,15,21,10.0,29.861221,,,TRUE,TRUE,,,,,,,CLR,,,,,,,,VFR,,,,,,,,,,,,SPECI,46.0
KARM 061515Z AUTO 00000KT 10SM CLR 24/07 A3004 RMK AO2 T02360066,KARM,2017-05-06T15:15:00Z,29.25,-96.15,23.6,6.6,0,0,,10.0,30.041338,,,TRUE,TRUE,,,,,,,CLR,,,,,,,,VFR,,,,,,,,,,,,SPECI,31.0
KAFP 061515Z AUTO 28008G15KT 10SM SCT085 16/06 A2964 RMK AO2 T01640059,KAFP,2017-05-06T15:15:00Z,35.02,-80.08,16.4,5.9,280,8,15,10.0,29.639763,,,TRUE,TRUE,,,,,,,SCT,8500,,,,,,,VFR,,,,,,,,,,,,SPECI,92.0
KA08 061515Z AUTO 30005KT 10SM 18/08 A2995 RMK AO2 T01780075,KA08,2017-05-06T15:15:00Z,32.52,-87.38,17.8,7.5,300,5,,10.0,29.949802,,,TRUE,TRUE,,,,,,,,,,,,,,,,,,,,,,,,,,,SPECI,69.0
K6R3 061515Z AUTO 28004KT 10SM CLR 24/11 A3005 RMK AO2 T02370109,K6R3,2017-05-06T15:15:00Z,30.35,-95.0,23.7,10.9,280,4,,10.0,30.050198,,,TRUE,TRUE,,,,,,,CLR,,,,,,,,VFR,,,,,,,,,,,,SPECI,46.0
K6P9 061515Z AUTO 20007KT 10SM CLR 22/07 A3004 RMK AO2 T02210070,K6P9,2017-05-06T15:15:00Z,32.43,-98.6,22.1,7.0,200,7,,10.0,30.041338,,,TRUE,TRUE,,,,,,,CLR,,,,,,,,VFR,,,,,,,,,,,,SPECI,449.0
K6B0 061515Z AUTO 12013G19KT 10SM OVC033 17/12 A2940 RMK AO2 T01700120,K6B0,2017-05-06T15:15:00Z,43.98,-73.1,17.0,12.0,120,13,19,10.0,29.40059,,,TRUE,TRUE,,,,,,,OVC,3300,,,,,,,VFR,,,,,,,,,,,,SPECI,149.0
K4A9 061515Z AUTO 30006G16KT 10SM CLR 15/04 A2986 RMK AO2,K4A9,2017-05-06T15:15:00Z,34.47,-85.72,15.0,4.0,300,6,16,10.0,29.861221,,,TRUE,TRUE,,,,,,,CLR,,,,,,,,VFR,,,,,,,,,,,,SPECI,267.0
K3AU 061515Z AUTO 23008KT 10SM CLR 21/09 A2998 RMK AO2,K3AU,2017-05-06T15:15:00Z,37.67,-97.08,21.0,9.0,230,8,,10.0,29.97933,,,TRUE,TRUE,,,,,,,CLR,,,,,,,,VFR,,,,,,,,,,,,SPECI,405.0
K0VG 061515Z AUTO 24010KT 10SM SCT028 BKN035 BKN043 10/05 A2977 RMK AO2,K0VG,2017-05-06T15:15:00Z,36.65,-83.22,10.0,5.0,240,10,,10.0,29.769686,,,TRUE,TRUE,,,,,,,SCT,2800,BKN,3500,BKN,4300,,,VFR,,,,,,,,,,,,SPECI,430.0
PAAD 061515Z AUTO 09013KT 10SM OVC007 M06/M07 A3001 RMK AO2 T10601071,PAAD,2017-05-06T15:15:00Z,70.13,-146.28,-6.0,-7.1,90,13,,10.0,30.008858,,,TRUE,TRUE,,,,,,,OVC,700,,,,,,,IFR,,,,,,,,,,,,SPECI,8.0
KUCY 061515Z AUTO 27015KT 10SM CLR 20/09 A2977 RMK A01,KUCY,2017-05-06T15:15:00Z,36.38,-88.98,20.0,9.0,270,15,,10.0,29.769686,,,TRUE,TRUE,,,,,,,CLR,,,,,,,,VFR,,,,,,,,,,,,METAR,104.0
KTYQ 061515Z AUTO 32010KT 10SM OVC080 11/04 A2974 RMK AO2 T01120036,KTYQ,2017-05-06T15:15:00Z,40.03,-86.25,11.2,3.6,320,10,,10.0,29.740158,,,TRUE,TRUE,,,,,,,OVC,8000,,,,,,,VFR,,,,,,,,,,,,METAR,281.0
LMML 061515Z 12007KT 100V170 CAVOK 24/14 Q1016 NOSIG,LMML,2017-05-06T15:15:00Z,35.85,14.47,24.0,14.0,120,7,,6.21,30.0,,,,,,TRUE,,,,,CAVOK,,,,,,,,VFR,,,,,,,,,,,,METAR,91.0
KAZE 061515Z AUTO 31010G19KT 270V340 10SM CLR 19/06 A2985 RMK AO2 T01870063,KAZE,2017-05-06T15:15:00Z,31.88,-82.65,18.7,6.3,310,10,19,10.0,29.84941,,,TRUE,TRUE,,,,,,,CLR,,,,,,,,VFR,,,,,,,,,,,,SPECI,78.0
KBHC 061515Z AUTO 30015G21KT 10SM CLR 18/08 A2985 RMK AO2 PNO,KBHC,2017-05-06T15:15:00Z,31.72,-82.4,18.0,8.0,300,15,21,10.0,29.84941,,,TRUE,TRUE,,,,,,,CLR,,,,,,,,VFR,,,,,,,,,,,,SPECI,61.0
LIRP 061515Z 35004KT 9999 SCT025 SCT050 17/14 Q1009 TEMPO SHRA,LIRP,2017-05-06T15:15:00Z,43.67,10.37,17.0,14.0,350,4,,6.21,29.793306,,,,,,,,,,,SCT,2500,SCT,5000,,,,,VFR,,,,,,,,,,,,METAR,2.0
LIPR 061515Z 16004KT 9999 SCT050 17/14 Q1011,LIPR,2017-05-06T15:15:00Z,44.02,12.62,17.0,14.0,160,4,,6.21,29.852362,,,,,,,,,,,SCT,5000,,,,,,,VFR,,,,,,,,,,,,METAR,13.0
LIBR 061515Z 06005KT 9999 FEW025 17/16 Q1017 NOSIG,LIBR,2017-05-06T15:15:00Z,40.65,17.95,17.0,16.0,60,5,,6.21,30.029528,,,,,,TRUE,,,,,FEW,2500,,,,,,,VFR,,,,,,,,,,,,METAR,10.0
K28J 061515Z AUTO 31015G26KT 10SM CLR 20/04 A2990 RMK AO2,K28J,2017-05-06T15:15:00Z,29.65,-81.58,20.0,4.0,310,15,26,10.0,29.899607,,,TRUE,TRUE,,,,,,,CLR,,,,,,,,VFR,,,,,,,,,,,,SPECI,15.0
LHSN 061515Z 18002KT 9999 FEW033TCU SCT083 18/14 Q1011 NOSIG RMK BLU,LHSN,2017-05-06T15:15:00Z,47.12,20.23,18.0,14.0,180,2,,6.21,29.852362,,,,,,TRUE,,,,,FEW,3300,SCT,8300,,,,,VFR,,,,,,,,,,,,SPECI,98.0
LHKE 061515Z 18006KT 9999 FEW035CB SCT040TCU BKN100 19/11 Q1012 TEMPO -TSRA SHRA RMK BLACK,LHKE,2017-05-06T15:15:00Z,46.92,19.75,19.0,11.0,180,6,,6.21,29.88189,,,,,,,,,,,FEW,3500,SCT,4000,BKN,10000,,,VFR,,,,,,,,,,,,SPECI,115.0
KSRR 061515Z AUTO 01003KT 10SM CLR 20/00 A3015 RMK AO2,KSRR,2017-05-06T15:15:00Z,33.47,-105.52,20.0,0.0,10,3,,10.0,30.15059,,,TRUE,TRUE,,,,,,,CLR,,,,,,,,VFR,,,,,,,,,,,,SPECI,2076.0
KBWD 061515Z AUTO 16007KT 10SM CLR 23/08 A3004 RMK AO2,KBWD,2017-05-06T15:15:00Z,31.8,-98.95,23.0,8.0,160,7,,10.0,30.041338,,,TRUE,TRUE,,,,,,,CLR,,,,,,,,VFR,,,,,,,,,,,,SPECI,423.0
K4A6 061515Z AUTO 26008KT 10SM CLR 15/08 A2987 RMK AO2,K4A6,2017-05-06T15:15:00Z,34.68,-86.0,15.0,8.0,260,8,,10.0,29.870079,,,TRUE,TRUE,,,,,,,CLR,,,,,,,,VFR,,,,,,,,,,,,SPECI,198.0
KVER 061515Z AUTO 32011KT 300V360 10SM CLR 20/07 A2987 RMK AO2 T02030069,KVER,2017-05-06T15:15:00Z,38.95,-92.68,20.3,6.9,320,11,,10.0,29.870079,,,TRUE,TRUE,,,,,,,CLR,,,,,,,,VFR,,,,,,,,,,,,SPECI,218.0
KUNI 061515Z AUTO 30014G19KT 10SM SCT038 BKN045 BKN050 12/04 A2963 RMK AO2 T01180035,KUNI,2017-05-06T15:15:00Z,39.22,-82.23,11.8,3.5,300,14,19,10.0,29.630905,,,TRUE,TRUE,,,,,,,SCT,3800,BKN,4500,BKN,5000,,,VFR,,,,,,,,,,,,SPECI,193.0
KTSP 061515Z AUTO 31008KT 7SM FEW006 BKN009 OVC017 09/08 A2980 RMK AO2,KTSP,2017-05-06T15:15:00Z,35.13,-118.43,9.0,8.0,310,8,,7.0,29.799213,,,TRUE,TRUE,,,,,,,FEW,600,BKN,900,OVC,1700,,,IFR,,,,,,,,,,,,SPECI,1220.0
KSOW 061515Z AUTO 17007KT 10SM CLR 16/M02 A3005 RMK AO2,KSOW,2017-05-06T15:15:00Z,34.27,-110.0,16.0,-2.0,170,7,,10.0,30.050198,,,TRUE,TRUE,,,,,,,CLR,,,,,,,,VFR,,,,,,,,,,,,SPECI,1954.0
KRNV 061515Z AUTO 26009KT 10SM CLR 21/10 A2997 RMK AO2 T02120101,KRNV,2017-05-06T15:15:00Z,33.77,-90.75,21.2,10.1,260,9,,10.0,29.970472,,,TRUE,TRUE,,,,,,,CLR,,,,,,,,VFR,,,,,,,,,,,,SPECI,41.0
KMGC 061515Z AUTO 35013G18KT 10SM OVC008 06/03 A2981 RMK AO2,KMGC,2017-05-06T15:15:00Z,41.7,-86.82,6.0,3.0,350,13,18,10.0,29.811024,,,TRUE,TRUE,,,,,,,OVC,800,,,,,,,IFR,,,,,,,,,,,,SPECI,200.0
KI75 061515Z AUTO 36012G15KT 10SM CLR 18/07 A2993 RMK AO2 T01800073,KI75,2017-05-06T15:15:00Z,41.05,-93.68,18.0,7.3,360,12,15,10.0,29.929134,,,TRUE,TRUE,,,,,,,CLR,,,,,,,,VFR,,,,,,,,,,,,SPECI,339.0
KHYW 061515Z AUTO 26007KT 230V310 7SM BKN033 BKN040 BKN049 15/08 A2966 RMK AO2,KHYW,2017-05-06T15:15:00Z,33.83,-79.12,15.0,8.0,260,7,,7.0,29.660433,,,TRUE,TRUE,,,,,,,BKN,3300,BKN,4000,BKN,4900,,,VFR,,,,,,,,,,,,SPECI,11.0
KHSG 061515Z AUTO 16009KT 110V180 10SM CLR 21/04 A2983 RMK AO2 T02080044,KHSG,2017-05-06T15:15:00Z,43.72,-108.38,20.8,4.4,160,9,,10.0,29.828741,,,TRUE,TRUE,,,,,,,CLR,,,,,,,,VFR,,,,,,,,,,,,SPECI,1494.0
KFLY 061515Z AUTO 18006KT 10SM CLR 19/02 A3010 RMK AO2 T01940018,KFLY,2017-05-06T15:15:00Z,38.95,-104.57,19.4,1.8,180,6,,10.0,30.100393,,,TRUE,TRUE,,,,,,,CLR,,,,,,,,VFR,,,,,,,,,,,,SPECI,2096.0
KFGX 061515Z AUTO 26008KT 10SM BKN049 BKN070 OVC090 10/07 A2972 RMK AO2 T01010065,KFGX,2017-05-06T15:15:00Z,38.55,-83.75,10.1,6.5,260,8,,10.0,29.719488,,,TRUE,TRUE,,,,,,,BKN,4900,BKN,7000,OVC,9000,,,VFR,,,,,,,,,,,,SPECI,278.0
KEOE 061515Z AUTO 33010G18KT 10SM CLR 16/05 A2974 RMK AO2,KEOE,2017-05-06T15:15:00Z,34.32,-81.63,16.0,5.0,330,10,18,10.0,29.740158,,,TRUE,TRUE,,,,,,,CLR,,,,,,,,VFR,,,,,,,,,,,,SPECI,174.0
KEDC 061515Z AUTO 22010KT 10SM CLR 24/09 A3004 RMK AO2,KEDC,2017-05-06T15:15:00Z,30.4,-97.57,24.0,9.0,220,10,,10.0,30.041338,,,TRUE,TRUE,,,,,,,CLR,,,,,,,,VFR,,,,,,,,,,,,SPECI,189.0
KDNN 061515Z AUTO 27005KT 10SM CLR 15/05 A2985 RMK AO2,KDNN,2017-05-06T15:15:00Z,34.72,-84.87,15.0,5.0,270,5,,10.0,29.84941,,,TRUE,TRUE,,,,,,,CLR,,,,,,,,VFR,,,,,,,,,,,,SPECI,216.0
KCKP 061515Z AUTO 07006KT 10SM CLR 18/03 A2998 RMK AO2 T01810027,KCKP,2017-05-06T15:15:00Z,42.73,-95.55,18.1,2.7,70,6,,10.0,29.97933,,,TRUE,TRUE,,,,,,,CLR,,,,,,,,VFR,,,,,,,,,,,,SPECI,374.0
KCDH 061515Z AUTO 24004KT 10SM CLR 22/09 A3000 RMK AO2,KCDH,2017-05-06T15:15:00Z,33.62,-92.77,22.0,9.0,240,4,,10.0,30.0,,,TRUE,TRUE,,,,,,,CLR,,,,,,,,VFR,,,,,,,,,,,,SPECI,35.0
KCCA 061515Z AUTO 00000KT 7SM CLR 21/12 A2994 RMK AO2,KCCA,2017-05-06T15:15:00Z,35.6,-92.45,21.0,12.0,0,0,,7.0,29.940945,,,TRUE,TRUE,,,,,,,CLR,,,,,,,,VFR,,,,,,,,,,,,SPECI,157.0
KBWP 061515Z AUTO 00000KT 10SM CLR 17/02 A2998 RMK AO1,KBWP,2017-05-06T15:15:00Z,46.25,-96.62,17.0,2.0,0,0,,10.0,29.97933,,,TRUE,TRUE,,,,,,,CLR,,,,,,,,VFR,,,,,,,,,,,,SPECI,295.0
K6S2 061515Z AUTO 00000KT 10SM SCT080 07/06 A3018 RMK AO2,K6S2,2017-05-06T15:15:00Z,43.98,-124.12,7.0,6.0,0,0,,10.0,30.180119,,,TRUE,TRUE,,,,,,,SCT,8000,,,,,,,VFR,,,,,,,,,,,,METAR,16.0
K5M9 061515Z AUTO 29008KT 10SM BKN100 16/08 A2971 RMK AO2 T01600081,K5M9,2017-05-06T15:15:00Z,37.33,-88.12,16.0,8.1,290,8,,10.0,29.71063,,,TRUE,TRUE,,,,,,,BKN,10000,,,,,,,VFR,,,,,,,,,,,,SPECI,199.0
K3T5 061515Z AUTO 22004KT 10SM CLR 23/14 A3002 RMK AO2 T02320141,K3T5,2017-05-06T15:15:00Z,29.9,-96.95,23.2,14.1,220,4,,10.0,30.02067,,,TRUE,TRUE,,,,,,,CLR,,,,,,,,VFR,,,,,,,,,,,,SPECI,99.0
KW99 061515Z AUTO 28010G17KT 10SM OVC044 12/05 A2948 RMK AO2 T01180046,KW99,2017-05-06T15:15:00Z,39.0,-79.15,11.8,4.6,280,10,17,10.0,29.480314,,,TRUE,TRUE,,,,,,,OVC,4400,,,,,,,VFR,,,,,,,,,,,,SPECI,293.0
KW81 061515Z AUTO 28007G16KT 230V310 10SM BKN041 16/07 A2948 RMK AO1 T01590070,KW81,2017-05-06T15:15:00Z,37.18,-78.1,15.9,7.0,280,7,16,10.0,29.480314,,,TRUE,TRUE,,,,,,,BKN,4100,,,,,,,VFR,,,,,,,,,,,,SPECI,129.0
KW43 061515Z AUTO 22008KT 10SM CLR 25/03 A2985 RMK AO2,KW43,2017-05-06T15:15:00Z,44.67,-104.57,25.0,3.0,220,8,,10.0,29.84941,,,TRUE,TRUE,,,,,,,CLR,,,,,,,,VFR,,,,,,,,,,,,SPECI,1300.0
KVES 061515Z AUTO 31009KT 10SM SCT022 SCT050 11/07 A2968 RMK AO2,KVES,2017-05-06T15:15:00Z,40.2,-84.53,11.0,7.0,310,9,,10.0,29.681103,,,TRUE,TRUE,,,,,,,SCT,2200,SCT,5000,,,,,VFR,,,,,,,,,,,,SPECI,307.0
KUOX 061515Z AUTO 25011G16KT 10SM CLR 20/07 A2995 RMK AO2,KUOX,2017-05-06T15:15:00Z,34.38,-89.53,20.0,7.0,250,11,16,10.0,29.949802,,,TRUE,TRUE,,,,,,,CLR,,,,,,,,VFR,,,,,,,,,,,,SPECI,137.0
KUBE 061515Z AUTO 04008KT 10SM CLR 10/04 A2999 RMK AO2,KUBE,2017-05-06T15:15:00Z,45.5,-91.98,10.0,4.0,40,8,,10.0,29.991142,,,TRUE,TRUE,,,,,,,CLR,,,,,,,,VFR,,,,,,,,,,,,SPECI,379.0
KSTE 061515Z AUTO 36010G14KT 10SM CLR 10/01 A2993 RMK AO2 T01010006,KSTE,2017-05-06T15:15:00Z,44.55,-89.53,10.1,0.6,360,10,14,10.0,29.929134,,,TRUE,TRUE,,,,,,,CLR,,,,,,,,VFR,,,,,,,,,,,,SPECI,338.0
KSBO 061515Z AUTO 31013G18KT 10SM CLR 17/06 A2982 RMK AO2,KSBO,2017-05-06T15:15:00Z,32.62,-82.37,17.0,6.0,310,13,18,10.0,29.819881,,,TRUE,TRUE,,,,,,,CLR,,,,,,,,VFR,,,,,,,,,,,,SPECI,100.0
KRCR 061515Z AUTO 35014G19KT 10SM CLR 13/03 A2974 RMK AO2,KRCR,2017-05-06T15:15:00Z,41.07,-86.18,13.0,3.0,350,14,19,10.0,29.740158,,,TRUE,TRUE,,,,,,,CLR,,,,,,,,VFR,,,,,,,,,,,,SPECI,241.0
KPVF 061515Z AUTO 13006KT 10SM FEW004 BKN017 06/05 A2976 RMK AO1,KPVF,2017-05-06T15:15:00Z,38.72,-120.75,6.0,5.0,130,6,,10.0,29.760826,,,TRUE,TRUE,,,,,,,FEW,400,BKN,1700,,,,,MVFR,,,,,,,,,,,,SPECI,789.0
KOEO 061515Z AUTO 04005KT 10SM CLR 14/04 A3002 RMK AO2 T01390043,KOEO,2017-05-06T15:15:00Z,45.32,-92.7,13.9,4.3,40,5,,10.0,30.02067,,,TRUE,TRUE,,,,,,,CLR,,,,,,,,VFR,,,,,,,,,,,,SPECI,275.0
KO54 061515Z AUTO 00000KT 10SM 08/02 A2986 RMK AO1,KO54,2017-05-06T15:15:00Z,40.75,-122.92,8.0,2.0,0,0,,10.0,29.861221,,,TRUE,TRUE,,,,,,,,,,,,,,,,,,,,,,,,,,,SPECI,717.0
KMRJ 061515Z AUTO 01011G15KT 10SM SCT028 SCT036 SCT041 13/04 A2990 RMK AO2,KMRJ,2017-05-06T15:15:00Z,42.88,-90.23,13.0,4.0,10,11,15,10.0,29.899607,,,TRUE,TRUE,,,,,,,SCT,2800,SCT,3600,SCT,4100,,,VFR,,,,,,,,,,,,SPECI,359.0
KMPZ 061515Z AUTO 02008KT 10SM CLR 15/07 A2989 RMK AO2 T01500072,KMPZ,2017-05-06T15:15:00Z,40.95,-91.52,15.0,7.2,20,8,,10.0,29.890747,,,TRUE,TRUE,,,,,,,CLR,,,,,,,,VFR,,,,,,,,,,,,SPECI,224.0
KMCJ 061515Z AUTO 00000KT 9SM CLR 25/07 A3001 RMK AO1,KMCJ,2017-05-06T15:15:00Z,29.72,-95.4,25.0,7.0,0,0,,9.0,30.008858,,,TRUE,TRUE,,,,,,,CLR,,,,,,,,VFR,,,,,,,,,,,,SPECI,69.0
KLOT 061515Z AUTO 01017KT 10SM CLR 12/04 A2981 RMK AO2 T01190039,KLOT,2017-05-06T15:15:00Z,41.6,-88.1,11.9,3.9,10,17,,10.0,29.811024,,,TRUE,TRUE,,,,,,,CLR,,,,,,,,VFR,,,,,,,,,,,,SPECI,205.0
KHQG 061515Z AUTO 22015KT 10SM CLR 23/05 A3000 RMK AO2 T02300054,KHQG,2017-05-06T15:15:00Z,37.17,-101.37,23.0,5.4,220,15,,10.0,30.0,,,TRUE,TRUE,,,,,,,CLR,,,,,,,,VFR,,,,,,,,,,,,SPECI,956.0
KHQG 061515Z AUTO 22015KT 10SM CLR 23/05 A3000 RMK AO2 T02300054,KHQG,2017-05-06T15:15:00Z,37.17,-101.37,23.0,5.4,220,15,,10.0,30.0,,,TRUE,TRUE,,,,,,,CLR,,,,,,,,VFR,,,,,,,,,,,,SPECI,956.0
KHMZ 061515Z AUTO 29009G17KT 5SM -SN BKN025 OVC030 08/05 A2942 RMK AO2 T00790048,KHMZ,2017-05-06T15:15:00Z,40.08,-78.52,7.9,4.8,290,9,17,5.0,29.421259,,,TRUE,TRUE,,,,,,-SN,BKN,2500,OVC,3000,,,,,MVFR,,,,,,,,,,,,SPECI,354.0
KHII 061515Z AUTO 16015G26KT 10SM CLR 29/00 A2963 RMK AO2,KHII,2017-05-06T15:15:00Z,34.57,-114.37,29.0,0.0,160,15,26,10.0,29.630905,,,TRUE,TRUE,,,,,,,CLR,,,,,,,,VFR,,,,,,,,,,,,SPECI,238.0
KHBV 061515Z AUTO 17009KT 10SM CLR 24/13 A3004 RMK AO2 T02420133,KHBV,2017-05-06T15:15:00Z,27.35,-98.73,24.2,13.3,170,9,,10.0,30.041338,,,TRUE,TRUE,,,,,,,CLR,,,,,,,,VFR,,,,,,,,,,,,SPECI,202.0
KFYJ 061515Z AUTO 21010G15KT 10SM SCT030 SCT037 OVC042 16/10 A2948 RMK AO2 T01610102,KFYJ,2017-05-06T15:15:00Z,37.52,-76.77,16.1,10.2,210,10,15,10.0,29.480314,,,TRUE,TRUE,,,,,,,SCT,3000,SCT,3700,OVC,4200,,,VFR,,,,,,,,,,,,SPECI,7.0
KFHB 061515Z AUTO 29015G24KT 10SM CLR 21/07 A2983 RMK AO1,KFHB,2017-05-06T15:15:00Z,30.62,-81.47,21.0,7.0,290,15,24,10.0,29.828741,,,TRUE,TRUE,,,,,,,CLR,,,,,,,,VFR,,,,,,,,,,,,SPECI,5.0
KEGV 061515Z AUTO 36009G14KT 10SM BKN034 BKN041 08/M01 A2995 RMK AO2 T00761007,KEGV,2017-05-06T15:15:00Z,45.93,-89.27,7.6,-0.7,360,9,14,10.0,29.949802,,,TRUE,TRUE,,,,,,,BKN,3400,BKN,4100,,,,,VFR,,,,,,,,,,,,SPECI,500.0
KDLL 061515Z AUTO 35007KT 10SM SCT034 11/02 A2991 RMK AO2 T01140023,KDLL,2017-05-06T15:15:00Z,43.52,-89.77,11.4,2.3,350,7,,10.0,29.911417,,,TRUE,TRUE,,,,,,,SCT,3400,,,,,,,VFR,,,,,,,,,,,,SPECI,299.0
KDKR 061515Z AUTO 22004KT 10SM CLR 22/11 A3007 RMK AO2,KDKR,2017-05-06T15:15:00Z,31.3,-95.4,22.0,11.0,220,4,,10.0,30.070866,,,TRUE,TRUE,,,,,,,CLR,,,,,,,,VFR,,,,,,,,,,,,SPECI,106.0
KCVC 061515Z AUTO 30014G23KT 10SM CLR 16/05 A2982 RMK AO2,KCVC,2017-05-06T15:15:00Z,33.63,-83.85,16.0,5.0,300,14,23,10.0,29.819881,,,TRUE,TRUE,,,,,,,CLR,,,,,,,,VFR,,,,,,,,,,,,SPECI,247.0
KCTJ 061515Z AUTO 32007KT 10SM CLR 16/04 A2992 RMK AO2 T01550037,KCTJ,2017-05-06T15:15:00Z,33.63,-85.15,15.5,3.7,320,7,,10.0,29.920275,,,TRUE,TRUE,,,,,,,CLR,,,,,,,,VFR,,,,,,,,,,,,SPECI,354.0
KCPU 061515Z AUTO 00000KT 10SM OVC017 09/05 A2979 RMK AO2 T00900047,KCPU,2017-05-06T15:15:00Z,38.15,-120.65,9.0,4.7,0,0,,10.0,29.790354,,,TRUE,TRUE,,,,,,,OVC,1700,,,,,,,MVFR,,,,,,,,,,,,METAR,404.0
KCCO 061515Z AUTO 29009KT 10SM CLR 17/06 A2988 RMK AO2 T01650061,KCCO,2017-05-06T15:15:00Z,33.32,-84.77,16.5,6.1,290,9,,10.0,29.878937,,,TRUE,TRUE,,,,,,,CLR,,,,,,,,VFR,,,,,,,,,,,,SPECI,296.0
KBQP 061515Z AUTO 24006KT 10SM CLR 22/10 A3001 RMK AO2 T02170101,KBQP,2017-05-06T15:15:00Z,32.75,-91.88,21.7,10.1,240,6,,10.0,30.008858,,,TRUE,TRUE,,,,,,,CLR,,,,,,,,VFR,,,,,,,,,,,,SPECI,51.0
KARV 061515Z AUTO 02010KT 10SM SCT033 10/01 A2995 RMK AO2 T01000014,KARV,2017-05-06T15:15:00Z,45.92,-89.72,10.0,1.4,20,10,,10.0,29.949802,,,TRUE,TRUE,,,,,,,SCT,3300,,,,,,,VFR,,,,,,,,,,,,SPECI,496.0
KAPY 061515Z AUTO 18012G18KT 7SM CLR 26/13 A3001 RMK AO2 T02610130,KAPY,2017-05-06T15:15:00Z,26.97,-99.25,26.1,13.0,180,12,18,7.0,30.008858,,,TRUE,TRUE,,,,,,,CLR,,,,,,,,VFR,,,,,,,,,,,,SPECI,129.0
KAIG 061515Z AUTO 04017KT 10SM SCT044 10/00 A2992 RMK AO2 T01011002,KAIG,2017-05-06T15:15:00Z,45.15,-89.12,10.1,-0.2,40,17,,10.0,29.920275,,,TRUE,TRUE,,,,,,,SCT,4400,,,,,,,VFR,,,,,,,,,,,,SPECI,464.0
KACJ 061515Z AUTO 31011G18KT 10SM CLR 16/02 A2992 RMK AO2,KACJ,2017-05-06T15:15:00Z,32.12,-84.18,16.0,2.0,310,11,18,10.0,29.920275,,,TRUE,TRUE,,,,,,,CLR,,,,,,,,VFR,,,,,,,,,,,,SPECI,143.0
KA39 061515Z AUTO 20007KT 10SM CLR 27/02 A2980 RMK AO2,KA39,2017-05-06T15:15:00Z,32.98,-111.92,27.0,2.0,200,7,,10.0,29.799213,,,TRUE,TRUE,,,,,,,CLR,,,,,,,,VFR,,,,,,,,,,,,SPECI,396.0
K8A0 061515Z AUTO 30006KT 10SM CLR 15/10 A2987 RMK AO2,K8A0,2017-05-06T15:15:00Z,34.23,-86.25,15.0,10.0,300,6,,10.0,29.870079,,,TRUE,TRUE,,,,,,,CLR,,,,,,,,VFR,,,,,,,,,,,,SPECI,315.0
K3K3 061515Z AUTO 18006KT 10SM CLR A3009 RMK AO2,K3K3,2017-05-06T15:15:00Z,38.0,-101.75,,,180,6,,10.0,30.088583,,,TRUE,TRUE,,,,,,,CLR,,,,,,,,VFR,,,,,,,,,,,,SPECI,1013.0
K1K1 061515Z AUTO 26008G14KT 10SM CLR 21/09 A2998 RMK AO2 T02070085,K1K1,2017-05-06T15:15:00Z,37.77,-97.12,20.7,8.5,260,8,14,10.0,29.97933,,,TRUE,TRUE,,,,,,,CLR,,,,,,,,VFR,,,,,,,,,,,,SPECI,416.0
K1F0 061515Z AUTO 25004KT 10SM CLR 22/06 A3002 RMK AO2,K1F0,2017-05-06T15:15:00Z,34.15,-97.12,22.0,6.0,250,4,,10.0,30.02067,,,TRUE,TRUE,,,,,,,CLR,,,,,,,,VFR,,,,,,,,,,,,SPECI,257.0
CMGB 061515Z AUTO 11005KT 16/13 RMK AO1 SLP960 T01610134 58011,CMGB,2017-05-06T15:15:00Z,45.37,-72.77,16.1,13.4,110,5,,,,996.0,,TRUE,TRUE,,,,,,,,,,,,,,,,-1.1,,,,,,,,,,,METAR,86.0
KVDI 061515Z AUTO 30013G19KT 10SM CLR 17/07 A2984 RMK AO2,KVDI,2017-05-06T15:15:00Z,32.2,-82.37,17.0,7.0,300,13,19,10.0,29.840551,,,TRUE,TRUE,,,,,,,CLR,,,,,,,,VFR,,,,,,,,,,,,SPECI,84.0
KTVI 061515Z AUTO 31009G17KT 280V340 10SM CLR 18/06 A2994 RMK AO2,KTVI,2017-05-06T15:15:00Z,30.9,-83.88,18.0,6.0,310,9,17,10.0,29.940945,,,TRUE,TRUE,,,,,,,CLR,,,,,,,,VFR,,,,,,,,,,,,SPECI,80.0
KTPF 061515Z AUTO 29009G15KT 245V315 10SM SCT050 BKN100 24/11 A2996 RMK AO2,KTPF,2017-05-06T15:15:00Z,27.92,-82.45,24.0,11.0,290,9,15,10.0,29.958662,,,TRUE,TRUE,,,,,,,SCT,5000,BKN,10000,,,,,VFR,,,,,,,,,,,,SPECI,3.0
KTBR 061515Z AUTO 30015G23KT 10SM SCT002 17/07 A2981 RMK AO2 T01740068,KTBR,2017-05-06T15:15:00Z,32.48,-81.73,17.4,6.8,300,15,23,10.0,29.811024,,,TRUE,TRUE,,,,,,,SCT,200,,,,,,,VFR,,,,,,,,,,,,SPECI,57.0
KTAZ 061515Z AUTO 03013G17KT 10SM CLR 14/08 A2981 RMK AO2 T01430077,KTAZ,2017-05-06T15:15:00Z,39.53,-89.33,14.3,7.7,30,13,17,10.0,29.811024,,,TRUE,TRUE,,,,,,,CLR,,,,,,,,VFR,,,,,,,,,,,,SPECI,190.0
KSME 061515Z AUTO 27011KT 10SM -RA SCT011 BKN044 OVC070 06/05 A2983 RMK AO2 P0001,KSME,2017-05-06T15:15:00Z,37.05,-84.62,6.0,5.0,270,11,,10.0,29.828741,,,TRUE,TRUE,,,,,,-RA,SCT,1100,BKN,4400,OVC,7000,,,VFR,,,,,,0.01,,,,,,SPECI,283.0
KSEZ 061515Z AUTO 18009KT 10SM CLR 23/M01 A2993 RMK AO2,KSEZ,2017-05-06T15:15:00Z,34.85,-111.78,23.0,-1.0,180,9,,10.0,29.929134,,,TRUE,TRUE,,,,,,,CLR,,,,,,,,VFR,,,,,,,,,,,,SPECI,1473.0
KRPH 061515Z AUTO 13005KT 10SM CLR 24/09 A3000 RMK AO2 T02350087,KRPH,2017-05-06T15:15:00Z,33.12,-98.55,23.5,8.7,130,5,,10.0,30.0,,,TRUE,TRUE,,,,,,,CLR,,,,,,,,VFR,,,,,,,,,,,,SPECI,342.0
KRBO 061515Z AUTO 21011G15KT 10SM CLR 26/13 A3004 RMK AO2 T02620134,KRBO,2017-05-06T15:15:00Z,27.78,-97.68,26.2,13.4,210,11,15,10.0,30.041338,,,TRUE,TRUE,,,,,,,CLR,,,,,,,,VFR,,,,,,,,,,,,SPECI,24.0
KPVB 061515Z AUTO 01014KT 10SM SCT030 13/06 A2990 RMK AO1 T01320064,KPVB,2017-05-06T15:15:00Z,42.68,-90.43,13.2,6.4,10,14,,10.0,29.899607,,,TRUE,TRUE,,,,,,,SCT,3000,,,,,,,VFR,,,,,,,,,,,,SPECI,313.0
KPTT 061515Z AUTO 27007KT 10SM CLR 20/10 A2998 RMK AO2 T01990095,KPTT,2017-05-06T15:15:00Z,37.7,-98.75,19.9,9.5,270,7,,10.0,29.97933,,,TRUE,TRUE,,,,,,,CLR,,,,,,,,VFR,,,,,,,,,,,,SPECI,595.0
KOSA 061515Z AUTO 23005KT 10SM CLR 22/06 A3005 RMK AO1 T02200062,KOSA,2017-05-06T15:15:00Z,33.1,-94.97,22.0,6.2,230,5,,10.0,30.050198,,,TRUE,TRUE,,,,,,,CLR,,,,,,,,VFR,,,,,,,,,,,,SPECI,111.0
KOPN 061515Z AUTO 32012G19KT 10SM CLR 16/02 A2989 RMK AO2,KOPN,2017-05-06T15:15:00Z,32.95,-84.27,16.0,2.0,320,12,19,10.0,29.890747,,,TRUE,TRUE,,,,,,,CLR,,,,,,,,VFR,,,,,,,,,,,,SPECI,243.0
KOPL 061515Z AUTO 26003KT 10SM CLR 22/11 A3004 RMK AO2 T02150112 PWINO,KOPL,2017-05-06T15:15:00Z,30.55,-92.1,21.5,11.2,260,3,,10.0,30.041338,,,TRUE,TRUE,,,,,TRUE,,CLR,,,,,,,,VFR,,,,,,,,,,,,SPECI,23.0
KOLG 061515Z AUTO 36006KT 10SM CLR 08/02 A3002 RMK AO1,KOLG,2017-05-06T15:15:00Z,46.3,-91.82,8.0,2.0,360,6,,10.0,30.02067,,,TRUE,TRUE,,,,,,,CLR,,,,,,,,VFR,,,,,,,,,,,,SPECI,336.0
KMZZ 061515Z AUTO 33007KT 7SM CLR 11/06 A2972 RMK AO2,KMZZ,2017-05-06T15:15:00Z,40.48,-85.68,11.0,6.0,330,7,,7.0,29.719488,,,TRUE,TRUE,,,,,,,CLR,,,,,,,,VFR,,,,,,,,,,,,SPECI,262.0
KMYZ 061515Z AUTO 32008KT 10SM CLR 21/10 A2993 RMK AO2,KMYZ,2017-05-06T15:15:00Z,39.85,-96.63,21.0,10.0,320,8,,10.0,29.929134,,,TRUE,TRUE,,,,,,,CLR,,,,,,,,VFR,,,,,,,,,,,,SPECI,319.0
KMQI 061515Z AUTO 24020G26KT 10SM CLR 18/09 A2954 RMK AO2 T01830089,KMQI,2017-05-06T15:15:00Z,35.92,-75.7,18.3,8.9,240,20,26,10.0,29.53937,,,TRUE,TRUE,,,,,,,CLR,,,,,,,,VFR,,,,,,,,,,,,SPECI,4.0
KMDZ 061515Z AUTO 01011KT 10SM SCT030 09/02 A2994 RMK AO2 T00940023,KMDZ,2017-05-06T15:15:00Z,45.1,-90.3,9.4,2.3,10,11,,10.0,29.940945,,,TRUE,TRUE,,,,,,,SCT,3000,,,,,,,VFR,,,,,,,,,,,,SPECI,448.0
KM30 061515Z AUTO 26009KT 10SM BKN110 18/10 A2974 RMK AO2 T01780100,KM30,2017-05-06T15:15:00Z,37.18,-88.75,17.8,10.0,260,9,,10.0,29.740158,,,TRUE,TRUE,,,,,,,BKN,11000,,,,,,,VFR,,,,,,,,,,,,SPECI,117.0
KLWB 061515Z AUTO 29007G18KT 260V330 7SM SCT010 BKN015 OVC026 05/03 A2958 RMK AO2 T00500030,KLWB,2017-05-06T15:15:00Z,37.87,-80.4,5.0,3.0,290,7,18,7.0,29.58071,,,TRUE,TRUE,,,,,,,SCT,1000,BKN,1500,OVC,2600,,,MVFR,,,,,,,,,,,,SPECI,702.0
KLRO 061515Z AUTO 30015G18KT 10SM SCT035 17/08 A2972 RMK AO2,KLRO,2017-05-06T15:15:00Z,32.9,-79.78,17.0,8.0,300,15,18,10.0,29.719488,,,TRUE,TRUE,,,,,,,SCT,3500,,,,,,,VFR,,,,,,,,,,,,SPECI,4.0
KLOM 061515Z AUTO 19008KT 10SM OVC025 14/10 A2940 RMK AO1,KLOM,2017-05-06T15:15:00Z,40.13,-75.27,14.0,10.0,190,8,,10.0,29.40059,,,TRUE,TRUE,,,,,,,OVC,2500,,,,,,,MVFR,,,,,,,,,,,,SPECI,92.0
KJOT 061515Z AUTO 35010G16KT 10SM CLR 13/05 A2982 RMK AO2 T01270047,KJOT,2017-05-06T15:15:00Z,41.52,-88.18,12.7,4.7,350,10,16,10.0,29.819881,,,TRUE,TRUE,,,,,,,CLR,,,,,,,,VFR,,,,,,,,,,,,SPECI,177.0
KJHN 061515Z AUTO 19013KT 10SM CLR 20/07 A2999 RMK AO2 T01950069,KJHN,2017-05-06T15:15:00Z,37.58,-101.73,19.5,6.9,190,13,,10.0,29.991142,,,TRUE,TRUE,,,,,,,CLR,,,,,,,,VFR,,,,,,,,,,,,SPECI,1013.0
KJES 061515Z AUTO 30014G21KT 10SM CLR 18/06 A2985 RMK AO2,KJES,2017-05-06T15:15:00Z,31.55,-81.88,18.0,6.0,300,14,21,10.0,29.84941,,,TRUE,TRUE,,,,,,,CLR,,,,,,,,VFR,,,,,,,,,,,,SPECI,33.0
KJAQ 061515Z AUTO 20004KT 10SM BKN014 08/05 A2978 RMK AO1 T00750045,KJAQ,2017-05-06T15:15:00Z,38.37,-120.8,7.5,4.5,200,4,,10.0,29.778543,,,TRUE,TRUE,,,,,,,BKN,1400,,,,,,,MVFR,,,,,,,,,,,,METAR,512.0
KIKK 061515Z AUTO 35008KT 10SM CLR 12/04 A2981 RMK AO2 T01200035,KIKK,2017-05-06T15:15:00Z,41.07,-87.85,12.0,3.5,350,8,,10.0,29.811024,,,TRUE,TRUE,,,,,,,CLR,,,,,,,,VFR,,,,,,,,,,,,SPECI,192.0
KIIY 061515Z AUTO 26013G18KT 215V275 10SM SCT039 17/08 A2979 RMK AO2,KIIY,2017-05-06T15:15:00Z,33.78,-82.82,17.0,8.0,260,13,18,10.0,29.790354,,,TRUE,TRUE,,,,,,,SCT,3900,,,,,,,VFR,,,,,,,,,,,,SPECI,197.0
KIDP 061515Z AUTO 25008KT 10SM CLR 20/10 A2996 RMK AO2,KIDP,2017-05-06T15:15:00Z,37.17,-95.78,20.0,10.0,250,8,,10.0,29.958662,,,TRUE,TRUE,,,,,,,CLR,,,,,,,,VFR,,,,,,,,,,,,SPECI,251.0
KHTO 061515Z AUTO 17008KT 7SM SCT003 SCT036 BKN070 14/12 A2951 RMK AO2 T01350121,KHTO,2017-05-06T15:15:00Z,40.95,-72.25,13.5,12.1,170,8,,7.0,29.509842,,,TRUE,TRUE,,,,,,,SCT,300,SCT,3600,BKN,7000,,,VFR,,,,,,,,,,,,SPECI,17.0
KHQU 061515Z AUTO 32012G15KT 10SM CLR 16/05 A2984 RMK AO2 T01580051,KHQU,2017-05-06T15:15:00Z,33.53,-82.52,15.8,5.1,320,12,15,10.0,29.840551,,,TRUE,TRUE,,,,,,,CLR,,,,,,,,VFR,,,,,,,,,,,,SPECI,152.0
KGYI 061515Z AUTO 21010KT 10SM CLR 22/09 A3004 RMK AO2 T02150092,KGYI,2017-05-06T15:15:00Z,33.72,-96.67,21.5,9.2,210,10,,10.0,30.041338,,,TRUE,TRUE,,,,,,,CLR,,,,,,,,VFR,,,,,,,,,,,,SPECI,228.0
KY49 061515Z AUTO 10005KT 10SM CLR 14/04 A2999 RMK AO2 T01350036,KY49,2017-05-06T15:15:00Z,47.13,-94.65,13.5,3.6,100,5,,10.0,29.991142,,,TRUE,TRUE,,,,,,,CLR,,,,,,,,VFR,,,,,,,,,,,,SPECI,416.0
KGVT 061515Z AUTO 19006KT 10SM CLR 23/07 A3003 RMK AO2,KGVT,2017-05-06T15:15:00Z,33.07,-96.07,23.0,7.0,190,6,,10.0,30.029528,,,TRUE,TRUE,,,,,,,CLR,,,,,,,,VFR,,,,,,,,,,,,SPECI,163.0
KGNC 061515Z AUTO 16010KT 10SM CLR 22/03 A3002 RMK AO2 T02230033,KGNC,2017-05-06T15:15:00Z,32.68,-102.65,22.3,3.3,160,10,,10.0,30.02067,,,TRUE,TRUE,,,,,,,CLR,,,,,,,,VFR,,,,,,,,,,,,SPECI,1010.0
KGCD 061515Z AUTO 32007KT 10SM OVC048 06/00 A2997 RMK AO2 T00571005,KGCD,2017-05-06T15:15:00Z,44.38,-118.97,5.7,-0.5,320,7,,10.0,29.970472,,,TRUE,TRUE,,,,,,,OVC,4800,,,,,,,VFR,,,,,,,,,,,,SPECI,1127.0
KFZG 061515Z AUTO 31013G17KT 10SM CLR 18/07 A2992 RMK AO2 T01780070,KFZG,2017-05-06T15:15:00Z,31.68,-83.27,17.8,7.0,310,13,17,10.0,29.920275,,,TRUE,TRUE,,,,,,,CLR,,,,,,,,VFR,,,,,,,,,,,,SPECI,111.0
KFKN 061515Z AUTO 21012G15KT 10SM BKN028 OVC036 16/10 A2951 RMK AO2 T01550099,KFKN,2017-05-06T15:15:00Z,36.7,-76.9,15.5,9.9,210,12,15,10.0,29.509842,,,TRUE,TRUE,,,,,,,BKN,2800,OVC,3600,,,,,MVFR,,,,,,,,,,,,SPECI,12.0
KEZM 061515Z AUTO 30013G18KT 10SM CLR 18/M03 A2990 RMK AO2 T01811028,KEZM,2017-05-06T15:15:00Z,32.22,-83.13,18.1,-2.8,300,13,18,10.0,29.899607,,,TRUE,TRUE,,,,,,,CLR,,,,,,,,VFR,,,,,,,,,,,,SPECI,93.0
KEYF 061515Z AUTO 26009G15KT 10SM SCT024 BKN031 BKN037 15/10 A2962 RMK AO2 T01520095,KEYF,2017-05-06T15:15:00Z,34.6,-78.58,15.2,9.5,260,9,15,10.0,29.619095,,,TRUE,TRUE,,,,,,,SCT,2400,BKN,3100,BKN,3700,,,VFR,,,,,,,,,,,,SPECI,41.0
KETB 061515Z AUTO 34015G19KT 10SM SCT039 11/01 A2985 RMK AO2,KETB,2017-05-06T15:15:00Z,43.42,-88.13,11.0,1.0,340,15,19,10.0,29.84941,,,TRUE,TRUE,,,,,,,SCT,3900,,,,,,,VFR,,,,,,,,,,,,SPECI,270.0
KEHY 061515Z AUTO 00000KT 10SM CLR 18/00 A3002 RMK AO2,KEHY,2017-05-06T15:15:00Z,41.73,-106.47,18.0,0.0,0,0,,10.0,30.02067,,,TRUE,TRUE,,,,,,,CLR,,,,,,,,VFR,,,,,,,,,,,,SPECI,2225.0
KEFK 061515Z AUTO 16015G23KT 10SM CLR 17/14 A2945 RMK AO2 T01690139,KEFK,2017-05-06T15:15:00Z,44.88,-72.23,16.9,13.9,160,15,23,10.0,29.450787,,,TRUE,TRUE,,,,,,,CLR,,,,,,,,VFR,,,,,,,,,,,,SPECI,284.0
KE11 061515Z AUTO 18014KT 10SM CLR 23/03 A3000 RMK AO2 T02300032,KE11,2017-05-06T15:15:00Z,32.33,-102.53,23.0,3.2,180,14,,10.0,30.0,,,TRUE,TRUE,,,,,,,CLR,,,,,,,,VFR,,,,,,,,,,,,SPECI,967.0
KDVK 061515Z AUTO 30005KT 10SM -RA OVC039 06/05 A2980 RMK AO2,KDVK,2017-05-06T15:15:00Z,37.58,-84.77,6.0,5.0,300,5,,10.0,29.799213,,,TRUE,TRUE,,,,,,-RA,OVC,3900,,,,,,,VFR,,,,,,,,,,,,SPECI,312.0
KDQH 061515Z AUTO 29012G21KT 10SM CLR 18/04 A2990 RMK AO2,KDQH,2017-05-06T15:15:00Z,31.48,-82.87,18.0,4.0,290,12,21,10.0,29.899607,,,TRUE,TRUE,,,,,,,CLR,,,,,,,,VFR,,,,,,,,,,,,SPECI,78.0
KDBN 061515Z AUTO 31014G20KT 10SM CLR 17/04 A2987 RMK AO2,KDBN,2017-05-06T15:15:00Z,32.57,-82.98,17.0,4.0,310,14,20,10.0,29.870079,,,TRUE,TRUE,,,,,,,CLR,,,,,,,,VFR,,,,,,,,,,,,SPECI,94.0
KCVB 061515Z AUTO 21008KT 10SM CLR 24/12 A3006 RMK AO2 T02400118,KCVB,2017-05-06T15:15:00Z,29.35,-98.85,24.0,11.8,210,8,,10.0,30.059055,,,TRUE,TRUE,,,,,,,CLR,,,,,,,,VFR,,,,,,,,,,,,SPECI,235.0
KCTZ 061515Z AUTO 23007KT 190V250 10SM SCT017 SCT022 BKN035 14/11 A2961 RMK AO2 T01420110,KCTZ,2017-05-06T15:15:00Z,34.98,-78.37,14.2,11.0,230,7,,10.0,29.610237,,,TRUE,TRUE,,,,,,,SCT,1700,SCT,2200,BKN,3500,,,VFR,,,,,,,,,,,,SPECI,45.0
KCQB 061515Z AUTO 21010KT 10SM CLR 21/10 A3001 RMK AO2 T02150098,KCQB,2017-05-06T15:15:00Z,35.72,-96.82,21.5,9.8,210,10,,10.0,30.008858,,,TRUE,TRUE,,,,,,,CLR,,,,,,,,VFR,,,,,,,,,,,,SPECI,300.0
KCPC 061515Z AUTO 25007KT 210V270 10SM SCT024 BKN031 BKN037 15/09 A2962 RMK AO2 T01540091,KCPC,2017-05-06T15:15:00Z,34.28,-78.72,15.4,9.1,250,7,,10.0,29.619095,,,TRUE,TRUE,,,,,,,SCT,2400,BKN,3100,BKN,3700,,,VFR,,,,,,,,,,,,SPECI,29.0
KCJR 061515Z AUTO 27008KT 7SM RA OVC065 13/10 A2946 RMK AO2 P0002 T01270104,KCJR,2017-05-06T15:15:00Z,38.53,-77.87,12.7,10.4,270,8,,7.0,29.459646,,,TRUE,TRUE,,,,,,RA,OVC,6500,,,,,,,VFR,,,,,,0.02,,,,,,SPECI,97.0
KCHK 061515Z AUTO 22005KT CLR 21/11 A3001 RMK AO2 PWINO,KCHK,2017-05-06T15:15:00Z,35.1,-97.97,21.0,11.0,220,5,,,30.008858,,,TRUE,TRUE,,,,,TRUE,,CLR,,,,,,,,,,,,,,,,,,,,SPECI,351.0
KCBK 061515Z AUTO 20010KT 10SM CLR 25/08 A2998 RMK AO2,KCBK,2017-05-06T15:15:00Z,39.43,-101.05,25.0,8.0,200,10,,10.0,29.97933,,,TRUE,TRUE,,,,,,,CLR,,,,,,,,VFR,,,,,,,,,,,,SPECI,971.0
KBXK 061515Z AUTO 15003KT 10SM CLR 27/02 A2974 RMK AO1,KBXK,2017-05-06T15:15:00Z,33.42,-112.68,27.0,2.0,150,3,,10.0,29.740158,,,TRUE,TRUE,,,,,,,CLR,,,,,,,,VFR,,,,,,,,,,,,SPECI,315.0
KRSN 061515Z AUTO 22004KT 10SM CLR 21/10 A3004 RMK AO2 T02100097,KRSN,2017-05-06T15:15:00Z,32.52,-92.58,21.0,9.7,220,4,,10.0,30.041338,,,TRUE,TRUE,,,,,,,CLR,,,,,,,,VFR,,,,,,,,,,,,METAR,95.0
KRRL 061515Z AUTO 03012G20KT 10SM CLR 10/01 A2994 RMK AO2 T01030007,KRRL,2017-05-06T15:15:00Z,45.2,-89.72,10.3,0.7,30,12,20,10.0,29.940945,,,TRUE,TRUE,,,,,,,CLR,,,,,,,,VFR,,,,,,,,,,,,METAR,401.0
KMGR 061515Z AUTO 31009G16KT 10SM CLR 18/04 A2994 RMK AO2,KMGR,2017-05-06T15:15:00Z,31.08,-83.8,18.0,4.0,310,9,16,10.0,29.940945,,,TRUE,TRUE,,,,,,,CLR,,,,,,,,VFR,,,,,,,,,,,,METAR,90.0
KMDQ 061515Z AUTO 00000KT 10SM CLR 16/07 A2985 RMK AO2,KMDQ,2017-05-06T15:15:00Z,34.87,-86.55,16.0,7.0,0,0,,10.0,29.84941,,,TRUE,TRUE,,,,,,,CLR,,,,,,,,VFR,,,,,,,,,,,,METAR,230.0
KLXY 061515Z AUTO 22006KT 10SM CLR 22/09 A3004 RMK AO2 T02200091,KLXY,2017-05-06T15:15:00Z,31.63,-96.52,22.0,9.1,220,6,,10.0,30.041338,,,TRUE,TRUE,,,,,,,CLR,,,,,,,,VFR,,,,,,,,,,,,METAR,166.0
KLXN 061515Z AUTO 00000KT 10SM CLR 22/09 A2995 RMK AO2 T02190085,KLXN,2017-05-06T15:15:00Z,40.78,-99.77,21.9,8.5,0,0,,10.0,29.949802,,,TRUE,TRUE,,,,,,,CLR,,,,,,,,VFR,,,,,,,,,,,,METAR,734.0
KLUM 061515Z AUTO 36009KT 10SM CLR 13/03 A2998 RMK AO2 T01340034,KLUM,2017-05-06T15:15:00Z,44.9,-91.87,13.4,3.4,360,9,,10.0,29.97933,,,TRUE,TRUE,,,,,,,CLR,,,,,,,,VFR,,,,,,,,,,,,METAR,273.0
KLUA 061515Z AUTO 22006KT 10SM -RA SCT033 OVC048 10/07 A2947 RMK AO2,KLUA,2017-05-06T15:15:00Z,38.67,-78.5,10.0,7.0,220,6,,10.0,29.471457,,,TRUE,TRUE,,,,,,-RA,SCT,3300,OVC,4800,,,,,VFR,,,,,,,,,,,,METAR,275.0
KLRU 061515Z AUTO 15006KT 10SM CLR 24/M04 A3001 RMK AO2 T02381044,KLRU,2017-05-06T15:15:00Z,32.27,-106.92,23.8,-4.4,150,6,,10.0,30.008858,,,TRUE,TRUE,,,,,,,CLR,,,,,,,,VFR,,,,,,,,,,,,METAR,1358.0
KLNL 061515Z AUTO 01011G17KT 10SM SCT027 08/00 A2997 RMK AO2 T00810002,KLNL,2017-05-06T15:15:00Z,46.15,-89.22,8.1,0.2,10,11,17,10.0,29.970472,,,TRUE,TRUE,,,,,,,SCT,2700,,,,,,,VFR,,,,,,,,,,,,METAR,520.0
KLNC 061515Z AUTO 22007KT 10SM CLR 22/09 A3004 RMK AO2 T02230087,KLNC,2017-05-06T15:15:00Z,32.58,-96.72,22.3,8.7,220,7,,10.0,30.041338,,,TRUE,TRUE,,,,,,,CLR,,,,,,,,VFR,,,,,,,,,,,,METAR,153.0
KLHM 061515Z AUTO 15008KT 10SM CLR 11/04 A2977 RMK AO1,KLHM,2017-05-06T15:15:00Z,38.92,-121.35,11.0,4.0,150,8,,10.0,29.769686,,,TRUE,TRUE,,,,,,,CLR,,,,,,,,VFR,,,,,,,,,,,,METAR,37.0
KLHB 061515Z AUTO 17003KT 10SM CLR 22/10 A3005 RMK AO2 T02170100,KLHB,2017-05-06T15:15:00Z,30.87,-96.62,21.7,10.0,170,3,,10.0,30.050198,,,TRUE,TRUE,,,,,,,CLR,,,,,,,,VFR,,,,,,,,,,,,METAR,87.0
KLCG 061515Z AUTO 14005KT CLR 19/06 A2997 RMK AO2 T01930060 PWINO,KLCG,2017-05-06T15:15:00Z,42.25,-96.98,19.3,6.0,140,5,,,29.970472,,,TRUE,TRUE,,,,,TRUE,,CLR,,,,,,,,,,,,,,,,,,,,METAR,436.0
KLAM 061515Z AUTO 09005KT 10SM CLR 16/00 A3016 RMK AO2 T01631005,KLAM,2017-05-06T15:15:00Z,35.87,-106.27,16.3,-0.5,90,5,,10.0,30.159449,,,TRUE,TRUE,,,,,,,CLR,,,,,,,,VFR,,,,,,,,,,,,METAR,2179.0
KL18 061515Z AUTO 17007KT 120V200 10SM OVC036 15/10 A2984 RMK AO2,KL18,2017-05-06T15:15:00Z,33.35,-117.25,15.0,10.0,170,7,,10.0,29.840551,,,TRUE,TRUE,,,,,,,OVC,3600,,,,,,,VFR,,,,,,,,,,,,METAR,216.0
KK88 061515Z AUTO 25011G16KT 10SM CLR 21/10 A2995 RMK AO1 T02050099,KK88,2017-05-06T15:15:00Z,37.87,-95.38,20.5,9.9,250,11,16,10.0,29.949802,,,TRUE,TRUE,,,,,,,CLR,,,,,,,,VFR,,,,,,,,,,,,METAR,309.0
KJWY 061515Z AUTO 22009KT 10SM SCT110 22/09 A3004 RMK AO2 T02220087,KJWY,2017-05-06T15:15:00Z,32.45,-96.92,22.2,8.7,220,9,,10.0,30.041338,,,TRUE,TRUE,,,,,,,SCT,11000,,,,,,,VFR,,,,,,,,,,,,METAR,217.0
KJWG 061515Z AUTO 23007KT CLR 21/11 A3001 RMK AO2 T02140114 PWINO,KJWG,2017-05-06T15:15:00Z,35.87,-98.42,21.4,11.4,230,7,,,30.008858,,,TRUE,TRUE,,,,,TRUE,,CLR,,,,,,,,,,,,,,,,,,,,METAR,472.0
KJSV 061515Z AUTO 26005KT 10SM CLR 20/10 A3001 RMK AO2,KJSV,2017-05-06T15:15:00Z,35.43,-94.8,20.0,10.0,260,5,,10.0,30.008858,,,TRUE,TRUE,,,,,,,CLR,,,,,,,,VFR,,,,,,,,,,,,METAR,161.0
KJSO 061515Z AUTO 00000KT 10SM CLR 21/08 A3006 RMK AO2 T02170083,KJSO,2017-05-06T15:15:00Z,31.87,-95.22,21.7,8.3,0,0,,10.0,30.059055,,,TRUE,TRUE,,,,,,,CLR,,,,,,,,VFR,,,,,,,,,,,,METAR,206.0
KJKA 061515Z AUTO 32007KT 290V360 10SM CLR 21/04 A3001 RMK AO2 T02060042,KJKA,2017-05-06T15:15:00Z,30.28,-87.67,20.6,4.2,320,7,,10.0,30.008858,,,TRUE,TRUE,,,,,,,CLR,,,,,,,,VFR,,,,,,,,,,,,METAR,5.0
KJDD 061515Z AUTO 25005KT 10SM CLR 21/10 A3004 RMK AO2,KJDD,2017-05-06T15:15:00Z,32.75,-95.5,21.0,10.0,250,5,,10.0,30.041338,,,TRUE,TRUE,,,,,,,CLR,,,,,,,,VFR,,,,,,,,,,,,METAR,132.0
KIZA 061515Z AUTO 26007KT 1 3/4SM BR BKN008 OVC015 08/08 A2988 RMK AO2,KIZA,2017-05-06T15:15:00Z,34.6,-120.07,8.0,8.0,260,7,,1.75,29.878937,,,TRUE,TRUE,,,,,,BR,BKN,800,OVC,1500,,,,,IFR,,,,,,,,,,,,METAR,205.0
KINJ 061515Z AUTO 21009KT 10SM CLR 22/09 A3003 RMK AO2 T02240093,KINJ,2017-05-06T15:15:00Z,32.08,-97.1,22.4,9.3,210,9,,10.0,30.029528,,,TRUE,TRUE,,,,,,,CLR,,,,,,,,VFR,,,,,,,,,,,,METAR,209.0
KIKG 061515Z AUTO 16009KT 10SM CLR 27/14 A3003 RMK AO2 T02650139,KIKG,2017-05-06T15:15:00Z,27.55,-98.03,26.5,13.9,160,9,,10.0,30.029528,,,TRUE,TRUE,,,,,,,CLR,,,,,,,,VFR,,,,,,,,,,,,METAR,40.0
KIGQ 061515Z AUTO 02014G21KT 10SM CLR 09/05 A2982 RMK AO2 T00930047,KIGQ,2017-05-06T15:15:00Z,41.53,-87.53,9.3,4.7,20,14,21,10.0,29.819881,,,TRUE,TRUE,,,,,,,CLR,,,,,,,,VFR,,,,,,,,,,,,METAR,188.0
KIER 061515Z AUTO 00000KT 10SM CLR 22/12 A3003 RMK AO2 T02150115,KIER,2017-05-06T15:15:00Z,31.73,-93.1,21.5,11.5,0,0,,10.0,30.029528,,,TRUE,TRUE,,,,,,,CLR,,,,,,,,VFR,,,,,,,,,,,,METAR,37.0
KIBM 061515Z AUTO 17009KT 10SM CLR 22/06 A2996 RMK AO2 T02210062,KIBM,2017-05-06T15:15:00Z,41.18,-103.68,22.1,6.2,170,9,,10.0,29.958662,,,TRUE,TRUE,,,,,,,CLR,,,,,,,,VFR,,,,,,,,,,,,METAR,1501.0
KHZR 061515Z AUTO 00000KT 10SM CLR 21/13 A3003 RMK AO2 T02060128,KHZR,2017-05-06T15:15:00Z,30.72,-91.48,20.6,12.8,0,0,,10.0,30.029528,,,TRUE,TRUE,,,,,,,CLR,,,,,,,,VFR,,,,,,,,,,,,METAR,12.0
KHZL 061515Z AUTO 17008G14KT 120V240 10SM SCT017 BKN038 OVC060 13/10 A2934 RMK AO2,KHZL,2017-05-06T15:15:00Z,40.98,-76.0,13.0,10.0,170,8,14,10.0,29.338583,,,TRUE,TRUE,,,,,,,SCT,1700,BKN,3800,OVC,6000,,,VFR,,,,,,,,,,,,METAR,489.0
KHWY 061515Z AUTO 26006KT 10SM -RA OVC060 13/09 A2944 RMK AO2 T01280092,KHWY,2017-05-06T15:15:00Z,38.58,-77.72,12.8,9.2,260,6,,10.0,29.438976,,,TRUE,TRUE,,,,,,-RA,OVC,6000,,,,,,,VFR,,,,,,,,,,,,METAR,103.0
KHVE 061515Z AUTO 28009KT 10SM CLR 20/M05 A2989 RMK AO2,KHVE,2017-05-06T15:15:00Z,38.42,-110.7,20.0,-5.0,280,9,,10.0,29.890747,,,TRUE,TRUE,,,,,,,CLR,,,,,,,,VFR,,,,,,,,,,,,METAR,1350.0
KHSP 061515Z AUTO 28020G28KT 10SM BKN011 OVC017 04/01 A2948 RMK AO2,KHSP,2017-05-06T15:15:00Z,37.95,-79.82,4.0,1.0,280,20,28,10.0,29.480314,,,TRUE,TRUE,,,,,,,BKN,1100,OVC,1700,,,,,MVFR,,,,,,,,,,,,METAR,1156.0
KHSB 061515Z AUTO 32011G20KT 10SM SCT100 17/10 A2972 RMK AO2 T01740100,KHSB,2017-05-06T15:15:00Z,37.82,-88.55,17.4,10.0,320,11,20,10.0,29.719488,,,TRUE,TRUE,,,,,,,SCT,10000,,,,,,,VFR,,,,,,,,,,,,METAR,121.0
KECS 061515Z AUTO 15012G16KT 10SM CLR 22/01 A2988 RMK AO2,KECS,2017-05-06T15:15:00Z,43.88,-104.32,22.0,1.0,150,12,16,10.0,29.878937,,,TRUE,TRUE,,,,,,,CLR,,,,,,,,VFR,,,,,,,,,,,,METAR,1273.0
KDZB 061515Z AUTO 19007KT 10SM CLR 25/08 A3004 RMK AO2 T02450081,KDZB,2017-05-06T15:15:00Z,30.53,-98.37,24.5,8.1,190,7,,10.0,30.041338,,,TRUE,TRUE,,,,,,,CLR,,,,,,,,VFR,,,,,,,,,,,,METAR,334.0
KDUX 061515Z AUTO 19011KT 10SM CLR 19/05 A3003 RMK AO2 T01860048,KDUX,2017-05-06T15:15:00Z,35.85,-102.02,18.6,4.8,190,11,,10.0,30.029528,,,TRUE,TRUE,,,,,,,CLR,,,,,,,,VFR,,,,,,,,,,,,METAR,1129.0
KDUA 061515Z AUTO 22005KT 10SM CLR 22/08 A3003 RMK AO2,KDUA,2017-05-06T15:15:00Z,33.95,-96.4,22.0,8.0,220,5,,10.0,30.029528,,,TRUE,TRUE,,,,,,,CLR,,,,,,,,VFR,,,,,,,,,,,,METAR,213.0
KDRI 061515Z AUTO 00000KT 4SM HZ CLR 22/08 A3005 RMK AO2 T02190084,KDRI,2017-05-06T15:15:00Z,30.83,-93.33,21.9,8.4,0,0,,4.0,30.050198,,,TRUE,TRUE,,,,,,HZ,CLR,,,,,,,,MVFR,,,,,,,,,,,,METAR,63.0
KDNV 061515Z AUTO 36010G15KT 10SM CLR 12/04 A2976 RMK AO2 T01200043,KDNV,2017-05-06T15:15:00Z,40.2,-87.6,12.0,4.3,360,10,15,10.0,29.760826,,,TRUE,TRUE,,,,,,,CLR,,,,,,,,VFR,,,,,,,,,,,,METAR,212.0
KDLO 061515Z AUTO 31004KT 10SM SCT100 12/04 A2981 RMK AO2 T01210035,KDLO,2017-05-06T15:15:00Z,35.75,-119.23,12.1,3.5,310,4,,10.0,29.811024,,,TRUE,TRUE,,,,,,,SCT,10000,,,,,,,VFR,,,,,,,,,,,,METAR,96.0
KDKB 061515Z AUTO 36014G21KT 10SM CLR 11/05 A2985 RMK AO2 T01120053,KDKB,2017-05-06T15:15:00Z,41.93,-88.7,11.2,5.3,360,14,21,10.0,29.84941,,,TRUE,TRUE,,,,,,,CLR,,,,,,,,VFR,,,,,,,,,,,,METAR,279.0
KDED 061515Z AUTO 30016G23KT 10SM CLR 21/06 A2990 RMK AO2,KDED,2017-05-06T15:15:00Z,29.07,-81.28,21.0,6.0,300,16,23,10.0,29.899607,,,TRUE,TRUE,,,,,,,CLR,,,,,,,,VFR,,,,,,,,,,,,METAR,24.0
KDCY 061515Z AUTO 00000KT 10SM -RA OVC060 09/08 A2977 RMK AO2 T00850075,KDCY,2017-05-06T15:15:00Z,38.7,-87.13,8.5,7.5,0,0,,10.0,29.769686,,,TRUE,TRUE,,,,,,-RA,OVC,6000,,,,,,,VFR,,,,,,,,,,,,METAR,144.0
KD25 061515Z AUTO 04011KT 10SM CLR 08/00 A2997 RMK AO2 T00841001,KD25,2017-05-06T15:15:00Z,46.12,-89.88,8.4,-0.1,40,11,,10.0,29.970472,,,TRUE,TRUE,,,,,,,CLR,,,,,,,,VFR,,,,,,,,,,,,METAR,491.0
KCZT 061515Z AUTO 17007KT 140V200 10SM CLR 25/13 A3001 RMK AO2,KCZT,2017-05-06T15:15:00Z,28.52,-99.82,25.0,13.0,170,7,,10.0,30.008858,,,TRUE,TRUE,,,,,,,CLR,,,,,,,,VFR,,,,,,,,,,,,METAR,183.0
KCWC 061515Z AUTO 22009G17KT 10SM CLR 23/06 A3003 RMK AO2 T02300063,KCWC,2017-05-06T15:15:00Z,33.85,-98.48,23.0,6.3,220,9,17,10.0,30.029528,,,TRUE,TRUE,,,,,,,CLR,,,,,,,,VFR,,,,,,,,,,,,METAR,305.0
KCUL 061515Z AUTO 08012KT 10SM CLR 13/08 A2975 RMK AO2 T01320080,KCUL,2017-05-06T15:15:00Z,38.08,-88.12,13.2,8.0,80,12,,10.0,29.749016,,,TRUE,TRUE,,,,,,,CLR,,,,,,,,VFR,,,,,,,,,,,,METAR,118.0
KCQF 061515Z AUTO 26004KT 10SM CLR 19/06 A3001 RMK AO2,KCQF,2017-05-06T15:15:00Z,30.47,-87.88,19.0,6.0,260,4,,10.0,30.008858,,,TRUE,TRUE,,,,,,,CLR,,,,,,,,VFR,,,,,,,,,,,,METAR,28.0
KCNI 061515Z AUTO 30014G22KT 10SM CLR 13/01 A2984 RMK AO2,KCNI,2017-05-06T15:15:00Z,34.32,-84.42,13.0,1.0,300,14,22,10.0,29.840551,,,TRUE,TRUE,,,,,,,CLR,,,,,,,,VFR,,,,,,,,,,,,METAR,372.0
KCMY 061515Z AUTO 36009G15KT 340V050 10SM CLR 13/03 A2995 RMK AO2 T01260031,KCMY,2017-05-06T15:15:00Z,43.97,-90.73,12.6,3.1,360,9,15,10.0,29.949802,,,TRUE,TRUE,,,,,,,CLR,,,,,,,,VFR,,,,,,,,,,,,METAR,256.0
KCMD 061515Z AUTO 23007KT 190V250 10SM CLR 17/07 A2990 RMK AO2 T01730074,KCMD,2017-05-06T15:15:00Z,34.27,-86.85,17.3,7.4,230,7,,10.0,29.899607,,,TRUE,TRUE,,,,,,,CLR,,,,,,,,VFR,,,,,,,,,,,,METAR,294.0
KCLI 061515Z AUTO 02011G16KT 10SM CLR 12/M02 A2990 RMK AO2,KCLI,2017-05-06T15:15:00Z,44.62,-88.73,12.0,-2.0,20,11,16,10.0,29.899607,,,TRUE,TRUE,,,,,,,CLR,,,,,,,,VFR,,,,,,,,,,,,METAR,250.0
KCKF 061515Z AUTO 32009KT 10SM CLR 18/06 A2991 RMK AO2 T01810057,KCKF,2017-05-06T15:15:00Z,31.98,-83.77,18.1,5.7,320,9,,10.0,29.911417,,,TRUE,TRUE,,,,,,,CLR,,,,,,,,VFR,,,,,,,,,,,,METAR,91.0
KCIR 061515Z AUTO 26010KT 10SM CLR 18/10 A2975 RMK AO2 T01780102,KCIR,2017-05-06T15:15:00Z,37.07,-89.22,17.8,10.2,260,10,,10.0,29.749016,,,TRUE,TRUE,,,,,,,CLR,,,,,,,,VFR,,,,,,,,,,,,METAR,98.0
KCDA 061515Z AUTO 14014G19KT 10SM CLR 17/14 A2950 RMK AO2 T01700141,KCDA,2017-05-06T15:15:00Z,44.57,-72.02,17.0,14.1,140,14,19,10.0,29.500984,,,TRUE,TRUE,,,,,,,CLR,,,,,,,,VFR,,,,,,,,,,,,METAR,363.0
KC75 061515Z AUTO 36007KT 10SM SCT019 13/07 A2985 RMK AO2 T01250071,KC75,2017-05-06T15:15:00Z,41.02,-89.38,12.5,7.1,360,7,,10.0,29.84941,,,TRUE,TRUE,,,,,,,SCT,1900,,,,,,,VFR,,,,,,,,,,,,METAR,173.0
KC35 061515Z AUTO 02009KT 10SM CLR 11/02 A2991 RMK AO2 T01090022,KC35,2017-05-06T15:15:00Z,43.53,-89.98,10.9,2.2,20,9,,10.0,29.911417,,,TRUE,TRUE,,,,,,,CLR,,,,,,,,VFR,,,,,,,,,,,,METAR,276.0
KC29 061515Z AUTO 02010KT 10SM CLR 12/03 A2990 RMK AO1 T01180032,KC29,2017-05-06T15:15:00Z,43.12,-89.53,11.8,3.2,20,10,,10.0,29.899607,,,TRUE,TRUE,,,,,,,CLR,,,,,,,,VFR,,,,,,,,,,,,METAR,283.0
KBYY 061515Z AUTO 00000KT 2SM HZ CLR 25/12 A3003 RMK AO2 T02460118,KBYY,2017-05-06T15:15:00Z,28.97,-95.87,24.6,11.8,0,0,,2.0,30.029528,,,TRUE,TRUE,,,,,,HZ,CLR,,,,,,,,IFR,,,,,,,,,,,,METAR,14.0
KBXA 061515Z AUTO 27005KT 10SM CLR 23/07 A3004 RMK AO2 T02270071,KBXA,2017-05-06T15:15:00Z,30.82,-89.87,22.7,7.1,270,5,,10.0,30.041338,,,TRUE,TRUE,,,,,,,CLR,,,,,,,,VFR,,,,,,,,,,,,METAR,36.0
KBUU 061515Z AUTO 01012G16KT 10SM CLR 14/07 A2984 RMK AO2 T01410067,KBUU,2017-05-06T15:15:00Z,42.68,-88.3,14.1,6.7,10,12,16,10.0,29.840551,,,TRUE,TRUE,,,,,,,CLR,,,,,,,,VFR,,,,,,,,,,,,METAR,237.0
KBQK 061515Z AUTO 28013G25KT 10SM CLR 19/09 A2984 RMK AO2,KBQK,2017-05-06T15:15:00Z,31.25,-81.47,19.0,9.0,280,13,25,10.0,29.840551,,,TRUE,TRUE,,,,,,,CLR,,,,,,,,VFR,,,,,,,,,,,,METAR,8.0
KBPG 061515Z AUTO 16015KT 10SM CLR 24/04 A3003 RMK AO2 T02350036,KBPG,2017-05-06T15:15:00Z,32.22,-101.52,23.5,3.6,160,15,,10.0,30.029528,,,TRUE,TRUE,,,,,,,CLR,,,,,,,,VFR,,,,,,,,,,,,METAR,784.0
KBPC 061515Z AUTO 23009G14KT 10SM CLR 23/03 A3000 RMK AO2,KBPC,2017-05-06T15:15:00Z,35.88,-101.03,23.0,3.0,230,9,14,10.0,30.0,,,TRUE,TRUE,,,,,,,CLR,,,,,,,,VFR,,,,,,,,,,,,METAR,845.0
KBMT 061515Z AUTO 10SM CLR 24/08 A3004 RMK AO2 T02370081,KBMT,2017-05-06T15:15:00Z,30.07,-94.22,23.7,8.1,,,,10.0,30.041338,,,TRUE,TRUE,,,,,,,CLR,,,,,,,,VFR,,,,,,,,,,,,METAR,10.0
KBMC 061515Z AUTO 01005KT 10SM SCT110 19/06 A2976 RMK AO1 T01930060,KBMC,2017-05-06T15:15:00Z,41.55,-112.07,19.3,6.0,10,5,,10.0,29.760826,,,TRUE,TRUE,,,,,,,SCT,11000,,,,,,,VFR,,,,,,,,,,,,METAR,1288.0
KBKS 061515Z AUTO 17009G14KT 10SM CLR 26/13 A3003 RMK AO1 T02580134,KBKS,2017-05-06T15:15:00Z,27.2,-98.12,25.8,13.4,170,9,14,10.0,30.029528,,,TRUE,TRUE,,,,,,,CLR,,,,,,,,VFR,,,,,,,,,,,,METAR,34.0
KBIE 061515Z AUTO 05008KT 10SM CLR 22/09 A2994 RMK AO2 T02150091,KBIE,2017-05-06T15:15:00Z,40.28,-96.75,21.5,9.1,50,8,,10.0,29.940945,,,TRUE,TRUE,,,,,,,CLR,,,,,,,,VFR,,,,,,,,,,,,METAR,403.0
KBGE 061515Z AUTO 31010G16KT 10SM CLR 19/05 A2996 RMK AO2,KBGE,2017-05-06T15:15:00Z,30.97,-84.63,19.0,5.0,310,10,16,10.0,29.958662,,,TRUE,TRUE,,,,,,,CLR,,,,,,,,VFR,,,,,,,,,,,,METAR,43.0
KBEC 061515Z AUTO 25009KT 10SM CLR 21/09 A2997 RMK AO2 T02100089,KBEC,2017-05-06T15:15:00Z,37.7,-97.22,21.0,8.9,250,9,,10.0,29.970472,,,TRUE,TRUE,,,,,,,CLR,,,,,,,,VFR,,,,,,,,,,,,METAR,429.0
KBEA 061515Z AUTO 20009KT 10SM CLR 26/13 A3003 RMK AO2 T02550127,KBEA,2017-05-06T15:15:00Z,28.37,-97.78,25.5,12.7,200,9,,10.0,30.029528,,,TRUE,TRUE,,,,,,,CLR,,,,,,,,VFR,,,,,,,,,,,,METAR,82.0
KBCK 061515Z AUTO 02005KT 10SM CLR 13/01 A2995 RMK AO2 T01280013,KBCK,2017-05-06T15:15:00Z,44.25,-90.85,12.8,1.3,20,5,,10.0,29.949802,,,TRUE,TRUE,,,,,,,CLR,,,,,,,,VFR,,,,,,,,,,,,METAR,255.0
KBCB 061515Z AUTO 30012G18KT 240V320 10SM OVC017 07/03 A2961 RMK AO2 T00700031,KBCB,2017-05-06T15:15:00Z,37.22,-80.42,7.0,3.1,300,12,18,10.0,29.610237,,,TRUE,TRUE,,,,,,,OVC,1700,,,,,,,MVFR,,,,,,,,,,,,METAR,650.0
KBAM 061515Z AUTO 04003KT 10SM CLR 13/09 A2970 RMK AO1,KBAM,2017-05-06T15:15:00Z,,,13.0,9.0,40,3,,10.0,29.698818,,,TRUE,TRUE,,,,,,,CLR,,,,,,,,VFR,,,,,,,,,,,,METAR,
KAXS 061515Z AUTO 19009KT 7SM CLR 23/05 A3003 RMK AO2 T02280054,KAXS,2017-05-06T15:15:00Z,34.7,-99.33,22.8,5.4,190,9,,7.0,30.029528,,,TRUE,TRUE,,,,,,,CLR,,,,,,,,VFR,,,,,,,,,,,,METAR,437.0
KAXH 061515Z AUTO 00000KT 10SM CLR 24/10 A3004 RMK AO2 T02350104,KAXH,2017-05-06T15:15:00Z,29.52,-95.48,23.5,10.4,0,0,,10.0,30.041338,,,TRUE,TRUE,,,,,,,CLR,,,,,,,,VFR,,,,,,,,,,,,METAR,21.0
KAVQ 061515Z AUTO 20008KT 10SM CLR 28/M01 A2981 RMK AO2 T02821007,KAVQ,2017-05-06T15:15:00Z,32.4,-111.22,28.2,-0.7,200,8,,10.0,29.811024,,,TRUE,TRUE,,,,,,,CLR,,,,,,,,VFR,,,,,,,,,,,,METAR,619.0
KAUN 061515Z AUTO 14007KT 10SM BKN012 BKN095 09/06 A2976 RMK AO1,KAUN,2017-05-06T15:15:00Z,38.95,-121.08,9.0,6.0,140,7,,10.0,29.760826,,,TRUE,TRUE,,,,,,,BKN,1200,BKN,9500,,,,,MVFR,,,,,,,,,,,,METAR,467.0
KASW 061515Z AUTO 33010G15KT 10SM SCT025 11/04 A2972 RMK AO2,KASW,2017-05-06T15:15:00Z,41.27,-85.83,11.0,4.0,330,10,15,10.0,29.719488,,,TRUE,TRUE,,,,,,,SCT,2500,,,,,,,VFR,,,,,,,,,,,,METAR,259.0
KASN 061515Z AUTO 28005KT 10SM CLR 17/08 A2991 RMK AO2 T01710081,KASN,2017-05-06T15:15:00Z,33.57,-86.05,17.1,8.1,280,5,,10.0,29.911417,,,TRUE,TRUE,,,,,,,CLR,,,,,,,,VFR,,,,,,,,,,,,METAR,162.0
KAQR 061515Z AUTO 22006KT 10SM CLR 21/07 A3003 RMK AO2,KAQR,2017-05-06T15:15:00Z,34.4,-96.15,21.0,7.0,220,6,,10.0,30.029528,,,TRUE,TRUE,,,,,,,CLR,,,,,,,,VFR,,,,,,,,,,,,METAR,189.0
KANW 061515Z AUTO 11017KT 10SM CLR 21/03 A2996 RMK AO2 T02050032,KANW,2017-05-06T15:15:00Z,42.57,-100.0,20.5,3.2,110,17,,10.0,29.958662,,,TRUE,TRUE,,,,,,,CLR,,,,,,,,VFR,,,,,,,,,,,,METAR,789.0
KAJR 061515Z AUTO 33014G21KT 7SM CLR 15/01 A2977 RMK AO2 T01450008,KAJR,2017-05-06T15:15:00Z,34.5,-83.55,14.5,0.8,330,14,21,7.0,29.769686,,,TRUE,TRUE,,,,,,,CLR,,,,,,,,VFR,,,,,,,,,,,,METAR,441.0
KAJG 061515Z AUTO 08006KT 10SM SCT080 SCT090 12/08 A2976 RMK AO2 T01240081,KAJG,2017-05-06T15:15:00Z,38.62,-87.73,12.4,8.1,80,6,,10.0,29.760826,,,TRUE,TRUE,,,,,,,SCT,8000,SCT,9000,,,,,VFR,,,,,,,,,,,,METAR,131.0
KAHQ 061515Z AUTO 06005KT 10SM CLR 20/04 A2996 RMK AO2 T02010041,KAHQ,2017-05-06T15:15:00Z,41.23,-96.6,20.1,4.1,60,5,,10.0,29.958662,,,TRUE,TRUE,,,,,,,CLR,,,,,,,,VFR,,,,,,,,,,,,METAR,374.0
KAFO 061515Z AUTO 00000KT 10SM SCT120 12/03 A2992 RMK AO2 TSNO,KAFO,2017-05-06T15:15:00Z,42.72,-110.95,12.0,3.0,0,0,,10.0,29.920275,,,TRUE,TRUE,,,TRUE,,,,SCT,12000,,,,,,,VFR,,,,,,,,,,,,METAR,1897.0
KAFK 061515Z AUTO 08011KT 10SM CLR 20/01 A2994 RMK AO2 T02010006,KAFK,2017-05-06T15:15:00Z,40.6,-95.85,20.1,0.6,80,11,,10.0,29.940945,,,TRUE,TRUE,,,,,,,CLR,,,,,,,,VFR,,,,,,,,,,,,METAR,354.0
KADH 061515Z AUTO 22006KT 10SM CLR 21/08 A3002 RMK AO2,KADH,2017-05-06T15:15:00Z,34.8,-96.67,21.0,8.0,220,6,,10.0,30.02067,,,TRUE,TRUE,,,,,,,CLR,,,,,,,,VFR,,,,,,,,,,,,METAR,308.0
KAAA 061515Z AUTO 04012KT 10SM SCT021 BKN055 OVC065 14/09 A2984 RMK AO2 T01380093,KAAA,2017-05-06T15:15:00Z,40.17,-89.33,13.8,9.3,40,12,,10.0,29.840551,,,TRUE,TRUE,,,,,,,SCT,2100,BKN,5500,OVC,6500,,,VFR,,,,,,,,,,,,METAR,182.0
K8W2 061515Z AUTO 00000KT 7SM BKN038 OVC047 10/07 A2946 RMK AO1 P0001 T00950069,K8W2,2017-05-06T15:15:00Z,38.65,-78.7,9.5,6.9,0,0,,7.0,29.459646,,,TRUE,TRUE,,,,,,,BKN,3800,OVC,4700,,,,,VFR,,,,,,0.01,,,,,,METAR,297.0
K82V 061515Z AUTO 20005KT 10SM CLR 19/05 A2996 RMK AO2,K82V,2017-05-06T15:15:00Z,41.15,-104.13,19.0,5.0,200,5,,10.0,29.958662,,,TRUE,TRUE,,,,,,,CLR,,,,,,,,VFR,,,,,,,,,,,,METAR,1570.0
K7W4 061515Z AUTO 27008G15KT 10SM SCT022 SCT030 OVC050 14/10 A2946 RMK AO1 T01400096,K7W4,2017-05-06T15:15:00Z,37.97,-77.75,14.0,9.6,270,8,15,10.0,29.459646,,,TRUE,TRUE,,,,,,,SCT,2200,SCT,3000,OVC,5000,,,VFR,,,,,,,,,,,,METAR,106.0
K6A2 061515Z AUTO 30013G21KT 10SM CLR 16/08 A2987 RMK AO2,K6A2,2017-05-06T15:15:00Z,33.23,-84.27,16.0,8.0,300,13,21,10.0,29.870079,,,TRUE,TRUE,,,,,,,CLR,,,,,,,,VFR,,,,,,,,,,,,METAR,292.0
K5R8 061515Z AUTO 00000KT 10SM CLR 22/12 A3004 RMK AO2 T02160120,K5R8,2017-05-06T15:15:00Z,30.43,-93.47,21.6,12.0,0,0,,10.0,30.041338,,,TRUE,TRUE,,,,,,,CLR,,,,,,,,VFR,,,,,,,,,,,,METAR,24.0
K5A6 061515Z AUTO 24008KT 10SM CLR 20/08 A2997 RMK AO2 T02020077,K5A6,2017-05-06T15:15:00Z,33.47,-89.73,20.2,7.7,240,8,,10.0,29.970472,,,TRUE,TRUE,,,,,,,CLR,,,,,,,,VFR,,,,,,,,,,,,METAR,111.0
K4V0 061515Z AUTO 08007KT 10SM CLR 17/M01 A2993 RMK AO2 T01651008,K4V0,2017-05-06T15:15:00Z,40.1,-108.77,16.5,-0.8,80,7,,10.0,29.929134,,,TRUE,TRUE,,,,,,,CLR,,,,,,,,VFR,,,,,,,,,,,,METAR,1608.0
K4O4 061515Z AUTO 30004KT 10SM CLR 20/08 A3002 RMK AO2,K4O4,2017-05-06T15:15:00Z,33.92,-94.87,20.0,8.0,300,4,,10.0,30.02067,,,TRUE,TRUE,,,,,,,CLR,,,,,,,,VFR,,,,,,,,,,,,METAR,144.0
K40J 061515Z AUTO 34015KT 10SM CLR 21/03 A2994 RMK AO2 T02050027,K40J,2017-05-06T15:15:00Z,30.07,-83.57,20.5,2.7,340,15,,10.0,29.940945,,,TRUE,TRUE,,,,,,,CLR,,,,,,,,VFR,,,,,,,,,,,,METAR,13.0
K3R7 061515Z AUTO 00000KT 10SM CLR 21/13 A3003 RMK AO2 T02110125,K3R7,2017-05-06T15:15:00Z,30.25,-92.67,21.1,12.5,0,0,,10.0,30.029528,,,TRUE,TRUE,,,,,,,CLR,,,,,,,,VFR,,,,,,,,,,,,METAR,7.0
K3LF 061515Z AUTO 05014G20KT 10SM CLR 13/09 A2979 RMK AO2 T01340087,K3LF,2017-05-06T15:15:00Z,39.17,-89.67,13.4,8.7,50,14,20,10.0,29.790354,,,TRUE,TRUE,,,,,,,CLR,,,,,,,,VFR,,,,,,,,,,,,METAR,210.0
K3J7 061515Z AUTO 26009G15KT 10SM SCT035 16/06 A2978 RMK AO2,K3J7,2017-05-06T15:15:00Z,33.6,-83.13,16.0,6.0,260,9,15,10.0,29.778543,,,TRUE,TRUE,,,,,,,SCT,3500,,,,,,,VFR,,,,,,,,,,,,METAR,206.0
K3I2 061515Z AUTO 24007KT 200V290 10SM SCT036 SCT045 13/05 A2965 RMK AO2 T01300052,K3I2,2017-05-06T15:15:00Z,38.92,-82.1,13.0,5.2,240,7,,10.0,29.648623,,,TRUE,TRUE,,,,,,,SCT,3600,SCT,4500,,,,,VFR,,,,,,,,,,,,METAR,196.0
K2F5 061515Z AUTO 17016G20KT 10SM BKN100 OVC120 22/03 A3002 RMK AO2,K2F5,2017-05-06T15:15:00Z,32.75,-101.92,22.0,3.0,170,16,20,10.0,30.02067,,,TRUE,TRUE,,,,,,,BKN,10000,OVC,12000,,,,,VFR,,,,,,,,,,,,METAR,912.0
K22N 061515Z AUTO 19008KT 168V228 10SM SCT032 BKN040 OVC080 16/09 A2933 RMK AO2,K22N,2017-05-06T15:15:00Z,40.8,-75.77,16.0,9.0,190,8,,10.0,29.329725,,,TRUE,TRUE,,,,,,,SCT,3200,BKN,4000,OVC,8000,,,VFR,,,,,,,,,,,,METAR,163.0
K1A9 061515Z AUTO 27005KT 10SM CLR 17/08 A2994 RMK AO2 T01720078,K1A9,2017-05-06T15:15:00Z,32.43,-86.52,17.2,7.8,270,5,,10.0,29.940945,,,TRUE,TRUE,,,,,,,CLR,,,,,,,,VFR,,,,,,,,,,,,METAR,69.0
K18A 061515Z AUTO 28010G18KT 260V340 10SM CLR 16/05 A2976 RMK AO2 T01620048,K18A,2017-05-06T15:15:00Z,34.35,-83.13,16.2,4.8,280,10,18,10.0,29.760826,,,TRUE,TRUE,,,,,,,CLR,,,,,,,,VFR,,,,,,,,,,,,METAR,271.0
K0R4 061515Z AUTO 19004KT 10SM CLR A3001 RMK AO2,K0R4,2017-05-06T15:15:00Z,31.57,-91.5,,,190,4,,10.0,30.008858,,,TRUE,TRUE,,,,,,,CLR,,,,,,,,VFR,,,,,,,,,,,,METAR,17.0
PAUT 061515Z AUTO 16012KT 10SM OVC036 04/02 A2920 RMK AO2 T00410022,PAUT,2017-05-06T15:15:00Z,54.15,-165.6,4.1,2.2,160,12,,10.0,29.199802,,,TRUE,TRUE,,,,,,,OVC,3600,,,,,,,VFR,,,,,,,,,,,,METAR,25.0
CWPF 061515Z AUTO 23005KT 09/04 RMK AO1 T00880038,CWPF,2017-05-06T15:15:00Z,48.43,-123.43,8.8,3.8,230,5,,,,,,TRUE,TRUE,,,,,,,,,,,,,,,,,,,,,,,,,,,METAR,12.0
CWVF 061515Z AUTO 29012KT 09/ RMK AO1 T0093,CWVF,2017-05-06T15:15:00Z,49.1,-123.3,9.3,,290,12,,,,,,TRUE,TRUE,,,,,,,,,,,,,,,,,,,,,,,,,,,METAR,1.0
CYBG 061515Z 11018G26KT 25SM -RA FEW015 OVC025 08/06 A2965 RMK SC2SC6 SLP045,CYBG,2017-05-06T15:15:00Z,48.33,-70.98,8.0,6.0,110,18,26,25.0,29.648623,1004.5,,,,,,,,,-RA,FEW,1500,OVC,2500,,,,,MVFR,,,,,,,,,,,,SPECI,159.0
KY19 061515Z AUTO 17014KT 10SM CLR 19/02 A2995 RMK AO2,KY19,2017-05-06T15:15:00Z,46.77,-100.9,19.0,2.0,170,14,,10.0,29.949802,,,TRUE,TRUE,,,,,,,CLR,,,,,,,,VFR,,,,,,,,,,,,METAR,593.0
KUKT 061515Z AUTO 19009KT 10SM BKN029 BKN041 OVC070 15/10 A2937 RMK AO1,KUKT,2017-05-06T15:15:00Z,40.43,-75.38,15.0,10.0,190,9,,10.0,29.371063,,,TRUE,TRUE,,,,,,,BKN,2900,BKN,4100,OVC,7000,,,MVFR,,,,,,,,,,,,METAR,160.0
KTVY 061515Z AUTO 19009KT 10SM CLR 20/07 A2974 RMK AO2,KTVY,2017-05-06T15:15:00Z,40.62,-112.35,20.0,7.0,190,9,,10.0,29.740158,,,TRUE,TRUE,,,,,,,CLR,,,,,,,,VFR,,,,,,,,,,,,METAR,1317.0
KTNU 061515Z AUTO 35011G16KT 340V040 10SM CLR 16/07 A2992 RMK AO2 PWINO,KTNU,2017-05-06T15:15:00Z,41.67,-93.02,16.0,7.0,350,11,16,10.0,29.920275,,,TRUE,TRUE,,,,,TRUE,,CLR,,,,,,,,VFR,,,,,,,,,,,,METAR,290.0
KTME 061515Z AUTO 24003KT 5SM HZ CLR 24/09 A3005 RMK AO2,KTME,2017-05-06T15:15:00Z,29.8,-95.9,24.0,9.0,240,3,,5.0,30.050198,,,TRUE,TRUE,,,,,,HZ,CLR,,,,,,,,MVFR,,,,,,,,,,,,METAR,51.0
KTKX 061515Z AUTO 28019G25KT 7SM CLR 21/10 A2981 RMK AO2,KTKX,2017-05-06T15:15:00Z,36.22,-90.02,21.0,10.0,280,19,25,7.0,29.811024,,,TRUE,TRUE,,,,,,,CLR,,,,,,,,VFR,,,,,,,,,,,,METAR,80.0
KTHA 061515Z AUTO 22008KT 10SM CLR 16/08 A2983 RMK,KTHA,2017-05-06T15:15:00Z,35.38,-86.25,16.0,8.0,220,8,,10.0,29.828741,,,TRUE,,,,,,,,CLR,,,,,,,,VFR,,,,,,,,,,,,METAR,331.0
KSNC 061515Z AUTO 16007G12KT 6SM BR BKN006 BKN035 OVC041 15/15 A2951 RMK AO2,KSNC,2017-05-06T15:15:00Z,41.38,-72.5,15.0,15.0,160,7,12,6.0,29.509842,,,TRUE,TRUE,,,,,,BR,BKN,600,BKN,3500,OVC,4100,,,IFR,,,,,,,,,,,,METAR,127.0
KSMS 061515Z AUTO 27009G19KT 10SM SCT038 17/08 A2970 RMK AO2,KSMS,2017-05-06T15:15:00Z,34.0,-80.37,17.0,8.0,270,9,19,10.0,29.698818,,,TRUE,TRUE,,,,,,,SCT,3800,,,,,,,VFR,,,,,,,,,,,,METAR,56.0
KSLH 061515Z AUTO 34013G23KT 10SM CLR 10/00 A2972 RMK AO2 T01001006,KSLH,2017-05-06T15:15:00Z,45.65,-84.52,10.0,-0.6,340,13,23,10.0,29.719488,,,TRUE,TRUE,,,,,,,CLR,,,,,,,,VFR,,,,,,,,,,,,METAR,195.0
KSJX 061515Z AUTO 33011G17KT 10SM CLR 10/M01 A2980 RMK AO2 T01001011,KSJX,2017-05-06T15:15:00Z,45.7,-85.57,10.0,-1.1,330,11,17,10.0,29.799213,,,TRUE,TRUE,,,,,,,CLR,,,,,,,,VFR,,,,,,,,,,,,METAR,204.0
KSEM 061515Z AUTO 26006KT 10SM CLR 19/07 A2996 RMK AO2,KSEM,2017-05-06T15:15:00Z,32.35,-86.98,19.0,7.0,260,6,,10.0,29.958662,,,TRUE,TRUE,,,,,,,CLR,,,,,,,,VFR,,,,,,,,,,,,METAR,51.0
KSDA 061515Z AUTO 07011KT 10SM CLR 21/04 A2994 RMK AO2,KSDA,2017-05-06T15:15:00Z,40.75,-95.42,21.0,4.0,70,11,,10.0,29.940945,,,TRUE,TRUE,,,,,,,CLR,,,,,,,,VFR,,,,,,,,,,,,METAR,296.0
KSBS 061515Z AUTO 00000KT 10SM CLR 12/00 A3006 RMK AO1 T01220003,KSBS,2017-05-06T15:15:00Z,40.52,-106.87,12.2,0.3,0,0,,10.0,30.059055,,,TRUE,TRUE,,,,,,,CLR,,,,,,,,VFR,,,,,,,,,,,,METAR,2096.0
KS25 061515Z AUTO 15021G27KT 10SM CLR 22/02 A2982 RMK AO2,KS25,2017-05-06T15:15:00Z,47.8,-103.25,22.0,2.0,150,21,27,10.0,29.819881,,,TRUE,TRUE,,,,,,,CLR,,,,,,,,VFR,,,,,,,,,,,,METAR,644.0
KRNP 061515Z AUTO 30012G18KT 10SM CLR 11/04 A2965 RMK AO2 T01100044,KRNP,2017-05-06T15:15:00Z,43.0,-84.13,11.0,4.4,300,12,18,10.0,29.648623,,,TRUE,TRUE,,,,,,,CLR,,,,,,,,VFR,,,,,,,,,,,,METAR,224.0
KRDK 061515Z AUTO 06008KT 10SM CLR 20/06 A2995 RMK AO2,KRDK,2017-05-06T15:15:00Z,41.02,-95.27,20.0,6.0,60,8,,10.0,29.949802,,,TRUE,TRUE,,,,,,,CLR,,,,,,,,VFR,,,,,,,,,,,,METAR,318.0
KRCV 061515Z AUTO 00000KT 10SM CLR 15/M01 A3019 RMK AO2 T01451010,KRCV,2017-05-06T15:15:00Z,37.72,-106.35,14.5,-1.0,0,0,,10.0,30.188976,,,TRUE,TRUE,,,,,,,CLR,,,,,,,,VFR,,,,,,,,,,,,METAR,2424.0
KPZQ 061515Z AUTO 33012G20KT 10SM CLR 09/00 A2970 RMK AO2 T00900001,KPZQ,2017-05-06T15:15:00Z,45.4,-83.82,9.0,0.1,330,12,20,10.0,29.698818,,,TRUE,TRUE,,,,,,,CLR,,,,,,,,VFR,,,,,,,,,,,,METAR,204.0
KPLR 061515Z AUTO 24005KT 10SM CLR 18/08 A2991 RMK A01,KPLR,2017-05-06T15:15:00Z,33.57,-86.25,18.0,8.0,240,5,,10.0,29.911417,,,TRUE,TRUE,,,,,,,CLR,,,,,,,,VFR,,,,,,,,,,,,METAR,148.0
KPCM 061515Z AUTO 29009G19KT 10SM CLR 24/10 A2997 RMK AO2,KPCM,2017-05-06T15:15:00Z,28.0,-82.17,24.0,10.0,290,9,19,10.0,29.970472,,,TRUE,TRUE,,,,,,,CLR,,,,,,,,VFR,,,,,,,,,,,,METAR,47.0
KPAN 061515Z AUTO 20007G16KT 10SM CLR 22/M02 A2999 RMK AO2,KPAN,2017-05-06T15:15:00Z,34.25,-111.33,22.0,-2.0,200,7,16,10.0,29.991142,,,TRUE,TRUE,,,,,,,CLR,,,,,,,,VFR,,,,,,,,,,,,METAR,1572.0
KOXV 061515Z AUTO 35009G14KT 10SM CLR 16/06 A2992 RMK AO2,KOXV,2017-05-06T15:15:00Z,41.28,-93.12,16.0,6.0,350,9,14,10.0,29.920275,,,TRUE,TRUE,,,,,,,CLR,,,,,,,,VFR,,,,,,,,,,,,METAR,283.0
KOOA 061515Z AUTO 02009KT 10SM CLR 15/07 A2992 RMK AO2 T01540068,KOOA,2017-05-06T15:15:00Z,41.23,-92.5,15.4,6.8,20,9,,10.0,29.920275,,,TRUE,TRUE,,,,,,,CLR,,,,,,,,VFR,,,,,,,,,,,,METAR,256.0
KOLZ 061515Z AUTO 02013G19KT 10SM CLR 15/06 A2993 RMK AO2,KOLZ,2017-05-06T15:15:00Z,42.67,-91.97,15.0,6.0,20,13,19,10.0,29.929134,,,TRUE,TRUE,,,,,,,CLR,,,,,,,,VFR,,,,,,,,,,,,METAR,328.0
KFSW 061515Z AUTO 07005KT 10SM CLR 16/09 A2989 RMK AO2,KFSW,2017-05-06T15:15:00Z,40.67,-91.32,16.0,9.0,70,5,,10.0,29.890747,,,TRUE,TRUE,,,,,,,CLR,,,,,,,,VFR,,,,,,,,,,,,METAR,221.0
KFPK 061515Z AUTO 35008G19KT 310V010 10SM CLR 11/05 A2967 RMK AO2 T01070050,KFPK,2017-05-06T15:15:00Z,42.57,-84.82,10.7,5.0,350,8,19,10.0,29.66929,,,TRUE,TRUE,,,,,,,CLR,,,,,,,,VFR,,,,,,,,,,,,METAR,272.0
KFMM 061515Z AUTO 18004KT 10SM CLR 18/06 A2997 RMK AO2 T01760060,KFMM,2017-05-06T15:15:00Z,40.33,-103.8,17.6,6.0,180,4,,10.0,29.970472,,,TRUE,TRUE,,,,,,,CLR,,,,,,,,VFR,,,,,,,,,,,,METAR,1393.0
KFMH 061515Z 8SM SCT032 SCT065 15/15 A2959 RMK AO2 PWINO FZRANO TSNO WEA/ E140017KT,KFMH,2017-05-06T15:15:00Z,41.63,-70.52,15.0,15.0,,,,8.0,29.589567,,,,TRUE,,,TRUE,TRUE,TRUE,,SCT,3200,SCT,6500,,,,,VFR,,,,,,,,,,,,SPECI,40.0
KFFX 061515Z AUTO 35014G20KT 10SM SCT032 10/01 A2975 RMK AO2 T01030006,KFFX,2017-05-06T15:15:00Z,43.43,-86.0,10.3,0.6,350,14,20,10.0,29.749016,,,TRUE,TRUE,,,,,,,SCT,3200,,,,,,,VFR,,,,,,,,,,,,METAR,236.0
KFFL 061515Z AUTO 02007KT 340V050 10SM CLR 15/07 A2990 RMK AO2 PWINO,KFFL,2017-05-06T15:15:00Z,41.03,-91.97,15.0,7.0,20,7,,10.0,29.899607,,,TRUE,TRUE,,,,,TRUE,,CLR,,,,,,,,VFR,,,,,,,,,,,,METAR,244.0
KEVU 061515Z AUTO 05011KT 7SM CLR A2993 RMK AO2,KEVU,2017-05-06T15:15:00Z,40.35,-94.92,,,50,11,,7.0,29.929134,,,TRUE,TRUE,,,,,,,CLR,,,,,,,,VFR,,,,,,,,,,,,METAR,349.0
KEQA 061515Z AUTO 24008KT 10SM CLR 22/09 A2997 RMK AO2,KEQA,2017-05-06T15:15:00Z,37.78,-96.82,22.0,9.0,240,8,,10.0,29.970472,,,TRUE,TRUE,,,,,,,CLR,,,,,,,,VFR,,,,,,,,,,,,METAR,420.0
KEOK 061515Z AUTO VRB06G13KT 10SM CLR 15/07 A2987 RMK AO2,KEOK,2017-05-06T15:15:00Z,40.47,-91.42,15.0,7.0,0,6,13,10.0,29.870079,,,TRUE,TRUE,,,,,,,CLR,,,,,,,,VFR,,,,,,,,,,,,METAR,205.0
KEIK 061515Z AUTO 00000KT 10SM CLR 18/02 A2996 RMK AO2 T01800018,KEIK,2017-05-06T15:15:00Z,40.02,-105.05,18.0,1.8,0,0,,10.0,29.958662,,,TRUE,TRUE,,,,,,,CLR,,,,,,,,VFR,,,,,,,,,,,,METAR,1564.0
KEBS 061515Z AUTO 36011KT 340V040 10SM CLR 17/05 A2994 RMK AO2,KEBS,2017-05-06T15:15:00Z,42.42,-93.87,17.0,5.0,360,11,,10.0,29.940945,,,TRUE,TRUE,,,,,,,CLR,,,,,,,,VFR,,,,,,,,,,,,METAR,342.0
KE80 061515Z AUTO 18005KT 10SM CLR 21/M04 A3003 RMK AO2 T02111041,KE80,2017-05-06T15:15:00Z,34.65,-106.83,21.1,-4.1,180,5,,10.0,30.029528,,,TRUE,TRUE,,,,,,,CLR,,,,,,,,VFR,,,,,,,,,,,,METAR,1582.0
KDUH 061515Z AUTO 33008G17KT 300V360 10SM SCT025 SCT031 11/05 A2963 RMK AO2 T01110051,KDUH,2017-05-06T15:15:00Z,41.73,-83.65,11.1,5.1,330,8,17,10.0,29.630905,,,TRUE,TRUE,,,,,,,SCT,2500,SCT,3100,,,,,VFR,,,,,,,,,,,,METAR,204.0
KDRM 061515Z AUTO 35011G18KT 10SM CLR 11/00 A2969 RMK AO2 T01050002,KDRM,2017-05-06T15:15:00Z,46.0,-83.75,10.5,0.2,350,11,18,10.0,29.68996,,,TRUE,TRUE,,,,,,,CLR,,,,,,,,VFR,,,,,,,,,,,,METAR,204.0
KDNS 061515Z AUTO 07009KT 10SM CLR 18/04 A2998 RMK AO2,KDNS,2017-05-06T15:15:00Z,41.97,-95.37,18.0,4.0,70,9,,10.0,29.97933,,,TRUE,TRUE,,,,,,,CLR,,,,,,,,VFR,,,,,,,,,,,,METAR,388.0
KD57 061515Z AUTO 15018G26KT 10SM CLR 20/M00 A2990 RMK AO2,KD57,2017-05-06T15:15:00Z,46.82,-101.87,20.0,0.0,150,18,26,10.0,29.899607,,,TRUE,TRUE,,,,,,,CLR,,,,,,,,VFR,,,,,,,,,,,,METAR,637.0
KCSQ 061515Z AUTO 06010G17KT 10SM CLR 19/02 A2995 RMK AO2,KCSQ,2017-05-06T15:15:00Z,41.02,-94.37,19.0,2.0,60,10,17,10.0,29.949802,,,TRUE,TRUE,,,,,,,CLR,,,,,,,,VFR,,,,,,,,,,,,METAR,394.0
KCPT 061515Z AUTO 21007KT 170V230 10SM CLR 23/09 A3004 RMK AO2,KCPT,2017-05-06T15:15:00Z,32.35,-97.43,23.0,9.0,210,7,,10.0,30.041338,,,TRUE,TRUE,,,,,,,CLR,,,,,,,,VFR,,,,,,,,,,,,METAR,260.0
KCOQ 061515Z AUTO 11008KT 10SM SCT018 09/04 A3002 RMK AO2,KCOQ,2017-05-06T15:15:00Z,46.7,-92.5,9.0,4.0,110,8,,10.0,30.02067,,,TRUE,TRUE,,,,,,,SCT,1800,,,,,,,VFR,,,,,,,,,,,,METAR,390.0
KCNC 061515Z AUTO 10SM CLR 16/08 A2992 RMK AO2,KCNC,2017-05-06T15:15:00Z,41.02,-93.37,16.0,8.0,,,,10.0,29.920275,,,TRUE,TRUE,,,,,,,CLR,,,,,,,,VFR,,,,,,,,,,,,METAR,320.0
KCNB 061515Z AUTO 00000KT 10SM CLR 17/05 A2999 RMK AO2 T01700052,KCNB,2017-05-06T15:15:00Z,44.73,-96.27,17.0,5.2,0,0,,10.0,29.991142,,,TRUE,TRUE,,,,,,,CLR,,,,,,,,VFR,,,,,,,,,,,,METAR,364.0
KCMR 061515Z AUTO 17015G24KT 10SM CLR 18/M03 A3000 RMK AO2,KCMR,2017-05-06T15:15:00Z,35.3,-112.2,18.0,-3.0,170,15,24,10.0,30.0,,,TRUE,TRUE,,,,,,,CLR,,,,,,,,VFR,,,,,,,,,,,,METAR,2036.0
KCIN 061515Z AUTO 05008G13KT 10SM CLR 19/06 A2996 RMK AO2,KCIN,2017-05-06T15:15:00Z,42.03,-94.77,19.0,6.0,50,8,13,10.0,29.958662,,,TRUE,TRUE,,,,,,,CLR,,,,,,,,VFR,,,,,,,,,,,,METAR,375.0
KCGC 061515Z AUTO 30009G24KT 10SM CLR 21/08 A2995 RMK AO2,KCGC,2017-05-06T15:15:00Z,28.87,-82.57,21.0,8.0,300,9,24,10.0,29.949802,,,TRUE,TRUE,,,,,,,CLR,,,,,,,,VFR,,,,,,,,,,,,METAR,3.0
KCFS 061515Z AUTO 32015G21KT 10SM SCT026 SCT031 11/05 A2962 RMK AO2 T01090052,KCFS,2017-05-06T15:15:00Z,43.47,-83.45,10.9,5.2,320,15,21,10.0,29.619095,,,TRUE,TRUE,,,,,,,SCT,2600,SCT,3100,,,,,VFR,,,,,,,,,,,,METAR,214.0
KCFJ 061515Z AUTO 32009KT 10SM BKN065 12/04 A2976 RMK AO2 P0001 T01160040,KCFJ,2017-05-06T15:15:00Z,39.98,-86.92,11.6,4.0,320,9,,10.0,29.760826,,,TRUE,TRUE,,,,,,,BKN,6500,,,,,,,VFR,,,,,,0.01,,,,,,METAR,244.0
KCEY 061515Z AUTO 26011G17KT 10SM BKN100 18/09 A2975 RMK AO1,KCEY,2017-05-06T15:15:00Z,36.67,-88.37,18.0,9.0,260,11,17,10.0,29.749016,,,TRUE,TRUE,,,,,,,BKN,10000,,,,,,,VFR,,,,,,,,,,,,METAR,176.0
KCDN 061515Z AUTO 27011G17KT 240V320 10SM FEW038 17/07 A2968 RMK AO2,KCDN,2017-05-06T15:15:00Z,34.28,-80.57,17.0,7.0,270,11,17,10.0,29.681103,,,TRUE,TRUE,,,,,,,FEW,3800,,,,,,,VFR,,,,,,,,,,,,METAR,92.0
KCCU 061515Z AUTO 24006KT 10SM CLR 08/M10 A3041 RMK AO2,KCCU,2017-05-06T15:15:00Z,39.48,-106.15,8.0,-10.0,240,6,,10.0,30.410433,,,TRUE,TRUE,,,,,,,CLR,,,,,,,,VFR,,,,,,,,,,,,METAR,3680.0
KCBG 061515Z AUTO 05007KT 10SM CLR 13/05 A3000 RMK AO2,KCBG,2017-05-06T15:15:00Z,45.57,-93.27,13.0,5.0,50,7,,10.0,30.0,,,TRUE,TRUE,,,,,,,CLR,,,,,,,,VFR,,,,,,,,,,,,METAR,287.0
KCBF 061515Z AUTO 09007G12KT 10SM CLR 20/04 A2996 RMK AO2,KCBF,2017-05-06T15:15:00Z,41.27,-95.77,20.0,4.0,90,7,12,10.0,29.958662,,,TRUE,TRUE,,,,,,,CLR,,,,,,,,VFR,,,,,,,,,,,,METAR,382.0
KCAV 061515Z AUTO 01009G15KT 10SM CLR 17/04 A2997 RMK AO2 PWINO,KCAV,2017-05-06T15:15:00Z,42.75,-93.77,17.0,4.0,10,9,15,10.0,29.970472,,,TRUE,TRUE,,,,,TRUE,,CLR,,,,,,,,VFR,,,,,,,,,,,,METAR,354.0
KC07 061515Z AUTO 19005KT 10SM CLR 11/M02 A3028 RMK AO2,KC07,2017-05-06T15:15:00Z,40.35,-106.7,11.0,-2.0,190,5,,10.0,30.280512,,,TRUE,TRUE,,,,,,,CLR,,,,,,,,VFR,,,,,,,,,,,,METAR,3224.0
KBYL 061515Z AUTO 25004KT 10SM FEW028 BKN046 BKN060 07/07 A2980 RMK AO1,KBYL,2017-05-06T15:15:00Z,36.8,-84.2,7.0,7.0,250,4,,10.0,29.799213,,,TRUE,TRUE,,,,,,,FEW,2800,BKN,4600,BKN,6000,,,VFR,,,,,,,,,,,,METAR,359.0
KBVU 061515Z AUTO 23007KT 190V250 10SM 26/M01 A2967 RMK AO2,KBVU,2017-05-06T15:15:00Z,35.95,-114.87,26.0,-1.0,230,7,,10.0,29.66929,,,TRUE,TRUE,,,,,,,,,,,,,,,,,,,,,,,,,,,METAR,671.0
KBNW 061515Z AUTO 03011KT 10SM CLR 17/06 A2994 RMK AO2,KBNW,2017-05-06T15:15:00Z,42.03,-93.83,17.0,6.0,30,11,,10.0,29.940945,,,TRUE,TRUE,,,,,,,CLR,,,,,,,,VFR,,,,,,,,,,,,METAR,354.0
KBNL 061515Z AUTO 24008G17KT 10SM FEW039 18/08 A2975 RMK AO2,KBNL,2017-05-06T15:15:00Z,33.25,-81.38,18.0,8.0,240,8,17,10.0,29.749016,,,TRUE,TRUE,,,,,,,FEW,3900,,,,,,,VFR,,,,,,,,,,,,METAR,75.0
KBGF 061515Z AUTO 28006KT 10SM CLR 15/08 A2984 RMK,KBGF,2017-05-06T15:15:00Z,35.18,-86.07,15.0,8.0,280,6,,10.0,29.840551,,,TRUE,,,,,,,,CLR,,,,,,,,VFR,,,,,,,,,,,,METAR,299.0
KBDU 061515Z AUTO 00000KT 10SM CLR 17/02 A2997 RMK AO2,KBDU,2017-05-06T15:15:00Z,40.03,-105.23,17.0,2.0,0,0,,10.0,29.970472,,,TRUE,TRUE,,,,,,,CLR,,,,,,,,VFR,,,,,,,,,,,,METAR,1612.0
KBDH 061515Z AUTO 11007KT 10SM CLR 16/05 A3000 RMK AO2,KBDH,2017-05-06T15:15:00Z,45.12,-95.13,16.0,5.0,110,7,,10.0,30.0,,,TRUE,TRUE,,,,,,,CLR,,,,,,,,VFR,,,,,,,,,,,,METAR,247.0
KBAC 061515Z AUTO 11007KT 10SM CLR 17/M01 A3000 RMK AO2,KBAC,2017-05-06T15:15:00Z,46.93,-98.02,17.0,-1.0,110,7,,10.0,30.0,,,TRUE,TRUE,,,,,,,CLR,,,,,,,,VFR,,,,,,,,,,,,METAR,427.0
KAWG 061515Z AUTO 02006KT 10SM CLR 15/08 A2990 RMK AO2,KAWG,2017-05-06T15:15:00Z,41.27,-91.67,15.0,8.0,20,6,,10.0,29.899607,,,TRUE,TRUE,,,,,,,CLR,,,,,,,,VFR,,,,,,,,,,,,METAR,230.0
KAQX 061515Z AUTO VRB05G14KT 10SM CLR 17/07 A2976 RMK AO2,KAQX,2017-05-06T15:15:00Z,32.98,-81.27,17.0,7.0,0,5,14,10.0,29.760826,,,TRUE,TRUE,,,,,,,CLR,,,,,,,,VFR,,,,,,,,,,,,METAR,49.0
KAQP 061515Z AUTO 19004KT 10SM CLR 18/05 A2997 RMK AO2,KAQP,2017-05-06T15:15:00Z,45.22,-96.0,18.0,5.0,190,4,,10.0,29.970472,,,TRUE,TRUE,,,,,,,CLR,,,,,,,,VFR,,,,,,,,,,,,METAR,311.0
KAPS 061515Z AUTO 26003KT 10SM CLR 24/10 A3004 RMK AO2 T02360104,KAPS,2017-05-06T15:15:00Z,,,23.6,10.4,260,3,,10.0,30.041338,,,TRUE,TRUE,,,,,,,CLR,,,,,,,,VFR,,,,,,,,,,,,METAR,
KAIO 061515Z AUTO VRB03KT 10SM CLR 19/07 A2995 RMK AO2,KAIO,2017-05-06T15:15:00Z,41.38,-95.03,19.0,7.0,0,3,,10.0,29.949802,,,TRUE,TRUE,,,,,,,CLR,,,,,,,,VFR,,,,,,,,,,,,METAR,360.0
KAEJ 061515Z AUTO 00000KT 10SM CLR 14/M01 A3019 RMK AO2 T01391008,KAEJ,2017-05-06T15:15:00Z,38.82,-106.12,13.9,-0.8,0,0,,10.0,30.188976,,,TRUE,TRUE,,,,,,,CLR,,,,,,,,VFR,,,,,,,,,,,,METAR,2422.0
KACB 061515Z AUTO 35007G16KT 10SM CLR 10/00 A2976 RMK AO2 T00981003,KACB,2017-05-06T15:15:00Z,44.98,-85.2,9.8,-0.3,350,7,16,10.0,29.760826,,,TRUE,TRUE,,,,,,,CLR,,,,,,,,VFR,,,,,,,,,,,,METAR,190.0
K7L2 061515Z AUTO 16015KT 10SM CLR 20/05 A2996 RMK AO2,K7L2,2017-05-06T15:15:00Z,46.22,-100.25,20.0,5.0,160,15,,10.0,29.958662,,,TRUE,TRUE,,,,,,,CLR,,,,,,,,VFR,,,,,,,,,,,,METAR,543.0
K7BM 061515Z AUTO 00000KT 10SM CLR 13/M01 A3029 RMK AO2,K7BM,2017-05-06T15:15:00Z,38.78,-106.22,13.0,-1.0,0,0,,10.0,30.28937,,,TRUE,TRUE,,,,,,,CLR,,,,,,,,VFR,,,,,,,,,,,,METAR,2995.0
K6L4 061515Z AUTO 27008KT 240V300 10SM BKN038 BKN047 OVC055 09/05 A2967 RMK AO2,K6L4,2017-05-06T15:15:00Z,37.85,-81.92,9.0,5.0,270,8,,10.0,29.66929,,,TRUE,TRUE,,,,,,,BKN,3800,BKN,4700,OVC,5500,,,VFR,,,,,,,,,,,,METAR,508.0
K6B9 061515Z AUTO 26006KT 5SM -RA BKN004 09/09 A2932 RMK AO2,K6B9,2017-05-06T15:15:00Z,42.92,-76.43,9.0,9.0,260,6,,5.0,29.320866,,,TRUE,TRUE,,,,,,-RA,BKN,400,,,,,,,LIFR,,,,,,,,,,,,METAR,316.0
K5SM 061515Z AUTO 21003KT 10SM CLR 11/M08 A3033 RMK AO2,K5SM,2017-05-06T15:15:00Z,39.43,-107.38,11.0,-8.0,210,3,,10.0,30.33071,,,TRUE,TRUE,,,,,,,CLR,,,,,,,,VFR,,,,,,,,,,,,METAR,3232.0
K54J 061515Z AUTO 35008KT 10SM CLR 19/04 A2998 RMK AO2 T01910042,K54J,2017-05-06T15:15:00Z,30.73,-86.15,19.1,4.2,350,8,,10.0,29.97933,,,TRUE,TRUE,,,,,,,CLR,,,,,,,,VFR,,,,,,,,,,,,METAR,88.0
K42J 061515Z AUTO 31018G25KT 10SM CLR 20/00 A2991 RMK AO1 TSNO,K42J,2017-05-06T15:15:00Z,29.85,-82.05,20.0,0.0,310,18,25,10.0,29.911417,,,TRUE,TRUE,,,TRUE,,,,CLR,,,,,,,,VFR,,,,,,,,,,,,METAR,60.0
K33V 061515Z AUTO 00000KT 10SM 12/01 A3016 RMK AO1,K33V,2017-05-06T15:15:00Z,40.75,-106.28,12.0,1.0,0,0,,10.0,30.159449,,,TRUE,TRUE,,,,,,,,,,,,,,,,,,,,,,,,,,,METAR,2484.0
K24J 061515Z AUTO 27010G17KT 10SM CLR 20/04 A2993 RMK A01,K24J,2017-05-06T15:15:00Z,30.3,-83.03,20.0,4.0,270,10,17,10.0,29.929134,,,TRUE,TRUE,,,,,,,CLR,,,,,,,,VFR,,,,,,,,,,,,METAR,32.0
K20V 061515Z AUTO 00000KT 10SM CLR 13/01 A3016 RMK AO2,K20V,2017-05-06T15:15:00Z,40.05,-106.37,13.0,1.0,0,0,,10.0,30.159449,,,TRUE,TRUE,,,,,,,CLR,,,,,,,,VFR,,,,,,,,,,,,METAR,2259.0
K0S9 061515Z AUTO 00000KT 10SM CLR 08/07 A3015 RMK AO2,K0S9,2017-05-06T15:15:00Z,48.05,-122.82,8.0,7.0,0,0,,10.0,30.15059,,,TRUE,TRUE,,,,,,,CLR,,,,,,,,VFR,,,,,,,,,,,,METAR,33.0
K08D 061515Z AUTO 17021KT 10SM CLR 20/03 A2989 RMK AO2,K08D,2017-05-06T15:15:00Z,48.3,-102.4,20.0,3.0,170,21,,10.0,29.890747,,,TRUE,TRUE,,,,,,,CLR,,,,,,,,VFR,,,,,,,,,,,,METAR,684.0
K06D 061515Z AUTO 13009KT 10SM 16/00 A2999 RMK AO2,K06D,2017-05-06T15:15:00Z,48.88,-99.62,16.0,0.0,130,9,,10.0,29.991142,,,TRUE,TRUE,,,,,,,,,,,,,,,,,,,,,,,,,,,METAR,556.0
KOEB 061515Z AUTO 35007G14KT 10SM CLR 12/04 A2968 RMK AO2 T01200040,KOEB,2017-05-06T15:15:00Z,41.92,-85.03,12.0,4.0,350,7,14,10.0,29.681103,,,TRUE,TRUE,,,,,,,CLR,,,,,,,,VFR,,,,,,,,,,,,METAR,292.0
KMUT 061515Z AUTO 36009KT 320V020 10SM FEW033 15/07 A2989 RMK AO2,KMUT,2017-05-06T15:15:00Z,41.37,-91.15,15.0,7.0,360,9,,10.0,29.890747,,,TRUE,TRUE,,,,,,,FEW,3300,,,,,,,VFR,,,,,,,,,,,,METAR,167.0
KMNH 061515Z AUTO 21010G16KT 10SM CLR 18/02 A3009 RMK AO2,KMNH,2017-05-06T15:15:00Z,39.22,-104.65,18.0,2.0,210,10,16,10.0,30.088583,,,TRUE,TRUE,,,,,,,CLR,,,,,,,,VFR,,,,,,,,,,,,METAR,2152.0
KMBO 061515Z AUTO 25009KT 10SM CLR 20/09 A2999 RMK AO2 PWINO,KMBO,2017-05-06T15:15:00Z,32.43,-90.1,20.0,9.0,250,9,,10.0,29.991142,,,TRUE,TRUE,,,,,TRUE,,CLR,,,,,,,,VFR,,,,,,,,,,,,METAR,99.0
KMAN 061515Z AUTO 32015G21KT 7SM FEW036 SCT055 SCT070 09/04 A2981 RMK A01,KMAN,2017-05-06T15:15:00Z,43.58,-116.52,9.0,4.0,320,15,21,7.0,29.811024,,,TRUE,TRUE,,,,,,,FEW,3600,SCT,5500,SCT,7000,,,VFR,,,,,,,,,,,,METAR,774.0
KM21 061515Z AUTO 10004KT 10SM -RA SCT034 SCT046 OVC095 11/09 A2974 RMK AO2 T01090091,KM21,2017-05-06T15:15:00Z,37.22,-87.15,10.9,9.1,100,4,,10.0,29.740158,,,TRUE,TRUE,,,,,,-RA,SCT,3400,SCT,4600,OVC,9500,,,VFR,,,,,,,,,,,,METAR,129.0
KLZZ 061515Z AUTO 18005KT 7SM CLR 24/09 A3003 RMK AO2 T02420091,KLZZ,2017-05-06T15:15:00Z,31.1,-98.2,24.2,9.1,180,5,,7.0,30.029528,,,TRUE,TRUE,,,,,,,CLR,,,,,,,,VFR,,,,,,,,,,,,METAR,371.0
KLRJ 061515Z AUTO 00000KT 10SM CLR 19/04 A2999 RMK AO2,KLRJ,2017-05-06T15:15:00Z,42.77,-96.2,19.0,4.0,0,0,,10.0,29.991142,,,TRUE,TRUE,,,,,,,CLR,,,,,,,,VFR,,,,,,,,,,,,METAR,365.0
KLOZ 061515Z AUTO 23006KT 10SM BKN014 OVC060 08/04 A2978 RMK AO2 T00830044,KLOZ,2017-05-06T15:15:00Z,37.08,-84.07,8.3,4.4,230,6,,10.0,29.778543,,,TRUE,TRUE,,,,,,,BKN,1400,OVC,6000,,,,,MVFR,,,,,,,,,,,,METAR,362.0
KLMO 061515Z AUTO 00000KT 10SM CLR 19/03 A2997 RMK AO2 T01910028,KLMO,2017-05-06T15:15:00Z,40.17,-105.17,19.1,2.8,0,0,,10.0,29.970472,,,TRUE,TRUE,,,,,,,CLR,,,,,,,,VFR,,,,,,,,,,,,METAR,1541.0
KJZI 061515Z AUTO 27016G23KT 10SM FEW042 18/08 A2973 RMK AO2,KJZI,2017-05-06T15:15:00Z,32.7,-80.0,18.0,8.0,270,16,23,10.0,29.731298,,,TRUE,TRUE,,,,,,,FEW,4200,,,,,,,VFR,,,,,,,,,,,,METAR,6.0
KJYG 061515Z AUTO 07004KT 10SM CLR 15/06 A3000 RMK AO2,KJYG,2017-05-06T15:15:00Z,43.98,-94.55,15.0,6.0,70,4,,10.0,30.0,,,TRUE,TRUE,,,,,,,CLR,,,,,,,,VFR,,,,,,,,,,,,METAR,325.0
KJVW 061515Z AUTO 25009KT 8SM CLR 21/11 A3000 RMK AO2,KJVW,2017-05-06T15:15:00Z,32.3,-90.42,21.0,11.0,250,9,,8.0,30.0,,,TRUE,TRUE,,,,,,,CLR,,,,,,,,VFR,,,,,,,,,,,,METAR,76.0
KIKV 061515Z AUTO 36011KT 10SM CLR 17/07 A2995 RMK AO2,KIKV,2017-05-06T15:15:00Z,41.68,-93.57,17.0,7.0,360,11,,10.0,29.949802,,,TRUE,TRUE,,,,,,,CLR,,,,,,,,VFR,,,,,,,,,,,,METAR,275.0
KICL 061515Z AUTO 07006KT 10SM CLR 21/04 A2996 RMK AO2 PWINO,KICL,2017-05-06T15:15:00Z,40.72,-95.02,21.0,4.0,70,6,,10.0,29.958662,,,TRUE,TRUE,,,,,TRUE,,CLR,,,,,,,,VFR,,,,,,,,,,,,METAR,303.0
KI68 061515Z AUTO 26006KT 10SM OVC120 10/06 A2970 RMK AO2,KI68,2017-05-06T15:15:00Z,39.47,-84.25,10.0,6.0,260,6,,10.0,29.698818,,,TRUE,TRUE,,,,,,,OVC,12000,,,,,,,VFR,,,,,,,,,,,,METAR,274.0
KHZE 061515Z AUTO 16025KT 10SM CLR 21/02 A2990 RMK AO2,KHZE,2017-05-06T15:15:00Z,47.28,-101.58,21.0,2.0,160,25,,10.0,29.899607,,,TRUE,TRUE,,,,,,,CLR,,,,,,,,VFR,,,,,,,,,,,,METAR,553.0
KHVS 061515Z AUTO 27009G16KT 227V027 10SM SCT041 16/06 A2965 RMK AO2,KHVS,2017-05-06T15:15:00Z,34.4,-80.12,16.0,6.0,270,9,16,10.0,29.648623,,,TRUE,TRUE,,,,,,,SCT,4100,,,,,,,VFR,,,,,,,,,,,,METAR,111.0
KHNR 061515Z AUTO 07007KT 10SM CLR 19/05 A2999 RMK AO2,KHNR,2017-05-06T15:15:00Z,41.58,-95.33,19.0,5.0,70,7,,10.0,29.991142,,,TRUE,TRUE,,,,,,,CLR,,,,,,,,VFR,,,,,,,,,,,,METAR,375.0
KHEQ 061515Z AUTO 20010KT 10SM CLR 26/07 A2994 RMK AO2,KHEQ,2017-05-06T15:15:00Z,40.57,-102.28,26.0,7.0,200,10,,10.0,29.940945,,,TRUE,TRUE,,,,,,,CLR,,,,,,,,VFR,,,,,,,,,,,,METAR,1137.0
KHAI 061515Z AUTO 34011G16KT 10SM CLR 12/02 A2972 RMK AO2 T01160018,KHAI,2017-05-06T15:15:00Z,41.97,-85.6,11.6,1.8,340,11,16,10.0,29.719488,,,TRUE,TRUE,,,,,,,CLR,,,,,,,,VFR,,,,,,,,,,,,METAR,251.0
KHAF 061515Z AUTO 33021G30KT 3SM HZ FEW022 10/06 A2985 RMK AO2,KHAF,2017-05-06T15:15:00Z,37.52,-122.5,10.0,6.0,330,21,30,3.0,29.84941,,,TRUE,TRUE,,,,,,HZ,FEW,2200,,,,,,,MVFR,,,,,,,,,,,,METAR,21.0
KHAE 061515Z AUTO 36009G18KT 10SM CLR 17/05 A2985 RMK AO2,KHAE,2017-05-06T15:15:00Z,39.73,-91.45,17.0,5.0,360,9,18,10.0,29.84941,,,TRUE,TRUE,,,,,,,CLR,,,,,,,,VFR,,,,,,,,,,,,METAR,234.0
KGOV 061515Z AUTO 01016G21KT 10SM CLR 11/00 A2970 RMK AO2 T01081001,KGOV,2017-05-06T15:15:00Z,44.68,-84.73,10.8,-0.1,10,16,21,10.0,29.698818,,,TRUE,TRUE,,,,,,,CLR,,,,,,,,VFR,,,,,,,,,,,,METAR,353.0
KGON 061515Z 17012KT 2SM BR BKN004 BKN023 OVC055 14/13 A2950 RMK AO2 RAE11 CIG 003V009 P0000 T01390133,KGON,2017-05-06T15:15:00Z,41.33,-72.05,13.9,13.3,170,12,,2.0,29.500984,,,,TRUE,,,,,,BR,BKN,400,BKN,2300,OVC,5500,,,LIFR,,,,,,0.005,,,,,,METAR,3.0
KGNT 061515Z AUTO 13006KT 10SM CLR 16/M03 A3011 RMK AO2 T01581027,KGNT,2017-05-06T15:15:00Z,35.17,-107.9,15.8,-2.7,130,6,,10.0,30.109253,,,TRUE,TRUE,,,,,,,CLR,,,,,,,,VFR,,,,,,,,,,,,METAR,1987.0
KGLE 061515Z AUTO 26008KT 10SM CLR 22/08 A3004 RMK AO2 T02210077,KGLE,2017-05-06T15:15:00Z,33.65,-97.2,22.1,7.7,260,8,,10.0,30.041338,,,TRUE,TRUE,,,,,,,CLR,,,,,,,,VFR,,,,,,,,,,,,METAR,256.0
KFXY 061515Z AUTO 01007KT 10SM CLR 17/00 A2997 RMK AO2,KFXY,2017-05-06T15:15:00Z,43.23,-93.62,17.0,0.0,10,7,,10.0,29.970472,,,TRUE,TRUE,,,,,,,CLR,,,,,,,,VFR,,,,,,,,,,,,METAR,375.0
CYKO 061515Z VRB02KT 3SM -SN FEW009 OVC017 M09/M12 A3036 RMK SC2SC6 VIS LWR E SLP284,CYKO,2017-05-06T15:15:00Z,60.82,-78.15,-9.0,-12.0,0,2,,3.0,30.360237,1028.4,,,,,,,,,-SN,FEW,900,OVC,1700,,,,,MVFR,,,,,,,,,,,,SPECI,9.0
KSLI 061515Z 19004KT 10SM BKN020 OVC025 16/13 A2983 RMK AO2A,KSLI,2017-05-06T15:15:00Z,33.77,-118.03,16.0,13.0,190,4,,10.0,29.828741,,,,TRUE,,,,,,,BKN,2000,OVC,2500,,,,,MVFR,,,,,,,,,,,,SPECI,11.0
KFDW 061515Z AUTO 27011G19KT 10SM CLR 16/05 A2969 RMK AO1,KFDW,2017-05-06T15:15:00Z,34.32,-81.12,16.0,5.0,270,11,19,10.0,29.68996,,,TRUE,TRUE,,,,,,,CLR,,,,,,,,VFR,,,,,,,,,,,,METAR,176.0
KEAR 061515Z AUTO 06007KT 10SM CLR 22/07 A2997 RMK AO1,KEAR,2017-05-06T15:15:00Z,40.72,-99.0,22.0,7.0,60,7,,10.0,29.970472,,,TRUE,TRUE,,,,,,,CLR,,,,,,,,VFR,,,,,,,,,,,,METAR,649.0
KDWU 061515Z AUTO 31004KT 10SM SCT031 BKN040 OVC047 12/06 A2967 RMK AO1,KDWU,2017-05-06T15:15:00Z,38.55,-82.73,12.0,6.0,310,4,,10.0,29.66929,,,TRUE,TRUE,,,,,,,SCT,3100,BKN,4000,OVC,4700,,,VFR,,,,,,,,,,,,METAR,166.0
KD60 061515Z AUTO 16022G29KT 10SM CLR 20/02 A2986 RMK AO2,KD60,2017-05-06T15:15:00Z,48.38,-102.9,20.0,2.0,160,22,29,10.0,29.861221,,,TRUE,TRUE,,,,,,,CLR,,,,,,,,VFR,,,,,,,,,,,,METAR,693.0
KCVO 061515Z 00000KT 10SM CLR 08/03 A3018 RMK AO1,KCVO,2017-05-06T15:15:00Z,44.5,-123.27,8.0,3.0,0,0,,10.0,30.180119,,,,TRUE,,,,,,,CLR,,,,,,,,VFR,,,,,,,,,,,,METAR,75.0
KCVN 061515Z AUTO 19012KT 10SM CLR 19/03 A3004 RMK AO1,KCVN,2017-05-06T15:15:00Z,34.42,-103.07,19.0,3.0,190,12,,10.0,30.041338,,,TRUE,TRUE,,,,,,,CLR,,,,,,,,VFR,,,,,,,,,,,,METAR,1284.0
KCLW 061515Z AUTO 31012G18KT 10SM SCT050 22/10 A2996 RMK AO2,KCLW,2017-05-06T15:15:00Z,27.98,-82.75,22.0,10.0,310,12,18,10.0,29.958662,,,TRUE,TRUE,,,,,,,SCT,5000,,,,,,,VFR,,,,,,,,,,,,METAR,22.0
KCKI 061515Z AUTO 29015G21KT 10SM BKN037 BKN043 17/06 A2970 RMK AO2,KCKI,2017-05-06T15:15:00Z,33.72,-79.85,17.0,6.0,290,15,21,10.0,29.698818,,,TRUE,TRUE,,,,,,,BKN,3700,BKN,4300,,,,,VFR,,,,,,,,,,,,METAR,21.0
KBVX 061515Z AUTO 29005KT 10SM CLR 22/11 A2991 RMK AO1,KBVX,2017-05-06T15:15:00Z,35.73,-91.65,22.0,11.0,290,5,,10.0,29.911417,,,TRUE,TRUE,,,,,,,CLR,,,,,,,,VFR,,,,,,,,,,,,METAR,141.0
KBTP 061515Z AUTO 29007KT 10SM BKN014 OVC020 07/04 A2948 RMK AO1 P0001,KBTP,2017-05-06T15:15:00Z,40.77,-79.95,7.0,4.0,290,7,,10.0,29.480314,,,TRUE,TRUE,,,,,,,BKN,1400,OVC,2000,,,,,MVFR,,,,,,0.01,,,,,,METAR,380.0
KBDN 061515Z AUTO 02006KT 10SM 03/M00 A3003 RMK AO2,KBDN,2017-05-06T15:15:00Z,44.1,-121.2,3.0,0.0,20,6,,10.0,30.029528,,,TRUE,TRUE,,,,,,,,,,,,,,,,,,,,,,,,,,,METAR,1055.0
KBBP 061515Z AUTO 26011G14KT 10SM SCT033 SCT039 SCT046 18/10 A2964 RMK AO2,KBBP,2017-05-06T15:15:00Z,34.62,-79.73,18.0,10.0,260,11,14,10.0,29.639763,,,TRUE,TRUE,,,,,,,SCT,3300,SCT,3900,SCT,4600,,,VFR,,,,,,,,,,,,METAR,45.0
KAXA 061515Z AUTO 03009KT 10SM CLR 17/05 A2998 RMK AO2,KAXA,2017-05-06T15:15:00Z,43.07,-94.27,17.0,5.0,30,9,,10.0,29.97933,,,TRUE,TRUE,,,,,,,CLR,,,,,,,,VFR,,,,,,,,,,,,METAR,372.0
KAWO 061515Z AUTO 00000KT 10SM FEW027 OVC050 08/02 A3016 RMK AO1,KAWO,2017-05-06T15:15:00Z,48.17,-122.17,8.0,2.0,0,0,,10.0,30.159449,,,TRUE,TRUE,,,,,,,FEW,2700,OVC,5000,,,,,VFR,,,,,,,,,,,,METAR,42.0
KARG 061515Z AUTO 29012KT 10SM CLR 22/10 A2986 RMK AO1,KARG,2017-05-06T15:15:00Z,36.12,-90.92,22.0,10.0,290,12,,10.0,29.861221,,,TRUE,TRUE,,,,,,,CLR,,,,,,,,VFR,,,,,,,,,,,,METAR,83.0
KALM 061515Z AUTO 30004KT 10SM CLR 21/M03 A3001 RMK AO2,KALM,2017-05-06T15:15:00Z,32.82,-105.97,21.0,-3.0,300,4,,10.0,30.008858,,,TRUE,TRUE,,,,,,,CLR,,,,,,,,VFR,,,,,,,,,,,,METAR,1279.0
KAJZ 061515Z AUTO 00000KT 10SM CLR 19/M01 A2998 RMK AO2 T01851014,KAJZ,2017-05-06T15:15:00Z,38.78,-108.07,18.5,-1.4,0,0,,10.0,29.97933,,,TRUE,TRUE,,,,,,,CLR,,,,,,,,VFR,,,,,,,,,,,,METAR,1583.0
KAFJ 061515Z AUTO 27007G16KT 10SM SCT014 BKN020 OVC033 07/04 A2953 RMK AO1,KAFJ,2017-05-06T15:15:00Z,40.12,-80.27,7.0,4.0,270,7,16,10.0,29.530512,,,TRUE,TRUE,,,,,,,SCT,1400,BKN,2000,OVC,3300,,,MVFR,,,,,,,,,,,,METAR,361.0
KAEL 061515Z AUTO 02007KT 10SM CLR 14/03 A2997 RMK AO2,KAEL,2017-05-06T15:15:00Z,43.68,-93.37,14.0,3.0,20,7,,10.0,29.970472,,,TRUE,TRUE,,,,,,,CLR,,,,,,,,VFR,,,,,,,,,,,,METAR,383.0
KADU 061515Z AUTO 06010KT 10SM CLR 19/01 A2997 RMK AO2,KADU,2017-05-06T15:15:00Z,41.7,-94.92,19.0,1.0,60,10,,10.0,29.970472,,,TRUE,TRUE,,,,,,,CLR,,,,,,,,VFR,,,,,,,,,,,,METAR,392.0
K74V 061515Z AUTO 21003KT 10SM SCT110 15/02 A2996 RMK AO2,K74V,2017-05-06T15:15:00Z,40.28,-110.05,15.0,2.0,210,3,,10.0,29.958662,,,TRUE,TRUE,,,,,,,SCT,11000,,,,,,,VFR,,,,,,,,,,,,METAR,1576.0
K5H4 061515Z AUTO 14010KT 10SM 18/01 A2997 RMK AO2 PWINO,K5H4,2017-05-06T15:15:00Z,47.78,-99.93,18.0,1.0,140,10,,10.0,29.970472,,,TRUE,TRUE,,,,,TRUE,,,,,,,,,,,,,,,,,,,,,,METAR,490.0
K4S2 061515Z AUTO 30006KT 10SM SCT037 09/01 A3010 RMK AO2,K4S2,2017-05-06T15:15:00Z,,,9.0,1.0,300,6,,10.0,30.100393,,,TRUE,TRUE,,,,,,,SCT,3700,,,,,,,VFR,,,,,,,,,,,,METAR,
K1S5 061515Z AUTO 28010KT 10SM CLR 09/M01 A3001 RMK AO2 T00921009,K1S5,2017-05-06T15:15:00Z,46.33,-119.97,9.2,-0.9,280,10,,10.0,30.008858,,,TRUE,TRUE,,,,,,,CLR,,,,,,,,VFR,,,,,,,,,,,,METAR,234.0
K04W 061515Z AUTO 05004KT 10SM CLR 11/05 A3002 RMK AO2,K04W,2017-05-06T15:15:00Z,46.02,-92.9,11.0,5.0,50,4,,10.0,30.02067,,,TRUE,TRUE,,,,,,,CLR,,,,,,,,VFR,,,,,,,,,,,,METAR,311.0
PADG 061515Z 06004KT 15SM FEW080 01/M03 A2984,PADG,2017-05-06T15:15:00Z,68.03,-162.9,1.0,-3.0,60,4,,15.0,29.840551,,,,,,,,,,,FEW,8000,,,,,,,VFR,,,,,,,,,,,,SPECI,297.0
KYKN 061515Z AUTO 13005KT 10SM CLR 18/05 A2996 RMK AO1,KYKN,2017-05-06T15:15:00Z,42.92,-97.37,18.0,5.0,130,5,,10.0,29.958662,,,TRUE,TRUE,,,,,,,CLR,,,,,,,,VFR,,,,,,,,,,,,METAR,398.0
KXNT 061515Z AUTO VRB06G13KT 3SM -DZ BKN004 05/05 A2937 RMK AO2,KXNT,2017-05-06T15:15:00Z,,,5.0,5.0,0,6,13,3.0,29.371063,,,TRUE,TRUE,,,,,,-DZ,BKN,400,,,,,,,LIFR,,,,,,,,,,,,METAR,
KVBT 061515Z AUTO 29012G15KT 10SM CLR 19/07 A3000 RMK AO1,KVBT,2017-05-06T15:15:00Z,36.35,-94.22,19.0,7.0,290,12,15,10.0,30.0,,,TRUE,TRUE,,,,,,,CLR,,,,,,,,VFR,,,,,,,,,,,,METAR,395.0
KUYF 061515Z AUTO 31012G19KT 10SM SCT031 BKN038 12/06 A2965 RMK AO2,KUYF,2017-05-06T15:15:00Z,39.93,-83.47,12.0,6.0,310,12,19,10.0,29.648623,,,TRUE,TRUE,,,,,,,SCT,3100,BKN,3800,,,,,VFR,,,,,,,,,,,,METAR,330.0
KUTA 061515Z AUTO 25012KT 10SM CLR 20/10 A2994 RMK AO2 TSNO,KUTA,2017-05-06T15:15:00Z,34.68,-90.35,20.0,10.0,250,12,,10.0,29.940945,,,TRUE,TRUE,,,TRUE,,,,CLR,,,,,,,,VFR,,,,,,,,,,,,METAR,59.0
KU42 061515Z AUTO 18008KT 10SM CLR 23/11 A2977 RMK AO1 T02280106,KU42,2017-05-06T15:15:00Z,40.62,-111.98,22.8,10.6,180,8,,10.0,29.769686,,,TRUE,TRUE,,,,,,,CLR,,,,,,,,VFR,,,,,,,,,,,,METAR,1402.0
KMSV 061515Z 17013G20KT 10SM BKN029 BKN037 OVC045 14/12 A2936 RMK AO1,KMSV,2017-05-06T15:15:00Z,41.7,-74.78,14.0,12.0,170,13,20,10.0,29.359253,,,,TRUE,,,,,,,BKN,2900,BKN,3700,OVC,4500,,,MVFR,,,,,,,,,,,,METAR,428.0
KMMI 061515Z AUTO 23006KT 10SM CLR 13/06 A2984 RMK,KMMI,2017-05-06T15:15:00Z,35.4,-84.57,13.0,6.0,230,6,,10.0,29.840551,,,TRUE,,,,,,,,CLR,,,,,,,,VFR,,,,,,,,,,,,METAR,266.0
KMKY 061515Z AUTO 29010G14KT 10SM CLR 24/10 A2998 RMK AO1,KMKY,2017-05-06T15:15:00Z,26.0,-81.67,24.0,10.0,290,10,14,10.0,29.97933,,,TRUE,TRUE,,,,,,,CLR,,,,,,,,VFR,,,,,,,,,,,,METAR,2.0
KMEZ 061515Z AUTO 25007KT 10SM CLR 21/07 A3002 RMK AO2,KMEZ,2017-05-06T15:15:00Z,34.55,-94.2,21.0,7.0,250,7,,10.0,30.02067,,,TRUE,TRUE,,,,,,,CLR,,,,,,,,VFR,,,,,,,,,,,,METAR,329.0
KMAO 061515Z AUTO 28008G15KT 7SM SCT032 BKN047 OVC050 14/07 A2966 RMK AO2,KMAO,2017-05-06T15:15:00Z,34.18,-79.33,14.0,7.0,280,8,15,7.0,29.660433,,,TRUE,TRUE,,,,,,,SCT,3200,BKN,4700,OVC,5000,,,VFR,,,,,,,,,,,,METAR,28.0
KLKV 061515Z AUTO 35017G24KT 10SM FEW018 SCT027 OVC039 03/M02 A2990 RMK AO1,KLKV,2017-05-06T15:15:00Z,42.17,-120.4,3.0,-2.0,350,17,24,10.0,29.899607,,,TRUE,TRUE,,,,,,,FEW,1800,SCT,2700,OVC,3900,,,VFR,,,,,,,,,,,,METAR,1441.0
KLGD 061515Z AUTO 32013KT 10SM OVC050 04/M01 A2997 RMK AO1,KLGD,2017-05-06T15:15:00Z,45.27,-118.0,4.0,-1.0,320,13,,10.0,29.970472,,,TRUE,TRUE,,,,,,,OVC,5000,,,,,,,VFR,,,,,,,,,,,,METAR,827.0
KJRB 061515Z 16007KT 350V310 10SM BKN035 17/11 A2942 RMK AO2 SLP294 PWINO FZRANO RVRNO,KJRB,2017-05-06T15:15:00Z,40.7,-74.02,17.0,11.0,160,7,,10.0,29.421259,1029.4,,,TRUE,,,,TRUE,TRUE,,BKN,3500,,,,,,,VFR,,,,,,,,,,,,METAR,7.0
KJHW 061515Z AUTO 28009KT 8SM OVC008 04/02 A2938 RMK AO1,KJHW,2017-05-06T15:15:00Z,42.13,-79.27,4.0,2.0,280,9,,8.0,29.379921,,,TRUE,TRUE,,,,,,,OVC,800,,,,,,,IFR,,,,,,,,,,,,METAR,525.0
KJFX 061515Z AUTO 24010KT 10SM CLR 19/07 A2991 RMK AO2 PWINO,KJFX,2017-05-06T15:15:00Z,33.9,-87.32,19.0,7.0,240,10,,10.0,29.911417,,,TRUE,TRUE,,,,,TRUE,,CLR,,,,,,,,VFR,,,,,,,,,,,,METAR,148.0
KIFA 061515Z AUTO 35010G15KT 10SM CLR 17/06 A2996 RMK AO2 T01650063,KIFA,2017-05-06T15:15:00Z,42.47,-93.27,16.5,6.3,350,10,15,10.0,29.958662,,,TRUE,TRUE,,,,,,,CLR,,,,,,,,VFR,,,,,,,,,,,,METAR,347.0
KIDI 061515Z AUTO 29012G17KT 260V320 1 3/4SM BR BKN007 BKN013 07/07 A2946 RMK A01,KIDI,2017-05-06T15:15:00Z,40.62,-79.08,7.0,7.0,290,12,17,1.75,29.459646,,,TRUE,TRUE,,,,,,BR,BKN,700,BKN,1300,,,,,IFR,,,,,,,,,,,,METAR,429.0
KI67 061515Z AUTO 30005KT 10SM BKN021 BKN110 11/05 A2971 RMK AO1,KI67,2017-05-06T15:15:00Z,39.25,-84.78,11.0,5.0,300,5,,10.0,29.71063,,,TRUE,TRUE,,,,,,,BKN,2100,BKN,11000,,,,,MVFR,,,,,,,,,,,,METAR,178.0
KHDN 061515Z AUTO 11009KT 10SM CLR 15/01 A3003 RMK AO1,KHDN,2017-05-06T15:15:00Z,40.47,-107.22,15.0,1.0,110,9,,10.0,30.029528,,,TRUE,TRUE,,,,,,,CLR,,,,,,,,VFR,,,,,,,,,,,,METAR,2012.0
KGWR 061515Z AUTO 10SM CLR 18/03 A2998 RMK A01,KGWR,2017-05-06T15:15:00Z,46.22,-97.65,18.0,3.0,,,,10.0,29.97933,,,TRUE,TRUE,,,,,,,CLR,,,,,,,,VFR,,,,,,,,,,,,METAR,386.0
KGPC 061515Z AUTO 35010KT 10SM SCT017 SCT022 12/07 A2976 RMK AO2,KGPC,2017-05-06T15:15:00Z,39.63,-86.82,12.0,7.0,350,10,,10.0,29.760826,,,TRUE,TRUE,,,,,,,SCT,1700,SCT,2200,,,,,VFR,,,,,,,,,,,,METAR,257.0
KFOD 061515Z AUTO 04008KT 010V070 10SM CLR 18/05 A2998 RMK AO1,KFOD,2017-05-06T15:15:00Z,42.53,-94.17,18.0,5.0,40,8,,10.0,29.97933,,,TRUE,TRUE,,,,,,,CLR,,,,,,,,VFR,,,,,,,,,,,,METAR,355.0
KFLP 061515Z 29014G18KT 10SM CLR A2990 RMK AO1,KFLP,2017-05-06T15:15:00Z,36.28,-92.58,,,290,14,18,10.0,29.899607,,,,TRUE,,,,,,,CLR,,,,,,,,VFR,,,,,,,,,,,,METAR,219.0
KFKL 061515Z 29010G16KT 10SM SCT010 BKN017 OVC037 06/03 A2945 RMK AO1 P0001,KFKL,2017-05-06T15:15:00Z,41.37,-79.87,6.0,3.0,290,10,16,10.0,29.450787,,,,TRUE,,,,,,,SCT,1000,BKN,1700,OVC,3700,,,MVFR,,,,,,0.01,,,,,,METAR,469.0
KSYI 061515Z AUTO 24010KT 10SM CLR 18/09 A2981 RMK,KSYI,2017-05-06T15:15:00Z,35.57,-86.45,18.0,9.0,240,10,,10.0,29.811024,,,TRUE,,,,,,,,CLR,,,,,,,,VFR,,,,,,,,,,,,METAR,245.0
KSXU 061515Z AUTO 00000KT 10SM CLR 18/01 A3003 RMK AO2 T01790010,KSXU,2017-05-06T15:15:00Z,34.93,-104.65,17.9,1.0,0,0,,10.0,30.029528,,,TRUE,TRUE,,,,,,,CLR,,,,,,,,VFR,,,,,,,,,,,,METAR,1460.0
KSVC 061515Z AUTO 28004KT 10SM CLR 24/00 A3003 RMK AO2 T02370000,KSVC,2017-05-06T15:15:00Z,32.63,-108.15,23.7,0.0,280,4,,10.0,30.029528,,,TRUE,TRUE,,,,,,,CLR,,,,,,,,VFR,,,,,,,,,,,,METAR,1659.0
KSTF 061515Z AUTO 27006G14KT 10SM CLR 21/08 A2996 RMK AO2,KSTF,2017-05-06T15:15:00Z,33.43,-88.85,21.0,8.0,270,6,14,10.0,29.958662,,,TRUE,TRUE,,,,,,,CLR,,,,,,,,VFR,,,,,,,,,,,,METAR,102.0
KSMN 061515Z AUTO 08003KT 10SM BKN110 12/09 A2980 RMK AO1,KSMN,2017-05-06T15:15:00Z,45.12,-113.87,12.0,9.0,80,3,,10.0,29.799213,,,TRUE,TRUE,,,,,,,BKN,11000,,,,,,,VFR,,,,,,,,,,,,METAR,1233.0
KSLG 061515Z AUTO 28010KT 10SM CLR 19/09 A3000 RMK AO1,KSLG,2017-05-06T15:15:00Z,36.2,-94.47,19.0,9.0,280,10,,10.0,30.0,,,TRUE,TRUE,,,,,,,CLR,,,,,,,,VFR,,,,,,,,,,,,METAR,300.0
KSKX 061515Z AUTO 00000KT 10SM CLR 16/M01 A3017 RMK AO1,KSKX,2017-05-06T15:15:00Z,36.45,-105.67,16.0,-1.0,0,0,,10.0,30.171259,,,TRUE,TRUE,,,,,,,CLR,,,,,,,,VFR,,,,,,,,,,,,METAR,2161.0
KSHL 061515Z AUTO 09004G10KT 10SM CLR 18/01 A2997 RMK AO2,KSHL,2017-05-06T15:15:00Z,43.22,-95.82,18.0,1.0,90,4,10,10.0,29.970472,,,TRUE,TRUE,,,,,,,CLR,,,,,,,,VFR,,,,,,,,,,,,METAR,432.0
KSGT 061515Z AUTO 25009KT 10SM CLR 21/08 A2996 RMK AO1,KSGT,2017-05-06T15:15:00Z,34.6,-91.57,21.0,8.0,250,9,,10.0,29.958662,,,TRUE,TRUE,,,,,,,CLR,,,,,,,,VFR,,,,,,,,,,,,METAR,68.0
KRZT 061515Z AUTO 33012G19KT 10SM BKN033 BKN041 12/04 A2966 RMK AO2,KRZT,2017-05-06T15:15:00Z,39.43,-83.02,12.0,4.0,330,12,19,10.0,29.660433,,,TRUE,TRUE,,,,,,,BKN,3300,BKN,4100,,,,,VFR,,,,,,,,,,,,METAR,221.0
KRZL 061515Z AUTO 35012G19KT 10SM CLR 11/02 A2978 RMK AO2,KRZL,2017-05-06T15:15:00Z,40.95,-87.18,11.0,2.0,350,12,19,10.0,29.778543,,,TRUE,TRUE,,,,,,,CLR,,,,,,,,VFR,,,,,,,,,,,,METAR,213.0
KPVG 061515Z 23008G17KT 200V260 BKN029 OVC036 17/10 A2948 RMK AO1,KPVG,2017-05-06T15:15:00Z,36.78,-76.45,17.0,10.0,230,8,17,,29.480314,,,,TRUE,,,,,,,BKN,2900,OVC,3600,,,,,,,,,,,,,,,,,METAR,7.0
KPRX 061515Z 24007KT 10SM CLR 21/08 A3003 RMK AO1,KPRX,2017-05-06T15:15:00Z,33.62,-95.45,21.0,8.0,240,7,,10.0,30.029528,,,,TRUE,,,,,,,CLR,,,,,,,,VFR,,,,,,,,,,,,METAR,167.0
KPNM 061515Z AUTO 36003KT 10SM CLR 13/06 A3002 RMK AO2,KPNM,2017-05-06T15:15:00Z,45.57,-93.6,13.0,6.0,360,3,,10.0,30.02067,,,TRUE,TRUE,,,,,,,CLR,,,,,,,,VFR,,,,,,,,,,,,METAR,298.0
KPIB 061515Z AUTO 24005KT 10SM CLR 21/09 A3002 RMK AO1,KPIB,2017-05-06T15:15:00Z,31.47,-89.32,21.0,9.0,240,5,,10.0,30.02067,,,TRUE,TRUE,,,,,,,CLR,,,,,,,,VFR,,,,,,,,,,,,METAR,91.0
KOTH 061515Z 00000KT 10SM CLR 10/07 A3018 RMK AO1,KOTH,2017-05-06T15:15:00Z,43.42,-124.25,10.0,7.0,0,0,,10.0,30.180119,,,,TRUE,,,,,,,CLR,,,,,,,,VFR,,,,,,,,,,,,METAR,4.0
KORS 061515Z AUTO 22006KT 10SM CLR 09/03 A3011 RMK AO2,KORS,2017-05-06T15:15:00Z,48.7,-122.92,9.0,3.0,220,6,,10.0,30.109253,,,TRUE,TRUE,,,,,,,CLR,,,,,,,,VFR,,,,,,,,,,,,METAR,9.0
KORC 061515Z AUTO 10004KT 10SM CLR 19/03 A2998 RMK AO2,KORC,2017-05-06T15:15:00Z,42.97,-96.07,19.0,3.0,100,4,,10.0,29.97933,,,TRUE,TRUE,,,,,,,CLR,,,,,,,,VFR,,,,,,,,,,,,METAR,431.0
KOLU 061515Z AUTO 09011KT 10SM CLR 20/07 A2997 RMK AO2 RVRNO,KOLU,2017-05-06T15:15:00Z,41.45,-97.32,20.0,7.0,90,11,,10.0,29.970472,,,TRUE,TRUE,,,,,,,CLR,,,,,,,,VFR,,,,,,,,,,,,METAR,440.0
KOGS 061515Z AUTO 02004KT 10SM BKN006 14/12 A2928 RMK AO2 T01370124 TSNO,KOGS,2017-05-06T15:15:00Z,44.67,-75.47,13.7,12.4,20,4,,10.0,29.279528,,,TRUE,TRUE,,,TRUE,,,,BKN,600,,,,,,,IFR,,,,,,,,,,,,METAR,91.0
KOCH 061515Z 24005KT CLR 21/11 A3002 RMK AO1,KOCH,2017-05-06T15:15:00Z,31.57,-94.72,21.0,11.0,240,5,,,30.02067,,,,TRUE,,,,,,,CLR,,,,,,,,,,,,,,,,,,,,METAR,108.0
KN03 061515Z AUTO 33003KT 10SM OVC012 12/12 A2929 RMK AO2,KN03,2017-05-06T15:15:00Z,42.6,-76.22,12.0,12.0,330,3,,10.0,29.291338,,,TRUE,TRUE,,,,,,,OVC,1200,,,,,,,MVFR,,,,,,,,,,,,METAR,366.0
KMXO 061515Z AUTO 36012G20KT 10SM FEW031 15/06 A2989 RMK AO2,KMXO,2017-05-06T15:15:00Z,42.22,-91.17,15.0,6.0,360,12,20,10.0,29.890747,,,TRUE,TRUE,,,,,,,FEW,3100,,,,,,,VFR,,,,,,,,,,,,METAR,259.0
YPEA 061515Z AUTO 21002KT 6000 // NCD 12/10 Q1024,YPEA,2017-05-06T15:15:00Z,-31.67,116.02,12.0,10.0,210,2,,3.73,30.236221,,,TRUE,,,,,,,,CLR,,,,,,,,MVFR,,,,,,,,,,,,SPECI,49.0
SPST 061515Z 11004KT 3000 -DZ BCFG SCT007 SCT012 OVC050 25/24 Q1015,SPST,2017-05-06T15:15:00Z,-6.52,-76.37,25.0,24.0,110,4,,1.86,29.970472,,,,,,,,,,-DZ BCFG,SCT,700,SCT,1200,OVC,5000,,,IFR,,,,,,,,,,,,SPECI,282.0
KSPF 061515Z AUTO 04007KT 10SM CLR 22/09 A2985 RMK AO2,KSPF,2017-05-06T15:15:00Z,44.47,-103.77,22.0,9.0,40,7,,10.0,29.84941,,,TRUE,TRUE,,,,,,,CLR,,,,,,,,VFR,,,,,,,,,,,,SPECI,1188.0
KPSO 061515Z AUTO 00000KT 10SM CLR 15/M04 A3015 RMK AO2 T01461043,KPSO,2017-05-06T15:15:00Z,37.28,-107.05,14.6,-4.3,0,0,,10.0,30.15059,,,TRUE,TRUE,,,,,,,CLR,,,,,,,,VFR,,,,,,,,,,,,SPECI,2334.0
KPEA 061515Z AUTO 02007KT 10SM CLR 17/07 A2994 RMK AO2 T01650069,KPEA,2017-05-06T15:15:00Z,41.4,-92.95,16.5,6.9,20,7,,10.0,29.940945,,,TRUE,TRUE,,,,,,,CLR,,,,,,,,VFR,,,,,,,,,,,,SPECI,270.0
KMCX 061515Z AUTO 35016G20KT 10SM SCT095 13/04 A2975 RMK AO2 T01250035,KMCX,2017-05-06T15:15:00Z,40.72,-86.77,12.5,3.5,350,16,20,10.0,29.749016,,,TRUE,TRUE,,,,,,,SCT,9500,,,,,,,VFR,,,,,,,,,,,,SPECI,206.0
KLUL 061515Z AUTO 24007KT 10SM CLR 21/08 A3001 RMK AO2 T02130083,KLUL,2017-05-06T15:15:00Z,31.67,-89.17,21.3,8.3,240,7,,10.0,30.008858,,,TRUE,TRUE,,,,,,,CLR,,,,,,,,VFR,,,,,,,,,,,,SPECI,73.0
KLRY 061515Z AUTO 33016G21KT 10SM CLR 23/09 A2994 RMK AO2,KLRY,2017-05-06T15:15:00Z,38.62,-94.35,23.0,9.0,330,16,21,10.0,29.940945,,,TRUE,TRUE,,,,,,,CLR,,,,,,,,VFR,,,,,,,,,,,,SPECI,279.0
KLKR 061515Z AUTO 29010G18KT 10SM CLR 16/03 A2968 RMK AO2,KLKR,2017-05-06T15:15:00Z,34.72,-80.85,16.0,3.0,290,10,18,10.0,29.681103,,,TRUE,TRUE,,,,,,,CLR,,,,,,,,VFR,,,,,,,,,,,,SPECI,149.0
KIIB 061515Z AUTO 36010G16KT 10SM SCT030 16/06 A2992 RMK AO2,KIIB,2017-05-06T15:15:00Z,42.45,-91.95,16.0,6.0,360,10,16,10.0,29.920275,,,TRUE,TRUE,,,,,,,SCT,3000,,,,,,,VFR,,,,,,,,,,,,SPECI,298.0
KDEH 061515Z AUTO 36013KT 10SM CLR 14/01 A2993 RMK AO2,KDEH,2017-05-06T15:15:00Z,43.27,-91.72,14.0,1.0,360,13,,10.0,29.929134,,,TRUE,TRUE,,,,,,,CLR,,,,,,,,VFR,,,,,,,,,,,,SPECI,353.0
KD55 061515Z AUTO 12009KT 10SM CLR 18/M02 A3001 RMK AO2,KD55,2017-05-06T15:15:00Z,48.75,-98.4,18.0,-2.0,120,9,,10.0,30.008858,,,TRUE,TRUE,,,,,,,CLR,,,,,,,,VFR,,,,,,,,,,,,SPECI,491.0
KCQW 061515Z AUTO 31009G22KT 280V350 10SM FEW040 15/03 A2965 RMK AO2,KCQW,2017-05-06T15:15:00Z,34.72,-79.95,15.0,3.0,310,9,22,10.0,29.648623,,,TRUE,TRUE,,,,,,,FEW,4000,,,,,,,VFR,,,,,,,,,,,,SPECI,73.0
KCLS 061515Z AUTO 00000KT 10SM CLR 08/05 A3016 RMK AO2,KCLS,2017-05-06T15:15:00Z,46.68,-122.98,8.0,5.0,0,0,,10.0,30.159449,,,TRUE,TRUE,,,,,,,CLR,,,,,,,,VFR,,,,,,,,,,,,SPECI,54.0
KC62 061515Z AUTO 33010G15KT 10SM SCT033 11/04 A2970 RMK AO2 T01110042,KC62,2017-05-06T15:15:00Z,41.47,-85.25,11.1,4.2,330,10,15,10.0,29.698818,,,TRUE,TRUE,,,,,,,SCT,3300,,,,,,,VFR,,,,,,,,,,,,SPECI,306.0
KARW 061515Z AUTO 28016G22KT 7SM CLR 18/07 A2976 RMK AO2,KARW,2017-05-06T15:15:00Z,32.42,-80.63,18.0,7.0,280,16,22,7.0,29.760826,,,TRUE,TRUE,,,,,,,CLR,,,,,,,,VFR,,,,,,,,,,,,SPECI,4.0
KANK 061515Z AUTO 00000KT 10SM CLR 13/01 A3025 RMK AO1 T01320006,KANK,2017-05-06T15:15:00Z,38.53,-106.05,13.2,0.6,0,0,,10.0,30.250984,,,TRUE,TRUE,,,,,,,CLR,,,,,,,,VFR,,,,,,,,,,,,SPECI,2293.0
K8B0 061515Z AUTO 23009KT 3SM BR OVC008 08/08 A2960 RMK AO2,K8B0,2017-05-06T15:15:00Z,,,8.0,8.0,230,9,,3.0,29.601377,,,TRUE,TRUE,,,,,,BR,OVC,800,,,,,,,IFR,,,,,,,,,,,,SPECI,
K20U 061515Z AUTO 15024G31KT 10SM CLR 20/02 A2984 RMK AO2,K20U,2017-05-06T15:15:00Z,46.93,-103.98,20.0,2.0,150,24,31,10.0,29.840551,,,TRUE,TRUE,,,,,,,CLR,,,,,,,,VFR,,,,,,,,,,,,SPECI,840.0
KVNC 061515Z AUTO 32015KT 9SM FEW050 23/10 A2998 RMK AO2,KVNC,2017-05-06T15:15:00Z,27.07,-82.43,23.0,10.0,320,15,,9.0,29.97933,,,TRUE,TRUE,,,,,,,FEW,5000,,,,,,,VFR,,,,,,,,,,,,SPECI,6.0
KRID 061515Z AUTO 31007KT 10SM CLR 09/05 A2970 RMK AO2,KRID,2017-05-06T15:15:00Z,39.75,-84.85,9.0,5.0,310,7,,10.0,29.698818,,,TRUE,TRUE,,,,,,,CLR,,,,,,,,VFR,,,,,,,,,,,,SPECI,348.0
KPTS 061515Z AUTO 26008G16KT 10SM CLR 21/12 A2994 RMK AO2 T02140119,KPTS,2017-05-06T15:15:00Z,37.45,-94.73,21.4,11.9,260,8,16,10.0,29.940945,,,TRUE,TRUE,,,,,,,CLR,,,,,,,,VFR,,,,,,,,,,,,METAR,290.0
KGLY 061515Z AUTO 32009KT 10SM CLR 20/10 A2991 RMK AO2,KGLY,2017-05-06T15:15:00Z,38.35,-93.68,20.0,10.0,320,9,,10.0,29.911417,,,TRUE,TRUE,,,,,,,CLR,,,,,,,,VFR,,,,,,,,,,,,SPECI,251.0
KGKT 061515Z AUTO 22009KT 10SM FEW036 SCT042 BKN060 10/05 A2979 RMK,KGKT,2017-05-06T15:15:00Z,35.85,-83.53,10.0,5.0,220,9,,10.0,29.790354,,,TRUE,,,,,,,,FEW,3600,SCT,4200,BKN,6000,,,VFR,,,,,,,,,,,,METAR,309.0
KGGE 061515Z AUTO 28009G15KT 10SM BKN035 OVC043 15/07 A2970 RMK AO2,KGGE,2017-05-06T15:15:00Z,33.32,-79.32,15.0,7.0,280,9,15,10.0,29.698818,,,TRUE,TRUE,,,,,,,BKN,3500,OVC,4300,,,,,VFR,,,,,,,,,,,,SPECI,12.0
KDYA 061515Z AUTO 24008KT 10SM 20/07 A2996 RMK AO2 T02040066,KDYA,2017-05-06T15:15:00Z,32.47,-87.95,20.4,6.6,240,8,,10.0,29.958662,,,TRUE,TRUE,,,,,,,,,,,,,,,,,,,,,,,,,,,SPECI,34.0
KCXP 061515Z AUTO 02007G15KT 10SM CLR 12/01 A2972 RMK AO2,KCXP,2017-05-06T15:15:00Z,39.18,-119.73,12.0,1.0,20,7,15,10.0,29.719488,,,TRUE,TRUE,,,,,,,CLR,,,,,,,,VFR,,,,,,,,,,,,METAR,1435.0
KATS 061515Z AUTO 12005KT 10SM CLR 20/02 A2999 RMK AO2,KATS,2017-05-06T15:15:00Z,32.85,-104.47,20.0,2.0,120,5,,10.0,29.991142,,,TRUE,TRUE,,,,,,,CLR,,,,,,,,VFR,,,,,,,,,,,,SPECI,1081.0
KAIK 061515Z AUTO 26011G19KT 10SM CLR 16/06 A2978 RMK AO2,KAIK,2017-05-06T15:15:00Z,33.65,-81.68,16.0,6.0,260,11,19,10.0,29.778543,,,TRUE,TRUE,,,,,,,CLR,,,,,,,,VFR,,,,,,,,,,,,SPECI,161.0
KAIB 061515Z AUTO 36004KT 10SM CLR 15/M02 A3004 RMK AO2,KAIB,2017-05-06T15:15:00Z,38.23,-108.57,15.0,-2.0,360,4,,10.0,30.041338,,,TRUE,TRUE,,,,,,,CLR,,,,,,,,VFR,,,,,,,,,,,,SPECI,1811.0
K2C8 061515Z AUTO 00000KT 10SM CLR 14/02 A3002 RMK AO2,K2C8,2017-05-06T15:15:00Z,48.78,-97.63,14.0,2.0,0,0,,10.0,30.02067,,,TRUE,TRUE,,,,,,,CLR,,,,,,,,VFR,,,,,,,,,,,,SPECI,272.0
KX60 061515Z AUTO 26015G22KT 10SM CLR 22/06 A2993 RMK A01,KX60,2017-05-06T15:15:00Z,29.35,-82.47,22.0,6.0,260,15,22,10.0,29.929134,,,TRUE,TRUE,,,,,,,CLR,,,,,,,,VFR,,,,,,,,,,,,SPECI,23.0
KSVE 061515Z AUTO 27005KT 10SM CLR 09/03 A2978 RMK AO2,KSVE,2017-05-06T15:15:00Z,40.37,-120.57,9.0,3.0,270,5,,10.0,29.778543,,,TRUE,TRUE,,,,,,,CLR,,,,,,,,VFR,,,,,,,,,,,,SPECI,1263.0
KMNI 061515Z AUTO 31008G22KT 250V340 10SM SCT038 16/07 A2970 RMK AO2,KMNI,2017-05-06T15:15:00Z,33.58,-80.22,16.0,7.0,310,8,22,10.0,29.698818,,,TRUE,TRUE,,,,,,,SCT,3800,,,,,,,VFR,,,,,,,,,,,,SPECI,32.0
KANQ 061515Z AUTO 34009KT 10SM CLR 11/05 A2968 RMK,KANQ,2017-05-06T15:15:00Z,41.63,-85.08,11.0,5.0,340,9,,10.0,29.681103,,,TRUE,,,,,,,,CLR,,,,,,,,VFR,,,,,,,,,,,,METAR,303.0
KSLB 061515Z AUTO 06008KT 10SM CLR 18/03 A2997 RMK AO2,KSLB,2017-05-06T15:15:00Z,42.6,-95.22,18.0,3.0,60,8,,10.0,29.970472,,,TRUE,TRUE,,,,,,,CLR,,,,,,,,VFR,,,,,,,,,,,,METAR,454.0
KS33 061515Z AUTO 31014G17KT 10SM OVC120 05/M01 A3007 RMK AO2,KS33,2017-05-06T15:15:00Z,,,5.0,-1.0,310,14,17,10.0,30.070866,,,TRUE,TRUE,,,,,,,OVC,12000,,,,,,,VFR,,,,,,,,,,,,METAR,
KDYB 061515Z AUTO 26007G18KT 10SM SCT038 17/07 A2974 RMK AO1,KDYB,2017-05-06T15:15:00Z,33.07,-80.28,17.0,7.0,260,7,18,10.0,29.740158,,,TRUE,TRUE,,,,,,,SCT,3800,,,,,,,VFR,,,,,,,,,,,,METAR,18.0
KCCY 061515Z AUTO 03014KT 10SM CLR 15/04 A2995 RMK AO2,KCCY,2017-05-06T15:15:00Z,43.07,-92.62,15.0,4.0,30,14,,10.0,29.949802,,,TRUE,TRUE,,,,,,,CLR,,,,,,,,VFR,,,,,,,,,,,,METAR,343.0
KVDF 061515Z AUTO 31011G18KT 10SM SCT050 25/08 A2996 RMK AO2,KVDF,2017-05-06T15:15:00Z,28.02,-82.33,25.0,8.0,310,11,18,10.0,29.958662,,,TRUE,TRUE,,,,,,,SCT,5000,,,,,,,VFR,,,,,,,,,,,,SPECI,7.0
KSIK 061515Z AUTO 28013G19KT 10SM SCT110 20/10 A2978 RMK AO2,KSIK,2017-05-06T15:15:00Z,36.9,-89.57,20.0,10.0,280,13,19,10.0,29.778543,,,TRUE,TRUE,,,,,,,SCT,11000,,,,,,,VFR,,,,,,,,,,,,SPECI,96.0
KLUX 061515Z AUTO 29008KT 10SM SCT050 15/04 A2972 RMK AO2,KLUX,2017-05-06T15:15:00Z,34.5,-81.95,15.0,4.0,290,8,,10.0,29.719488,,,TRUE,TRUE,,,,,,,SCT,5000,,,,,,,VFR,,,,,,,,,,,,SPECI,213.0
KGGI 061515Z AUTO 36010KT 10SM CLR 16/07 A2994 RMK AO2 T01570069,KGGI,2017-05-06T15:15:00Z,41.72,-92.73,15.7,6.9,360,10,,10.0,29.940945,,,TRUE,TRUE,,,,,,,CLR,,,,,,,,VFR,,,,,,,,,,,,SPECI,307.0
KGAF 061515Z AUTO VRB03KT 10SM CLR 15/02 A3003 RMK AO2,KGAF,2017-05-06T15:15:00Z,48.4,-97.37,15.0,2.0,0,3,,10.0,30.029528,,,TRUE,TRUE,,,,,,,CLR,,,,,,,,VFR,,,,,,,,,,,,SPECI,252.0
KCKM 061515Z AUTO 25010KT 10SM 21/12 A2995 RMK A01,KCKM,2017-05-06T15:15:00Z,34.3,-90.52,21.0,12.0,250,10,,10.0,29.949802,,,TRUE,TRUE,,,,,,,,,,,,,,,,,,,,,,,,,,,SPECI,53.0
KBWW 061515Z AUTO 16026KT 10SM CLR 20/03 A2976 RMK AO2,KBWW,2017-05-06T15:15:00Z,46.17,-103.3,20.0,3.0,160,26,,10.0,29.760826,,,TRUE,TRUE,,,,,,,CLR,,,,,,,,VFR,,,,,,,,,,,,METAR,910.0
KVTI 061515Z AUTO 01010G17KT 10SM SCT036 16/06 A2991 RMK AO2,KVTI,2017-05-06T15:15:00Z,42.22,-92.02,16.0,6.0,10,10,17,10.0,29.911417,,,TRUE,TRUE,,,,,,,SCT,3600,,,,,,,VFR,,,,,,,,,,,,SPECI,255.0
KSPA 061515Z AUTO 32016G19KT 10SM CLR 16/01 A2970 RMK AO2,KSPA,2017-05-06T15:15:00Z,34.92,-81.93,16.0,1.0,320,16,19,10.0,29.698818,,,TRUE,TRUE,,,,,,,CLR,,,,,,,,VFR,,,,,,,,,,,,SPECI,303.0
KPRO 061515Z AUTO 01010KT 10SM CLR 18/04 A2994 RMK AO2 T01770035,KPRO,2017-05-06T15:15:00Z,41.83,-94.17,17.7,3.5,10,10,,10.0,29.940945,,,TRUE,TRUE,,,,,,,CLR,,,,,,,,VFR,,,,,,,,,,,,SPECI,308.0
KGPH 061515Z AUTO 35008G15KT 10SM CLR 20/07 A2991 RMK AO2,KGPH,2017-05-06T15:15:00Z,39.33,-94.32,20.0,7.0,350,8,15,10.0,29.911417,,,TRUE,TRUE,,,,,,,CLR,,,,,,,,VFR,,,,,,,,,,,,SPECI,235.0
KS32 061515Z AUTO 12010KT 10SM CLR 18/M01 A3000 RMK AO2,KS32,2017-05-06T15:15:00Z,47.42,-98.1,18.0,-1.0,120,10,,10.0,30.0,,,TRUE,TRUE,,,,,,,CLR,,,,,,,,VFR,,,,,,,,,,,,SPECI,684.0
KLQK 061515Z AUTO 23009G15KT 100V260 10SM CLR 16/05 A2971 RMK AO2 T01630045,KLQK,2017-05-06T15:15:00Z,34.82,-82.7,16.3,4.5,230,9,15,10.0,29.71063,,,TRUE,TRUE,,,,,,,CLR,,,,,,,,VFR,,,,,,,,,,,,SPECI,309.0
KEKX 061515Z AUTO 00000KT 10SM -DZ SCT037 OVC046 07/06 A2979 RMK AO2 T00650062,KEKX,2017-05-06T15:15:00Z,,,6.5,6.2,0,0,,10.0,29.790354,,,TRUE,TRUE,,,,,,-DZ,SCT,3700,OVC,4600,,,,,VFR,,,,,,,,,,,,SPECI,
KSYF 061515Z AUTO 23006KT 10SM CLR 22/08 A2996 RMK AO2 T02160083,KSYF,2017-05-06T15:15:00Z,39.77,-101.8,21.6,8.3,230,6,,10.0,29.958662,,,TRUE,TRUE,,,,,,,CLR,,,,,,,,VFR,,,,,,,,,,,,METAR,1025.0
KSNK 061515Z AUTO 19012KT 10SM CLR A3002 RMK AO2,KSNK,2017-05-06T15:15:00Z,32.7,-100.95,,,190,12,,10.0,30.02067,,,TRUE,TRUE,,,,,,,CLR,,,,,,,,VFR,,,,,,,,,,,,METAR,741.0
KSLO 061515Z AUTO 06008KT 040V100 10SM CLR 15/07 A2977 RMK AO2 T01500071,KSLO,2017-05-06T15:15:00Z,38.65,-88.97,15.0,7.1,60,8,,10.0,29.769686,,,TRUE,TRUE,,,,,,,CLR,,,,,,,,VFR,,,,,,,,,,,,METAR,175.0
KSHD 061515Z AUTO 24009KT 10SM -DZ BKN035 OVC041 11/06 A2949 RMK AO2 T01060061,KSHD,2017-05-06T15:15:00Z,38.27,-78.9,10.6,6.1,240,9,,10.0,29.489174,,,TRUE,TRUE,,,,,,-DZ,BKN,3500,OVC,4100,,,,,VFR,,,,,,,,,,,,METAR,366.0
KSEP 061515Z AUTO 19008KT 10SM CLR 23/08 A3006 RMK AO2 T02290077,KSEP,2017-05-06T15:15:00Z,32.22,-98.17,22.9,7.7,190,8,,10.0,30.059055,,,TRUE,TRUE,,,,,,,CLR,,,,,,,,VFR,,,,,,,,,,,,METAR,402.0
KSCD 061515Z AUTO 29006KT 10SM CLR 18/10 A2993 RMK AO2 T01760098,KSCD,2017-05-06T15:15:00Z,33.17,-86.3,17.6,9.8,290,6,,10.0,29.929134,,,TRUE,TRUE,,,,,,,CLR,,,,,,,,VFR,,,,,,,,,,,,METAR,173.0
KSAR 061515Z AUTO 30015G19KT 10SM CLR 19/08 A2974 RMK AO2 T01900084,KSAR,2017-05-06T15:15:00Z,38.15,-89.7,19.0,8.4,300,15,19,10.0,29.740158,,,TRUE,TRUE,,,,,,,CLR,,,,,,,,VFR,,,,,,,,,,,,METAR,164.0
KRYW 061515Z AUTO 24005KT 10SM CLR 23/09 A3006 RMK AO2 T02300089,KRYW,2017-05-06T15:15:00Z,30.5,-97.97,23.0,8.9,240,5,,10.0,30.059055,,,TRUE,TRUE,,,,,,,CLR,,,,,,,,VFR,,,,,,,,,,,,METAR,376.0
KRSV 061515Z AUTO 00000KT 10SM SCT050 BKN070 OVC080 10/09 A2979 RMK AO2 T00970085,KRSV,2017-05-06T15:15:00Z,39.02,-87.65,9.7,8.5,0,0,,10.0,29.790354,,,TRUE,TRUE,,,,,,,SCT,5000,BKN,7000,OVC,8000,,,VFR,,,,,,,,,,,,METAR,141.0
KT65 061515Z AUTO 16011G15KT 10SM CLR 27/15 A3002 RMK AO2 T02690153,KT65,2017-05-06T15:15:00Z,26.18,-97.97,26.9,15.3,160,11,15,10.0,30.02067,,,TRUE,TRUE,,,,,,,CLR,,,,,,,,VFR,,,,,,,,,,,,METAR,21.0
KT35 061515Z AUTO 21008KT 10SM CLR 23/08 A3004 RMK AO2 T02270083,KT35,2017-05-06T15:15:00Z,30.88,-96.97,22.7,8.3,210,8,,10.0,30.041338,,,TRUE,TRUE,,,,,,,CLR,,,,,,,,VFR,,,,,,,,,,,,METAR,123.0
KT20 061515Z AUTO 22005KT 10SM CLR 24/13 A3004 RMK AO2 T02370133,KT20,2017-05-06T15:15:00Z,29.52,-97.47,23.7,13.3,220,5,,10.0,30.041338,,,TRUE,TRUE,,,,,,,CLR,,,,,,,,VFR,,,,,,,,,,,,METAR,108.0
KSZY 061515Z AUTO 26010KT 10SM CLR 19/09 A2985 RMK A01,KSZY,2017-05-06T15:15:00Z,,,19.0,9.0,260,10,,10.0,29.84941,,,TRUE,TRUE,,,,,,,CLR,,,,,,,,VFR,,,,,,,,,,,,METAR,
KSWW 061515Z AUTO 16014G17KT 10SM CLR 24/05 A3004 RMK AO2 T02370045,KSWW,2017-05-06T15:15:00Z,32.47,-100.47,23.7,4.5,160,14,17,10.0,30.041338,,,TRUE,TRUE,,,,,,,CLR,,,,,,,,VFR,,,,,,,,,,,,METAR,727.0
KSUW 061515Z AUTO 09003KT 10SM SCT009 BKN065 07/05 A3006 RMK AO2 T00700045,KSUW,2017-05-06T15:15:00Z,46.68,-92.1,7.0,4.5,90,3,,10.0,30.059055,,,TRUE,TRUE,,,,,,,SCT,900,BKN,6500,,,,,VFR,,,,,,,,,,,,METAR,206.0
KSRB 061515Z AUTO 00000KT 10SM BKN065 OVC075 11/08 A2980 RMK A01,KSRB,2017-05-06T15:15:00Z,36.05,-85.53,11.0,8.0,0,0,,10.0,29.799213,,,TRUE,TRUE,,,,,,,BKN,6500,OVC,7500,,,,,VFR,,,,,,,,,,,,METAR,313.0
KSPR 061515Z AUTO 20005KT 10SM CLR 23/08 A3004 RMK A01,KSPR,2017-05-06T15:15:00Z,28.6,-91.2,23.0,8.0,200,5,,10.0,30.041338,,,TRUE,TRUE,,,,,,,CLR,,,,,,,,VFR,,,,,,,,,,,,METAR,31.0
KSOA 061515Z AUTO 18013G19KT 10SM CLR 24/05 A3007 RMK AO2,KSOA,2017-05-06T15:15:00Z,30.58,-100.65,24.0,5.0,180,13,19,10.0,30.070866,,,TRUE,TRUE,,,,,,,CLR,,,,,,,,VFR,,,,,,,,,,,,METAR,652.0
KSNL 061515Z AUTO 23008KT 10SM CLR 21/09 A3001 RMK AO2 T02100088,KSNL,2017-05-06T15:15:00Z,35.35,-96.95,21.0,8.8,230,8,,10.0,30.008858,,,TRUE,TRUE,,,,,,,CLR,,,,,,,,VFR,,,,,,,,,,,,METAR,327.0
KSNH 061515Z AUTO 26007KT 10SM CLR 20/09 A2984 RMK A01,KSNH,2017-05-06T15:15:00Z,35.17,-88.22,20.0,9.0,260,7,,10.0,29.840551,,,TRUE,TRUE,,,,,,,CLR,,,,,,,,VFR,,,,,,,,,,,,METAR,144.0
KSLR 061515Z AUTO 21006KT 10SM CLR 22/09 A3005 RMK AO2 T02190091,KSLR,2017-05-06T15:15:00Z,33.17,-95.62,21.9,9.1,210,6,,10.0,30.050198,,,TRUE,TRUE,,,,,,,CLR,,,,,,,,VFR,,,,,,,,,,,,METAR,149.0
KSJS 061515Z AUTO 30004KT 10SM SCT023 SCT032 OVC049 11/05 A2971 RMK AO2 T01050052,KSJS,2017-05-06T15:15:00Z,37.75,-82.63,10.5,5.2,300,4,,10.0,29.71063,,,TRUE,TRUE,,,,,,,SCT,2300,SCT,3200,OVC,4900,,,VFR,,,,,,,,,,,,METAR,372.0
KSFY 061515Z AUTO 36008KT 340V040 10SM SCT033 SCT042 15/06 A2988 RMK AO2 T01460064,KSFY,2017-05-06T15:15:00Z,42.05,-90.12,14.6,6.4,360,8,,10.0,29.878937,,,TRUE,TRUE,,,,,,,SCT,3300,SCT,4200,,,,,VFR,,,,,,,,,,,,METAR,188.0
KSFQ 061515Z AUTO 24009G18KT 10SM OVC027 16/11 A2952 RMK AO2 T01610108,KSFQ,2017-05-06T15:15:00Z,36.68,-76.6,16.1,10.8,240,9,18,10.0,29.518702,,,TRUE,TRUE,,,,,,,OVC,2700,,,,,,,MVFR,,,,,,,,,,,,METAR,22.0
KSEF 061515Z AUTO 32014G20KT 10SM CLR 24/07 A2996 RMK AO2 T02370066,KSEF,2017-05-06T15:15:00Z,,,23.7,6.6,320,14,20,10.0,29.958662,,,TRUE,TRUE,,,,,,,CLR,,,,,,,,VFR,,,,,,,,,,,,METAR,
KSCF 061515Z AUTO 00000KT 10SM CLR 23/10 A3006 RMK A01,KSCF,2017-05-06T15:15:00Z,29.12,-91.87,23.0,10.0,0,0,,10.0,30.059055,,,TRUE,TRUE,,,,,,,CLR,,,,,,,,VFR,,,,,,,,,,,,METAR,8.0
KSAA 061515Z AUTO 14014KT 10SM CLR 20/M02 A3004 RMK AO2,KSAA,2017-05-06T15:15:00Z,41.45,-106.83,20.0,-2.0,140,14,,10.0,30.041338,,,TRUE,TRUE,,,,,,,CLR,,,,,,,,VFR,,,,,,,,,,,,METAR,2138.0
KS39 061515Z AUTO 33012KT 10SM BKN070 BKN110 05/M02 A3002 RMK AO2,KS39,2017-05-06T15:15:00Z,44.28,-120.9,5.0,-2.0,330,12,,10.0,30.02067,,,TRUE,TRUE,,,,,,,BKN,7000,BKN,11000,,,,,VFR,,,,,,,,,,,,METAR,991.0
KRZR 061515Z AUTO 20008KT 10SM CLR 15/06 A2982 RMK A01,KRZR,2017-05-06T15:15:00Z,35.22,-84.8,15.0,6.0,200,8,,10.0,29.819881,,,TRUE,TRUE,,,,,,,CLR,,,,,,,,VFR,,,,,,,,,,,,METAR,263.0
KRYV 061515Z AUTO 02011G17KT 10SM CLR 11/04 A2987 RMK AO2 T01060040,KRYV,2017-05-06T15:15:00Z,43.17,-88.72,10.6,4.0,20,11,17,10.0,29.870079,,,TRUE,TRUE,,,,,,,CLR,,,,,,,,VFR,,,,,,,,,,,,METAR,254.0
KRTS 061515Z AUTO 33007KT 10SM CLR 09/03 A2975 RMK AO2,KRTS,2017-05-06T15:15:00Z,39.67,-119.88,9.0,3.0,330,7,,10.0,29.749016,,,TRUE,TRUE,,,,,,,CLR,,,,,,,,VFR,,,,,,,,,,,,METAR,1540.0
KRQO 061515Z AUTO 23010KT 10SM CLR 21/09 A3002 RMK AO2 T02110088,KRQO,2017-05-06T15:15:00Z,35.47,-98.0,21.1,8.8,230,10,,10.0,30.02067,,,TRUE,TRUE,,,,,,,CLR,,,,,,,,VFR,,,,,,,,,,,,METAR,432.0
KRNH 061515Z AUTO 06008KT 10SM CLR 14/03 A2999 RMK AO2 T01370030,KRNH,2017-05-06T15:15:00Z,45.15,-92.53,13.7,3.0,60,8,,10.0,29.991142,,,TRUE,TRUE,,,,,,,CLR,,,,,,,,VFR,,,,,,,,,,,,METAR,304.0
KRNC 061515Z AUTO 24009KT 10SM CLR 16/09 A2980 RMK,KRNC,2017-05-06T15:15:00Z,35.7,-85.85,16.0,9.0,240,9,,10.0,29.799213,,,TRUE,,,,,,,,CLR,,,,,,,,VFR,,,,,,,,,,,,METAR,315.0
KRMN 061515Z AUTO 26009G15KT 220V290 10SM SCT016 SCT050 OVC060 13/12 A2948 RMK AO2 T01300120,KRMN,2017-05-06T15:15:00Z,38.4,-77.45,13.0,12.0,260,9,15,10.0,29.480314,,,TRUE,TRUE,,,,,,,SCT,1600,SCT,5000,OVC,6000,,,VFR,,,,,,,,,,,,METAR,65.0
KRLD 061515Z AUTO 23005KT 10SM OVC110 12/01 A3002 RMK AO2 T01170014,KRLD,2017-05-06T15:15:00Z,46.3,-119.3,11.7,1.4,230,5,,10.0,30.02067,,,TRUE,TRUE,,,,,,,OVC,11000,,,,,,,VFR,,,,,,,,,,,,METAR,120.0
KRKR 061515Z AUTO 21007KT 10SM CLR 20/09 A3001 RMK AO2 T01950087,KRKR,2017-05-06T15:15:00Z,35.02,-94.62,19.5,8.7,210,7,,10.0,30.008858,,,TRUE,TRUE,,,,,,,CLR,,,,,,,,VFR,,,,,,,,,,,,METAR,138.0
KRFI 061515Z AUTO 24003KT 10SM CLR 22/10 A3005 RMK AO2 T02210098,KRFI,2017-05-06T15:15:00Z,32.15,-94.85,22.1,9.8,240,3,,10.0,30.050198,,,TRUE,TRUE,,,,,,,CLR,,,,,,,,VFR,,,,,,,,,,,,METAR,135.0
KREG 061515Z AUTO 18006KT 10SM CLR 22/11 A3003 RMK AO2 T02210107,KREG,2017-05-06T15:15:00Z,30.17,-90.93,22.1,10.7,180,6,,10.0,30.029528,,,TRUE,TRUE,,,,,,,CLR,,,,,,,,VFR,,,,,,,,,,,,METAR,4.0
KRCZ 061515Z AUTO 29011G19KT 10SM SCT037 SCT043 SCT060 15/07 A2963 RMK AO2 T01520072,KRCZ,2017-05-06T15:15:00Z,34.88,-79.77,15.2,7.2,290,11,19,10.0,29.630905,,,TRUE,TRUE,,,,,,,SCT,3700,SCT,4300,SCT,6000,,,VFR,,,,,,,,,,,,METAR,109.0
KRBW 061515Z AUTO 27012G18KT 10SM SCT038 17/07 A2976 RMK AO2,KRBW,2017-05-06T15:15:00Z,32.92,-80.63,17.0,7.0,270,12,18,10.0,29.760826,,,TRUE,TRUE,,,,,,,SCT,3800,,,,,,,VFR,,,,,,,,,,,,METAR,31.0
KRAS 061515Z AUTO 24004KT 10SM CLR 25/15 A3003 RMK AO2 T02450150,KRAS,2017-05-06T15:15:00Z,27.82,-97.08,24.5,15.0,240,4,,10.0,30.029528,,,TRUE,TRUE,,,,,,,CLR,,,,,,,,VFR,,,,,,,,,,,,METAR,2.0
KPXE 061515Z AUTO 30007G14KT 10SM CLR 18/06 A2988 RMK AO2 T01760063,KPXE,2017-05-06T15:15:00Z,32.52,-83.77,17.6,6.3,300,7,14,10.0,29.878937,,,TRUE,TRUE,,,,,,,CLR,,,,,,,,VFR,,,,,,,,,,,,METAR,127.0
KPVW 061515Z AUTO 20010G17KT 10SM CLR 22/03 A3002 RMK AO2 T02170032,KPVW,2017-05-06T15:15:00Z,34.17,-101.72,21.7,3.2,200,10,17,10.0,30.02067,,,TRUE,TRUE,,,,,,,CLR,,,,,,,,VFR,,,,,,,,,,,,METAR,1028.0
KPVE 061515Z AUTO 25012G17KT 10SM FEW110 19/09 A2981 RMK A01,KPVE,2017-05-06T15:15:00Z,35.65,-88.2,19.0,9.0,250,12,17,10.0,29.811024,,,TRUE,TRUE,,,,,,,FEW,11000,,,,,,,VFR,,,,,,,,,,,,METAR,149.0
KPTB 061515Z AUTO 27012G18KT 10SM BKN030 BKN037 OVC050 16/07 A2949 RMK AO2 T01550073 PWINO,KPTB,2017-05-06T15:15:00Z,37.17,-77.52,15.5,7.3,270,12,18,10.0,29.489174,,,TRUE,TRUE,,,,,TRUE,,BKN,3000,BKN,3700,OVC,5000,,,MVFR,,,,,,,,,,,,METAR,59.0
KPSK 061515Z AUTO 30012G21KT 10SM OVC032 09/00 A2961 RMK AO2 T00940003,KPSK,2017-05-06T15:15:00Z,37.12,-80.67,9.4,0.3,300,12,21,10.0,29.610237,,,TRUE,TRUE,,,,,,,OVC,3200,,,,,,,VFR,,,,,,,,,,,,METAR,642.0
KPRG 061515Z AUTO 01005KT 10SM BKN019 BKN025 OVC035 12/09 A2979 RMK AO2 T01150089,KPRG,2017-05-06T15:15:00Z,39.7,-87.67,11.5,8.9,10,5,,10.0,29.790354,,,TRUE,TRUE,,,,,,,BKN,1900,BKN,2500,OVC,3500,,,MVFR,,,,,,,,,,,,METAR,199.0
KPPQ 061515Z AUTO 03010G16KT 10SM CLR 15/09 A2984 RMK AO2 T01480087,KPPQ,2017-05-06T15:15:00Z,39.63,-90.78,14.8,8.7,30,10,16,10.0,29.840551,,,TRUE,TRUE,,,,,,,CLR,,,,,,,,VFR,,,,,,,,,,,,METAR,216.0
KPPA 061515Z AUTO 19014KT 10SM CLR 23/05 A3003 RMK AO2 T02330045,KPPA,2017-05-06T15:15:00Z,35.62,-101.0,23.3,4.5,190,14,,10.0,30.029528,,,TRUE,TRUE,,,,,,,CLR,,,,,,,,VFR,,,,,,,,,,,,METAR,989.0
KPOY 061515Z AUTO 15008KT 10SM CLR 18/02 A2982 RMK AO2,KPOY,2017-05-06T15:15:00Z,44.87,-108.8,18.0,2.0,150,8,,10.0,29.819881,,,TRUE,TRUE,,,,,,,CLR,,,,,,,,VFR,,,,,,,,,,,,METAR,1552.0
KPNT 061515Z AUTO 02012G16KT 10SM CLR 13/06 A2984 RMK AO2 T01260055,KPNT,2017-05-06T15:15:00Z,40.92,-88.62,12.6,5.5,20,12,16,10.0,29.840551,,,TRUE,TRUE,,,,,,,CLR,,,,,,,,VFR,,,,,,,,,,,,METAR,201.0
KPNA 061515Z AUTO 00000KT 10SM CLR 13/00 A3001 RMK AO2,KPNA,2017-05-06T15:15:00Z,42.8,-109.8,13.0,0.0,0,0,,10.0,30.008858,,,TRUE,TRUE,,,,,,,CLR,,,,,,,,VFR,,,,,,,,,,,,METAR,2160.0
KPMV 061515Z AUTO 06007KT 10SM CLR 21/01 A2995 RMK AO2 T02080014,KPMV,2017-05-06T15:15:00Z,40.95,-95.92,20.8,1.4,60,7,,10.0,29.949802,,,TRUE,TRUE,,,,,,,CLR,,,,,,,,VFR,,,,,,,,,,,,METAR,367.0
KPLU 061515Z AUTO 00000KT 10SM 07/06 A3015 RMK AO2,KPLU,2017-05-06T15:15:00Z,47.1,-122.28,7.0,6.0,0,0,,10.0,30.15059,,,TRUE,TRUE,,,,,,,,,,,,,,,,,,,,,,,,,,,METAR,164.0
KPEQ 061515Z AUTO 11006KT 10SM CLR 22/02 A2995 RMK AO2 T02230017,KPEQ,2017-05-06T15:15:00Z,31.38,-103.52,22.3,1.7,110,6,,10.0,29.949802,,,TRUE,TRUE,,,,,,,CLR,,,,,,,,VFR,,,,,,,,,,,,METAR,797.0
KPBX 061515Z AUTO 27011G15KT 10SM BKN026 BKN035 OVC046 10/05 A2971 RMK AO2 T00950051,KPBX,2017-05-06T15:15:00Z,37.57,-82.57,9.5,5.1,270,11,15,10.0,29.71063,,,TRUE,TRUE,,,,,,,BKN,2600,BKN,3500,OVC,4600,,,MVFR,,,,,,,,,,,,METAR,449.0
KOZA 061515Z 18014G24KT 10SM 23/02 A3005 RMK AO2,KOZA,2017-05-06T15:15:00Z,30.73,-101.2,23.0,2.0,180,14,24,10.0,30.050198,,,,TRUE,,,,,,,,,,,,,,,,,,,,,,,,,,,METAR,726.0
KOWI 061515Z AUTO 29013G20KT 10SM CLR 23/12 A2990 RMK AO2,KOWI,2017-05-06T15:15:00Z,38.53,-95.25,23.0,12.0,290,13,20,10.0,29.899607,,,TRUE,TRUE,,,,,,,CLR,,,,,,,,VFR,,,,,,,,,,,,METAR,292.0
KONM 061515Z AUTO 15010KT 10SM CLR 22/M04 A3002 RMK AO2 T02211040,KONM,2017-05-06T15:15:00Z,34.02,-106.9,22.1,-4.0,150,10,,10.0,30.02067,,,TRUE,TRUE,,,,,,,CLR,,,,,,,,VFR,,,,,,,,,,,,METAR,1410.0
KOKM 061515Z AUTO 24007KT 10SM CLR 21/09 A3001 RMK AO2 T02120091,KOKM,2017-05-06T15:15:00Z,35.67,-95.95,21.2,9.1,240,7,,10.0,30.008858,,,TRUE,TRUE,,,,,,,CLR,,,,,,,,VFR,,,,,,,,,,,,METAR,220.0
KOCW 061515Z AUTO 24013KT 10SM OVC025 15/10 A2957 RMK AO2 T01460102,KOCW,2017-05-06T15:15:00Z,35.57,-77.05,14.6,10.2,240,13,,10.0,29.568897,,,TRUE,TRUE,,,,,,,OVC,2500,,,,,,,MVFR,,,,,,,,,,,,METAR,12.0
KO86 061515Z AUTO 01011G22KT 350V060 10SM OVC060 09/00 A2986 RMK AO1,KO86,2017-05-06T15:15:00Z,40.98,-122.7,9.0,0.0,10,11,22,10.0,29.861221,,,TRUE,TRUE,,,,,,,OVC,6000,,,,,,,VFR,,,,,,,,,,,,METAR,729.0
KL35 061515Z AUTO 21004KT 10SM CLR 10/M06 A2986 RMK AO2,KL35,2017-05-06T15:15:00Z,34.27,-116.85,10.0,-6.0,210,4,,10.0,29.861221,,,TRUE,TRUE,,,,,,,CLR,,,,,,,,VFR,,,,,,,,,,,,METAR,2059.0
KJZP 061515Z AUTO 30010G17KT 10SM CLR 11/03 A2986 RMK AO2 T01120025,KJZP,2017-05-06T15:15:00Z,34.45,-84.47,11.2,2.5,300,10,17,10.0,29.861221,,,TRUE,TRUE,,,,,,,CLR,,,,,,,,VFR,,,,,,,,,,,,METAR,468.0
KJYR 061515Z AUTO 07007KT 10SM CLR 21/08 A2996 RMK AO2 TSNO,KJYR,2017-05-06T15:15:00Z,40.9,-97.62,21.0,8.0,70,7,,10.0,29.958662,,,TRUE,TRUE,,,TRUE,,,,CLR,,,,,,,,VFR,,,,,,,,,,,,METAR,509.0
KJYO 061515Z AUTO 29010KT 10SM BKN035 OVC065 13/10 A2943 RMK AO2,KJYO,2017-05-06T15:15:00Z,39.07,-77.57,13.0,10.0,290,10,,10.0,29.430119,,,TRUE,TRUE,,,,,,,BKN,3500,OVC,6500,,,,,VFR,,,,,,,,,,,,METAR,119.0
KJYL 061515Z AUTO 31015G19KT 10SM CLR A2980 RMK AO2,KJYL,2017-05-06T15:15:00Z,32.65,-81.6,,,310,15,19,10.0,29.799213,,,TRUE,TRUE,,,,,,,CLR,,,,,,,,VFR,,,,,,,,,,,,METAR,57.0
KJXI 061515Z AUTO 23004KT 10SM CLR 21/07 A3003 RMK AO2 T02110069,KJXI,2017-05-06T15:15:00Z,32.7,-94.95,21.1,6.9,230,4,,10.0,30.029528,,,TRUE,TRUE,,,,,,,CLR,,,,,,,,VFR,,,,,,,,,,,,METAR,127.0
KJTC 061515Z AUTO 13006KT 10SM CLR 20/M01 A3009 RMK AO2,KJTC,2017-05-06T15:15:00Z,34.13,-109.32,20.0,-1.0,130,6,,10.0,30.088583,,,TRUE,TRUE,,,,,,,CLR,,,,,,,,VFR,,,,,,,,,,,,METAR,2150.0
KJNX 061515Z AUTO 24004KT 10SM -DZ SCT025 SCT039 OVC050 15/10 A2958 RMK AO2,KJNX,2017-05-06T15:15:00Z,35.53,-78.38,15.0,10.0,240,4,,10.0,29.58071,,,TRUE,TRUE,,,,,,-DZ,SCT,2500,SCT,3900,OVC,5000,,,VFR,,,,,,,,,,,,METAR,50.0
KJGG 061515Z AUTO 24006G16KT 10SM SCT026 BKN036 OVC043 17/11 A2949 RMK AO1,KJGG,2017-05-06T15:15:00Z,37.23,-76.72,17.0,11.0,240,6,16,10.0,29.489174,,,TRUE,TRUE,,,,,,,SCT,2600,BKN,3600,OVC,4300,,,VFR,,,,,,,,,,,,METAR,15.0
KJFZ 061515Z AUTO 30012G16KT 270V330 10SM OVC017 07/03 A2968 RMK AO2 T00660033,KJFZ,2017-05-06T15:15:00Z,37.07,-81.8,6.6,3.3,300,12,16,10.0,29.681103,,,TRUE,TRUE,,,,,,,OVC,1700,,,,,,,MVFR,,,,,,,,,,,,METAR,809.0
KJCA 061515Z AUTO 29009G19KT 10SM CLR 15/07 A2979 RMK AO2,KJCA,2017-05-06T15:15:00Z,34.18,-83.57,15.0,7.0,290,9,19,10.0,29.790354,,,TRUE,TRUE,,,,,,,CLR,,,,,,,,VFR,,,,,,,,,,,,METAR,290.0
KJAU 061515Z AUTO VRB04KT 6SM HZ FEW046 08/06 A2984 RMK A01,KJAU,2017-05-06T15:15:00Z,36.33,-84.17,8.0,6.0,0,4,,6.0,29.840551,,,TRUE,TRUE,,,,,,HZ,FEW,4600,,,,,,,VFR,,,,,,,,,,,,METAR,360.0
KJAS 061515Z AUTO 00000KT 10SM CLR 22/12 A3005 RMK AO2 T02240122,KJAS,2017-05-06T15:15:00Z,30.88,-94.03,22.4,12.2,0,0,,10.0,30.050198,,,TRUE,TRUE,,,,,,,CLR,,,,,,,,VFR,,,,,,,,,,,,METAR,65.0
KIOB 061515Z AUTO 29005KT 10SM -RA SCT020 BKN038 OVC043 08/05 A2975 RMK AO2,KIOB,2017-05-06T15:15:00Z,38.05,-83.98,8.0,5.0,290,5,,10.0,29.749016,,,TRUE,TRUE,,,,,,-RA,SCT,2000,BKN,3800,OVC,4300,,,VFR,,,,,,,,,,,,METAR,311.0
KINF 061515Z AUTO 29007KT 200V320 7SM CLR 22/09 A2995 RMK AO2,KINF,2017-05-06T15:15:00Z,28.8,-82.32,22.0,9.0,290,7,,7.0,29.949802,,,TRUE,TRUE,,,,,,,CLR,,,,,,,,VFR,,,,,,,,,,,,METAR,15.0
KIMM 061515Z AUTO 33009G15KT 300V010 10SM CLR 23/11 A2996 RMK AO2,KIMM,2017-05-06T15:15:00Z,26.43,-81.4,23.0,11.0,330,9,15,10.0,29.958662,,,TRUE,TRUE,,,,,,,CLR,,,,,,,,VFR,,,,,,,,,,,,METAR,12.0
KIKT 061515Z AUTO VRB05G10KT 10SM CLR 25/04 A3004 RMK A01,KIKT,2017-05-06T15:15:00Z,28.52,-88.28,25.0,4.0,0,5,10,10.0,30.041338,,,TRUE,TRUE,,,,,,,CLR,,,,,,,,VFR,,,,,,,,,,,,METAR,25.0
KIJX 061515Z AUTO 08010KT 10SM SCT027 15/09 A2983 RMK AO2 T01460085,KIJX,2017-05-06T15:15:00Z,39.77,-90.25,14.6,8.5,80,10,,10.0,29.828741,,,TRUE,TRUE,,,,,,,SCT,2700,,,,,,,VFR,,,,,,,,,,,,METAR,190.0
KIFP 061515Z 17021G26KT 10SM CLR 30/00 A2959 RMK AO2,KIFP,2017-05-06T15:15:00Z,35.15,-114.57,30.0,0.0,170,21,26,10.0,29.589567,,,,TRUE,,,,,,,CLR,,,,,,,,VFR,,,,,,,,,,,,METAR,212.0
KI63 061515Z AUTO 08008G14KT 10SM CLR 14/08 A2985 RMK AO2 T01400081,KI63,2017-05-06T15:15:00Z,39.98,-90.8,14.0,8.1,80,8,14,10.0,29.84941,,,TRUE,TRUE,,,,,,,CLR,,,,,,,,VFR,,,,,,,,,,,,METAR,223.0
KI35 061515Z AUTO 23005KT 10SM OVC027 09/04 A2976 RMK AO1,KI35,2017-05-06T15:15:00Z,36.87,-83.37,9.0,4.0,230,5,,10.0,29.760826,,,TRUE,TRUE,,,,,,,OVC,2700,,,,,,,MVFR,,,,,,,,,,,,METAR,473.0
KI16 061515Z AUTO 10SM BKN022 OVC029 09/05 A2970 RMK AO2 T00890048,KI16,2017-05-06T15:15:00Z,37.6,-81.57,8.9,4.8,,,,10.0,29.698818,,,TRUE,TRUE,,,,,,,BKN,2200,OVC,2900,,,,,MVFR,,,,,,,,,,,,METAR,544.0
KHZD 061515Z AUTO 25012G17KT 10SM CLR 21/10 A2978 RMK A01,KHZD,2017-05-06T15:15:00Z,36.08,-88.47,21.0,10.0,250,12,17,10.0,29.778543,,,TRUE,TRUE,,,,,,,CLR,,,,,,,,VFR,,,,,,,,,,,,METAR,151.0
KHTH 061515Z AUTO 33012KT 10SM CLR 15/00 A2969 RMK A01,KHTH,2017-05-06T15:15:00Z,,,15.0,0.0,330,12,,10.0,29.68996,,,TRUE,TRUE,,,,,,,CLR,,,,,,,,VFR,,,,,,,,,,,,METAR,
KHSD 061515Z AUTO 22013KT 10SM CLR 22/08 A3000 RMK A01,KHSD,2017-05-06T15:15:00Z,35.6,-97.72,22.0,8.0,220,13,,10.0,30.0,,,TRUE,TRUE,,,,,,,CLR,,,,,,,,VFR,,,,,,,,,,,,METAR,364.0
KHRJ 061515Z AUTO 24006KT 10SM SCT021 BKN036 OVC060 15/11 A2959 RMK AO2 T01500105,KHRJ,2017-05-06T15:15:00Z,35.38,-78.73,15.0,10.5,240,6,,10.0,29.589567,,,TRUE,TRUE,,,,,,,SCT,2100,BKN,3600,OVC,6000,,,VFR,,,,,,,,,,,,METAR,60.0
KHQI 061515Z AUTO 00000KT 10SM OVC026 25/10 A3004 RMK A01,KHQI,2017-05-06T15:15:00Z,27.93,-93.67,25.0,10.0,0,0,,10.0,30.041338,,,TRUE,TRUE,,,,,,,OVC,2600,,,,,,,MVFR,,,,,,,,,,,,METAR,26.0
KHNZ 061515Z AUTO 28008G15KT 250V320 10SM SCT037 BKN043 OVC050 13/05 A2954 RMK AO2 T01280048,KHNZ,2017-05-06T15:15:00Z,36.37,-78.53,12.8,4.8,280,8,15,10.0,29.53937,,,TRUE,TRUE,,,,,,,SCT,3700,BKN,4300,OVC,5000,,,VFR,,,,,,,,,,,,METAR,161.0
KHMP 061515Z AUTO 33010G14KT 280V360 10SM CLR 16/08 A2987 RMK AO2 T01610081,KHMP,2017-05-06T15:15:00Z,33.38,-84.33,16.1,8.1,330,10,14,10.0,29.870079,,,TRUE,TRUE,,,,,,,CLR,,,,,,,,VFR,,,,,,,,,,,,METAR,269.0
KHLX 061515Z AUTO 31018G36KT 280V340 10SM BKN033 08/02 A2958 RMK AO2 T00840016,KHLX,2017-05-06T15:15:00Z,36.77,-80.82,8.4,1.6,310,18,36,10.0,29.58071,,,TRUE,TRUE,,,,,,,BKN,3300,,,,,,,VFR,,,,,,,,,,,,METAR,834.0
KHLB 061515Z AUTO VRB04G12KT 10SM SCT085 11/05 A2971 RMK A01,KHLB,2017-05-06T15:15:00Z,,,11.0,5.0,0,4,12,10.0,29.71063,,,TRUE,TRUE,,,,,,,SCT,8500,,,,,,,VFR,,,,,,,,,,,,METAR,
KHJH 061515Z AUTO 03007KT 10SM CLR 23/07 A2994 RMK AO2 T02310074,KHJH,2017-05-06T15:15:00Z,40.15,-97.58,23.1,7.4,30,7,,10.0,29.940945,,,TRUE,TRUE,,,,,,,CLR,,,,,,,,VFR,,,,,,,,,,,,METAR,447.0
KHHG 061515Z AUTO 31008KT 10SM SCT027 12/05 A2970 RMK AO2 T01200053,KHHG,2017-05-06T15:15:00Z,40.85,-85.45,12.0,5.3,310,8,,10.0,29.698818,,,TRUE,TRUE,,,,,,,SCT,2700,,,,,,,VFR,,,,,,,,,,,,METAR,246.0
KHDE 061515Z AUTO 00000KT 10SM CLR 23/06 A2995 RMK AO2 T02340060,KHDE,2017-05-06T15:15:00Z,40.45,-99.32,23.4,6.0,0,0,,10.0,29.949802,,,TRUE,TRUE,,,,,,,CLR,,,,,,,,VFR,,,,,,,,,,,,METAR,705.0
KEBG 061515Z AUTO 15008KT 10SM CLR 28/15 A3003 RMK AO2 T02800147,KEBG,2017-05-06T15:15:00Z,26.45,-98.13,28.0,14.7,150,8,,10.0,30.029528,,,TRUE,TRUE,,,,,,,CLR,,,,,,,,VFR,,,,,,,,,,,,METAR,24.0
KEBA 061515Z AUTO 29012G19KT 260V320 10SM CLR 17/07 A2979 RMK AO2 T01680069,KEBA,2017-05-06T15:15:00Z,34.1,-82.82,16.8,6.9,290,12,19,10.0,29.790354,,,TRUE,TRUE,,,,,,,CLR,,,,,,,,VFR,,,,,,,,,,,,METAR,184.0
KEAN 061515Z AUTO 10005KT 10SM CLR 18/06 A2991 RMK AO2 T01770064,KEAN,2017-05-06T15:15:00Z,42.05,-104.93,17.7,6.4,100,5,,10.0,29.911417,,,TRUE,TRUE,,,,,,,CLR,,,,,,,,VFR,,,,,,,,,,,,METAR,1456.0
KE38 061515Z AUTO 21005KT 10SM CLR 25/M01 A3011 RMK AO2 T02541013,KE38,2017-05-06T15:15:00Z,30.38,-103.68,25.4,-1.3,210,5,,10.0,30.109253,,,TRUE,TRUE,,,,,,,CLR,,,,,,,,VFR,,,,,,,,,,,,METAR,1376.0
KDWX 061515Z AUTO 13005KT 10SM A3002 RMK AO2,KDWX,2017-05-06T15:15:00Z,41.03,-107.5,,,130,5,,10.0,30.02067,,,TRUE,TRUE,,,,,,,,,,,,,,,,,,,,,,,,,,,METAR,1996.0
KDVO 061515Z AUTO 31012G19KT 10SM OVC075 13/04 A2981 RMK AO2,KDVO,2017-05-06T15:15:00Z,38.15,-122.55,13.0,4.0,310,12,19,10.0,29.811024,,,TRUE,TRUE,,,,,,,OVC,7500,,,,,,,VFR,,,,,,,,,,,,METAR,1.0
KDUB 061515Z AUTO 31006KT 10SM SCT110 12/00 A2999 RMK AO2,KDUB,2017-05-06T15:15:00Z,43.55,-109.68,12.0,0.0,310,6,,10.0,29.991142,,,TRUE,TRUE,,,,,,,SCT,11000,,,,,,,VFR,,,,,,,,,,,,METAR,2224.0
KDTA 061515Z AUTO 00000KT 10SM CLR 19/00 A2979 RMK AO1,KDTA,2017-05-06T15:15:00Z,39.38,-112.5,19.0,0.0,0,0,,10.0,29.790354,,,TRUE,TRUE,,,,,,,CLR,,,,,,,,VFR,,,,,,,,,,,,METAR,1402.0
KDPL 061515Z AUTO 22005KT 10SM BKN022 OVC030 14/10 A2960 RMK AO2,KDPL,2017-05-06T15:15:00Z,35.0,-77.97,14.0,10.0,220,5,,10.0,29.601377,,,TRUE,TRUE,,,,,,,BKN,2200,OVC,3000,,,,,MVFR,,,,,,,,,,,,METAR,42.0
KDKX 061515Z AUTO 26008KT 6SM BR SCT018 BKN023 BKN029 10/08 A2982 RMK A01,KDKX,2017-05-06T15:15:00Z,35.97,-83.87,10.0,8.0,260,8,,6.0,29.819881,,,TRUE,TRUE,,,,,,BR,SCT,1800,BKN,2300,BKN,2900,,,MVFR,,,,,,,,,,,,METAR,254.0
KDCM 061515Z AUTO 31008G15KT 180V010 7SM SCT045 SCT050 15/02 A2969 RMK AO2,KDCM,2017-05-06T15:15:00Z,34.78,-81.2,15.0,2.0,310,8,15,7.0,29.68996,,,TRUE,TRUE,,,,,,,SCT,4500,SCT,5000,,,,,VFR,,,,,,,,,,,,METAR,200.0
KCZL 061515Z AUTO 31009G20KT 10SM CLR 17/01 A2985 RMK AO2 T01660014,KCZL,2017-05-06T15:15:00Z,34.47,-84.93,16.6,1.4,310,9,20,10.0,29.84941,,,TRUE,TRUE,,,,,,,CLR,,,,,,,,VFR,,,,,,,,,,,,METAR,195.0
KCXW 061515Z AUTO 25007KT 10SM 20/11 A2996 RMK A01,KCXW,2017-05-06T15:15:00Z,35.02,-92.55,20.0,11.0,250,7,,10.0,29.958662,,,TRUE,TRUE,,,,,,,,,,,,,,,,,,,,,,,,,,,METAR,84.0
KCXU 061515Z AUTO 33007G14KT 270V350 10SM CLR 20/06 A2994 RMK AO2 T02020064,KCXU,2017-05-06T15:15:00Z,31.22,-84.23,20.2,6.4,330,7,14,10.0,29.940945,,,TRUE,TRUE,,,,,,,CLR,,,,,,,,VFR,,,,,,,,,,,,METAR,53.0
KCXE 061515Z AUTO 26009G21KT 210V300 10SM BKN041 15/04 A2952 RMK AO1 T01470042,KCXE,2017-05-06T15:15:00Z,36.78,-78.5,14.7,4.2,260,9,21,10.0,29.518702,,,TRUE,TRUE,,,,,,,BKN,4100,,,,,,,VFR,,,,,,,,,,,,METAR,153.0
KCWV 061515Z AUTO 26015G20KT 10SM CLR 17/09 A2982 RMK AO2 T01730094,KCWV,2017-05-06T15:15:00Z,32.2,-81.87,17.3,9.4,260,15,20,10.0,29.819881,,,TRUE,TRUE,,,,,,,CLR,,,,,,,,VFR,,,,,,,,,,,,METAR,33.0
KCUH 061515Z AUTO 22007KT 10SM CLR 21/10 A3000 RMK AO2 T02120096,KCUH,2017-05-06T15:15:00Z,35.95,-96.77,21.2,9.6,220,7,,10.0,30.0,,,TRUE,TRUE,,,,,,,CLR,,,,,,,,VFR,,,,,,,,,,,,METAR,279.0
KCRX 061515Z AUTO 27011G18KT 10SM CLR 21/08 A2987 RMK AO2,KCRX,2017-05-06T15:15:00Z,34.92,-88.6,21.0,8.0,270,11,18,10.0,29.870079,,,TRUE,TRUE,,,,,,,CLR,,,,,,,,VFR,,,,,,,,,,,,METAR,130.0
KCPK 061515Z AUTO 21011G17KT 10SM BKN030 OVC036 17/11 A2950 RMK AO2 T01720105,KCPK,2017-05-06T15:15:00Z,36.67,-76.32,17.2,10.5,210,11,17,10.0,29.500984,,,TRUE,TRUE,,,,,,,BKN,3000,OVC,3600,,,,,MVFR,,,,,,,,,,,,METAR,6.0
KCOM 061515Z AUTO 21009KT 10SM CLR 22/05 A3004 RMK AO2 T02210050,KCOM,2017-05-06T15:15:00Z,31.83,-99.4,22.1,5.0,210,9,,10.0,30.041338,,,TRUE,TRUE,,,,,,,CLR,,,,,,,,VFR,,,,,,,,,,,,METAR,517.0
KCKZ 061515Z AUTO 19007KT 150V220 10SM BKN030 BKN034 OVC042 15/10 A2938 RMK AO2,KCKZ,2017-05-06T15:15:00Z,40.38,-75.28,15.0,10.0,190,7,,10.0,29.379921,,,TRUE,TRUE,,,,,,,BKN,3000,BKN,3400,OVC,4200,,,MVFR,,,,,,,,,,,,METAR,173.0
KCFD 061515Z AUTO 00000KT 10SM CLR 23/09 A3006 RMK AO2 T02310088,KCFD,2017-05-06T15:15:00Z,30.72,-96.33,23.1,8.8,0,0,,10.0,30.059055,,,TRUE,TRUE,,,,,,,CLR,,,,,,,,VFR,,,,,,,,,,,,METAR,112.0
KC09 061515Z AUTO 36008KT 10SM CLR 12/05 A2982 RMK AO2 T01200054,KC09,2017-05-06T15:15:00Z,41.43,-88.42,12.0,5.4,360,8,,10.0,29.819881,,,TRUE,TRUE,,,,,,,CLR,,,,,,,,VFR,,,,,,,,,,,,METAR,178.0
KBVS 061515Z AUTO 00000KT 10SM FEW015 09/06 A3014 RMK A01,KBVS,2017-05-06T15:15:00Z,48.47,-122.42,9.0,6.0,0,0,,10.0,30.138779,,,TRUE,TRUE,,,,,,,FEW,1500,,,,,,,VFR,,,,,,,,,,,,METAR,43.0
KBVN 061515Z AUTO 10006KT 10SM CLR 21/06 A2997 RMK AO2 T02110060,KBVN,2017-05-06T15:15:00Z,41.73,-98.05,21.1,6.0,100,6,,10.0,29.970472,,,TRUE,TRUE,,,,,,,CLR,,,,,,,,VFR,,,,,,,,,,,,METAR,551.0
KBTA 061515Z AUTO 07007KT 7SM CLR 20/05 A2996 RMK AO2 T01970053,KBTA,2017-05-06T15:15:00Z,41.42,-96.12,19.7,5.3,70,7,,7.0,29.958662,,,TRUE,TRUE,,,,,,,CLR,,,,,,,,VFR,,,,,,,,,,,,METAR,396.0
KBQX 061515Z AUTO 23009KT 10SM CLR 24/24 A3004 RMK A01,KBQX,2017-05-06T15:15:00Z,28.5,-95.72,24.0,24.0,230,9,,10.0,30.041338,,,TRUE,TRUE,,,,,,,CLR,,,,,,,,VFR,,,,,,,,,,,,METAR,34.0
KBKD 061515Z AUTO 21009KT 7SM CLR 25/06 A3002 RMK AO2 T02500059,KBKD,2017-05-06T15:15:00Z,32.72,-98.88,25.0,5.9,210,9,,7.0,30.02067,,,TRUE,TRUE,,,,,,,CLR,,,,,,,,VFR,,,,,,,,,,,,METAR,392.0
KBIJ 061515Z AUTO 30007G14KT 10SM CLR 20/06 A2995 RMK AO2,KBIJ,2017-05-06T15:15:00Z,31.4,-84.9,20.0,6.0,300,7,14,10.0,29.949802,,,TRUE,TRUE,,,,,,,CLR,,,,,,,,VFR,,,,,,,,,,,,METAR,65.0
KBDG 061515Z AUTO 05007KT 10SM SCT120 18/M02 A3005 RMK AO1 T01801017,KBDG,2017-05-06T15:15:00Z,37.58,-109.47,18.0,-1.7,50,7,,10.0,30.050198,,,TRUE,TRUE,,,,,,,SCT,12000,,,,,,,VFR,,,,,,,,,,,,METAR,1788.0
KBBF 061515Z AUTO 24004KT 8SM 24/11 A3002 RMK A01,KBBF,2017-05-06T15:15:00Z,27.83,-96.02,24.0,11.0,240,4,,8.0,30.02067,,,TRUE,TRUE,,,,,,,,,,,,,,,,,,,,,,,,,,,METAR,36.0
KAZC 061515Z AUTO 13015G21KT 10SM SCT100 SCT120 22/01 A2989 RMK AO2,KAZC,2017-05-06T15:15:00Z,36.97,-113.02,22.0,1.0,130,15,21,10.0,29.890747,,,TRUE,TRUE,,,,,,,SCT,10000,SCT,12000,,,,,VFR,,,,,,,,,,,,METAR,1486.0
KAXX 061515Z AUTO 00000KT 10SM CLR 10/02 A3023 RMK AO2 T01020020,KAXX,2017-05-06T15:15:00Z,36.42,-105.28,10.2,2.0,0,0,,10.0,30.230314,,,TRUE,TRUE,,,,,,,CLR,,,,,,,,VFR,,,,,,,,,,,,METAR,2548.0
KAVK 061515Z AUTO 27007KT 10SM CLR 21/10 A2999 RMK AO2,KAVK,2017-05-06T15:15:00Z,36.77,-98.67,21.0,10.0,270,7,,10.0,29.991142,,,TRUE,TRUE,,,,,,,CLR,,,,,,,,VFR,,,,,,,,,,,,METAR,449.0
KAUH 061515Z AUTO 07009KT 10SM CLR 22/06 A2996 RMK AO2 T02180056,KAUH,2017-05-06T15:15:00Z,40.88,-98.0,21.8,5.6,70,9,,10.0,29.958662,,,TRUE,TRUE,,,,,,,CLR,,,,,,,,VFR,,,,,,,,,,,,METAR,550.0
KATP 061515Z AUTO VRB03KT 10SM FEW060 23/09 A3004 RMK A01,KATP,2017-05-06T15:15:00Z,27.2,-90.03,23.0,9.0,0,3,,10.0,30.041338,,,TRUE,TRUE,,,,,,,FEW,6000,,,,,,,VFR,,,,,,,,,,,,METAR,62.0
KASL 061515Z AUTO 20003KT 10SM CLR 21/07 A3005 RMK AO1 T02110070,KASL,2017-05-06T15:15:00Z,32.52,-94.3,21.1,7.0,200,3,,10.0,30.050198,,,TRUE,TRUE,,,,,,,CLR,,,,,,,,VFR,,,,,,,,,,,,METAR,109.0
KASJ 061515Z AUTO 00000KT 10SM 16/11 A2953 RMK AO2 T01560107,KASJ,2017-05-06T15:15:00Z,36.28,-77.17,15.6,10.7,0,0,,10.0,29.530512,,,TRUE,TRUE,,,,,,,,,,,,,,,,,,,,,,,,,,,METAR,21.0
KACP 061515Z AUTO 00000KT 10SM CLR 22/09 A3003 RMK AO2 T02200091,KACP,2017-05-06T15:15:00Z,30.75,-92.68,22.0,9.1,0,0,,10.0,30.029528,,,TRUE,TRUE,,,,,,,CLR,,,,,,,,VFR,,,,,,,,,,,,METAR,33.0
K9V9 061515Z AUTO 12007KT 10SM CLR 23/04 A2996 RMK AO2 T02250039,K9V9,2017-05-06T15:15:00Z,43.77,-99.32,22.5,3.9,120,7,,10.0,29.958662,,,TRUE,TRUE,,,,,,,CLR,,,,,,,,VFR,,,,,,,,,,,,METAR,519.0
K82C 061515Z AUTO 35009G15KT 7SM CLR 11/02 A2992 RMK AO2 T01140016,K82C,2017-05-06T15:15:00Z,43.83,-90.13,11.4,1.6,350,9,15,7.0,29.920275,,,TRUE,TRUE,,,,,,,CLR,,,,,,,,VFR,,,,,,,,,,,,METAR,276.0
K7W6 061515Z AUTO 24016G25KT 10SM CLR 18/11 A2955 RMK AO2 T01770107,K7W6,2017-05-06T15:15:00Z,35.37,-75.95,17.7,10.7,240,16,25,10.0,29.551182,,,TRUE,TRUE,,,,,,,CLR,,,,,,,,VFR,,,,,,,,,,,,METAR,2.0
K6S0 061515Z AUTO 25010KT 10SM CLR 17/06 A2981 RMK A01,K6S0,2017-05-06T15:15:00Z,,,17.0,6.0,250,10,,10.0,29.811024,,,TRUE,TRUE,,,,,,,CLR,,,,,,,,VFR,,,,,,,,,,,,METAR,
K6A1 061515Z AUTO 34009G14KT 10SM 19/09 A2990 RMK AO2 T01860085,K6A1,2017-05-06T15:15:00Z,32.57,-84.25,18.6,8.5,340,9,14,10.0,29.899607,,,TRUE,TRUE,,,,,,,,,,,,,,,,,,,,,,,,,,,METAR,203.0
K66R 061515Z AUTO 23003KT 10SM CLR 23/11 A3005 RMK AO2 T02260111,K66R,2017-05-06T15:15:00Z,29.65,-96.52,22.6,11.1,230,3,,10.0,30.050198,,,TRUE,TRUE,,,,,,,CLR,,,,,,,,VFR,,,,,,,,,,,,METAR,74.0
K65S 061515Z AUTO 21005KT 180V250 8SM OVC037 08/06 A2985 RMK AO2,K65S,2017-05-06T15:15:00Z,48.73,-116.3,8.0,6.0,210,5,,8.0,29.84941,,,TRUE,TRUE,,,,,,,OVC,3700,,,,,,,VFR,,,,,,,,,,,,METAR,713.0
K5C1 061515Z AUTO 21012G16KT 10SM CLR 21/11 A3007 RMK AO1,K5C1,2017-05-06T15:15:00Z,29.72,-98.7,21.0,11.0,210,12,16,10.0,30.070866,,,TRUE,TRUE,,,,,,,CLR,,,,,,,,VFR,,,,,,,,,,,,METAR,423.0
K57C 061515Z AUTO 35011G17KT 10SM CLR 11/02 A2984 RMK AO2 T01110023,K57C,2017-05-06T15:15:00Z,42.8,-88.37,11.1,2.3,350,11,17,10.0,29.840551,,,TRUE,TRUE,,,,,,,CLR,,,,,,,,VFR,,,,,,,,,,,,METAR,262.0
K4R5 061515Z AUTO 02007KT 10SM OVC110 07/00 A3005 RMK AO2 T00730000,K4R5,2017-05-06T15:15:00Z,46.78,-90.77,7.3,0.0,20,7,,10.0,30.050198,,,TRUE,TRUE,,,,,,,OVC,11000,,,,,,,VFR,,,,,,,,,,,,METAR,198.0
K3S8 061515Z AUTO 35005G13KT 10SM BKN110 08/M00 A3013 RMK AO2,K3S8,2017-05-06T15:15:00Z,,,8.0,0.0,350,5,13,10.0,30.129921,,,TRUE,TRUE,,,,,,,BKN,11000,,,,,,,VFR,,,,,,,,,,,,METAR,
K3N8 061515Z AUTO 02009KT 10SM CLR 17/00 A2999 RMK AO2 T01721003,K3N8,2017-05-06T15:15:00Z,47.25,-95.88,17.2,-0.3,20,9,,10.0,29.991142,,,TRUE,TRUE,,,,,,,CLR,,,,,,,,VFR,,,,,,,,,,,,METAR,383.0
K3L4 061515Z AUTO 00000KT 10SM CLR 23/11 A3003 RMK A01,K3L4,2017-05-06T15:15:00Z,29.8,-92.8,23.0,11.0,0,0,,10.0,30.029528,,,TRUE,TRUE,,,,,,,CLR,,,,,,,,VFR,,,,,,,,,,,,METAR,2.0
K3F3 061515Z AUTO 00000KT 10SM CLR 22/08 A3006 RMK AO2 T02240084 PWINO,K3F3,2017-05-06T15:15:00Z,32.07,-93.77,22.4,8.4,0,0,,10.0,30.059055,,,TRUE,TRUE,,,,,TRUE,,CLR,,,,,,,,VFR,,,,,,,,,,,,METAR,96.0
K3D2 061515Z AUTO 01010G17KT 10SM CLR 08/02 A2986 RMK AO2 T00750015,K3D2,2017-05-06T15:15:00Z,45.13,-87.18,7.5,1.5,10,10,17,10.0,29.861221,,,TRUE,TRUE,,,,,,,CLR,,,,,,,,VFR,,,,,,,,,,,,METAR,234.0
K2P2 061515Z AUTO 36013G17KT 10SM BKN110 09/00 A2986 RMK AO2 T00861001,K2P2,2017-05-06T15:15:00Z,45.38,-86.92,8.6,-0.1,360,13,17,10.0,29.861221,,,TRUE,TRUE,,,,,,,BKN,11000,,,,,,,VFR,,,,,,,,,,,,METAR,199.0
K2G9 061515Z AUTO 28013G19KT 10SM OVC009 04/02 A2944 RMK AO2,K2G9,2017-05-06T15:15:00Z,40.03,-79.02,4.0,2.0,280,13,19,10.0,29.438976,,,TRUE,TRUE,,,,,,,OVC,900,,,,,,,IFR,,,,,,,,,,,,METAR,693.0
K2A0 061515Z AUTO 28007G13KT 10SM BKN110 15/03 A2981 RMK A01,K2A0,2017-05-06T15:15:00Z,35.48,-84.93,15.0,3.0,280,7,13,10.0,29.811024,,,TRUE,TRUE,,,,,,,BKN,11000,,,,,,,VFR,,,,,,,,,,,,METAR,219.0
K24A 061515Z AUTO 31014G19KT 280V340 10SM CLR 11/00 A2977 RMK AO2 T01060002,K24A,2017-05-06T15:15:00Z,35.32,-83.2,10.6,0.2,310,14,19,10.0,29.769686,,,TRUE,TRUE,,,,,,,CLR,,,,,,,,VFR,,,,,,,,,,,,METAR,871.0
K1M5 061515Z AUTO 17007KT 9SM SCT065 11/09 A2974 RMK A01,K1M5,2017-05-06T15:15:00Z,36.6,-86.48,11.0,9.0,170,7,,9.0,29.740158,,,TRUE,TRUE,,,,,,,SCT,6500,,,,,,,VFR,,,,,,,,,,,,METAR,250.0
K1H2 061515Z AUTO 05008KT 10SM CLR 14/09 A2979 RMK AO2 T01430090,K1H2,2017-05-06T15:15:00Z,39.07,-88.53,14.3,9.0,50,8,,10.0,29.790354,,,TRUE,TRUE,,,,,,,CLR,,,,,,,,VFR,,,,,,,,,,,,METAR,179.0
K1A6 061515Z AUTO 25004KT 10SM -RA SCT025 BKN030 OVC049 09/06 A2979 RMK AO2 P0001 T00940055,K1A6,2017-05-06T15:15:00Z,36.62,-83.73,9.4,5.5,250,4,,10.0,29.790354,,,TRUE,TRUE,,,,,,-RA,SCT,2500,BKN,3000,OVC,4900,,,MVFR,,,,,,0.01,,,,,,METAR,352.0
K19S 061515Z AUTO 23007KT 10SM CLR 20/08 A3000 RMK AO2 T01960085,K19S,2017-05-06T15:15:00Z,37.48,-100.83,19.6,8.5,230,7,,10.0,30.0,,,TRUE,TRUE,,,,,,,CLR,,,,,,,,VFR,,,,,,,,,,,,METAR,886.0
K18H 061515Z AUTO 00000KT 10SM CLR 24/10 A3005 RMK A01,K18H,2017-05-06T15:15:00Z,,,24.0,10.0,0,0,,10.0,30.050198,,,TRUE,TRUE,,,,,,,CLR,,,,,,,,VFR,,,,,,,,,,,,METAR,
K11R 061515Z AUTO 24005KT 10SM CLR 24/09 A3005 RMK AO2 T02400092,K11R,2017-05-06T15:15:00Z,30.22,-96.37,24.0,9.2,240,5,,10.0,30.050198,,,TRUE,TRUE,,,,,,,CLR,,,,,,,,VFR,,,,,,,,,,,,METAR,94.0
K0V4 061515Z AUTO 28011G20KT 10SM BKN038 OVC050 14/04 A2952 RMK AO1 T01410041,K0V4,2017-05-06T15:15:00Z,37.15,-79.02,14.1,4.1,280,11,20,10.0,29.518702,,,TRUE,TRUE,,,,,,,BKN,3800,OVC,5000,,,,,VFR,,,,,,,,,,,,METAR,182.0
K0R0 061515Z AUTO VRB04KT 10SM CLR 21/M39 A3004 RMK AO2,K0R0,2017-05-06T15:15:00Z,31.3,-89.82,21.0,-39.0,0,4,,10.0,30.041338,,,TRUE,TRUE,,,,,,,CLR,,,,,,,,VFR,,,,,,,,,,,,METAR,81.0
K0F2 061515Z AUTO 21008KT 10SM CLR 23/08 A3002 RMK AO2 T02310077,K0F2,2017-05-06T15:15:00Z,33.6,-97.78,23.1,7.7,210,8,,10.0,30.02067,,,TRUE,TRUE,,,,,,,CLR,,,,,,,,VFR,,,,,,,,,,,,METAR,336.0
K0E0 061515Z AUTO 19003KT 10SM CLR 18/00 A3011 RMK AO2 T01820002,K0E0,2017-05-06T15:15:00Z,34.98,-106.0,18.2,0.2,190,3,,10.0,30.109253,,,TRUE,TRUE,,,,,,,CLR,,,,,,,,VFR,,,,,,,,,,,,METAR,1890.0
K0A9 061515Z AUTO 26007G12KT 230V300 10SM -DZ FEW027 SCT032 BKN041 11/06 A2972 RMK AO2,K0A9,2017-05-06T15:15:00Z,36.37,-82.17,11.0,6.0,260,7,12,10.0,29.719488,,,TRUE,TRUE,,,,,,-DZ,FEW,2700,SCT,3200,BKN,4100,,,VFR,,,,,,,,,,,,METAR,486.0
K05U 061515Z AUTO 12008KT 10SM BKN100 19/M03 A2975 RMK A01,K05U,2017-05-06T15:15:00Z,39.6,-116.0,19.0,-3.0,120,8,,10.0,29.749016,,,TRUE,TRUE,,,,,,,BKN,10000,,,,,,,VFR,,,,,,,,,,,,METAR,1816.0
KGZS 061515Z AUTO 23009G16KT 10SM CLR 18/09 A2983 RMK A01,KGZS,2017-05-06T15:15:00Z,35.15,-87.05,18.0,9.0,230,9,16,10.0,29.828741,,,TRUE,TRUE,,,,,,,CLR,,,,,,,,VFR,,,,,,,,,,,,METAR,209.0
KGUL 061515Z AUTO 27004KT 10SM CLR 23/12 A3006 RMK A01,KGUL,2017-05-06T15:15:00Z,27.3,-93.53,23.0,12.0,270,4,,10.0,30.059055,,,TRUE,TRUE,,,,,,,CLR,,,,,,,,VFR,,,,,,,,,,,,METAR,30.0
KGRY 061515Z AUTO 00000KT 10SM CLR 24/08 A3005 RMK A01,KGRY,2017-05-06T15:15:00Z,27.63,-90.45,24.0,8.0,0,0,,10.0,30.050198,,,TRUE,TRUE,,,,,,,CLR,,,,,,,,VFR,,,,,,,,,,,,METAR,58.0
KGHG 061515Z AUTO 15013G20KT 130V190 10SM SCT006 BKN043 SCT100 15/15 A2955 RMK AO2,KGHG,2017-05-06T15:15:00Z,42.1,-70.67,15.0,15.0,150,13,20,10.0,29.551182,,,TRUE,TRUE,,,,,,,SCT,600,BKN,4300,SCT,10000,,,VFR,,,,,,,,,,,,METAR,4.0
KGHB 061515Z AUTO 00000KT 10SM SCT065 25/09 A3004 RMK A01,KGHB,2017-05-06T15:15:00Z,27.83,-91.98,25.0,9.0,0,0,,10.0,30.041338,,,TRUE,TRUE,,,,,,,SCT,6500,,,,,,,VFR,,,,,,,,,,,,METAR,30.0
KGGP 061515Z AUTO 35014KT 10SM CLR 12/04 A2975 RMK AO2,KGGP,2017-05-06T15:15:00Z,40.72,-86.37,12.0,4.0,350,14,,10.0,29.749016,,,TRUE,TRUE,,,,,,,CLR,,,,,,,,VFR,,,,,,,,,,,,METAR,225.0
KGBK 061515Z AUTO 00000KT 10SM CLR 26/11 A3006 RMK A01,KGBK,2017-05-06T15:15:00Z,27.2,-92.2,26.0,11.0,0,0,,10.0,30.059055,,,TRUE,TRUE,,,,,,,CLR,,,,,,,,VFR,,,,,,,,,,,,METAR,59.0
KGBG 061515Z AUTO 02012G16KT 10SM SCT033 BKN047 BKN055 14/07 A2986 RMK AO2 T01400071,KGBG,2017-05-06T15:15:00Z,40.93,-90.43,14.0,7.1,20,12,16,10.0,29.861221,,,TRUE,TRUE,,,,,,,SCT,3300,BKN,4700,BKN,5500,,,VFR,,,,,,,,,,,,METAR,233.0
KFYM 061515Z AUTO 23010KT CLR 17/07 A2983 RMK A01,KFYM,2017-05-06T15:15:00Z,35.07,-86.57,17.0,7.0,230,10,,,29.828741,,,TRUE,TRUE,,,,,,,CLR,,,,,,,,,,,,,,,,,,,,METAR,300.0
KFYE 061515Z AUTO 25009G15KT 10SM CLR 21/09 A2987 RMK A01,KFYE,2017-05-06T15:15:00Z,35.2,-89.38,21.0,9.0,250,9,15,10.0,29.870079,,,TRUE,TRUE,,,,,,,CLR,,,,,,,,VFR,,,,,,,,,,,,METAR,133.0
KFVX 061515Z AUTO 26005G15KT 10SM BKN041 BKN070 OVC085 16/07 A2948 RMK AO2 T01620069,KFVX,2017-05-06T15:15:00Z,37.35,-78.42,16.2,6.9,260,5,15,10.0,29.480314,,,TRUE,TRUE,,,,,,,BKN,4100,BKN,7000,OVC,8500,,,VFR,,,,,,,,,,,,METAR,125.0
KFTN 061515Z AUTO 15010G18KT 10SM CLR 26/13 A3001 RMK A01,KFTN,2017-05-06T15:15:00Z,28.22,-100.02,26.0,13.0,150,10,18,10.0,30.008858,,,TRUE,TRUE,,,,,,,CLR,,,,,,,,VFR,,,,,,,,,,,,METAR,236.0
KFOT 061515Z AUTO 34015G24KT 10SM SCT030 09/04 A2998 RMK AO1,KFOT,2017-05-06T15:15:00Z,40.55,-124.13,9.0,4.0,340,15,24,10.0,29.97933,,,TRUE,TRUE,,,,,,,SCT,3000,,,,,,,VFR,,,,,,,,,,,,METAR,120.0
KFFA 061515Z AUTO 23011G18KT 10SM CLR 19/08 A2952 RMK AO2 T01850081,KFFA,2017-05-06T15:15:00Z,36.02,-75.67,18.5,8.1,230,11,18,10.0,29.518702,,,TRUE,TRUE,,,,,,,CLR,,,,,,,,VFR,,,,,,,,,,,,METAR,4.0
KFCH 061515Z AUTO 32014G19KT 10SM CLR 12/03 A2981 RMK A01,KFCH,2017-05-06T15:15:00Z,36.72,-119.82,12.0,3.0,320,14,19,10.0,29.811024,,,TRUE,TRUE,,,,,,,CLR,,,,,,,,VFR,,,,,,,,,,,,METAR,85.0
KF70 061515Z AUTO 19007KT 10SM SCT015 OVC023 13/10 A2984 RMK AO1,KF70,2017-05-06T15:15:00Z,33.57,-117.13,13.0,10.0,190,7,,10.0,29.840551,,,TRUE,TRUE,,,,,,,SCT,1500,OVC,2300,,,,,MVFR,,,,,,,,,,,,METAR,412.0
KF17 061515Z AUTO 00000KT 10SM CLR 23/11 A3005 RMK AO2 T02310107,KF17,2017-05-06T15:15:00Z,31.83,-94.15,23.1,10.7,0,0,,10.0,30.050198,,,TRUE,TRUE,,,,,,,CLR,,,,,,,,VFR,,,,,,,,,,,,METAR,97.0
KEZF 061515Z AUTO 24009KT 220V280 10SM -RA SCT020 BKN047 BKN055 14/12 A2944 RMK AO2 T01360118,KEZF,2017-05-06T15:15:00Z,38.27,-77.45,13.6,11.8,240,9,,10.0,29.438976,,,TRUE,TRUE,,,,,,-RA,SCT,2000,BKN,4700,BKN,5500,,,VFR,,,,,,,,,,,,METAR,26.0
KEXX 061515Z AUTO 28007G16KT 240V010 10SM BKN042 BKN048 BKN065 14/05 A2961 RMK AO2 T01400052,KEXX,2017-05-06T15:15:00Z,35.78,-80.3,14.0,5.2,280,7,16,10.0,29.610237,,,TRUE,TRUE,,,,,,,BKN,4200,BKN,4800,BKN,6500,,,VFR,,,,,,,,,,,,METAR,223.0
KETN 061515Z AUTO 16009KT 10SM CLR 23/07 A3003 RMK AO2 T02270070,KETN,2017-05-06T15:15:00Z,,,22.7,7.0,160,9,,10.0,30.029528,,,TRUE,TRUE,,,,,,,CLR,,,,,,,,VFR,,,,,,,,,,,,METAR,
KENL 061515Z AUTO 36008KT 10SM CLR 16/10 A2975 RMK AO2 T01550101,KENL,2017-05-06T15:15:00Z,38.52,-89.1,15.5,10.1,360,8,,10.0,29.749016,,,TRUE,TRUE,,,,,,,CLR,,,,,,,,VFR,,,,,,,,,,,,METAR,163.0
KEMV 061515Z AUTO 21012G16KT 180V250 BKN030 BKN034 OVC045 15/10 A2951 RMK AO2 PWINO,KEMV,2017-05-06T15:15:00Z,36.68,-77.48,15.0,10.0,210,12,16,,29.509842,,,TRUE,TRUE,,,,,TRUE,,BKN,3000,BKN,3400,OVC,4500,,,,,,,,,,,,,,,METAR,39.0
KEMK 061515Z AUTO 23004KT 10SM CLR 24/12 A3005 RMK A01,KEMK,2017-05-06T15:15:00Z,27.82,-94.32,24.0,12.0,230,4,,10.0,30.050198,,,TRUE,TRUE,,,,,,,CLR,,,,,,,,VFR,,,,,,,,,,,,METAR,26.0
KELA 061515Z AUTO 24005KT 10SM CLR 24/10 A3004 RMK AO2 T02430095,KELA,2017-05-06T15:15:00Z,29.6,-96.32,24.3,9.5,240,5,,10.0,30.041338,,,TRUE,TRUE,,,,,,,CLR,,,,,,,,VFR,,,,,,,,,,,,METAR,56.0
KEKS 061515Z AUTO 26007KT 10SM CLR 15/06 A2988 RMK A01,KEKS,2017-05-06T15:15:00Z,45.27,-111.65,15.0,6.0,260,7,,10.0,29.878937,,,TRUE,TRUE,,,,,,,CLR,,,,,,,,VFR,,,,,,,,,,,,METAR,1641.0
KEIR 061515Z AUTO 20005KT 10SM CLR 23/09 A3006 RMK A01,KEIR,2017-05-06T15:15:00Z,28.63,-91.48,23.0,9.0,200,5,,10.0,30.059055,,,TRUE,TRUE,,,,,,,CLR,,,,,,,,VFR,,,,,,,,,,,,METAR,28.0
KEHO 061515Z AUTO 29013G17KT 10SM CLR 15/03 A2968 RMK AO2 T01470025,KEHO,2017-05-06T15:15:00Z,35.25,-81.6,14.7,2.5,290,13,17,10.0,29.681103,,,TRUE,TRUE,,,,,,,CLR,,,,,,,,VFR,,,,,,,,,,,,METAR,258.0
KEHC 061515Z AUTO 26003KT 10SM CLR 23/09 A3004 RMK A01,KEHC,2017-05-06T15:15:00Z,28.43,-92.88,23.0,9.0,260,3,,10.0,30.041338,,,TRUE,TRUE,,,,,,,CLR,,,,,,,,VFR,,,,,,,,,,,,METAR,31.0
KEFT 061515Z AUTO 01015G20KT 10SM SCT023 SCT031 12/06 A2988 RMK AO2,KEFT,2017-05-06T15:15:00Z,42.62,-89.6,12.0,6.0,10,15,20,10.0,29.878937,,,TRUE,TRUE,,,,,,,SCT,2300,SCT,3100,,,,,VFR,,,,,,,,,,,,METAR,331.0
KEDU 061515Z AUTO 33005KT 10SM BKN036 12/08 A2977 RMK AO1,KEDU,2017-05-06T15:15:00Z,38.53,-121.78,12.0,8.0,330,5,,10.0,29.769686,,,TRUE,TRUE,,,,,,,BKN,3600,,,,,,,VFR,,,,,,,,,,,,METAR,21.0
KEDE 061515Z AUTO 22010KT 10SM BKN026 BKN031 OVC038 17/11 A2955 RMK AO2 P0001 T01680108,KEDE,2017-05-06T15:15:00Z,36.02,-76.57,16.8,10.8,220,10,,10.0,29.551182,,,TRUE,TRUE,,,,,,,BKN,2600,BKN,3100,OVC,3800,,,MVFR,,,,,,0.01,,,,,,METAR,6.0
KECU 061515Z AUTO 19010G17KT 10SM CLR 22/10 A3008 RMK AO2,KECU,2017-05-06T15:15:00Z,29.95,-100.17,22.0,10.0,190,10,17,10.0,30.079725,,,TRUE,TRUE,,,,,,,CLR,,,,,,,,VFR,,,,,,,,,,,,METAR,725.0
KY23 061515Z AUTO 33005KT 10SM CLR 12/06 A2999 RMK AO2 T01220056,KY23,2017-05-06T15:15:00Z,45.3,-91.63,12.2,5.6,330,5,,10.0,29.991142,,,TRUE,TRUE,,,,,,,CLR,,,,,,,,VFR,,,,,,,,,,,,METAR,322.0
KXPY 061515Z AUTO 13006KT 10SM CLR 23/07 RMK A01,KXPY,2017-05-06T15:15:00Z,29.12,-90.2,23.0,7.0,130,6,,10.0,,,,TRUE,TRUE,,,,,,,CLR,,,,,,,,VFR,,,,,,,,,,,,METAR,2.0
KXIH 061515Z AUTO 00000KT 10SM CLR 27/09 A3003 RMK A01,KXIH,2017-05-06T15:15:00Z,29.18,-94.52,27.0,9.0,0,0,,10.0,30.029528,,,TRUE,TRUE,,,,,,,CLR,,,,,,,,VFR,,,,,,,,,,,,METAR,75.0
KWDR 061515Z AUTO 31019G23KT 10SM CLR 16/05 A2984 RMK AO1,KWDR,2017-05-06T15:15:00Z,33.98,-83.67,16.0,5.0,310,19,23,10.0,29.840551,,,TRUE,TRUE,,,,,,,CLR,,,,,,,,VFR,,,,,,,,,,,,METAR,287.0
KW78 061515Z AUTO 27007G16KT 10SM OVC044 14/04 A2955 RMK AO1 T01410041,KW78,2017-05-06T15:15:00Z,36.68,-78.85,14.1,4.1,270,7,16,10.0,29.551182,,,TRUE,TRUE,,,,,,,OVC,4400,,,,,,,VFR,,,,,,,,,,,,METAR,129.0
KW31 061515Z AUTO 26005G20KT 10SM OVC039 14/07 A2950 RMK AO1 T01410071,KW31,2017-05-06T15:15:00Z,36.95,-78.18,14.1,7.1,260,5,20,10.0,29.500984,,,TRUE,TRUE,,,,,,,OVC,3900,,,,,,,VFR,,,,,,,,,,,,METAR,162.0
KVYS 061515Z AUTO 01011KT 10SM CLR 12/04 A2986 RMK AO2 T01200039,KVYS,2017-05-06T15:15:00Z,41.35,-89.15,12.0,3.9,10,11,,10.0,29.861221,,,TRUE,TRUE,,,,,,,CLR,,,,,,,,VFR,,,,,,,,,,,,METAR,199.0
KVQT 061515Z AUTO 00000KT 10SM CLR 25/09 A3005 RMK A01,KVQT,2017-05-06T15:15:00Z,28.27,-92.27,25.0,9.0,0,0,,10.0,30.050198,,,TRUE,TRUE,,,,,,,CLR,,,,,,,,VFR,,,,,,,,,,,,METAR,25.0
KVOA 061515Z AUTO 36004KT 5SM HZ FEW003 20/04 A3002 RMK A01,KVOA,2017-05-06T15:15:00Z,29.23,-87.78,20.0,4.0,360,4,,5.0,30.02067,,,TRUE,TRUE,,,,,,HZ,FEW,300,,,,,,,MVFR,,,,,,,,,,,,METAR,53.0
KVKY 061515Z AUTO 35005KT 2 1/2SM HZ CLR 21/05 A3005 RMK A01,KVKY,2017-05-06T15:15:00Z,29.25,-88.43,21.0,5.0,350,5,,2.5,30.050198,,,TRUE,TRUE,,,,,,HZ,CLR,,,,,,,,IFR,,,,,,,,,,,,METAR,32.0
KVKS 061515Z AUTO 21007KT 10SM CLR 21/13 A2999 RMK A01,KVKS,2017-05-06T15:15:00Z,32.23,-90.93,21.0,13.0,210,7,,10.0,29.991142,,,TRUE,TRUE,,,,,,,CLR,,,,,,,,VFR,,,,,,,,,,,,METAR,32.0
KVBS 061515Z AUTO 00000KT 10SM CLR 23/14 A3003 RMK A01,KVBS,2017-05-06T15:15:00Z,29.48,-93.63,23.0,14.0,0,0,,10.0,30.029528,,,TRUE,TRUE,,,,,,,CLR,,,,,,,,VFR,,,,,,,,,,,,METAR,31.0
KUXL 061515Z AUTO 29003KT 10SM CLR 23/11 A3004 RMK AO2 T02330111,KUXL,2017-05-06T15:15:00Z,30.13,-93.38,23.3,11.1,290,3,,10.0,30.041338,,,TRUE,TRUE,,,,,,,CLR,,,,,,,,VFR,,,,,,,,,,,,METAR,4.0
KUVA 061515Z AUTO 18005KT 10SM CLR 22/13 A3005 RMK AO2 T02200129,KUVA,2017-05-06T15:15:00Z,29.22,-99.75,22.0,12.9,180,5,,10.0,30.050198,,,TRUE,TRUE,,,,,,,CLR,,,,,,,,VFR,,,,,,,,,,,,METAR,287.0
KUSE 061515Z AUTO 35013KT 10SM CLR 13/05 A2964 RMK AO2,KUSE,2017-05-06T15:15:00Z,41.62,-84.13,13.0,5.0,350,13,,10.0,29.639763,,,TRUE,TRUE,,,,,,,CLR,,,,,,,,VFR,,,,,,,,,,,,METAR,238.0
KUNU 061515Z AUTO 34011G17KT 10SM CLR 10/04 A2989 RMK AO2 T00990035,KUNU,2017-05-06T15:15:00Z,43.42,-88.7,9.9,3.5,340,11,17,10.0,29.890747,,,TRUE,TRUE,,,,,,,CLR,,,,,,,,VFR,,,,,,,,,,,,METAR,285.0
KO69 061515Z AUTO 26011KT 9SM OVC075 11/06 A2981 RMK A01,KO69,2017-05-06T15:15:00Z,38.25,-122.6,11.0,6.0,260,11,,9.0,29.811024,,,TRUE,TRUE,,,,,,,OVC,7500,,,,,,,VFR,,,,,,,,,,,,METAR,28.0
KNOW 061515Z AUTO 29012KT 10SM CLR 09/03 A3014 RMK AO2 T00900029,KNOW,2017-05-06T15:15:00Z,48.13,-123.4,9.0,2.9,290,12,,10.0,30.138779,,,TRUE,TRUE,,,,,,,CLR,,,,,,,,VFR,,,,,,,,,,,,METAR,4.0
KN38 061515Z AUTO 28003KT 4SM -DZ OVC005 10/09 A2930 RMK AO2,KN38,2017-05-06T15:15:00Z,41.73,-77.4,10.0,9.0,280,3,,4.0,29.300198,,,TRUE,TRUE,,,,,,-DZ,OVC,500,,,,,,,IFR,,,,,,,,,,,,METAR,577.0
KMZG 061515Z AUTO 22005KT 10SM CLR 24/12 A3003 RMK A01,KMZG,2017-05-06T15:15:00Z,27.73,-96.18,24.0,12.0,220,5,,10.0,30.029528,,,TRUE,TRUE,,,,,,,CLR,,,,,,,,VFR,,,,,,,,,,,,METAR,29.0
KMWO 061515Z AUTO 21003KT 10SM SCT044 SCT055 BKN120 13/06 A2971 RMK AO2 T01250055,KMWO,2017-05-06T15:15:00Z,39.53,-84.4,12.5,5.5,210,3,,10.0,29.71063,,,TRUE,TRUE,,,,,,,SCT,4400,SCT,5500,BKN,12000,,,VFR,,,,,,,,,,,,METAR,198.0
KMWK 061515Z AUTO 30010G18KT 260V320 10SM CLR 13/04 A2962 RMK AO2 T01260043,KMWK,2017-05-06T15:15:00Z,36.47,-80.55,12.6,4.3,300,10,18,10.0,29.619095,,,TRUE,TRUE,,,,,,,CLR,,,,,,,,VFR,,,,,,,,,,,,METAR,380.0
KMVH 061515Z AUTO 26006KT 10SM CLR 21/07 A2980 RMK AO2,KMVH,2017-05-06T15:15:00Z,46.83,-108.93,21.0,7.0,260,6,,10.0,29.799213,,,TRUE,TRUE,,,,,,,CLR,,,,,,,,VFR,,,,,,,,,,,,METAR,1355.0
KMTV 061515Z AUTO 31005KT 10SM SCT033 OVC044 12/04 A2961 RMK AO2 T01190043,KMTV,2017-05-06T15:15:00Z,36.63,-80.02,11.9,4.3,310,5,,10.0,29.610237,,,TRUE,TRUE,,,,,,,SCT,3300,OVC,4400,,,,,VFR,,,,,,,,,,,,METAR,287.0
KMQS 061515Z AUTO 18007KT 9SM OVC014 13/11 A2939 RMK AO2,KMQS,2017-05-06T15:15:00Z,39.98,-75.87,13.0,11.0,180,7,,9.0,29.388779,,,TRUE,TRUE,,,,,,,OVC,1400,,,,,,,MVFR,,,,,,,,,,,,METAR,201.0
KMOR 061515Z AUTO 26008G16KT 10SM FEW017 BKN025 OVC031 10/06 A2977 RMK A01,KMOR,2017-05-06T15:15:00Z,36.18,-83.37,10.0,6.0,260,8,16,10.0,29.769686,,,TRUE,TRUE,,,,,,,FEW,1700,BKN,2500,OVC,3100,,,MVFR,,,,,,,,,,,,METAR,400.0
KMNV 061515Z AUTO 22006KT 10SM SCT055 SCT110 13/07 A2983 RMK A01,KMNV,2017-05-06T15:15:00Z,35.55,-84.38,13.0,7.0,220,6,,10.0,29.828741,,,TRUE,TRUE,,,,,,,SCT,5500,SCT,11000,,,,,VFR,,,,,,,,,,,,METAR,314.0
KMMH 061515Z AUTO 10004KT 10SM CLR 10/M01 A2977 RMK AO2 T01031007,KMMH,2017-05-06T15:15:00Z,37.62,-118.82,10.3,-0.7,100,4,,10.0,29.769686,,,TRUE,TRUE,,,,,,,CLR,,,,,,,,VFR,,,,,,,,,,,,METAR,2173.0
KMLJ 061515Z AUTO 30015G19KT 10SM CLR 16/08 A2984 RMK AO2,KMLJ,2017-05-06T15:15:00Z,33.15,-83.23,16.0,8.0,300,15,19,10.0,29.840551,,,TRUE,TRUE,,,,,,,CLR,,,,,,,,VFR,,,,,,,,,,,,METAR,117.0
KMLE 061515Z AUTO 09004KT 10SM CLR 21/06 A2996 RMK AO2 T02120058,KMLE,2017-05-06T15:15:00Z,41.2,-96.12,21.2,5.8,90,4,,10.0,29.958662,,,TRUE,TRUE,,,,,,,CLR,,,,,,,,VFR,,,,,,,,,,,,METAR,320.0
KMKS 061515Z AUTO 25011G15KT 220V290 7SM BKN036 BKN045 BKN060 16/07 A2972 RMK AO2,KMKS,2017-05-06T15:15:00Z,33.18,-80.03,16.0,7.0,250,11,15,7.0,29.719488,,,TRUE,TRUE,,,,,,,BKN,3600,BKN,4500,BKN,6000,,,VFR,,,,,,,,,,,,METAR,23.0
KMKJ 061515Z AUTO 28016G29KT 10SM BKN027 OVC033 09/03 A2965 RMK AO2 T00850028,KMKJ,2017-05-06T15:15:00Z,36.88,-81.33,8.5,2.8,280,16,29,10.0,29.648623,,,TRUE,TRUE,,,,,,,BKN,2700,OVC,3300,,,,,MVFR,,,,,,,,,,,,METAR,780.0
KMIS 061515Z AUTO 34005KT 10SM CLR 22/08 A3005 RMK A01,KMIS,2017-05-06T15:15:00Z,29.3,-88.85,22.0,8.0,340,5,,10.0,30.050198,,,TRUE,TRUE,,,,,,,CLR,,,,,,,,VFR,,,,,,,,,,,,METAR,32.0
KMHL 061515Z AUTO 32009KT 10SM CLR 21/10 A2990 RMK AO2,KMHL,2017-05-06T15:15:00Z,39.1,-93.2,21.0,10.0,320,9,,10.0,29.899607,,,TRUE,TRUE,,,,,,,CLR,,,,,,,,VFR,,,,,,,,,,,,METAR,237.0
KMFV 061515Z AUTO 21014G20KT 10SM BKN023 BKN032 OVC042 17/M12 A2947 RMK AO2 T01711123,KMFV,2017-05-06T15:15:00Z,37.63,-75.77,17.1,-12.3,210,14,20,10.0,29.471457,,,TRUE,TRUE,,,,,,,BKN,2300,BKN,3200,OVC,4200,,,MVFR,,,,,,,,,,,,METAR,15.0
KMEV 061515Z AUTO 03007KT 10SM FEW080 12/03 A2972 RMK AO2,KMEV,2017-05-06T15:15:00Z,38.98,-119.75,12.0,3.0,30,7,,10.0,29.719488,,,TRUE,TRUE,,,,,,,FEW,8000,,,,,,,VFR,,,,,,,,,,,,METAR,1439.0
KMDJ 061515Z AUTO 11004KT 10SM CLR 21/05 A3006 RMK A01,KMDJ,2017-05-06T15:15:00Z,28.65,-89.8,21.0,5.0,110,4,,10.0,30.059055,,,TRUE,TRUE,,,,,,,CLR,,,,,,,,VFR,,,,,,,,,,,,METAR,31.0
KMDD 061515Z AUTO 16014G17KT 10SM CLR 25/03 A3001 RMK AO2 T02450028,KMDD,2017-05-06T15:15:00Z,32.03,-102.1,24.5,2.8,160,14,17,10.0,30.008858,,,TRUE,TRUE,,,,,,,CLR,,,,,,,,VFR,,,,,,,,,,,,METAR,854.0
KMCC 061515Z AUTO 12010KT 10SM CLR 11/05 A2978 RMK AO2,KMCC,2017-05-06T15:15:00Z,38.67,-121.4,11.0,5.0,120,10,,10.0,29.778543,,,TRUE,TRUE,,,,,,,CLR,,,,,,,,VFR,,,,,,,,,,,,SPECI,23.0
KM91 061515Z AUTO 18011KT 9SM FEW040 SCT075 BKN085 13/09 A2972 RMK A01,KM91,2017-05-06T15:15:00Z,36.53,-86.92,13.0,9.0,180,11,,9.0,29.719488,,,TRUE,TRUE,,,,,,,FEW,4000,SCT,7500,BKN,8500,,,VFR,,,,,,,,,,,,METAR,215.0
KM75 061515Z AUTO 07006KT 10SM CLR 18/09 A2968 RMK A01,KM75,2017-05-06T15:15:00Z,48.37,-107.92,18.0,9.0,70,6,,10.0,29.681103,,,TRUE,TRUE,,,,,,,CLR,,,,,,,,VFR,,,,,,,,,,,,METAR,687.0
KM33 061515Z AUTO 07004KT 9SM BKN070 11/09 A2980 RMK A01,KM33,2017-05-06T15:15:00Z,36.38,-86.42,11.0,9.0,70,4,,9.0,29.799213,,,TRUE,TRUE,,,,,,,BKN,7000,,,,,,,VFR,,,,,,,,,,,,METAR,178.0
KM08 061515Z AUTO 26013G18KT 10SM CLR 21/09 A2986 RMK A01,KM08,2017-05-06T15:15:00Z,35.22,-89.05,21.0,9.0,260,13,18,10.0,29.861221,,,TRUE,TRUE,,,,,,,CLR,,,,,,,,VFR,,,,,,,,,,,,METAR,152.0
KM04 061515Z AUTO 28011G17KT 250V310 10SM CLR 21/10 A2986 RMK A01,KM04,2017-05-06T15:15:00Z,35.58,-89.58,21.0,10.0,280,11,17,10.0,29.861221,,,TRUE,TRUE,,,,,,,CLR,,,,,,,,VFR,,,,,,,,,,,,METAR,85.0
KLVL 061515Z AUTO 10SM SCT043 OVC050 16/08 A2950 RMK AO1 T01600076,KLVL,2017-05-06T15:15:00Z,36.78,-77.8,16.0,7.6,,,,10.0,29.500984,,,TRUE,TRUE,,,,,,,SCT,4300,OVC,5000,,,,,VFR,,,,,,,,,,,,METAR,100.0
KLUD 061515Z AUTO 21006KT 10SM CLR 22/08 A3003 RMK AO2 T02160078,KLUD,2017-05-06T15:15:00Z,33.25,-97.58,21.6,7.8,210,6,,10.0,30.029528,,,TRUE,TRUE,,,,,,,CLR,,,,,,,,VFR,,,,,,,,,,,,METAR,319.0
KLNN 061515Z AUTO 30014G23KT 10SM OVC011 06/05 A2954 RMK AO1 T00610053,KLNN,2017-05-06T15:15:00Z,41.67,-81.37,6.1,5.3,300,14,23,10.0,29.53937,,,TRUE,TRUE,,,,,,,OVC,1100,,,,,,,MVFR,,,,,,,,,,,,METAR,191.0
KLKU 061515Z AUTO 27009G16KT 10SM SCT050 BKN065 16/11 A2945 RMK AO2,KLKU,2017-05-06T15:15:00Z,38.02,-77.97,16.0,11.0,270,9,16,10.0,29.450787,,,TRUE,TRUE,,,,,,,SCT,5000,BKN,6500,,,,,VFR,,,,,,,,,,,,METAR,150.0
KLHZ 061515Z AUTO 25006KT 7SM SCT031 BKN040 OVC046 13/08 A2958 RMK AO2,KLHZ,2017-05-06T15:15:00Z,36.02,-78.33,13.0,8.0,250,6,,7.0,29.58071,,,TRUE,TRUE,,,,,,,SCT,3100,BKN,4000,OVC,4600,,,VFR,,,,,,,,,,,,METAR,113.0
KLGC 061515Z AUTO 30009G16KT 10SM CLR 17/09 A2990 RMK AO2 T01740087,KLGC,2017-05-06T15:15:00Z,33.0,-85.07,17.4,8.7,300,9,16,10.0,29.899607,,,TRUE,TRUE,,,,,,,CLR,,,,,,,,VFR,,,,,,,,,,,,METAR,211.0
KLCQ 061515Z AUTO 30015G20KT 10SM CLR 18/03 A2991 RMK AO2,KLCQ,2017-05-06T15:15:00Z,30.18,-82.58,18.0,3.0,300,15,20,10.0,29.911417,,,TRUE,TRUE,,,,,,,CLR,,,,,,,,VFR,,,,,,,,,,,,METAR,61.0
KLCK 061515Z AUTO 30008KT 10SM SCT034 BKN039 BKN047 12/05 A2963 RMK AO2 T01180050,KLCK,2017-05-06T15:15:00Z,39.82,-82.92,11.8,5.0,300,8,,10.0,29.630905,,,TRUE,TRUE,,,,,,,SCT,3400,BKN,3900,BKN,4700,,,VFR,,,,,,,,,,,,METAR,227.0
KRPX 061515Z AUTO 18005KT 10SM 18/08 A2968 ,KRPX,2017-05-06T15:15:00Z,46.47,-108.55,18.0,8.0,180,5,,10.0,29.681103,,,TRUE,,,,,,,,,,,,,,,,,,,,,,,,,,,,METAR,1065.0
KHRX 061515Z AUTO 18005KT 10SM CLR 19/06 A3005 RMK AO2 T01930060,KHRX,2017-05-06T15:15:00Z,34.87,-102.33,19.3,6.0,180,5,,10.0,30.050198,,,TRUE,TRUE,,,,,,,CLR,,,,,,,,VFR,,,,,,,,,,,,METAR,1154.0
KHOE 061515Z AUTO 31015G23KT 10SM CLR 19/07 A2990 RMK AO2,KHOE,2017-05-06T15:15:00Z,31.05,-82.78,19.0,7.0,310,15,23,10.0,29.899607,,,TRUE,TRUE,,,,,,,CLR,,,,,,,,VFR,,,,,,,,,,,,METAR,57.0
KHHW 061515Z AUTO 25005KT 10SM CLR 21/09 A3002 RMK AO2 T02120086,KHHW,2017-05-06T15:15:00Z,34.03,-95.55,21.2,8.6,250,5,,10.0,30.02067,,,TRUE,TRUE,,,,,,,CLR,,,,,,,,VFR,,,,,,,,,,,,METAR,144.0
KHHF 061515Z AUTO 00000KT 10SM CLR 21/09 A3000 RMK AO2 T02110090,KHHF,2017-05-06T15:15:00Z,35.9,-100.4,21.1,9.0,0,0,,10.0,30.0,,,TRUE,TRUE,,,,,,,CLR,,,,,,,,VFR,,,,,,,,,,,,METAR,712.0
KHFY 061515Z AUTO 34012G18KT 290V360 10SM CLR 13/00 A2974 RMK AO2 T01301004,KHFY,2017-05-06T15:15:00Z,39.63,-86.08,13.0,-0.4,340,12,18,10.0,29.740158,,,TRUE,TRUE,,,,,,,CLR,,,,,,,,VFR,,,,,,,,,,,,METAR,251.0
KHDC 061515Z AUTO 25004KT 10SM CLR 22/05 A3003 RMK AO2,KHDC,2017-05-06T15:15:00Z,30.52,-90.42,22.0,5.0,250,4,,10.0,30.029528,,,TRUE,TRUE,,,,,,,CLR,,,,,,,,VFR,,,,,,,,,,,,METAR,13.0
KHBE 061515Z AUTO 29009KT 10SM SCT065 BKN080 OVC090 12/04 A2974 RMK AO2,KHBE,2017-05-06T15:15:00Z,39.33,-86.03,12.0,4.0,290,9,,10.0,29.740158,,,TRUE,TRUE,,,,,,,SCT,6500,BKN,8000,OVC,9000,,,VFR,,,,,,,,,,,,METAR,215.0
KGYB 061515Z AUTO 23006KT 10SM CLR 23/11 A3005 RMK AO2 T02260113,KGYB,2017-05-06T15:15:00Z,30.17,-96.98,22.6,11.3,230,6,,10.0,30.050198,,,TRUE,TRUE,,,,,,,CLR,,,,,,,,VFR,,,,,,,,,,,,METAR,148.0
KGWB 061515Z AUTO 32009G14KT 10SM SCT031 12/03 A2969 RMK AO2,KGWB,2017-05-06T15:15:00Z,41.3,-85.07,12.0,3.0,320,9,14,10.0,29.68996,,,TRUE,TRUE,,,,,,,SCT,3100,,,,,,,VFR,,,,,,,,,,,,METAR,269.0
KGVE 061515Z AUTO 25004KT 10SM OVC060 11/09 A2946 RMK AO1 T01100092,KGVE,2017-05-06T15:15:00Z,38.15,-78.17,11.0,9.2,250,4,,10.0,29.459646,,,TRUE,TRUE,,,,,,,OVC,6000,,,,,,,VFR,,,,,,,,,,,,METAR,138.0
KGRN 061515Z AUTO 13005KT 10SM CLR 19/08 A2992 RMK AO2 T01920081,KGRN,2017-05-06T15:15:00Z,,,19.2,8.1,130,5,,10.0,29.920275,,,TRUE,TRUE,,,,,,,CLR,,,,,,,,VFR,,,,,,,,,,,,METAR,
KGMJ 061515Z AUTO 24009KT 10SM CLR 20/10 A3000 RMK AO2,KGMJ,2017-05-06T15:15:00Z,36.6,-94.73,20.0,10.0,240,9,,10.0,30.0,,,TRUE,TRUE,,,,,,,CLR,,,,,,,,VFR,,,,,,,,,,,,METAR,254.0
KGIC 061515Z AUTO 36007KT 2 1/2SM BKN006 OVC011 05/04 A2995 RMK AO1,KGIC,2017-05-06T15:15:00Z,45.95,-116.12,5.0,4.0,360,7,,2.5,29.949802,,,TRUE,TRUE,,,,,,,BKN,600,OVC,1100,,,,,IFR,,,,,,,,,,,,METAR,1009.0
KGDJ 061515Z AUTO 16005KT 10SM CLR 25/07 A3003 RMK AO2 T02450070,KGDJ,2017-05-06T15:15:00Z,32.45,-97.82,24.5,7.0,160,5,,10.0,30.029528,,,TRUE,TRUE,,,,,,,CLR,,,,,,,,VFR,,,,,,,,,,,,METAR,237.0
KGCM 061515Z AUTO 25007KT 10SM CLR 20/10 A3000 RMK AO2,KGCM,2017-05-06T15:15:00Z,36.3,-95.48,20.0,10.0,250,7,,10.0,30.0,,,TRUE,TRUE,,,,,,,CLR,,,,,,,,VFR,,,,,,,,,,,,METAR,221.0
KGAO 061515Z AUTO 19003KT 10SM CLR 23/06 A3004 RMK AO2 T02260061,KGAO,2017-05-06T15:15:00Z,29.45,-90.27,22.6,6.1,190,3,,10.0,30.041338,,,TRUE,TRUE,,,,,,,CLR,,,,,,,,VFR,,,,,,,,,,,,METAR,1.0
KFWZ 061515Z AUTO 22003KT 10SM CLR 15/M03 A3002 RMK AO2,KFWZ,2017-05-06T15:15:00Z,42.52,-108.78,15.0,-3.0,220,3,,10.0,30.02067,,,TRUE,TRUE,,,,,,,CLR,,,,,,,,VFR,,,,,,,,,,,,METAR,2588.0
KFWC 061515Z AUTO 06009KT 10SM CLR 13/08 A2976 RMK AO1 T01320077,KFWC,2017-05-06T15:15:00Z,38.38,-88.42,13.2,7.7,60,9,,10.0,29.760826,,,TRUE,TRUE,,,,,,,CLR,,,,,,,,VFR,,,,,,,,,,,,METAR,133.0
KFSO 061515Z AUTO 24005KT 10SM SCT026 SCT037 SCT085 15/12 A2940 RMK AO2 T01470124,KFSO,2017-05-06T15:15:00Z,44.93,-73.1,14.7,12.4,240,5,,10.0,29.40059,,,TRUE,TRUE,,,,,,,SCT,2600,SCT,3700,SCT,8500,,,VFR,,,,,,,,,,,,METAR,70.0
KFOA 061515Z AUTO 06010KT 10SM BKN016 13/09 A2978 RMK AO2 T01310090,KFOA,2017-05-06T15:15:00Z,38.67,-88.45,13.1,9.0,60,10,,10.0,29.778543,,,TRUE,TRUE,,,,,,,BKN,1600,,,,,,,MVFR,,,,,,,,,,,,METAR,144.0
KFKS 061515Z AUTO 34009KT 320V020 10SM CLR 08/01 A2981 RMK AO2 T00800010,KFKS,2017-05-06T15:15:00Z,44.63,-86.2,8.0,1.0,340,9,,10.0,29.811024,,,TRUE,TRUE,,,,,,,CLR,,,,,,,,VFR,,,,,,,,,,,,METAR,193.0
KFKR 061515Z AUTO 33010G16KT 10SM CLR 13/05 A2976 RMK AO2 T01270049,KFKR,2017-05-06T15:15:00Z,40.27,-86.57,12.7,4.9,330,10,16,10.0,29.760826,,,TRUE,TRUE,,,,,,,CLR,,,,,,,,VFR,,,,,,,,,,,,METAR,262.0
KFET 061515Z AUTO 07004KT 10SM CLR 20/06 A2997 RMK AO2 T01960057,KFET,2017-05-06T15:15:00Z,41.45,-96.52,19.6,5.7,70,4,,10.0,29.970472,,,TRUE,TRUE,,,,,,,CLR,,,,,,,,VFR,,,,,,,,,,,,METAR,367.0
KFEP 061515Z AUTO 36013G19KT 10SM SCT024 11/06 A2989 RMK AO2 T01110058,KFEP,2017-05-06T15:15:00Z,42.25,-89.58,11.1,5.8,360,13,19,10.0,29.890747,,,TRUE,TRUE,,,,,,,SCT,2400,,,,,,,VFR,,,,,,,,,,,,METAR,262.0
KFBR 061515Z AUTO 31003KT 10SM OVC110 11/03 A3001 RMK AO2 T01140028,KFBR,2017-05-06T15:15:00Z,41.4,-110.4,11.4,2.8,310,3,,10.0,30.008858,,,TRUE,TRUE,,,,,,,OVC,11000,,,,,,,VFR,,,,,,,,,,,,METAR,2144.0
KF46 061515Z AUTO 23007KT 10SM CLR 22/08 A3004 RMK AO2 T02170084,KF46,2017-05-06T15:15:00Z,32.93,-96.43,21.7,8.4,230,7,,10.0,30.041338,,,TRUE,TRUE,,,,,,,CLR,,,,,,,,VFR,,,,,,,,,,,,METAR,176.0
KF44 061515Z AUTO 00000KT 10SM CLR 21/11 A3003 RMK AO2,KF44,2017-05-06T15:15:00Z,32.17,-95.83,21.0,11.0,0,0,,10.0,30.029528,,,TRUE,TRUE,,,,,,,CLR,,,,,,,,VFR,,,,,,,,,,,,METAR,135.0
KF05 061515Z AUTO 20006KT 10SM CLR 23/02 A3001 RMK AO1 T02280020,KF05,2017-05-06T15:15:00Z,34.23,-99.28,22.8,2.0,200,6,,10.0,30.008858,,,TRUE,TRUE,,,,,,,CLR,,,,,,,,VFR,,,,,,,,,,,,METAR,386.0
KF00 061515Z AUTO 19007KT 10SM CLR 21/09 A3003 RMK AO2,KF00,2017-05-06T15:15:00Z,33.62,-96.18,21.0,9.0,190,7,,10.0,30.029528,,,TRUE,TRUE,,,,,,,CLR,,,,,,,,VFR,,,,,,,,,,,,METAR,188.0
KERV 061515Z AUTO 19012G17KT 10SM CLR 22/12 A3006 RMK AO2 T02200119,KERV,2017-05-06T15:15:00Z,29.98,-99.08,22.0,11.9,190,12,17,10.0,30.059055,,,TRUE,TRUE,,,,,,,CLR,,,,,,,,VFR,,,,,,,,,,,,METAR,510.0
KEMM 061515Z AUTO 03005KT 10SM 11/01 A3001 RMK AO2,KEMM,2017-05-06T15:15:00Z,41.82,-110.55,11.0,1.0,30,5,,10.0,30.008858,,,TRUE,TRUE,,,,,,,,,,,,,,,,,,,,,,,,,,,METAR,2220.0
KELK 061515Z AUTO 20013G16KT 10SM CLR 21/07 A3000 RMK AO2 T02060069,KELK,2017-05-06T15:15:00Z,35.43,-99.4,20.6,6.9,200,13,16,10.0,30.0,,,TRUE,TRUE,,,,,,,CLR,,,,,,,,VFR,,,,,,,,,,,,METAR,610.0
KEDN 061515Z AUTO 32006KT 10SM CLR 18/05 A2997 RMK AO2 T01820051,KEDN,2017-05-06T15:15:00Z,31.3,-85.9,18.2,5.1,320,6,,10.0,29.970472,,,TRUE,TRUE,,,,,,,CLR,,,,,,,,VFR,,,,,,,,,,,,METAR,110.0
KRPJ 061515Z AUTO 01014KT 10SM CLR 12/06 A2986 RMK AO2 T01190058,KRPJ,2017-05-06T15:15:00Z,41.88,-89.08,11.9,5.8,10,14,,10.0,29.861221,,,TRUE,TRUE,,,,,,,CLR,,,,,,,,VFR,,,,,,,,,,,,METAR,238.0
KRPD 061515Z AUTO 35007KT 10SM CLR 10/04 A3001 RMK AO2 T00970044,KRPD,2017-05-06T15:15:00Z,45.42,-91.77,9.7,4.4,350,7,,10.0,30.008858,,,TRUE,TRUE,,,,,,,CLR,,,,,,,,VFR,,,,,,,,,,,,METAR,338.0
KRGA 061515Z AUTO 26005KT 10SM BKN043 OVC050 07/04 A2976 RMK AO2,KRGA,2017-05-06T15:15:00Z,37.63,-84.33,7.0,4.0,260,5,,10.0,29.760826,,,TRUE,TRUE,,,,,,,BKN,4300,OVC,5000,,,,,VFR,,,,,,,,,,,,METAR,305.0
KRCX 061515Z AUTO 34008KT 10SM CLR 11/03 A3000 RMK AO2 T01050029,KRCX,2017-05-06T15:15:00Z,45.5,-91.0,10.5,2.9,340,8,,10.0,30.0,,,TRUE,TRUE,,,,,,,CLR,,,,,,,,VFR,,,,,,,,,,,,METAR,377.0
KPYX 061515Z AUTO 21009KT 10SM CLR 22/09 A3000 RMK AO2 T02160087,KPYX,2017-05-06T15:15:00Z,36.42,-100.75,21.6,8.7,210,9,,10.0,30.0,,,TRUE,TRUE,,,,,,,CLR,,,,,,,,VFR,,,,,,,,,,,,METAR,889.0
KPVJ 061515Z AUTO 21008KT 10SM CLR 21/11 A3001 RMK AO2 T02070105,KPVJ,2017-05-06T15:15:00Z,34.72,-97.22,20.7,10.5,210,8,,10.0,30.008858,,,TRUE,TRUE,,,,,,,CLR,,,,,,,,VFR,,,,,,,,,,,,METAR,295.0
KPUJ 061515Z AUTO 30011G16KT 10SM CLR 17/07 A2986 RMK AO2,KPUJ,2017-05-06T15:15:00Z,33.92,-84.93,17.0,7.0,300,11,16,10.0,29.861221,,,TRUE,TRUE,,,,,,,CLR,,,,,,,,VFR,,,,,,,,,,,,METAR,393.0
KPSN 061515Z AUTO 21004KT 10SM CLR 21/10 A3005 RMK AO2 T02150106,KPSN,2017-05-06T15:15:00Z,31.78,-95.7,21.5,10.6,210,4,,10.0,30.050198,,,TRUE,TRUE,,,,,,,CLR,,,,,,,,VFR,,,,,,,,,,,,METAR,129.0
KPRS 061515Z AUTO 12005KT 10SM CLR 26/00 A3000 RMK AO2 T02560002,KPRS,2017-05-06T15:15:00Z,29.63,-104.35,25.6,0.2,120,5,,10.0,30.0,,,TRUE,TRUE,,,,,,,CLR,,,,,,,,VFR,,,,,,,,,,,,METAR,896.0
KPPO 061515Z AUTO 34016G20KT 10SM CLR 09/04 A2978 RMK AO2 T00870041,KPPO,2017-05-06T15:15:00Z,41.57,-86.73,8.7,4.1,340,16,20,10.0,29.778543,,,TRUE,TRUE,,,,,,,CLR,,,,,,,,VFR,,,,,,,,,,,,METAR,248.0
KPKV 061515Z AUTO 00000KT 10SM CLR 23/17 A3004 RMK AO2 T02340174,KPKV,2017-05-06T15:15:00Z,28.65,-96.68,23.4,17.4,0,0,,10.0,30.041338,,,TRUE,TRUE,,,,,,,CLR,,,,,,,,VFR,,,,,,,,,,,,METAR,9.0
KPIM 061515Z AUTO 33012G17KT 10SM CLR 17/06 A2990 RMK AO2 T01690062,KPIM,2017-05-06T15:15:00Z,32.83,-84.88,16.9,6.2,330,12,17,10.0,29.899607,,,TRUE,TRUE,,,,,,,CLR,,,,,,,,VFR,,,,,,,,,,,,METAR,275.0
KPEZ 061515Z AUTO 20006KT 7SM CLR 24/13 A3005 RMK AO2 T02390126,KPEZ,2017-05-06T15:15:00Z,28.95,-98.52,23.9,12.6,200,6,,7.0,30.050198,,,TRUE,TRUE,,,,,,,CLR,,,,,,,,VFR,,,,,,,,,,,,METAR,132.0
KPDC 061515Z AUTO 36009G16KT 10SM CLR 14/02 A2992 RMK AO2 T01430023,KPDC,2017-05-06T15:15:00Z,43.02,-91.12,14.3,2.3,360,9,16,10.0,29.920275,,,TRUE,TRUE,,,,,,,CLR,,,,,,,,VFR,,,,,,,,,,,,METAR,201.0
KPCZ 061515Z AUTO 35011G17KT 10SM CLR 13/00 A2990 RMK AO2 T01300002,KPCZ,2017-05-06T15:15:00Z,44.33,-89.02,13.0,0.2,350,11,17,10.0,29.899607,,,TRUE,TRUE,,,,,,,CLR,,,,,,,,VFR,,,,,,,,,,,,METAR,252.0
KPBH 061515Z AUTO 36008KT 10SM BKN029 10/03 A2996 RMK AO2 T00960028,KPBH,2017-05-06T15:15:00Z,45.7,-90.4,9.6,2.8,360,8,,10.0,29.958662,,,TRUE,TRUE,,,,,,,BKN,2900,,,,,,,MVFR,,,,,,,,,,,,METAR,449.0
KOXI 061515Z AUTO 33017G23KT 10SM CLR 11/M08 A2976 RMK AO1,KOXI,2017-05-06T15:15:00Z,41.33,-86.67,11.0,-8.0,330,17,23,10.0,29.760826,,,TRUE,TRUE,,,,,,,CLR,,,,,,,,VFR,,,,,,,,,,,,METAR,209.0
KOWP 061515Z AUTO 24004KT 10SM CLR 22/09 A3001 RMK AO2 T02230094,KOWP,2017-05-06T15:15:00Z,36.18,-96.15,22.3,9.4,240,4,,10.0,30.008858,,,TRUE,TRUE,,,,,,,CLR,,,,,,,,VFR,,,,,,,,,,,,METAR,272.0
KOUN 061515Z AUTO 20009KT 10SM CLR 21/10 A3002 RMK AO2,KOUN,2017-05-06T15:15:00Z,35.25,-97.47,21.0,10.0,200,9,,10.0,30.02067,,,TRUE,TRUE,,,,,,,CLR,,,,,,,,VFR,,,,,,,,,,,,METAR,357.0
KORG 061515Z AUTO 27003KT 10SM CLR 23/10 A3005 RMK AO2 T02280100,KORG,2017-05-06T15:15:00Z,30.07,-93.8,22.8,10.0,270,3,,10.0,30.050198,,,TRUE,TRUE,,,,,,,CLR,,,,,,,,VFR,,,,,,,,,,,,METAR,4.0
KONP 061515Z AUTO 00000KT 4SM RA SCT030 BKN038 OVC060 07/06 A3021 RMK AO2 P0001,KONP,2017-05-06T15:15:00Z,44.57,-124.03,7.0,6.0,0,0,,4.0,30.209646,,,TRUE,TRUE,,,,,,RA,SCT,3000,BKN,3800,OVC,6000,,,MVFR,,,,,,0.01,,,,,,METAR,48.0
KONL 061515Z AUTO 11005KT 10SM CLR 21/02 A2997 RMK AO2 T02070023,KONL,2017-05-06T15:15:00Z,42.47,-98.67,20.7,2.3,110,5,,10.0,29.970472,,,TRUE,TRUE,,,,,,,CLR,,,,,,,,VFR,,,,,,,,,,,,METAR,619.0
KOMH 061515Z AUTO 29008G15KT 10SM -RA OVC055 10/09 A2946 RMK AO2,KOMH,2017-05-06T15:15:00Z,38.25,-78.05,10.0,9.0,290,8,15,10.0,29.459646,,,TRUE,TRUE,,,,,,-RA,OVC,5500,,,,,,,VFR,,,,,,,,,,,,METAR,142.0
KOLY 061515Z AUTO 06005KT 10SM CLR 13/11 A2978 RMK AO2 T01320108,KOLY,2017-05-06T15:15:00Z,38.72,-88.18,13.2,10.8,60,5,,10.0,29.778543,,,TRUE,TRUE,,,,,,,CLR,,,,,,,,VFR,,,,,,,,,,,,METAR,147.0
KOKZ 061515Z AUTO 31010G16KT 10SM CLR A2983 RMK AO2,KOKZ,2017-05-06T15:15:00Z,32.97,-82.83,,,310,10,16,10.0,29.828741,,,TRUE,TRUE,,,,,,,CLR,,,,,,,,VFR,,,,,,,,,,,,METAR,134.0
KOKV 061515Z AUTO 25009KT 10SM -RA OVC032 09/06 A2945 RMK AO2,KOKV,2017-05-06T15:15:00Z,39.13,-78.15,9.0,6.0,250,9,,10.0,29.450787,,,TRUE,TRUE,,,,,,-RA,OVC,3200,,,,,,,VFR,,,,,,,,,,,,METAR,222.0
KOJA 061515Z AUTO 23010KT 10SM CLR 20/08 A3002 RMK AO2,KOJA,2017-05-06T15:15:00Z,35.55,-98.67,20.0,8.0,230,10,,10.0,30.02067,,,TRUE,TRUE,,,,,,,CLR,,,,,,,,VFR,,,,,,,,,,,,METAR,490.0
KOGA 061515Z AUTO 00000KT 10SM CLR 20/08 A2994 RMK AO2 T01990082,KOGA,2017-05-06T15:15:00Z,41.12,-101.77,19.9,8.2,0,0,,10.0,29.940945,,,TRUE,TRUE,,,,,,,CLR,,,,,,,,VFR,,,,,,,,,,,,METAR,999.0
KOCQ 061515Z AUTO 36010KT 10SM CLR 11/00 A2988 RMK AO1 T01101004,KOCQ,2017-05-06T15:15:00Z,44.87,-87.92,11.0,-0.4,360,10,,10.0,29.878937,,,TRUE,TRUE,,,,,,,CLR,,,,,,,,VFR,,,,,,,,,,,,METAR,183.0
KOBE 061515Z AUTO 30014G19KT 10SM CLR 22/06 A2996 RMK AO2,KOBE,2017-05-06T15:15:00Z,27.27,-80.85,22.0,6.0,300,14,19,10.0,29.958662,,,TRUE,TRUE,,,,,,,CLR,,,,,,,,VFR,,,,,,,,,,,,METAR,11.0
KMQB 061515Z AUTO 06005KT 10SM CLR 15/07 A2988 RMK AO2 T01470065,KMQB,2017-05-06T15:15:00Z,40.52,-90.65,14.7,6.5,60,5,,10.0,29.878937,,,TRUE,TRUE,,,,,,,CLR,,,,,,,,VFR,,,,,,,,,,,,METAR,215.0
KMNZ 061515Z AUTO 18011KT 10SM CLR 24/06 A3005 RMK AO2 T02360063,KMNZ,2017-05-06T15:15:00Z,31.67,-98.15,23.6,6.3,180,11,,10.0,30.050198,,,TRUE,TRUE,,,,,,,CLR,,,,,,,,VFR,,,,,,,,,,,,METAR,396.0
KMNE 061515Z AUTO 00000KT 10SM CLR 21/12 A3003 RMK AO2 T02130116,KMNE,2017-05-06T15:15:00Z,32.65,-93.3,21.3,11.6,0,0,,10.0,30.029528,,,TRUE,TRUE,,,,,,,CLR,,,,,,,,VFR,,,,,,,,,,,,METAR,85.0
KMKN 061515Z AUTO 19008KT 10SM CLR 24/07 A3004 RMK AO2 T02350074,KMKN,2017-05-06T15:15:00Z,31.92,-98.6,23.5,7.4,190,8,,10.0,30.041338,,,TRUE,TRUE,,,,,,,CLR,,,,,,,,VFR,,,,,,,,,,,,METAR,423.0
KY51 061515Z AUTO 02012KT 10SM CLR 12/01 A2993 RMK AO1 T01210013,KY51,2017-05-06T15:15:00Z,43.58,-90.9,12.1,1.3,20,12,,10.0,29.929134,,,TRUE,TRUE,,,,,,,CLR,,,,,,,,VFR,,,,,,,,,,,,METAR,394.0
KXSA 061515Z AUTO 19009G15KT 150V240 10SM SCT025 BKN030 OVC046 17/08 A2945 RMK AO2 T01680077,KXSA,2017-05-06T15:15:00Z,37.87,-76.9,16.8,7.7,190,9,15,10.0,29.450787,,,TRUE,TRUE,,,,,,,SCT,2500,BKN,3000,OVC,4600,,,MVFR,,,,,,,,,,,,METAR,42.0
KXLL 061515Z AUTO 20010G17KT 10SM BKN030 BKN041 OVC070 16/10 A2936 RMK AO2,KXLL,2017-05-06T15:15:00Z,40.57,-75.48,16.0,10.0,200,10,17,10.0,29.359253,,,TRUE,TRUE,,,,,,,BKN,3000,BKN,4100,OVC,7000,,,MVFR,,,,,,,,,,,,METAR,122.0
KXBP 061515Z AUTO 21006KT 10SM CLR 23/06 A3004 RMK AO2 T02310061,KXBP,2017-05-06T15:15:00Z,33.18,-97.83,23.1,6.1,210,6,,10.0,30.041338,,,TRUE,TRUE,,,,,,,CLR,,,,,,,,VFR,,,,,,,,,,,,METAR,260.0
KWWR 061515Z AUTO 22012KT 10SM CLR 21/04 A3002 RMK AO2,KWWR,2017-05-06T15:15:00Z,36.45,-99.52,21.0,4.0,220,12,,10.0,30.02067,,,TRUE,TRUE,,,,,,,CLR,,,,,,,,VFR,,,,,,,,,,,,METAR,667.0
KW96 061515Z AUTO 24006KT 10SM SCT029 BKN037 OVC042 16/10 A2946 RMK AO1 T01550104,KW96,2017-05-06T15:15:00Z,37.5,-77.12,15.5,10.4,240,6,,10.0,29.459646,,,TRUE,TRUE,,,,,,,SCT,2900,BKN,3700,OVC,4200,,,VFR,,,,,,,,,,,,METAR,37.0
KW75 061515Z AUTO 21012G20KT 190V250 10SM BKN029 OVC034 16/11 A2946 RMK AO1 T01610110,KW75,2017-05-06T15:15:00Z,37.6,-76.45,16.1,11.0,210,12,20,10.0,29.459646,,,TRUE,TRUE,,,,,,,BKN,2900,OVC,3400,,,,,MVFR,,,,,,,,,,,,METAR,9.0
KW13 061515Z AUTO 23003KT 10SM BKN039 OVC046 09/08 A2949 RMK AO1 P0002 T00900076,KW13,2017-05-06T15:15:00Z,38.08,-78.95,9.0,7.6,230,3,,10.0,29.489174,,,TRUE,TRUE,,,,,,,BKN,3900,OVC,4600,,,,,VFR,,,,,,0.02,,,,,,METAR,443.0
KVJI 061515Z AUTO 30009G15KT 10SM SCT029 BKN036 OVC046 10/04 A2971 RMK AO2 T01030036,KVJI,2017-05-06T15:15:00Z,36.67,-82.02,10.3,3.6,300,9,15,10.0,29.71063,,,TRUE,TRUE,,,,,,,SCT,2900,BKN,3600,OVC,4600,,,VFR,,,,,,,,,,,,METAR,631.0
KVCV 061515Z AUTO 20010KT 10SM CLR 12/08 A2976 RMK AO2,KVCV,2017-05-06T15:15:00Z,34.58,-117.38,12.0,8.0,200,10,,10.0,29.760826,,,TRUE,TRUE,,,,,,,CLR,,,,,,,,VFR,,,,,,,,,,,,METAR,876.0
KU68 061515Z AUTO 08005KT 10SM CLR 20/03 A2979 RMK AO2,KU68,2017-05-06T15:15:00Z,44.92,-108.45,20.0,3.0,80,5,,10.0,29.790354,,,TRUE,TRUE,,,,,,,CLR,,,,,,,,VFR,,,,,,,,,,,,METAR,1247.0
KTQH 061515Z AUTO 26007KT 10SM CLR 20/10 A3001 RMK AO2,KTQH,2017-05-06T15:15:00Z,35.93,-95.0,20.0,10.0,260,7,,10.0,30.008858,,,TRUE,TRUE,,,,,,,CLR,,,,,,,,VFR,,,,,,,,,,,,METAR,266.0
KTFP 061515Z AUTO 24004KT 10SM CLR 26/15 A3003 RMK AO2 T02610149,KTFP,2017-05-06T15:15:00Z,27.92,-97.22,26.1,14.9,240,4,,10.0,30.029528,,,TRUE,TRUE,,,,,,,CLR,,,,,,,,VFR,,,,,,,,,,,,METAR,6.0
KTBX 061515Z AUTO 13013KT 10SM CLR 13/M02 A3007 RMK AO2 PWINO,KTBX,2017-05-06T15:15:00Z,43.47,-108.23,13.0,-2.0,130,13,,10.0,30.070866,,,TRUE,TRUE,,,,,TRUE,,CLR,,,,,,,,VFR,,,,,,,,,,,,METAR,2225.0
KSZT 061515Z AUTO 22006KT 10SM OVC060 08/04 A2991 RMK AO2,KSZT,2017-05-06T15:15:00Z,48.3,-116.57,8.0,4.0,220,6,,10.0,29.911417,,,TRUE,TRUE,,,,,,,OVC,6000,,,,,,,VFR,,,,,,,,,,,,METAR,648.0
KTIP 061515Z AUTO 01009KT 10SM SCT080 13/07 A2980 RMK AO2 T01330067,KTIP,2017-05-06T15:15:00Z,40.28,-88.15,13.3,6.7,10,9,,10.0,29.799213,,,TRUE,TRUE,,,,,,,SCT,8000,,,,,,,VFR,,,,,,,,,,,,METAR,225.0
KTIF 061515Z AUTO 11007KT 10SM CLR 22/08 A2996 RMK AO2 T02190083,KTIF,2017-05-06T15:15:00Z,41.97,-100.57,21.9,8.3,110,7,,10.0,29.958662,,,TRUE,TRUE,,,,,,,CLR,,,,,,,,VFR,,,,,,,,,,,,METAR,892.0
KTKV 061515Z AUTO 36007KT 320V030 10SM CLR 09/01 A2995 RMK AO2 T00940013,KTKV,2017-05-06T15:15:00Z,45.47,-89.82,9.4,1.3,360,7,,10.0,29.949802,,,TRUE,TRUE,,,,,,,CLR,,,,,,,,VFR,,,,,,,,,,,,METAR,453.0
KTTA 061515Z AUTO 28011G18KT 10SM CLR 14/06 A2959 RMK AO2 T01420060,KTTA,2017-05-06T15:15:00Z,35.58,-79.1,14.2,6.0,280,11,18,10.0,29.589567,,,TRUE,TRUE,,,,,,,CLR,,,,,,,,VFR,,,,,,,,,,,,METAR,75.0
KTMK 061515Z AUTO 00000KT 10SM SCT032 OVC045 07/05 A3020 RMK AO2,KTMK,2017-05-06T15:15:00Z,45.42,-123.82,7.0,5.0,0,0,,10.0,30.200787,,,TRUE,TRUE,,,,,,,SCT,3200,OVC,4500,,,,,VFR,,,,,,,,,,,,METAR,11.0
KVLL 061514Z AUTO 32015G25KT 10SM SCT027 BKN034 BKN040 10/04 A2961 RMK AO2 T01010036,KVLL,2017-05-06T15:14:00Z,42.55,-83.18,10.1,3.6,320,15,25,10.0,29.610237,,,TRUE,TRUE,,,,,,,SCT,2700,BKN,3400,BKN,4000,,,VFR,,,,,,,,,,,,METAR,222.0
KRQB 061514Z AUTO 35014G18KT 10SM CLR 11/01 A2972 RMK AO2 T01060006,KRQB,2017-05-06T15:14:00Z,43.72,-85.5,10.6,0.6,350,14,18,10.0,29.719488,,,TRUE,TRUE,,,,,,,CLR,,,,,,,,VFR,,,,,,,,,,,,METAR,302.0
KOZW 061514Z AUTO 33009G17KT 10SM BKN027 BKN031 10/03 A2964 RMK AO2 T01010033,KOZW,2017-05-06T15:14:00Z,42.62,-83.97,10.1,3.3,330,9,17,10.0,29.639763,,,TRUE,TRUE,,,,,,,BKN,2700,BKN,3100,,,,,MVFR,,,,,,,,,,,,METAR,293.0
KFSE 061514Z AUTO 06008KT 10SM CLR 17/00 A3000 RMK AO2,KFSE,2017-05-06T15:14:00Z,47.58,-95.77,17.0,0.0,60,8,,10.0,30.0,,,TRUE,TRUE,,,,,,,CLR,,,,,,,,VFR,,,,,,,,,,,,METAR,389.0
KERY 061514Z AUTO 34009G20KT 10SM CLR 08/M04 A2981 RMK AO2 T00761039,KERY,2017-05-06T15:14:00Z,46.3,-85.45,7.6,-3.9,340,9,20,10.0,29.811024,,,TRUE,TRUE,,,,,,,CLR,,,,,,,,VFR,,,,,,,,,,,,METAR,265.0
KDTL 061514Z AUTO 04006KT 10SM CLR 17/M03 A2999 RMK AO2,KDTL,2017-05-06T15:14:00Z,46.82,-95.87,17.0,-3.0,40,6,,10.0,29.991142,,,TRUE,TRUE,,,,,,,CLR,,,,,,,,VFR,,,,,,,,,,,,METAR,426.0
KCVX 061514Z AUTO 33008KT 10SM CLR 07/03 A2980 RMK AO2 T00690026,KCVX,2017-05-06T15:14:00Z,45.3,-85.27,6.9,2.6,330,8,,10.0,29.799213,,,TRUE,TRUE,,,,,,,CLR,,,,,,,,VFR,,,,,,,,,,,,METAR,204.0
KCKN 061514Z AUTO 08005KT 10SM CLR 17/02 A3000 RMK AO2,KCKN,2017-05-06T15:14:00Z,47.85,-96.62,17.0,2.0,80,5,,10.0,30.0,,,TRUE,TRUE,,,,,,,CLR,,,,,,,,VFR,,,,,,,,,,,,METAR,273.0
KCFE 061514Z AUTO 04006KT 360V060 10SM CLR 12/05 A3001 RMK AO2 T01240045,KCFE,2017-05-06T15:14:00Z,45.17,-93.85,12.4,4.5,40,6,,10.0,30.008858,,,TRUE,TRUE,,,,,,,CLR,,,,,,,,VFR,,,,,,,,,,,,METAR,295.0
KCAD 061514Z AUTO 33010G20KT 10SM SCT031 10/01 A2972 RMK AO2 T00980015,KCAD,2017-05-06T15:14:00Z,44.27,-85.42,9.8,1.5,330,10,20,10.0,29.719488,,,TRUE,TRUE,,,,,,,SCT,3100,,,,,,,VFR,,,,,,,,,,,,METAR,398.0
KBFW 061514Z AUTO 11008KT 10SM BKN027 10/03 A3002 RMK AO2,KBFW,2017-05-06T15:14:00Z,47.25,-91.4,10.0,3.0,110,8,,10.0,30.02067,,,TRUE,TRUE,,,,,,,BKN,2700,,,,,,,MVFR,,,,,,,,,,,,METAR,331.0
KADC 061514Z AUTO 11004KT 10SM CLR 15/04 A2999 RMK AO2,KADC,2017-05-06T15:14:00Z,46.45,-95.22,15.0,4.0,110,4,,10.0,29.991142,,,TRUE,TRUE,,,,,,,CLR,,,,,,,,VFR,,,,,,,,,,,,METAR,418.0
K2V6 061514Z AUTO 18015G18KT 10SM CLR 22/06 A2995 RMK AO2,K2V6,2017-05-06T15:14:00Z,40.1,-102.72,22.0,6.0,180,15,18,10.0,29.949802,,,TRUE,TRUE,,,,,,,CLR,,,,,,,,VFR,,,,,,,,,,,,METAR,1261.0
KMOP 061514Z AUTO 33008G16KT 290V360 10SM CLR 11/02 A2968 RMK AO2 T01110022,KMOP,2017-05-06T15:14:00Z,43.62,-84.73,11.1,2.2,330,8,16,10.0,29.681103,,,TRUE,TRUE,,,,,,,CLR,,,,,,,,VFR,,,,,,,,,,,,METAR,230.0
KMGN 061514Z AUTO 35011G18KT 10SM CLR 11/M01 A2974 RMK AO2 T01141013,KMGN,2017-05-06T15:14:00Z,45.43,-84.92,11.4,-1.3,350,11,18,10.0,29.740158,,,TRUE,TRUE,,,,,,,CLR,,,,,,,,VFR,,,,,,,,,,,,METAR,209.0
KLDM 061514Z AUTO 35014G18KT 10SM CLR 09/04 A2980 RMK AO2 T00860036,KLDM,2017-05-06T15:14:00Z,43.97,-86.4,8.6,3.6,350,14,18,10.0,29.799213,,,TRUE,TRUE,,,,,,,CLR,,,,,,,,VFR,,,,,,,,,,,,METAR,197.0
KJYM 061514Z AUTO 32013G17KT 10SM CLR 10/03 A2966 RMK AO2,KJYM,2017-05-06T15:14:00Z,41.92,-84.58,10.0,3.0,320,13,17,10.0,29.660433,,,TRUE,TRUE,,,,,,,CLR,,,,,,,,VFR,,,,,,,,,,,,METAR,360.0
KISQ 061514Z AUTO 01015G22KT 10SM CLR 10/M05 A2983 RMK AO2 T00951047,KISQ,2017-05-06T15:14:00Z,45.97,-86.17,9.5,-4.7,10,15,22,10.0,29.828741,,,TRUE,TRUE,,,,,,,CLR,,,,,,,,VFR,,,,,,,,,,,,METAR,209.0
CYVM 061514Z 08002KT 10SM SCT005 BKN010 OVC014 M06/M07 A3036 RMK ST3ST3ST2 SLP284,CYVM,2017-05-06T15:14:00Z,67.53,-64.02,-6.0,-7.0,80,2,,10.0,30.360237,1028.4,,,,,,,,,,SCT,500,BKN,1000,OVC,1400,,,MVFR,,,,,,,,,,,,SPECI,6.0
CYPH 061514Z AUTO 07015KT 9SM -SN CLR M10/M13 A3029 RMK SLP263,CYPH,2017-05-06T15:14:00Z,58.45,-78.08,-10.0,-13.0,70,15,,9.0,30.28937,1026.3,,TRUE,,,,,,,-SN,CLR,,,,,,,,VFR,,,,,,,,,,,,SPECI,3.0
KFFM 061514Z AUTO 00000KT 10SM CLR 18/03 A2996 RMK AO2,KFFM,2017-05-06T15:14:00Z,46.28,-96.15,18.0,3.0,0,0,,10.0,29.958662,,,TRUE,TRUE,,,,,,,CLR,,,,,,,,VFR,,,,,,,,,,,,METAR,361.0
KFBL 061514Z AUTO 36004KT 10SM CLR 14/04 A2999 RMK AO2,KFBL,2017-05-06T15:14:00Z,44.33,-93.32,14.0,4.0,360,4,,10.0,29.991142,,,TRUE,TRUE,,,,,,,CLR,,,,,,,,VFR,,,,,,,,,,,,METAR,322.0
KEVM 061514Z AUTO 06008KT 10SM BKN017 08/02 A3004 RMK AO2 T00820023,KEVM,2017-05-06T15:14:00Z,47.42,-92.5,8.2,2.3,60,8,,10.0,30.041338,,,TRUE,TRUE,,,,,,,BKN,1700,,,,,,,MVFR,,,,,,,,,,,,METAR,421.0
KDYT 061514Z AUTO 06003KT 1SM BR OVC003 04/04 A3007 RMK AO2,KDYT,2017-05-06T15:14:00Z,46.72,-92.03,4.0,4.0,60,3,,1.0,30.070866,,,TRUE,TRUE,,,,,,BR,OVC,300,,,,,,,LIFR,,,,,,,,,,,,METAR,186.0
KDXX 061514Z AUTO 17003KT 10SM CLR 18/06 A2998 RMK AO2,KDXX,2017-05-06T15:14:00Z,44.98,-96.18,18.0,6.0,170,3,,10.0,29.97933,,,TRUE,TRUE,,,,,,,CLR,,,,,,,,VFR,,,,,,,,,,,,METAR,330.0
KD95 061514Z AUTO 35013G20KT 10SM BKN027 OVC032 11/04 A2960 RMK AO2 T01090041,KD95,2017-05-06T15:14:00Z,43.07,-83.27,10.9,4.1,350,13,20,10.0,29.601377,,,TRUE,TRUE,,,,,,,BKN,2700,OVC,3200,,,,,MVFR,,,,,,,,,,,,METAR,255.0
KBJI 061514Z AUTO 01003KT 10SM CLR 16/02 A3000 RMK AO2 T01590019,KBJI,2017-05-06T15:14:00Z,47.5,-94.92,15.9,1.9,10,3,,10.0,30.0,,,TRUE,TRUE,,,,,,,CLR,,,,,,,,VFR,,,,,,,,,,,,METAR,420.0
KBBB 061514Z AUTO 14005KT 10SM CLR 19/M03 A2999 RMK AO2,KBBB,2017-05-06T15:14:00Z,45.32,-95.65,19.0,-3.0,140,5,,10.0,29.991142,,,TRUE,TRUE,,,,,,,CLR,,,,,,,,VFR,,,,,,,,,,,,METAR,317.0
KY31 061514Z AUTO 01013G19KT 10SM SCT041 12/02 A2965 RMK AO2 T01240016,KY31,2017-05-06T15:14:00Z,44.25,-84.18,12.4,1.6,10,13,19,10.0,29.648623,,,TRUE,TRUE,,,,,,,SCT,4100,,,,,,,VFR,,,,,,,,,,,,METAR,269.0
KULM 061514Z AUTO 09004KT 10SM CLR 14/05 A2999 RMK AO2,KULM,2017-05-06T15:14:00Z,44.32,-94.5,14.0,5.0,90,4,,10.0,29.991142,,,TRUE,TRUE,,,,,,,CLR,,,,,,,,VFR,,,,,,,,,,,,METAR,308.0
KTEW 061514Z AUTO 34013G20KT 10SM CLR 11/05 A2966 RMK AO2 T01060051,KTEW,2017-05-06T15:14:00Z,42.57,-84.42,10.6,5.1,340,13,20,10.0,29.660433,,,TRUE,TRUE,,,,,,,CLR,,,,,,,,VFR,,,,,,,,,,,,METAR,280.0
KSYN 061514Z AUTO 04004KT 10SM CLR 14/04 A2998 RMK AO2 T01360038,KSYN,2017-05-06T15:14:00Z,44.47,-93.02,13.6,3.8,40,4,,10.0,29.97933,,,TRUE,TRUE,,,,,,,CLR,,,,,,,,VFR,,,,,,,,,,,,METAR,280.0
KMWM 061514Z AUTO 03005KT 7SM CLR 17/03 A2999 RMK AO2,KMWM,2017-05-06T15:14:00Z,43.9,-95.1,17.0,3.0,30,5,,7.0,29.991142,,,TRUE,TRUE,,,,,,,CLR,,,,,,,,VFR,,,,,,,,,,,,METAR,430.0
KMJQ 061514Z AUTO 06005KT 10SM CLR 16/03 A2999 RMK AO2,KMJQ,2017-05-06T15:14:00Z,43.63,-94.97,16.0,3.0,60,5,,10.0,29.991142,,,TRUE,TRUE,,,,,,,CLR,,,,,,,,VFR,,,,,,,,,,,,METAR,441.0
KJKJ 061514Z AUTO 34003KT 10SM CLR 18/M01 A2999 RMK AO2,KJKJ,2017-05-06T15:14:00Z,46.83,-96.67,18.0,-1.0,340,3,,10.0,29.991142,,,TRUE,TRUE,,,,,,,CLR,,,,,,,,VFR,,,,,,,,,,,,METAR,280.0
KIMS 061514Z AUTO 27005KT 10SM OVC050 08/05 A2976 RMK AO1,KIMS,2017-05-06T15:14:00Z,38.75,-85.47,8.0,5.0,270,5,,10.0,29.760826,,,TRUE,TRUE,,,,,,,OVC,5000,,,,,,,VFR,,,,,,,,,,,,METAR,250.0
KHCO 061514Z AUTO 08006KT 10SM CLR 17/01 A3001 RMK AO2,KHCO,2017-05-06T15:14:00Z,48.75,-96.93,17.0,1.0,80,6,,10.0,30.008858,,,TRUE,TRUE,,,,,,,CLR,,,,,,,,VFR,,,,,,,,,,,,METAR,250.0
KHCD 061514Z AUTO 05004KT 10SM CLR 14/06 A3000 RMK AO2 T01420062,KHCD,2017-05-06T15:14:00Z,44.87,-94.38,14.2,6.2,50,4,,10.0,30.0,,,TRUE,TRUE,,,,,,,CLR,,,,,,,,VFR,,,,,,,,,,,,METAR,323.0
KGHW 061514Z AUTO 12005KT 10SM CLR 16/05 A2999 RMK AO2,KGHW,2017-05-06T15:14:00Z,45.63,-95.32,16.0,5.0,120,5,,10.0,29.991142,,,TRUE,TRUE,,,,,,,CLR,,,,,,,,VFR,,,,,,,,,,,,METAR,425.0
KFIT 061514Z AUTO 00000KT 7SM BKN006 OVC015 14/13 A2952 RMK AO2 RAE04 P0000 T01390128,KFIT,2017-05-06T15:14:00Z,42.55,-71.75,13.9,12.8,0,0,,7.0,29.518702,,,TRUE,TRUE,,,,,,,BKN,600,OVC,1500,,,,,IFR,,,,,,0.005,,,,,,METAR,103.0
KSGS 061514Z AUTO 00000KT 10SM CLR 14/04 A2999 RMK AO2 T01350042,KSGS,2017-05-06T15:14:00Z,44.87,-93.03,13.5,4.2,0,0,,10.0,29.991142,,,TRUE,TRUE,,,,,,,CLR,,,,,,,,VFR,,,,,,,,,,,,METAR,250.0
KRRT 061514Z AUTO 05015KT 10SM CLR 09/06 A3007 RMK AO2,KRRT,2017-05-06T15:14:00Z,48.93,-95.33,9.0,6.0,50,15,,10.0,30.070866,,,TRUE,TRUE,,,,,,,CLR,,,,,,,,VFR,,,,,,,,,,,,METAR,327.0
KROX 061514Z AUTO 07010KT 10SM CLR 12/07 A3005 RMK AO2,KROX,2017-05-06T15:14:00Z,48.85,-95.7,12.0,7.0,70,10,,10.0,30.050198,,,TRUE,TRUE,,,,,,,CLR,,,,,,,,VFR,,,,,,,,,,,,METAR,323.0
KROS 061514Z AUTO 04006KT 10SM SCT095 SCT110 12/05 A3001 RMK AO2 T01220050,KROS,2017-05-06T15:14:00Z,45.7,-92.95,12.2,5.0,40,6,,10.0,30.008858,,,TRUE,TRUE,,,,,,,SCT,9500,SCT,11000,,,,,VFR,,,,,,,,,,,,METAR,281.0
KRMY 061514Z AUTO 30008G14KT 10SM CLR 12/03 A2968 RMK AO2 T01190034,KRMY,2017-05-06T15:14:00Z,42.23,-84.95,11.9,3.4,300,8,14,10.0,29.681103,,,TRUE,TRUE,,,,,,,CLR,,,,,,,,VFR,,,,,,,,,,,,METAR,287.0
KPQN 061514Z AUTO 15004KT 10SM CLR 18/01 A2998 RMK AO2,KPQN,2017-05-06T15:14:00Z,43.97,-96.32,18.0,1.0,150,4,,10.0,29.97933,,,TRUE,TRUE,,,,,,,CLR,,,,,,,,VFR,,,,,,,,,,,,METAR,529.0
KPEX 061514Z AUTO 10003KT 10SM CLR 14/04 A3000 RMK AO2 T01400044,KPEX,2017-05-06T15:14:00Z,45.37,-94.73,14.0,4.4,100,3,,10.0,30.0,,,TRUE,TRUE,,,,,,,CLR,,,,,,,,VFR,,,,,,,,,,,,METAR,360.0
KPEO 061514Z AUTO 31005KT 2 1/2SM RA BR FEW010 BKN034 OVC046 09/07 A2932 RMK AO2 P0011 T00940072,KPEO,2017-05-06T15:14:00Z,42.65,-77.05,9.4,7.2,310,5,,2.5,29.320866,,,TRUE,TRUE,,,,,,RA BR,FEW,1000,BKN,3400,OVC,4600,,,IFR,,,,,,0.11,,,,,,METAR,256.0
KOWA 061514Z AUTO 03004KT 10SM CLR 14/05 A2998 RMK AO2,KOWA,2017-05-06T15:14:00Z,44.12,-93.25,14.0,5.0,30,4,,10.0,29.97933,,,TRUE,TRUE,,,,,,,CLR,,,,,,,,VFR,,,,,,,,,,,,METAR,350.0
KOVL 061514Z AUTO 11005KT 10SM CLR 16/04 A2998 RMK AO2,KOVL,2017-05-06T15:14:00Z,44.78,-95.03,16.0,4.0,110,5,,10.0,29.97933,,,TRUE,TRUE,,,,,,,CLR,,,,,,,,VFR,,,,,,,,,,,,METAR,328.0
KOSC 061514Z AUTO 33018G29KT 10SM SCT039 13/01 A2962 RMK AO2 T01250013,KOSC,2017-05-06T15:14:00Z,44.45,-83.4,12.5,1.3,330,18,29,10.0,29.619095,,,TRUE,TRUE,,,,,,,SCT,3900,,,,,,,VFR,,,,,,,,,,,,SPECI,193.0
KONZ 061514Z AUTO 34015G25KT 10SM SCT029 11/05 A2959 RMK AO2 T01100050,KONZ,2017-05-06T15:14:00Z,42.1,-83.15,11.0,5.0,340,15,25,10.0,29.589567,,,TRUE,TRUE,,,,,,,SCT,2900,,,,,,,VFR,,,,,,,,,,,,METAR,180.0
PAFR 061514Z AUTO 00000KT 10SM CLR 04/M03 A2982 RMK AO1,PAFR,2017-05-06T15:14:00Z,61.27,-149.65,4.0,-3.0,0,0,,10.0,29.819881,,,TRUE,TRUE,,,,,,,CLR,,,,,,,,VFR,,,,,,,,,,,,METAR,115.0
PAPH 061514Z AUTO 16008KT 10SM SCT022 04/03 A2944 RMK AO2,PAPH,2017-05-06T15:14:00Z,56.95,-158.62,4.0,3.0,160,8,,10.0,29.438976,,,TRUE,TRUE,,,,,,,SCT,2200,,,,,,,VFR,,,,,,,,,,,,METAR,29.0
MMTJ 061514Z 17004KT 6SM -DZ OVC014 15/11 A2988 RMK 8/7// DZB13,MMTJ,2017-05-06T15:14:00Z,32.53,-116.97,15.0,11.0,170,4,,6.0,29.878937,,,,,,,,,,-DZ,OVC,1400,,,,,,,MVFR,,,,,,,,,,,,METAR,152.0
CYRQ 061514Z AUTO 06013KT 6SM -RA BR BKN007 OVC013 09/09 A2947 RMK SLP984,CYRQ,2017-05-06T15:14:00Z,46.35,-72.68,9.0,9.0,60,13,,6.0,29.471457,998.4,,TRUE,,,,,,,-RA BR,BKN,700,OVC,1300,,,,,IFR,,,,,,,,,,,,SPECI,61.0
CYHU 061514Z AUTO 06004KT 9SM -RA BKN038 OVC055 13/12 A2941 RMK SLP960 DENSITY ALT 400FT,CYHU,2017-05-06T15:14:00Z,45.52,-73.42,13.0,12.0,60,4,,9.0,29.409449,996.0,,TRUE,,,,,,,-RA,BKN,3800,OVC,5500,,,,,VFR,,,,,,,,,,,,SPECI,27.0
KVWU 061514Z AUTO 06005KT 10SM CLR 16/06 A3002 RMK AO2,KVWU,2017-05-06T15:14:00Z,48.15,-94.52,16.0,6.0,60,5,,10.0,30.02067,,,TRUE,TRUE,,,,,,,CLR,,,,,,,,VFR,,,,,,,,,,,,METAR,360.0
KCKC 061513Z AUTO 05011KT 10SM BKN043 08/M05 A3003 RMK AO2,KCKC,2017-05-06T15:13:00Z,47.83,-90.37,8.0,-5.0,50,11,,10.0,30.029528,,,TRUE,TRUE,,,,,,,BKN,4300,,,,,,,VFR,,,,,,,,,,,,METAR,548.0
KAMN 061513Z AUTO 32011G20KT 10SM CLR 11/04 A2969 RMK AO2 T01130039,KAMN,2017-05-06T15:13:00Z,43.32,-84.68,11.3,3.9,320,11,20,10.0,29.68996,,,TRUE,TRUE,,,,,,,CLR,,,,,,,,VFR,,,,,,,,,,,,METAR,230.0
KACQ 061513Z AUTO 05005KT 10SM CLR 13/03 A2999 RMK AO2,KACQ,2017-05-06T15:13:00Z,44.07,-93.55,13.0,3.0,50,5,,10.0,29.991142,,,TRUE,TRUE,,,,,,,CLR,,,,,,,,VFR,,,,,,,,,,,,METAR,343.0
KMVE 061513Z AUTO 22005KT 10SM CLR 19/06 A2998 RMK AO2,KMVE,2017-05-06T15:13:00Z,44.97,-95.72,19.0,6.0,220,5,,10.0,29.97933,,,TRUE,TRUE,,,,,,,CLR,,,,,,,,VFR,,,,,,,,,,,,METAR,315.0
KRIV 061513Z AUTO 17008KT 10SM OVC021 13/13 A2983 RMK AO2 SLP096,KRIV,2017-05-06T15:13:00Z,33.87,-117.27,13.0,13.0,170,8,,10.0,29.828741,1009.6,,TRUE,TRUE,,,,,,,OVC,2100,,,,,,,MVFR,,,,,,,,,,,,SPECI,469.0
KDAA 061513Z AUTO 27006KT 5SM RA BR FEW014 SCT027 OVC036 13/11 A2942 RMK AO2 SLP966,KDAA,2017-05-06T15:13:00Z,38.72,-77.17,13.0,11.0,270,6,,5.0,29.421259,996.6,,TRUE,TRUE,,,,,,RA BR,FEW,1400,SCT,2700,OVC,3600,,,MVFR,,,,,,,,,,,,SPECI,21.0
KFGN 061513Z AUTO 04009KT 10SM OVC017 08/04 A3008 RMK AO2,KFGN,2017-05-06T15:13:00Z,49.32,-94.9,8.0,4.0,40,9,,10.0,30.079725,,,TRUE,TRUE,,,,,,,OVC,1700,,,,,,,MVFR,,,,,,,,,,,,METAR,328.0
KELO 061513Z AUTO 04006KT 10SM OVC017 07/03 A3004 RMK AO2,KELO,2017-05-06T15:13:00Z,47.82,-91.82,7.0,3.0,40,6,,10.0,30.041338,,,TRUE,TRUE,,,,,,,OVC,1700,,,,,,,MVFR,,,,,,,,,,,,METAR,443.0
KAXV 061513Z AUTO 30007KT 10SM SCT022 SCT029 11/03 A2968 RMK AO2,KAXV,2017-05-06T15:13:00Z,40.5,-84.3,11.0,3.0,300,7,,10.0,29.681103,,,TRUE,TRUE,,,,,,,SCT,2200,SCT,2900,,,,,VFR,,,,,,,,,,,,METAR,279.0
KAIT 061513Z AUTO 05005KT 10SM CLR 13/03 A3000 RMK AO2,KAIT,2017-05-06T15:13:00Z,46.53,-93.67,13.0,3.0,50,5,,10.0,30.0,,,TRUE,TRUE,,,,,,,CLR,,,,,,,,VFR,,,,,,,,,,,,METAR,367.0
KY70 061513Z AUTO 33010G14KT 10SM CLR 11/03 A2970 RMK AO2 T01070033,KY70,2017-05-06T15:13:00Z,42.93,-85.07,10.7,3.3,330,10,14,10.0,29.698818,,,TRUE,TRUE,,,,,,,CLR,,,,,,,,VFR,,,,,,,,,,,,METAR,250.0
KVVV 061513Z AUTO 00000KT 10SM CLR 17/06 A2997 RMK AO2,KVVV,2017-05-06T15:13:00Z,45.3,-96.42,17.0,6.0,0,0,,10.0,29.970472,,,TRUE,TRUE,,,,,,,CLR,,,,,,,,VFR,,,,,,,,,,,,METAR,335.0
KTWM 061513Z AUTO 12008KT OVC021 10/06 A3002 RMK AO2 PWINO,KTWM,2017-05-06T15:13:00Z,47.03,-91.75,10.0,6.0,120,8,,,30.02067,,,TRUE,TRUE,,,,,TRUE,,OVC,2100,,,,,,,,,,,,,,,,,,,METAR,328.0
KTOB 061513Z AUTO 04008KT 10SM CLR 13/04 A2997 RMK AO2,KTOB,2017-05-06T15:13:00Z,44.02,-92.82,13.0,4.0,40,8,,10.0,29.970472,,,TRUE,TRUE,,,,,,,CLR,,,,,,,,VFR,,,,,,,,,,,,METAR,398.0
KTKC 061513Z AUTO 10003KT 10SM CLR 18/04 A2999 RMK AO2 T01770036,KTKC,2017-05-06T15:13:00Z,44.25,-95.62,17.7,3.6,100,3,,10.0,29.991142,,,TRUE,TRUE,,,,,,,CLR,,,,,,,,VFR,,,,,,,,,,,,METAR,408.0
KMRT 061513Z AUTO 35011G18KT 10SM SCT032 SCT037 11/05 A2965 RMK AO2 T01140048,KMRT,2017-05-06T15:13:00Z,40.22,-83.35,11.4,4.8,350,11,18,10.0,29.648623,,,TRUE,TRUE,,,,,,,SCT,3200,SCT,3700,,,,,VFR,,,,,,,,,,,,METAR,312.0
KMOX 061513Z AUTO 17003KT 10SM CLR 19/03 A2996 RMK AO2,KMOX,2017-05-06T15:13:00Z,45.57,-95.97,19.0,3.0,170,3,,10.0,29.958662,,,TRUE,TRUE,,,,,,,CLR,,,,,,,,VFR,,,,,,,,,,,,METAR,344.0
KMGG 061513Z AUTO 11004KT 10SM CLR 14/06 A3001 RMK AO2 T01410060,KMGG,2017-05-06T15:13:00Z,45.23,-93.98,14.1,6.0,110,4,,10.0,30.008858,,,TRUE,TRUE,,,,,,,CLR,,,,,,,,VFR,,,,,,,,,,,,METAR,313.0
KLJF 061513Z AUTO 09003KT 10SM CLR 15/06 A3000 RMK AO2,KLJF,2017-05-06T15:13:00Z,45.1,-94.52,15.0,6.0,90,3,,10.0,30.0,,,TRUE,TRUE,,,,,,,CLR,,,,,,,,VFR,,,,,,,,,,,,METAR,348.0
KHZX 061513Z AUTO 09003KT 10SM CLR 12/05 A3002 RMK AO2,KHZX,2017-05-06T15:13:00Z,46.62,-93.32,12.0,5.0,90,3,,10.0,30.02067,,,TRUE,TRUE,,,,,,,CLR,,,,,,,,VFR,,,,,,,,,,,,METAR,374.0
KGDB 061513Z AUTO 15003KT 7SM CLR 18/06 A3000 RMK AO2 T01820056,KGDB,2017-05-06T15:13:00Z,44.75,-95.55,18.2,5.6,150,3,,7.0,30.0,,,TRUE,TRUE,,,,,,,CLR,,,,,,,,VFR,,,,,,,,,,,,METAR,319.0
KFKA 061513Z AUTO 02008G16KT 10SM CLR 12/03 A2995 RMK AO2 T01230025,KFKA,2017-05-06T15:13:00Z,43.68,-92.17,12.3,2.5,20,8,16,10.0,29.949802,,,TRUE,TRUE,,,,,,,CLR,,,,,,,,VFR,,,,,,,,,,,,METAR,389.0
KPWC 061513Z AUTO 11003KT 10SM CLR 13/05 A3003 RMK AO2,KPWC,2017-05-06T15:13:00Z,46.72,-94.37,13.0,5.0,110,3,,10.0,30.029528,,,TRUE,TRUE,,,,,,,CLR,,,,,,,,VFR,,,,,,,,,,,,METAR,395.0
KORB 061513Z AUTO 12003KT 10SM OVC009 07/03 A3004 RMK AO2,KORB,2017-05-06T15:13:00Z,48.02,-92.87,7.0,3.0,120,3,,10.0,30.041338,,,TRUE,TRUE,,,,,,,OVC,900,,,,,,,IFR,,,,,,,,,,,,METAR,397.0
KONA 061513Z AUTO 00000KT 10SM CLR 13/02 A2996 RMK AO2,KONA,2017-05-06T15:13:00Z,44.07,-91.7,13.0,2.0,0,0,,10.0,29.958662,,,TRUE,TRUE,,,,,,,CLR,,,,,,,,VFR,,,,,,,,,,,,METAR,200.0
YBCS 061513Z 15011KT 9999 -SHRA FEW007 SCT020 BKN040 22/21 Q1016 FM1513 17010KT 9999 -SHRA SCT020 BKN040 INTER 1513/1813 3000 SHRA FEW005 BKN018,YBCS,2017-05-06T15:13:00Z,-16.87,145.75,22.0,21.0,150,11,,6.21,30.0,,,,,,,,,,-SHRA,FEW,700,SCT,2000,BKN,4000,,,VFR,,,,,,,,,,,,METAR,7.0
CYWL 061513Z CCA 26011KT 4SM -SHSN BKN015 BKN100 BKN210 05/M03 A2992 RMK CU5AC1CI1 SLP147,CYWL,2017-05-06T15:13:00Z,52.18,-122.07,5.0,-3.0,260,11,,4.0,29.920275,1014.7,,,,,,,,,-SHSN,BKN,1500,BKN,10000,BKN,21000,,,MVFR,,,,,,,,,,,,SPECI,940.0
KSNA 061513Z 18009KT 10SM FEW019 BKN027 OVC034 17/12 A2983 RMK AO2 T01670122,KSNA,2017-05-06T15:13:00Z,33.67,-117.87,16.7,12.2,180,9,,10.0,29.828741,,,,TRUE,,,,,,,FEW,1900,BKN,2700,OVC,3400,,,MVFR,,,,,,,,,,,,METAR,16.0
KEWB 061513Z 15015G21KT 8SM -RA FEW007 BKN030 OVC075 15/14 A2956 RMK AO2 RAB1457 P0001 T01500139,KEWB,2017-05-06T15:13:00Z,41.68,-70.95,15.0,13.9,150,15,21,8.0,29.56004,,,,TRUE,,,,,,-RA,FEW,700,BKN,3000,OVC,7500,,,MVFR,,,,,,0.01,,,,,,METAR,23.0
KDKK 061513Z AUTO 27008KT 2 1/2SM RA BR BKN004 OVC008 06/06 A2941 RMK AO2 P0001 T00560056 $,KDKK,2017-05-06T15:13:00Z,42.5,-79.28,5.6,5.6,270,8,,2.5,29.409449,,,TRUE,TRUE,TRUE,,,,,RA BR,BKN,400,OVC,800,,,,,LIFR,,,,,,0.01,,,,,,METAR,202.0
KCRE 061513Z 26010KT 10SM BKN032 OVC039 16/09 A2964 RMK AO1 T01560089,KCRE,2017-05-06T15:13:00Z,33.82,-78.72,15.6,8.9,260,10,,10.0,29.639763,,,,TRUE,,,,,,,BKN,3200,OVC,3900,,,,,VFR,,,,,,,,,,,,METAR,10.0
KAVX 061513Z AUTO 00000KT 10SM SCT007 OVC013 13/11 A2984 RMK AO2 T01280111 TSNO $,KAVX,2017-05-06T15:13:00Z,33.4,-118.42,12.8,11.1,0,0,,10.0,29.840551,,,TRUE,TRUE,TRUE,,TRUE,,,,SCT,700,OVC,1300,,,,,MVFR,,,,,,,,,,,,METAR,482.0
CYBB 061513Z VRB02KT 7SM -SN SCT005 OVC020 M14/M16 A3060 RMK ST4SC4 SLP367,CYBB,2017-05-06T15:13:00Z,68.52,-89.82,-14.0,-16.0,0,2,,7.0,30.59941,1036.7,,,,,,,,,-SN,SCT,500,OVC,2000,,,,,MVFR,,,,,,,,,,,,SPECI,15.0
CYCB 061513Z 07013KT 8SM -SN FEW004 OVC020 M13/M16 A3037 RMK SF1SC7 SLP289,CYCB,2017-05-06T15:13:00Z,69.08,-105.12,-13.0,-16.0,70,13,,8.0,30.369095,1028.9,,,,,,,,,-SN,FEW,400,OVC,2000,,,,,MVFR,,,,,,,,,,,,SPECI,27.0
KTTF 061513Z AUTO 31014G20KT 10SM CLR 11/05 A2961 RMK AO2 T01120052,KTTF,2017-05-06T15:13:00Z,41.93,-83.42,11.2,5.2,310,14,20,10.0,29.610237,,,TRUE,TRUE,,,,,,,CLR,,,,,,,,VFR,,,,,,,,,,,,METAR,188.0
KIYA 061512Z AUTO 00000KT 10SM CLR 22/10 A3003 RMK AO2,KIYA,2017-05-06T15:12:00Z,29.98,-92.08,22.0,10.0,0,0,,10.0,30.029528,,,TRUE,TRUE,,,,,,,CLR,,,,,,,,VFR,,,,,,,,,,,,SPECI,5.0
K9MN 061512Z AUTO 03006KT 10SM CLR 13/03 A2997 RMK AO1 T01280027,K9MN,2017-05-06T15:12:00Z,44.02,-92.48,12.8,2.7,30,6,,10.0,29.970472,,,TRUE,TRUE,,,,,,,CLR,,,,,,,,VFR,,,,,,,,,,,,METAR,355.0
K21D 061512Z AUTO 03004KT 10SM CLR 13/05 A3000 RMK AO2,K21D,2017-05-06T15:12:00Z,45.0,-92.85,13.0,5.0,30,4,,10.0,30.0,,,TRUE,TRUE,,,,,,,CLR,,,,,,,,VFR,,,,,,,,,,,,METAR,285.0
K14Y 061512Z AUTO 06004KT 10SM CLR 13/04 A3000 RMK AO2,K14Y,2017-05-06T15:12:00Z,45.9,-94.87,13.0,4.0,60,4,,10.0,30.0,,,TRUE,TRUE,,,,,,,CLR,,,,,,,,VFR,,,,,,,,,,,,METAR,406.0
KLXL 061512Z AUTO 17004KT 10SM CLR 12/03 A3001 RMK AO2,KLXL,2017-05-06T15:12:00Z,45.95,-94.33,12.0,3.0,170,4,,10.0,30.008858,,,TRUE,TRUE,,,,,,,CLR,,,,,,,,VFR,,,,,,,,,,,,METAR,342.0
KIKW 061512Z AUTO 34011G16KT 10SM CLR 13/02 A2965 RMK AO2 T01270024,KIKW,2017-05-06T15:12:00Z,43.67,-84.27,12.7,2.4,340,11,16,10.0,29.648623,,,TRUE,TRUE,,,,,,,CLR,,,,,,,,VFR,,,,,,,,,,,,METAR,194.0
KI23 061512Z AUTO 29013G17KT 10SM CLR A2966 RMK AO1,KI23,2017-05-06T15:12:00Z,39.57,-83.42,,,290,13,17,10.0,29.660433,,,TRUE,TRUE,,,,,,,CLR,,,,,,,,VFR,,,,,,,,,,,,METAR,299.0
KI19 061512Z AUTO 29005KT 10SM SCT028 SCT034 SCT060 12/05 A2969 RMK AO2 T01170050,KI19,2017-05-06T15:12:00Z,39.7,-83.98,11.7,5.0,290,5,,10.0,29.68996,,,TRUE,TRUE,,,,,,,SCT,2800,SCT,3400,SCT,6000,,,VFR,,,,,,,,,,,,METAR,289.0
KSAZ 061512Z AUTO 00000KT 10SM CLR 13/02 A3000 RMK AO2,KSAZ,2017-05-06T15:12:00Z,46.37,-94.8,13.0,2.0,0,0,,10.0,30.0,,,TRUE,TRUE,,,,,,,CLR,,,,,,,,VFR,,,,,,,,,,,,METAR,392.0
KFOZ 061512Z AUTO 07005KT 10SM CLR 14/05 A3002 RMK AO2,KFOZ,2017-05-06T15:12:00Z,47.77,-93.65,14.0,5.0,70,5,,10.0,30.02067,,,TRUE,TRUE,,,,,,,CLR,,,,,,,,VFR,,,,,,,,,,,,SPECI,411.0
KNTD 061512Z 28011KT 3SM BR BKN005 OVC016 14/12 A2983 RMK AO2 CIG 004V008 T01390122 $,KNTD,2017-05-06T15:12:00Z,34.12,-119.12,13.9,12.2,280,11,,3.0,29.828741,,,,TRUE,TRUE,,,,,BR,BKN,500,OVC,1600,,,,,IFR,,,,,,,,,,,,SPECI,4.0
KSBA 061512Z 26005KT 10SM OVC029 14/10 A2982 RMK AO2 T01390100,KSBA,2017-05-06T15:12:00Z,34.43,-119.85,13.9,10.0,260,5,,10.0,29.819881,,,,TRUE,,,,,,,OVC,2900,,,,,,,MVFR,,,,,,,,,,,,METAR,3.0
KJST 061512Z AUTO 26013G22KT 6SM -RA BR BKN005 OVC009 05/04 A2941 RMK AO2 P0000 T00500044,KJST,2017-05-06T15:12:00Z,40.32,-78.83,5.0,4.4,260,13,22,6.0,29.409449,,,TRUE,TRUE,,,,,,-RA BR,BKN,500,OVC,900,,,,,IFR,,,,,,0.005,,,,,,METAR,694.0
CYYG 061512Z 14020G29KT 12SM -DZ OVC008 11/10 A3002 RMK SC8 SLP170,CYYG,2017-05-06T15:12:00Z,46.27,-63.12,11.0,10.0,140,20,29,12.0,30.02067,1017.0,,,,,,,,,-DZ,OVC,800,,,,,,,IFR,,,,,,,,,,,,SPECI,54.0
PATQ 061512Z AUTO 09013KT 6SM BR OVC006 M06/M07 A3001 RMK AO2 CIG 004V008 FZRANO TSNO,PATQ,2017-05-06T15:12:00Z,70.47,-157.43,-6.0,-7.0,90,13,,6.0,30.008858,,,TRUE,TRUE,,,TRUE,TRUE,,BR,OVC,600,,,,,,,IFR,,,,,,,,,,,,SPECI,29.0
KBID 061512Z AUTO 16015G21KT 7SM -RA BKN002 BKN028 OVC044 14/14 A2953 RMK AO2 RAB1457 P0001,KBID,2017-05-06T15:12:00Z,41.17,-71.58,14.0,14.0,160,15,21,7.0,29.530512,,,TRUE,TRUE,,,,,,-RA,BKN,200,BKN,2800,OVC,4400,,,LIFR,,,,,,0.01,,,,,,SPECI,33.0
KHFF 061512Z AUTO 30013KT 10SM BKN028 BKN060 BKN070 BKN100 15/08 A2961 RMK AO2 CIG 028V060 SLP042,KHFF,2017-05-06T15:12:00Z,35.02,-79.5,15.0,8.0,300,13,,10.0,29.610237,1004.2,,TRUE,TRUE,,,,,,,BKN,2800,BKN,6000,BKN,7000,BKN,10000,MVFR,,,,,,,,,,,,METAR,115.0
KQD3 061511Z AUTO 10007KT 5000 BR CLR 30/25 A2973 RMK AO2 SLP065 WND DATA ESTMD,KQD3,2017-05-06T15:11:00Z,,,30.0,25.0,100,7,,3.11,29.731298,1006.5,,TRUE,TRUE,,,,,,BR,CLR,,,,,,,,MVFR,,,,,,,,,,,,SPECI,
KCPW 061511Z AUTO 17006KT 10SM CLR 09/M08 A3045 RMK AO2,KCPW,2017-05-06T15:11:00Z,37.45,-106.8,9.0,-8.0,170,6,,10.0,30.448818,,,TRUE,TRUE,,,,,,,CLR,,,,,,,,VFR,,,,,,,,,,,,METAR,3584.0
KD39 061511Z AUTO 10006KT 10SM CLR 14/05 A3000 RMK AO2 T01350047,KD39,2017-05-06T15:11:00Z,45.7,-94.93,13.5,4.7,100,6,,10.0,30.0,,,TRUE,TRUE,,,,,,,CLR,,,,,,,,VFR,,,,,,,,,,,,METAR,380.0
KGKJ 061511Z AUTO 31010G18KT 6SM BR BKN009 OVC016 06/05 A2945 RMK AO2 T00560050 TSNO,KGKJ,2017-05-06T15:11:00Z,41.63,-80.22,5.6,5.0,310,10,18,6.0,29.450787,,,TRUE,TRUE,,,TRUE,,,BR,BKN,900,OVC,1600,,,,,IFR,,,,,,,,,,,,SPECI,428.0
KBED 061511Z 15011KT 2SM -RA SCT006 OVC012 18/15 A2952 RMK AO2 RAB01 P0001 T01830150,KBED,2017-05-06T15:11:00Z,42.47,-71.3,18.3,15.0,150,11,,2.0,29.518702,,,,TRUE,,,,,,-RA,SCT,600,OVC,1200,,,,,IFR,,,,,,0.01,,,,,,SPECI,50.0
RODN 061511Z AUTO 06007KT 5SM R05/5000FT BR BKN011 OVC017 22/22 A3001 RMK AO2 BKN V OVC,RODN,2017-05-06T15:11:00Z,26.35,127.77,22.0,22.0,60,7,,5.0,30.008858,,,TRUE,TRUE,,,,,,BR,BKN,1100,OVC,1700,,,,,MVFR,,,,,,,,,,,,METAR,45.0
PAMY 061511Z AUTO 08009KT 1 3/4SM -RA BR FEW003 SCT026 OVC060 02/02 A2950 RMK AO2 P0000 FZRANO,PAMY,2017-05-06T15:11:00Z,60.37,-166.27,2.0,2.0,80,9,,1.75,29.500984,,,TRUE,TRUE,,,,TRUE,,-RA BR,FEW,300,SCT,2600,OVC,6000,,,IFR,,,,,,0.005,,,,,,SPECI,13.0
CYUY 061511Z 01010G22KT 15SM OVC010 04/03 A2959 RMK SF8 SLP033,CYUY,2017-05-06T15:11:00Z,48.2,-78.82,4.0,3.0,10,10,22,15.0,29.589567,1003.3,,,,,,,,,,OVC,1000,,,,,,,MVFR,,,,,,,,,,,,SPECI,301.0
KUKF 061510Z AUTO 31012G20KT 280V350 10SM BKN050 13/02 A2967 RMK AO2,KUKF,2017-05-06T15:10:00Z,36.22,-81.1,13.0,2.0,310,12,20,10.0,29.66929,,,TRUE,TRUE,,,,,,,BKN,5000,,,,,,,VFR,,,,,,,,,,,,METAR,396.0
ENDR 061510Z 02019KT 9999 BKN022 06/01 Q1024,ENDR,2017-05-06T15:10:00Z,64.35,7.8,6.0,1.0,20,19,,6.21,30.236221,,,,,,,,,,,BKN,2200,,,,,,,MVFR,,,,,,,,,,,,METAR,50.0
KAQO 061510Z AUTO 00000KT 10SM CLR 23/09 A3006 RMK AO2,KAQO,2017-05-06T15:10:00Z,30.78,-98.67,23.0,9.0,0,0,,10.0,30.059055,,,TRUE,TRUE,,,,,,,CLR,,,,,,,,VFR,,,,,,,,,,,,SPECI,336.0
KW63 061510Z AUTO 29009G15KT 10SM BKN042 16/06 A2953 RMK AO1,KW63,2017-05-06T15:10:00Z,36.6,-78.55,16.0,6.0,290,9,15,10.0,29.530512,,,TRUE,TRUE,,,,,,,BKN,4200,,,,,,,VFR,,,,,,,,,,,,SPECI,129.0
KW22 061510Z AUTO 29009G14KT 9SM FEW009 BKN013 BKN017 06/05 A2957 RMK AO2,KW22,2017-05-06T15:10:00Z,39.0,-80.27,6.0,5.0,290,9,14,9.0,29.568897,,,TRUE,TRUE,,,,,,,FEW,900,BKN,1300,BKN,1700,,,MVFR,,,,,,,,,,,,SPECI,499.0
KVVG 061510Z AUTO 18016KT 10SM 22/07 A2983 RMK A01,KVVG,2017-05-06T15:10:00Z,28.95,-81.97,22.0,7.0,180,16,,10.0,29.828741,,,TRUE,TRUE,,,,,,,,,,,,,,,,,,,,,,,,,,,SPECI,27.0
KVBW 061510Z AUTO 25010G20KT 10SM OVC040 12/05 A2947 RMK AO2 T01170054,KVBW,2017-05-06T15:10:00Z,38.37,-78.97,11.7,5.4,250,10,20,10.0,29.471457,,,TRUE,TRUE,,,,,,,OVC,4000,,,,,,,VFR,,,,,,,,,,,,METAR,355.0
KTMA 061510Z AUTO 32013G18KT 10SM CLR 17/06 A2991 RMK AO2 T01690060,KTMA,2017-05-06T15:10:00Z,31.43,-83.48,16.9,6.0,320,13,18,10.0,29.911417,,,TRUE,TRUE,,,,,,,CLR,,,,,,,,VFR,,,,,,,,,,,,SPECI,109.0
KT82 061510Z AUTO 20012G19KT 10SM CLR 22/08 A3006 RMK AO2 T02230080,KT82,2017-05-06T15:10:00Z,30.25,-98.92,22.3,8.0,200,12,19,10.0,30.059055,,,TRUE,TRUE,,,,,,,CLR,,,,,,,,VFR,,,,,,,,,,,,SPECI,517.0
KRZN 061510Z AUTO 00000KT 10SM CLR 10/04 A3002 RMK AO2 T01000042,KRZN,2017-05-06T15:10:00Z,45.82,-92.37,10.0,4.2,0,0,,10.0,30.02067,,,TRUE,TRUE,,,,,,,CLR,,,,,,,,VFR,,,,,,,,,,,,SPECI,301.0
KLNP 061510Z AUTO 28010KT 10SM BKN019 OVC025 08/02 A2972 RMK AO2,KLNP,2017-05-06T15:10:00Z,36.97,-82.52,8.0,2.0,280,10,,10.0,29.719488,,,TRUE,TRUE,,,,,,,BKN,1900,OVC,2500,,,,,MVFR,,,,,,,,,,,,SPECI,817.0
KHFJ 061510Z AUTO 25012G16KT 10SM CLR 19/08 A2996 RMK AO2,KHFJ,2017-05-06T15:10:00Z,36.9,-94.02,19.0,8.0,250,12,16,10.0,29.958662,,,TRUE,TRUE,,,,,,,CLR,,,,,,,,VFR,,,,,,,,,,,,SPECI,401.0
KGLW 061510Z AUTO 05004KT 10SM -RA OVC065 08/08 A2979 RMK AO2 P0001 T00770077,KGLW,2017-05-06T15:10:00Z,37.03,-85.95,7.7,7.7,50,4,,10.0,29.790354,,,TRUE,TRUE,,,,,,-RA,OVC,6500,,,,,,,VFR,,,,,,0.01,,,,,,SPECI,218.0
KFRR 061510Z AUTO 23005KT 10SM SCT014 BKN021 OVC030 10/08 A2944 RMK AO1 P0001,KFRR,2017-05-06T15:10:00Z,38.92,-78.25,10.0,8.0,230,5,,10.0,29.438976,,,TRUE,TRUE,,,,,,,SCT,1400,BKN,2100,OVC,3000,,,MVFR,,,,,,0.01,,,,,,SPECI,216.0
VCRI 061510Z VRB01KT 9999 FEW018 SCT080 25/20 Q1012 NOSIG,VCRI,2017-05-06T15:10:00Z,6.28,81.13,25.0,20.0,0,1,,6.21,29.88189,,,,,,TRUE,,,,,FEW,1800,SCT,8000,,,,,VFR,,,,,,,,,,,,METAR,7.0
VCBI 061510Z VRB02KT 9999 FEW018 26/23 Q1012 NOSIG,VCBI,2017-05-06T15:10:00Z,7.17,79.87,26.0,23.0,0,2,,6.21,29.88189,,,,,,TRUE,,,,,FEW,1800,,,,,,,VFR,,,,,,,,,,,,METAR,8.0
OAKB 061510Z 25010G29KT 9999 -TSRA FEW060CB BKN080 21/07 Q1022 RMK BLU,OAKB,2017-05-06T15:10:00Z,34.55,69.22,21.0,7.0,250,10,29,6.21,30.177166,,,,,,,,,,-TSRA,FEW,6000,BKN,8000,,,,,VFR,,,,,,,,,,,,SPECI,1791.0
KWYS 061510Z AUTO 02003KT 10SM CLR 10/03 A2993 RMK AO2,KWYS,2017-05-06T15:10:00Z,44.67,-111.12,10.0,3.0,20,3,,10.0,29.929134,,,TRUE,TRUE,,,,,,,CLR,,,,,,,,VFR,,,,,,,,,,,,METAR,2025.0
KSTK 061510Z AUTO 23006KT 10SM CLR 20/08 A2993 RMK AO2,KSTK,2017-05-06T15:10:00Z,40.62,-103.27,20.0,8.0,230,6,,10.0,29.929134,,,TRUE,TRUE,,,,,,,CLR,,,,,,,,VFR,,,,,,,,,,,,METAR,1231.0
KEDJ 061510Z AUTO 32010G14KT 10SM SCT022 BKN028 10/05 A2966 RMK AO1,KEDJ,2017-05-06T15:10:00Z,40.37,-83.82,10.0,5.0,320,10,14,10.0,29.660433,,,TRUE,TRUE,,,,,,,SCT,2200,BKN,2800,,,,,MVFR,,,,,,,,,,,,METAR,342.0
K1V6 061510Z AUTO 28010KT 10SM CLR 21/04 A3001 RMK AO2,K1V6,2017-05-06T15:10:00Z,38.43,-105.1,21.0,4.0,280,10,,10.0,30.008858,,,TRUE,TRUE,,,,,,,CLR,,,,,,,,VFR,,,,,,,,,,,,METAR,1658.0
KCVH 061510Z AUTO 25010KT 10SM 11/04 A2987 RMK AO1,KCVH,2017-05-06T15:10:00Z,36.9,-121.42,11.0,4.0,250,10,,10.0,29.870079,,,TRUE,TRUE,,,,,,,,,,,,,,,,,,,,,,,,,,,METAR,70.0
KSYM 061510Z AUTO 23007KT 10SM SCT049 SCT070 10/06 A2974 RMK AO2,KSYM,2017-05-06T15:10:00Z,38.22,-83.58,10.0,6.0,230,7,,10.0,29.740158,,,TRUE,TRUE,,,,,,,SCT,4900,SCT,7000,,,,,VFR,,,,,,,,,,,,METAR,313.0
KMDS 061510Z AUTO 17005KT 10SM CLR 17/05 A2998 RMK AO2,KMDS,2017-05-06T15:10:00Z,44.02,-97.08,17.0,5.0,170,5,,10.0,29.97933,,,TRUE,TRUE,,,,,,,CLR,,,,,,,,VFR,,,,,,,,,,,,METAR,524.0
KLVN 061510Z AUTO 02005KT 10SM CLR 13/05 A2999 RMK AO2,KLVN,2017-05-06T15:10:00Z,44.63,-93.23,13.0,5.0,20,5,,10.0,29.991142,,,TRUE,TRUE,,,,,,,CLR,,,,,,,,VFR,,,,,,,,,,,,METAR,293.0
KHST 061510Z AUTO 32014KT 10SM CLR 23/10 A2998 RMK AO2 WSHFT 06 SLP155,KHST,2017-05-06T15:10:00Z,25.47,-80.37,23.0,10.0,320,14,,10.0,29.97933,1015.5,,TRUE,TRUE,,,,,,,CLR,,,,,,,,VFR,,,,,,,,,,,,SPECI,2.0
KGSB 061510Z AUTO 22012KT 10SM BKN021 OVC032 15/12 A2956 RMK AO2 CIG 021V032 BKN V SCT SLP013 $,KGSB,2017-05-06T15:10:00Z,35.32,-77.97,15.0,12.0,220,12,,10.0,29.56004,1001.3,,TRUE,TRUE,TRUE,,,,,,BKN,2100,OVC,3200,,,,,MVFR,,,,,,,,,,,,SPECI,33.0
KIZG 061510Z AUTO 35004KT 3SM BR BKN006 OVC017 10/10 A2960 RMK AO2 T01000100,KIZG,2017-05-06T15:10:00Z,43.98,-70.95,10.0,10.0,350,4,,3.0,29.601377,,,TRUE,TRUE,,,,,,BR,BKN,600,OVC,1700,,,,,IFR,,,,,,,,,,,,SPECI,135.0
KEEN 061510Z AUTO VRB06KT 10SM SCT017 BKN030 OVC036 18/15 A2947 RMK AO2 TSNO,KEEN,2017-05-06T15:10:00Z,42.88,-72.27,18.0,15.0,0,6,,10.0,29.471457,,,TRUE,TRUE,,,TRUE,,,,SCT,1700,BKN,3000,OVC,3600,,,MVFR,,,,,,,,,,,,METAR,149.0
KSVH 061510Z AUTO 30011G17KT 10SM CLR 15/05 A2963 RMK AO2 T01490051,KSVH,2017-05-06T15:10:00Z,35.75,-80.95,14.9,5.1,300,11,17,10.0,29.630905,,,TRUE,TRUE,,,,,,,CLR,,,,,,,,VFR,,,,,,,,,,,,METAR,294.0
KSCR 061510Z AUTO 27007G14KT 10SM BKN041 OVC060 14/06 A2960 RMK AO2 T01390055,KSCR,2017-05-06T15:10:00Z,35.7,-79.5,13.9,5.5,270,7,14,10.0,29.601377,,,TRUE,TRUE,,,,,,,BKN,4100,OVC,6000,,,,,VFR,,,,,,,,,,,,METAR,188.0
KRUQ 061510Z AUTO 31016G22KT 10SM SCT042 SCT050 14/05 A2963 RMK AO2 T01410045,KRUQ,2017-05-06T15:10:00Z,35.65,-80.52,14.1,4.5,310,16,22,10.0,29.630905,,,TRUE,TRUE,,,,,,,SCT,4200,SCT,5000,,,,,VFR,,,,,,,,,,,,METAR,236.0
KRHP 061510Z AUTO 25010KT 10SM SCT110 13/03 A2978 RMK AO2 T01340029,KRHP,2017-05-06T15:10:00Z,35.18,-83.85,13.4,2.9,250,10,,10.0,29.778543,,,TRUE,TRUE,,,,,,,SCT,11000,,,,,,,VFR,,,,,,,,,,,,METAR,518.0
K6I2 061510Z AUTO 22004KT 2SM -RA SCT005 BKN020 OVC043 07/05 A2979 RMK AO2,K6I2,2017-05-06T15:10:00Z,37.63,-85.25,7.0,5.0,220,4,,2.0,29.790354,,,TRUE,TRUE,,,,,,-RA,SCT,500,BKN,2000,OVC,4300,,,IFR,,,,,,,,,,,,METAR,264.0
K1A5 061510Z AUTO 36009G14KT 10SM SCT060 SCT080 SCT090 13/01 A2977 RMK AO2 T01310011,K1A5,2017-05-06T15:10:00Z,35.22,-83.42,13.1,1.1,360,9,14,10.0,29.769686,,,TRUE,TRUE,,,,,,,SCT,6000,SCT,8000,SCT,9000,,,VFR,,,,,,,,,,,,METAR,616.0
KFQD 061510Z AUTO 29008G14KT 10SM CLR 15/02 A2968 RMK AO2 T01530018,KFQD,2017-05-06T15:10:00Z,35.42,-81.93,15.3,1.8,290,8,14,10.0,29.681103,,,TRUE,TRUE,,,,,,,CLR,,,,,,,,VFR,,,,,,,,,,,,METAR,329.0
KVUJ 061510Z AUTO 31009KT 10SM BKN040 BKN110 15/06 A2967 RMK AO2 T01470060,KVUJ,2017-05-06T15:10:00Z,35.42,-80.15,14.7,6.0,310,9,,10.0,29.66929,,,TRUE,TRUE,,,,,,,BKN,4000,BKN,11000,,,,,VFR,,,,,,,,,,,,METAR,186.0
KMRN 061510Z AUTO 32010G17KT 290V360 10SM CLR 14/02 A2970 RMK AO2 T01410024,KMRN,2017-05-06T15:10:00Z,35.82,-81.62,14.1,2.4,320,10,17,10.0,29.698818,,,TRUE,TRUE,,,,,,,CLR,,,,,,,,VFR,,,,,,,,,,,,METAR,387.0
KTDF 061510Z AUTO 27009G17KT 230V290 10SM BKN040 OVC047 13/05 A2958 RMK AO2,KTDF,2017-05-06T15:10:00Z,36.28,-78.98,13.0,5.0,270,9,17,10.0,29.58071,,,TRUE,TRUE,,,,,,,BKN,4000,OVC,4700,,,,,VFR,,,,,,,,,,,,METAR,186.0
KCDD 061509Z AUTO 05003KT 10SM BKN019 07/03 A3008 RMK AO2,KCDD,2017-05-06T15:09:00Z,48.27,-92.48,7.0,3.0,50,3,,10.0,30.079725,,,TRUE,TRUE,,,,,,,BKN,1900,,,,,,,MVFR,,,,,,,,,,,,METAR,341.0
KPYM 061509Z AUTO 15007G18KT 120V180 10SM BKN010 BKN042 17/16 A2956 RMK AO2 P0001 T01720156 TSNO,KPYM,2017-05-06T15:09:00Z,41.92,-70.73,17.2,15.6,150,7,18,10.0,29.56004,,,TRUE,TRUE,,,TRUE,,,,BKN,1000,BKN,4200,,,,,MVFR,,,,,,0.01,,,,,,METAR,43.0
KDET 061509Z 33010G21KT 10SM BKN032 OVC041 10/04 A2959 RMK AO2 T01000039,KDET,2017-05-06T15:09:00Z,42.4,-83.02,10.0,3.9,330,10,21,10.0,29.589567,,,,TRUE,,,,,,,BKN,3200,OVC,4100,,,,,VFR,,,,,,,,,,,,METAR,190.0
KSXT 061509Z AUTO 35007G22KT 320V050 8SM BKN005 OVC010 M01/M01 A3000 RMK AO2 CIG 003V009 T10111011,KSXT,2017-05-06T15:09:00Z,42.6,-123.37,-1.1,-1.1,350,7,22,8.0,30.0,,,TRUE,TRUE,,,,,,,BKN,500,OVC,1000,,,,,IFR,,,,,,,,,,,,METAR,1170.0
UTO8 M M M 283/-05/-07/1413/M/ PK WND 1623 1417Z SOG 43 3031 04MM,UTO8,2017-05-06T15:08:11Z,,,,,,,,1.88,,,,,,,,,,,,,,,,,,,,,,,,,,,,,,,,METAR,
KMYP 061508Z AUTO 07004KT 10SM CLR 08/M05 A3051 RMK AO2,KMYP,2017-05-06T15:08:00Z,38.48,-106.32,8.0,-5.0,70,4,,10.0,30.510826,,,TRUE,TRUE,,,,,,,CLR,,,,,,,,VFR,,,,,,,,,,,,METAR,3667.0
PATC 061508Z AUTO 03025KT 1 1/4SM -FZRA BR BKN002 M05/M05 A2978 RMK AO2 PK WND 03026/1455 SLP091,PATC,2017-05-06T15:08:00Z,65.57,-167.92,-5.0,-5.0,30,25,,1.25,29.778543,1009.1,,TRUE,TRUE,,,,,,-FZRA BR,BKN,200,,,,,,,LIFR,,,,,,,,,,,,SPECI,83.0
KDOV 061508Z AUTO 18019G25KT 10SM BKN028 BKN033 OVC055 16/13 A2940 RMK AO2 BKN028 V OVC SLP959 $,KDOV,2017-05-06T15:08:00Z,39.12,-75.47,16.0,13.0,180,19,25,10.0,29.40059,995.9,,TRUE,TRUE,TRUE,,,,,,BKN,2800,BKN,3300,OVC,5500,,,MVFR,,,,,,,,,,,,SPECI,9.0
ETAD 061508Z AUTO 18008KT 9999 BKN060 16/08 A2980 RMK AO2 SLP081,ETAD,2017-05-06T15:08:00Z,49.98,6.7,16.0,8.0,180,8,,6.21,29.799213,1008.1,,TRUE,TRUE,,,,,,,BKN,6000,,,,,,,VFR,,,,,,,,,,,,METAR,365.0
KEHA 061508Z AUTO 18006KT 18/06 RMK AO1 /PK WND 12 M T01780062,KEHA,2017-05-06T15:08:00Z,37.0,-101.9,17.8,6.2,180,6,,,,,,TRUE,TRUE,,,,,,,,,,,,,,,,,,,,,,,,,,,METAR,1099.0
CYQH 061508Z 31007KT 4SM -RA BR BKN005 OVC025 02/01 A2973 RMK ST6SC2 SLP097,CYQH,2017-05-06T15:08:00Z,60.12,-128.82,2.0,1.0,310,7,,4.0,29.731298,1009.7,,,,,,,,,-RA BR,BKN,500,OVC,2500,,,,,IFR,,,,,,,,,,,,SPECI,690.0
CYKL 061508Z AUTO 12007KT 8SM -UP BKN023 BKN035 OVC045 02/M02 A3013 RMK SLP239,CYKL,2017-05-06T15:08:00Z,54.78,-66.82,2.0,-2.0,120,7,,8.0,30.129921,1023.9,,TRUE,,,,,,,UP,BKN,2300,BKN,3500,OVC,4500,,,MVFR,,,,,,,,,,,,SPECI,521.0
KPTW 061507Z AUTO 19006KT 10SM BKN025 OVC034 14/10 A2938 RMK AO2 T01440100,KPTW,2017-05-06T15:07:00Z,40.23,-75.55,14.4,10.0,190,6,,10.0,29.379921,,,TRUE,TRUE,,,,,,,BKN,2500,OVC,3400,,,,,MVFR,,,,,,,,,,,,SPECI,92.0
KMIV 061507Z AUTO 21008G19KT 170V240 10SM SCT027 BKN034 OVC050 17/12 A2941 RMK AO2 T01670117,KMIV,2017-05-06T15:07:00Z,39.37,-75.08,16.7,11.7,210,8,19,10.0,29.409449,,,TRUE,TRUE,,,,,,,SCT,2700,BKN,3400,OVC,5000,,,VFR,,,,,,,,,,,,SPECI,23.0
KLHW 061507Z AUTO 26014G22KT 10SM FEW039 18/07 A2980 RMK AO2 WSHFT 03 SLP094,KLHW,2017-05-06T15:07:00Z,31.87,-81.57,18.0,7.0,260,14,22,10.0,29.799213,1009.4,,TRUE,TRUE,,,,,,,FEW,3900,,,,,,,VFR,,,,,,,,,,,,SPECI,14.0
CYGT 061507Z 34023KT 15SM DRSN BKN220 M11/M14 A3039 RMK CI6 -10.0/-19.6/TR/74.0 SLP299,CYGT,2017-05-06T15:07:00Z,69.37,-81.82,-11.0,-14.0,340,23,,15.0,30.389763,1029.9,,,,,,,,,DRSN,BKN,22000,,,,,,,VFR,,,,,,,,,,,,SPECI,51.0
KSFM 061507Z AUTO 00000KT 3SM BR OVC002 12/12 A2957 RMK AO2,KSFM,2017-05-06T15:07:00Z,43.38,-70.72,12.0,12.0,0,0,,3.0,29.568897,,,TRUE,TRUE,,,,,,BR,OVC,200,,,,,,,LIFR,,,,,,,,,,,,SPECI,74.0
KMLT 061506Z AUTO 09005KT 3SM RA BR SCT004 OVC010 12/12 A2971 RMK AO2 P0004 T01220122 TSNO,KMLT,2017-05-06T15:06:00Z,45.65,-68.7,12.2,12.2,90,5,,3.0,29.71063,,,TRUE,TRUE,,,TRUE,,,RA BR,SCT,400,OVC,1000,,,,,MVFR,,,,,,0.04,,,,,,SPECI,123.0
KCDI 061506Z AUTO 32009KT 290V350 10SM OVC030 10/04 A2958 RMK AO2 T01040041,KCDI,2017-05-06T15:06:00Z,39.97,-81.58,10.4,4.1,320,9,,10.0,29.58071,,,TRUE,TRUE,,,,,,,OVC,3000,,,,,,,MVFR,,,,,,,,,,,,SPECI,244.0
KAGC 061506Z 28007KT 250V320 7SM -RA BKN009 BKN017 OVC034 07/04 A2948 RMK AO2 P0001 T00670044,KAGC,2017-05-06T15:06:00Z,40.35,-79.92,6.7,4.4,280,7,,7.0,29.480314,,,,TRUE,,,,,,-RA,BKN,900,BKN,1700,OVC,3400,,,IFR,,,,,,0.01,,,,,,SPECI,389.0
KSMP 061505Z AUTO VRB04KT 3/4SM BR VV003 M01/M01 A3000 RMK AO2 T10061006,KSMP,2017-05-06T15:05:00Z,47.28,-121.33,-0.6,-0.6,0,4,,0.75,30.0,,,TRUE,TRUE,,,,,,BR,OVX,0,,,,,,,LIFR,,,,,,,,,,,300,SPECI,1208.0
LTAN 061505Z 24012KT 9999 -SHRA SCT035 BKN090 21/05 Q1010 NOSIG RMK RWY19 26012KT,LTAN,2017-05-06T15:05:00Z,37.97,32.53,21.0,5.0,240,12,,6.21,29.822834,,,,,,TRUE,,,,-SHRA,SCT,3500,BKN,9000,,,,,VFR,,,,,,,,,,,,METAR,1006.0
KAUG 061505Z AUTO 15006KT 1/4SM -RA FG VV002 13/12 A2964 RMK AO2 RAB01 P0000 T01280122,KAUG,2017-05-06T15:05:00Z,44.32,-69.8,12.8,12.2,150,6,,0.25,29.639763,,,TRUE,TRUE,,,,,,-RA FG,OVX,0,,,,,,,LIFR,,,,,,0.005,,,,,200,METAR,109.0
KFTK 061504Z AUTO 21003KT 10SM -RA OVC045 07/06 A2976 RMK AO2 RAB00E02RAB04 SLP082,KFTK,2017-05-06T15:04:00Z,37.88,-85.97,7.0,6.0,210,3,,10.0,29.760826,1008.2,,TRUE,TRUE,,,,,,-RA,OVC,4500,,,,,,,VFR,,,,,,,,,,,,SPECI,230.0
PADQ 061504Z 07012KT 1 3/4SM -RA BR OVC004 06/06 A2967 RMK AO2 SFC VIS 2 P0001 T00560056,PADQ,2017-05-06T15:04:00Z,57.75,-152.5,5.6,5.6,70,12,,1.75,29.66929,,,,TRUE,,,,,,-RA BR,OVC,400,,,,,,,LIFR,,,,,,0.01,,,,,,METAR,34.0
KNSI 061504Z AUTO 30024G35KT FEW020 A2986 RMK AO2 PK WND 31035/1458 PWINO $,KNSI,2017-05-06T15:04:00Z,33.22,-119.45,,,300,24,35,,29.861221,,,TRUE,TRUE,TRUE,,,,TRUE,,FEW,2000,,,,,,,,,,,,,,,,,,,SPECI,154.0
PAPM 061504Z AUTO 08020KT 4SM -RA BR BKN012 BKN017 OVC029 04/03 A2948 RMK AO2 P0000,PAPM,2017-05-06T15:04:00Z,59.02,-161.82,4.0,3.0,80,20,,4.0,29.480314,,,TRUE,TRUE,,,,,,-RA BR,BKN,1200,BKN,1700,OVC,2900,,,MVFR,,,,,,0.005,,,,,,SPECI,5.0
KHYS 061503Z AUTO 28003KT 10SM FEW003 21/11 A2997 RMK AO2,KHYS,2017-05-06T15:03:00Z,38.85,-99.27,21.0,11.0,280,3,,10.0,29.970472,,,TRUE,TRUE,,,,,,,FEW,300,,,,,,,VFR,,,,,,,,,,,,SPECI,609.0
KBLM 061503Z AUTO 15014G20KT 10SM BKN028 OVC036 16/11 A2942 RMK AO2,KBLM,2017-05-06T15:03:00Z,40.17,-74.12,16.0,11.0,150,14,20,10.0,29.421259,,,TRUE,TRUE,,,,,,,BKN,2800,OVC,3600,,,,,MVFR,,,,,,,,,,,,SPECI,48.0
KTCM 061503Z AUTO 00000KT 10SM SCT026 OVC036 07/06 A3015 RMK AO2 CIG 025 RWY34 SLP214 $,KTCM,2017-05-06T15:03:00Z,47.12,-122.47,7.0,6.0,0,0,,10.0,30.15059,1021.4,,TRUE,TRUE,TRUE,,,,,,SCT,2600,OVC,3600,,,,,VFR,,,,,,,,,,,,SPECI,98.0
KCBE 061503Z AUTO 27009G16KT 251V311 7SM BKN009 OVC015 09/06 A2950 RMK AO1,KCBE,2017-05-06T15:03:00Z,39.62,-78.77,9.0,6.0,270,9,16,7.0,29.500984,,,TRUE,TRUE,,,,,,,BKN,900,OVC,1500,,,,,IFR,,,,,,,,,,,,METAR,236.0
KRME 061502Z 12008KT 10SM -RA FEW022 BKN031 OVC055 15/14 A2931 RMK AO2 P0000 T01500139,KRME,2017-05-06T15:02:00Z,43.22,-75.4,15.0,13.9,120,8,,10.0,29.309055,,,,TRUE,,,,,,-RA,FEW,2200,BKN,3100,OVC,5500,,,VFR,,,,,,0.005,,,,,,SPECI,154.0
PAKF 061501Z AUTO 13009KT 9SM BKN014 OVC021 05/03 A2928 RMK AO2 SLP007 60001 T00500033 51002 $,PAKF,2017-05-06T15:01:00Z,54.85,-163.42,5.0,3.3,130,9,,9.0,29.279528,1000.7,,TRUE,TRUE,TRUE,,,,,,BKN,1400,OVC,2100,,,,,MVFR,0.2,,,,,,0.01,,,,,METAR,6.0
PAIK 061501Z AUTO 36003KT 10SM BKN060 OVC085 M01/M03 A2987 RMK AO2 UPB1403E1405SNB1405SNEMM SLP157 P0000 60000 T10111033 58002 FZRANO,PAIK,2017-05-06T15:01:00Z,66.98,-160.43,-1.1,-3.3,360,3,,10.0,29.870079,1015.7,,TRUE,TRUE,,,,TRUE,,,BKN,6000,OVC,8500,,,,,VFR,-0.2,,,,,0.005,0.005,,,,,METAR,51.0
EGDX 061501Z 06013KT 9999 FEW028 BKN050 14/07 Q1013 BLU,EGDX,2017-05-06T15:01:00Z,51.4,-3.43,14.0,7.0,60,13,,6.21,29.911417,,,,,,,,,,,FEW,2800,BKN,5000,,,,,VFR,,,,,,,,,,,,METAR,50.0
KHIF 061501Z 14014KT 10SM SCT120 BKN200 17/01 A2978 RMK SLP986 AO2A T01710010,KHIF,2017-05-06T15:01:00Z,41.12,-111.97,17.1,1.0,140,14,,10.0,29.778543,998.6,,,TRUE,,,,,,,SCT,12000,BKN,20000,,,,,VFR,,,,,,,,,,,,METAR,1459.0
KLWM 061501Z 12005KT 10SM SCT005 OVC070 18/16 A2955 RMK AO2 T01780161,KLWM,2017-05-06T15:01:00Z,42.72,-71.13,17.8,16.1,120,5,,10.0,29.551182,,,,TRUE,,,,,,,SCT,500,OVC,7000,,,,,VFR,,,,,,,,,,,,METAR,54.0
KDBQ 061501Z 02011KT 10SM SCT023 SCT032 12/06 A2989 RMK AO2 T01220056,KDBQ,2017-05-06T15:01:00Z,42.4,-90.7,12.2,5.6,20,11,,10.0,29.890747,,,,TRUE,,,,,,,SCT,2300,SCT,3200,,,,,VFR,,,,,,,,,,,,METAR,326.0
KTVF 061501Z AUTO 04006KT 10SM CLR 16/03 A3002 RMK AO2 SLP170 T01560028 51013,KTVF,2017-05-06T15:01:00Z,48.07,-96.17,15.6,2.8,40,6,,10.0,30.02067,1017.0,,TRUE,TRUE,,,,,,,CLR,,,,,,,,VFR,1.3,,,,,,,,,,,METAR,340.0
PAFS 061501Z AUTO 06006KT 10SM CLR 02/M03 A2971 RMK AO2 SLP083 T00221033 50000 PWINO FZRANO $,PAFS,2017-05-06T15:01:00Z,63.02,-154.35,2.2,-3.3,60,6,,10.0,29.71063,1008.3,,TRUE,TRUE,TRUE,,,TRUE,TRUE,,CLR,,,,,,,,VFR,0.0,,,,,,,,,,,METAR,126.0
MYGF 061500Z 30021KT CAVOK 23/12 A2994,MYGF,2017-05-06T15:00:00Z,26.55,-78.7,23.0,12.0,300,21,,6.21,29.940945,,,,,,,,,,,CAVOK,,,,,,,,VFR,,,,,,,,,,,,METAR,2.0
GOTK 061500Z 18002KT 9999 FEW013 42/21 Q1006,GOTK,2017-05-06T15:00:00Z,12.57,-12.22,42.0,21.0,180,2,,6.21,29.704725,,,,,,,,,,,FEW,1300,,,,,,,VFR,,,,,,,,,,,,METAR,167.0
GOOK 061500Z 04006KT CAVOK 43/13 Q1007,GOOK,2017-05-06T15:00:00Z,14.15,-16.07,43.0,13.0,40,6,,6.21,29.734253,,,,,,,,,,,CAVOK,,,,,,,,VFR,,,,,,,,,,,,METAR,7.0
GOTT 061500Z 30004KT CAVOK 42/16 Q1006,GOTT,2017-05-06T15:00:00Z,13.73,-13.65,42.0,16.0,300,4,,6.21,29.704725,,,,,,,,,,,CAVOK,,,,,,,,VFR,,,,,,,,,,,,METAR,50.0
GOSS 061500Z 34012KT 290V360 CAVOK 29/18 Q1009,GOSS,2017-05-06T15:00:00Z,16.05,-16.43,29.0,18.0,340,12,,6.21,29.793306,,,,,,,,,,,CAVOK,,,,,,,,VFR,,,,,,,,,,,,METAR,4.0
FPST 061500Z 14015KT 9999 SCT020CB 30/26 Q1011 NOSIG,FPST,2017-05-06T15:00:00Z,0.37,6.72,30.0,26.0,140,15,,6.21,29.852362,,,,,,TRUE,,,,,SCT,2000,,,,,,,VFR,,,,,,,,,,,,METAR,13.0
NVVV 061500Z 10009KT 8000 -SHRA FEW010 SCT018 BKN040 OVC100 24/24 Q1009 RMK NIL,NVVV,2017-05-06T15:00:00Z,-17.68,168.3,24.0,24.0,100,9,,4.97,29.793306,,,,,,,,,,-SHRA,FEW,1000,SCT,1800,BKN,4000,OVC,10000,MVFR,,,,,,,,,,,,METAR,21.0
NVSC 061500Z 01008KT 9999 BKN018 FEW022CB OVC040 28/27 Q1005 RMK RESH,NVSC,2017-05-06T15:00:00Z,-13.83,167.55,28.0,27.0,10,8,,6.21,29.675198,,,,,,,,,,,BKN,1800,FEW,2200,OVC,4000,,,MVFR,,,,,,,,,,,,METAR,18.0
OEKJ 061500Z 15010KT 9999 FEW030 SCT080 38/09 Q1010,OEKJ,2017-05-06T15:00:00Z,24.07,47.58,38.0,9.0,150,10,,6.21,29.822834,,,,,,,,,,,FEW,3000,SCT,8000,,,,,VFR,,,,,,,,,,,,METAR,503.0
CXSC 061500Z AUTO 20003KT 18/09 RMK AO1 T01790093,CXSC,2017-05-06T15:00:00Z,50.3,-110.08,17.9,9.3,200,3,,,,,,TRUE,TRUE,,,,,,,,,,,,,,,,,,,,,,,,,,,METAR,800.0
CWZV 061500Z AUTO 31007KT 07/04 RMK AO1 SLP186 T00720040 51011,CWZV,2017-05-06T15:00:00Z,51.93,-131.02,7.2,4.0,310,7,,,,1018.6,,TRUE,TRUE,,,,,,,,,,,,,,,,1.1,,,,,,,,,,,METAR,92.0
CWZL 061500Z AUTO 27007KT 06/02 RMK AO1 SLP189 T00550024 51009,CWZL,2017-05-06T15:00:00Z,53.03,-131.6,5.5,2.4,270,7,,,,1018.9,,TRUE,TRUE,,,,,,,,,,,,,,,,0.9,,,,,,,,,,,METAR,17.0
CWJO 061500Z AUTO 11010G19KT 08/06 RMK AO1 9PAST HR 8020 PK WND 10026/1440 SLP043 P0004 T00800060 50011,CWJO,2017-05-06T15:00:00Z,48.43,-71.15,8.0,6.0,110,10,19,,,1004.3,,TRUE,TRUE,,,,,,,,,,,,,,,,1.1,,,,,0.04,,,,,,METAR,133.0
CXYH 061500Z AUTO 04/04 RMK AO1 SLP049 T00430036 56015,CXYH,2017-05-06T15:00:00Z,61.25,-123.75,4.3,3.6,,,,,,1004.9,,TRUE,TRUE,,,,,,,,,,,,,,,,-1.5,,,,,,,,,,,METAR,204.0
CXPA 061500Z AUTO 29006KT 11/06 RMK AO1 T01070056,CXPA,2017-05-06T15:00:00Z,55.62,-118.3,10.7,5.6,290,6,,,,,,TRUE,TRUE,,,,,,,,,,,,,,,,,,,,,,,,,,,METAR,621.0
CXOY 061500Z AUTO 24005KT 18/07 RMK AO1 T01840068,CXOY,2017-05-06T15:00:00Z,51.38,-110.35,18.4,6.8,240,5,,,,,,TRUE,TRUE,,,,,,,,,,,,,,,,,,,,,,,,,,,METAR,767.0
CXKM 061500Z AUTO 31011KT 18/06 RMK AO1 T01780062,CXKM,2017-05-06T15:00:00Z,52.82,-111.85,17.8,6.2,310,11,,,,,,TRUE,TRUE,,,,,,,,,,,,,,,,,,,,,,,,,,,METAR,675.0
CXHR 061500Z AUTO 29007KT 18/04 RMK AO1 T01840037,CXHR,2017-05-06T15:00:00Z,51.18,-112.5,18.4,3.7,290,7,,,,,,TRUE,TRUE,,,,,,,,,,,,,,,,,,,,,,,,,,,METAR,971.0
CXDP 061500Z AUTO 30009KT 16/07 RMK AO1 T01590066,CXDP,2017-05-06T15:00:00Z,54.32,-113.95,15.9,6.6,300,9,,,,,,TRUE,TRUE,,,,,,,,,,,,,,,,,,,,,,,,,,,METAR,614.0
CXBR 061500Z AUTO 28018KT 17/05 RMK AO1 PK WND 28025/1429 T01710052,CXBR,2017-05-06T15:00:00Z,49.62,-113.82,17.1,5.2,280,18,,,,,,TRUE,TRUE,,,,,,,,,,,,,,,,,,,,,,,,,,,METAR,1073.0
CXAF 061500Z AUTO 31009KT 16/06 RMK AO1 T01580064,CXAF,2017-05-06T15:00:00Z,54.28,-112.97,15.8,6.4,310,9,,,,,,TRUE,TRUE,,,,,,,,,,,,,,,,,,,,,,,,,,,METAR,664.0
CWND 061500Z AUTO 07008KT M09/M11 RMK AO1 SLP156 T10921106 56002,CWND,2017-05-06T15:00:00Z,69.63,-135.43,-9.2,-10.6,70,8,,,,1015.6,,TRUE,TRUE,,,,,,,,,,,,,,,,-0.2,,,,,,,,,,,METAR,12.0
CZFS 061500Z AUTO 35004KT 05/04 RMK AO1 4PAST HR 5012 SLP064 P0013 T00470041 50065,CZFS,2017-05-06T15:00:00Z,61.77,-121.23,4.7,4.1,350,4,,,,1006.4,,TRUE,TRUE,,,,,,,,,,,,,,,,6.5,,,,,0.13,,,,,,METAR,168.0
CXTV 061500Z AUTO 15002KT M04/M05 RMK AO1 SLP184 T10361046 53002,CXTV,2017-05-06T15:00:00Z,68.75,-133.5,-3.6,-4.6,150,2,,,,1018.4,,TRUE,TRUE,,,,,,,,,,,,,,,,0.2,,,,,,,,,,,METAR,85.0
CWME 061500Z AUTO 19005KT 06/04 RMK AO1 T00560036,CWME,2017-05-06T15:00:00Z,52.18,-127.47,5.6,3.6,190,5,,,,,,TRUE,TRUE,,,,,,,,,,,,,,,,,,,,,,,,,,,METAR,32.0
CWQS 061500Z AUTO 31013KT 08/04 RMK AO1 PK WND 30017/1404 SLP184 T00770038 51010,CWQS,2017-05-06T15:00:00Z,53.32,-132.77,7.7,3.8,310,13,,,,1018.4,,TRUE,TRUE,,,,,,,,,,,,,,,,1.0,,,,,,,,,,,METAR,14.0
CWHP 061500Z AUTO 10015KT 02/01 RMK AO1 0005 PK WND 10018/1455 SLP262 T00240014 50002,CWHP,2017-05-06T15:00:00Z,49.07,-61.7,2.4,1.4,100,15,,,,1026.2,,TRUE,TRUE,,,,,,,,,,,,,,,,0.2,,,,,,,,,,,METAR,4.0
CWWX 061500Z AUTO 06016KT 07/02 RMK AO1 PK WND 06021/1434 SLP004 T00700024 56006,CWWX,2017-05-06T15:00:00Z,45.32,-81.73,7.0,2.4,60,16,,,,1000.4,,TRUE,TRUE,,,,,,,,,,,,,,,,-0.6,,,,,,,,,,,METAR,181.0
FVKB 061500Z 27001KT 9999 FEW040 27/19 Q1016,FVKB,2017-05-06T15:00:00Z,-16.52,28.87,27.0,19.0,270,1,,6.21,30.0,,,,,,,,,,,FEW,4000,,,,,,,VFR,,,,,,,,,,,,METAR,518.0
FVBU 061500Z 12005KT CAVOK 23/07 Q1023 NOSIG,FVBU,2017-05-06T15:00:00Z,-20.02,28.62,23.0,7.0,120,5,,6.21,30.206694,,,,,,TRUE,,,,,CAVOK,,,,,,,,VFR,,,,,,,,,,,,METAR,1326.0
FVFA 061500Z 36005KT 320V060 CAVOK 27/11 Q1020 NOSIG,FVFA,2017-05-06T15:00:00Z,-18.1,25.85,27.0,11.0,360,5,,6.21,30.11811,,,,,,TRUE,,,,,CAVOK,,,,,,,,VFR,,,,,,,,,,,,METAR,1062.0
VRMM 061500Z 21005KT 9999 FEW018TCU BKN270 30/26 Q1012 NOSIG,VRMM,2017-05-06T15:00:00Z,4.2,73.52,30.0,26.0,210,5,,6.21,29.88189,,,,,,TRUE,,,,,FEW,1800,BKN,27000,,,,,VFR,,,,,,,,,,,,METAR,2.0
GOGK 061500Z VRB02KT CAVOK 43/16 Q1007,GOGK,2017-05-06T15:00:00Z,12.9,-14.97,43.0,16.0,0,2,,6.21,29.734253,,,,,,,,,,,CAVOK,,,,,,,,VFR,,,,,,,,,,,,METAR,10.0
GOOG 061500Z 36004KT CAVOK 44/16 Q////,GOOG,2017-05-06T15:00:00Z,15.4,-15.08,44.0,16.0,360,4,,6.21,,,,,,,,,,,,CAVOK,,,,,,,,VFR,,,,,,,,,,,,METAR,21.0
GOOD 061500Z 02006KT CAVOK 42/17 Q1007,GOOD,2017-05-06T15:00:00Z,14.65,-16.22,42.0,17.0,20,6,,6.21,29.734253,,,,,,,,,,,CAVOK,,,,,,,,VFR,,,,,,,,,,,,METAR,9.0
GOSP 061500Z 04004KT CAVOK 43/11 Q1007,GOSP,2017-05-06T15:00:00Z,16.68,-14.97,43.0,11.0,40,4,,6.21,29.734253,,,,,,,,,,,CAVOK,,,,,,,,VFR,,,,,,,,,,,,METAR,7.0
GOSM 061500Z 14004KT CAVOK 45/15 Q1006,GOSM,2017-05-06T15:00:00Z,15.6,-13.33,45.0,15.0,140,4,,6.21,29.704725,,,,,,,,,,,CAVOK,,,,,,,,VFR,,,,,,,,,,,,METAR,17.0
LFYR 061500Z AUTO 25010G22KT 200V290 9999 BKN040 BKN047 BKN074 17/09 Q1011,LFYR,2017-05-06T15:00:00Z,47.32,1.67,17.0,9.0,250,10,22,6.21,29.852362,,,TRUE,,,,,,,,BKN,4000,BKN,4700,BKN,7400,,,VFR,,,,,,,,,,,,METAR,86.0
LFSX 061500Z AUTO 23010KT 9999 -RA FEW023 BKN035 OVC056 13/10 Q1010,LFSX,2017-05-06T15:00:00Z,47.77,6.33,13.0,10.0,230,10,,6.21,29.822834,,,TRUE,,,,,,,-RA,FEW,2300,BKN,3500,OVC,5600,,,VFR,,,,,,,,,,,,METAR,273.0
LFSO 061500Z AUTO 18009KT 9999 BKN021 BKN038 OVC056 14/10 Q1009,LFSO,2017-05-06T15:00:00Z,48.57,5.97,14.0,10.0,180,9,,6.21,29.793306,,,TRUE,,,,,,,,BKN,2100,BKN,3800,OVC,5600,,,MVFR,,,,,,,,,,,,METAR,350.0
LFSI 061500Z AUTO 16006KT 130V190 9999 FEW032 SCT041 BKN047 14/10 Q1008,LFSI,2017-05-06T15:00:00Z,48.62,4.9,14.0,10.0,160,6,,6.21,29.763779,,,TRUE,,,,,,,,FEW,3200,SCT,4100,BKN,4700,,,VFR,,,,,,,,,,,,METAR,140.0
LFPV 061500Z AUTO 29009KT 8000 BKN007 OVC014 11/10 Q1009 NOSIG,LFPV,2017-05-06T15:00:00Z,48.77,2.2,11.0,10.0,290,9,,4.97,29.793306,,,TRUE,,,TRUE,,,,,BKN,700,OVC,1400,,,,,IFR,,,,,,,,,,,,METAR,179.0
LFOA 061500Z AUTO 25018KT 9999 FEW033/// SCT058/// BKN074/// ///TCU 15/10 Q1011,LFOA,2017-05-06T15:00:00Z,47.03,2.63,15.0,10.0,250,18,,6.21,29.852362,,,TRUE,,,,,,,,FEW,3300,SCT,5800,BKN,7400,,,VFR,,,,,,,,,,,,METAR,179.0
LFRL 061500Z AUTO 27011KT 9999 BKN008 BKN013 BKN018 14/11 Q1013,LFRL,2017-05-06T15:00:00Z,48.27,-4.42,14.0,11.0,270,11,,6.21,29.911417,,,TRUE,,,,,,,,BKN,800,BKN,1300,BKN,1800,,,IFR,,,,,,,,,,,,METAR,82.0
LFRJ 061500Z AUTO 28011KT 9999 SCT016 BKN023 BKN049 16/12 Q1012,LFRJ,2017-05-06T15:00:00Z,48.52,-4.15,16.0,12.0,280,11,,6.21,29.88189,,,TRUE,,,,,,,,SCT,1600,BKN,2300,BKN,4900,,,MVFR,,,,,,,,,,,,METAR,115.0
LFOJ 061500Z AUTO 29012KT 9999 -RA SCT009 BKN023 OVC031 13/12 Q1009,LFOJ,2017-05-06T15:00:00Z,47.97,1.75,13.0,12.0,290,12,,6.21,29.793306,,,TRUE,,,,,,,-RA,SCT,900,BKN,2300,OVC,3100,,,MVFR,,,,,,,,,,,,METAR,125.0
LFOE 061500Z AUTO 32004KT 290V350 8000 SCT008 OVC013 12/10 Q1010,LFOE,2017-05-06T15:00:00Z,49.02,1.22,12.0,10.0,320,4,,4.97,29.822834,,,TRUE,,,,,,,,SCT,800,OVC,1300,,,,,MVFR,,,,,,,,,,,,METAR,146.0
LFOC 061500Z AUTO 28007KT 9999 FEW009 SCT014 BKN025 13/12 Q1010,LFOC,2017-05-06T15:00:00Z,48.03,1.37,13.0,12.0,280,7,,6.21,29.822834,,,TRUE,,,,,,,,FEW,900,SCT,1400,BKN,2500,,,MVFR,,,,,,,,,,,,METAR,127.0
LJPZ 061500Z 28005KT 250V350 CAVOK 19/13 Q1012,LJPZ,2017-05-06T15:00:00Z,45.47,13.62,19.0,13.0,280,5,,6.21,29.88189,,,,,,,,,,,CAVOK,,,,,,,,VFR,,,,,,,,,,,,METAR,2.0
LJMB 061500Z 23013KT CAVOK 20/03 Q1010,LJMB,2017-05-06T15:00:00Z,46.47,15.67,20.0,3.0,230,13,,6.21,29.822834,,,,,,,,,,,CAVOK,,,,,,,,VFR,,,,,,,,,,,,METAR,265.0
LJLJ 061500Z 25009KT 220V280 9999 FEW050 SCT085 BKN100 17/05 Q1011 NOSIG,LJLJ,2017-05-06T15:00:00Z,46.22,14.47,17.0,5.0,250,9,,6.21,29.852362,,,,,,TRUE,,,,,FEW,5000,SCT,8500,BKN,10000,,,VFR,,,,,,,,,,,,METAR,385.0
LJCE 061500Z AUTO 26004KT 9999 NSC 20/10 Q1011,LJCE,2017-05-06T15:00:00Z,45.9,15.52,20.0,10.0,260,4,,6.21,29.852362,,,TRUE,,,,,,,,CLR,,,,,,,,VFR,,,,,,,,,,,,METAR,155.0
LFMY 061500Z AUTO 32013KT 270V340 9999 FEW031 SCT038 18/11 Q1014 NOSIG,LFMY,2017-05-06T15:00:00Z,43.6,5.08,18.0,11.0,320,13,,6.21,29.940945,,,TRUE,,,TRUE,,,,,FEW,3100,SCT,3800,,,,,VFR,,,,,,,,,,,,METAR,60.0
LFMO 061500Z AUTO 32009KT 9999 FEW032 BKN076 BKN094 16/13 Q1014 TEMPO BKN014 BKN030TCU,LFMO,2017-05-06T15:00:00Z,44.12,4.87,16.0,13.0,320,9,,6.21,29.940945,,,TRUE,,,,,,,,FEW,3200,BKN,7600,BKN,9400,,,VFR,,,,,,,,,,,,METAR,55.0
LFMC 061500Z AUTO 29010KT 9999 SCT017 SCT024 BKN030 16/13 Q1011,LFMC,2017-05-06T15:00:00Z,43.37,6.37,16.0,13.0,290,10,,6.21,29.852362,,,TRUE,,,,,,,,SCT,1700,SCT,2400,BKN,3000,,,MVFR,,,,,,,,,,,,METAR,78.0
LFKS 061500Z AUTO VRB04G15KT CAVOK 24/14 Q1008,LFKS,2017-05-06T15:00:00Z,41.92,9.4,24.0,14.0,0,4,15,6.21,29.763779,,,TRUE,,,,,,,,CAVOK,,,,,,,,VFR,,,,,,,,,,,,METAR,22.0
LFBY 061500Z AUTO 30009KT 260V340 9999 // ////// 19/08 Q1018,LFBY,2017-05-06T15:00:00Z,43.67,-1.07,19.0,8.0,300,9,,6.21,30.059055,,,TRUE,,,,,,,,,,,,,,,,,,,,,,,,,,,,METAR,32.0
LFBM 061500Z AUTO 29016KT 9999 SCT049 SCT056 20/08 Q1018,LFBM,2017-05-06T15:00:00Z,43.92,-0.5,20.0,8.0,290,16,,6.21,30.059055,,,TRUE,,,,,,,,SCT,4900,SCT,5600,,,,,VFR,,,,,,,,,,,,METAR,63.0
LFBG 061500Z AUTO 25020KT 9999 FEW025 SCT030 BKN036 17/09 Q1016,LFBG,2017-05-06T15:00:00Z,45.67,-0.32,17.0,9.0,250,20,,6.21,30.0,,,TRUE,,,,,,,,FEW,2500,SCT,3000,BKN,3600,,,VFR,,,,,,,,,,,,METAR,31.0
LFBC 061500Z AUTO 29013KT 250V320 9999 SCT023 ///// Q1018,LFBC,2017-05-06T15:00:00Z,44.52,-1.12,,,290,13,,6.21,30.059055,,,TRUE,,,,,,,,SCT,2300,,,,,,,VFR,,,,,,,,,,,,SPECI,33.0
SBJP 061500Z 13011KT 5000 -RA BKN023 BKN070 29/23 Q1012,SBJP,2017-05-06T15:00:00Z,-7.15,-34.95,29.0,23.0,130,11,,3.11,29.88189,,,,,,,,,,-RA,BKN,2300,BKN,7000,,,,,MVFR,,,,,,,,,,,,METAR,66.0
SAZS 061500Z 30010KT 9999 VCSH FEW015 BKN047 BKN055 11/08 Q1006,SAZS,2017-05-06T15:00:00Z,-41.13,-71.17,11.0,8.0,300,10,,6.21,29.704725,,,,,,,,,,VCSH,FEW,1500,BKN,4700,BKN,5500,,,VFR,,,,,,,,,,,,METAR,840.0
SAZN 061500Z 29003KT CAVOK 13/10 Q1006,SAZN,2017-05-06T15:00:00Z,-38.95,-68.15,13.0,10.0,290,3,,6.21,29.704725,,,,,,,,,,,CAVOK,,,,,,,,VFR,,,,,,,,,,,,METAR,271.0
SAZM 061500Z 02010KT CAVOK 20/16 Q1017,SAZM,2017-05-06T15:00:00Z,-37.92,-57.57,20.0,16.0,20,10,,6.21,30.029528,,,,,,,,,,,CAVOK,,,,,,,,VFR,,,,,,,,,,,,METAR,21.0
SAWG 061500Z 25006KT 6000 RA SCT008 OVC050 04/04 Q0999,SAWG,2017-05-06T15:00:00Z,-51.62,-69.32,4.0,4.0,250,6,,3.73,29.498032,,,,,,,,,,RA,SCT,800,OVC,5000,,,,,MVFR,,,,,,,,,,,,METAR,19.0
SAWE 061500Z 20004KT 9999 BKN030 05/03 Q1000,SAWE,2017-05-06T15:00:00Z,-53.78,-67.75,5.0,3.0,200,4,,6.21,29.52756,,,,,,,,,,,BKN,3000,,,,,,,MVFR,,,,,,,,,,,,METAR,22.0
SAVC 061500Z 00000KT CAVOK 14/10 Q1002,SAVC,2017-05-06T15:00:00Z,-45.77,-67.47,14.0,10.0,0,0,,6.21,29.586615,,,,,,,,,,,CAVOK,,,,,,,,VFR,,,,,,,,,,,,METAR,46.0
SASJ 061500Z 09003KT 9999 SCT010 SCT025 OVC100 18/17 Q1013,SASJ,2017-05-06T15:00:00Z,-24.37,-65.1,18.0,17.0,90,3,,6.21,29.911417,,,,,,,,,,,SCT,1000,SCT,2500,OVC,10000,,,VFR,,,,,,,,,,,,METAR,1167.0
SASA 061500Z 02004KT 9999 SCT017 20/12 Q1014,SASA,2017-05-06T15:00:00Z,-24.85,-65.47,20.0,12.0,20,4,,6.21,29.940945,,,,,,,,,,,SCT,1700,,,,,,,VFR,,,,,,,,,,,,METAR,1216.0
SARP 061500Z 05005KT CAVOK 27/21 Q1016,SARP,2017-05-06T15:00:00Z,-27.38,-55.97,27.0,21.0,50,5,,6.21,30.0,,,,,,,,,,,CAVOK,,,,,,,,VFR,,,,,,,,,,,,METAR,125.0
SARL 061500Z 09010KT 9999 FEW015 BKN200 24/19 Q1016,SARL,2017-05-06T15:00:00Z,-29.67,-57.13,24.0,19.0,90,10,,6.21,30.0,,,,,,,,,,,FEW,1500,BKN,20000,,,,,VFR,,,,,,,,,,,,METAR,70.0
SARI 061500Z 05004KT 8000 BKN008 22/21 Q1019,SARI,2017-05-06T15:00:00Z,-25.72,-54.47,22.0,21.0,50,4,,4.97,30.088583,,,,,,,,,,,BKN,800,,,,,,,IFR,,,,,,,,,,,,METAR,270.0
SARF 061500Z 07008KT 9999 FEW020 25/20 Q1014,SARF,2017-05-06T15:00:00Z,-26.22,-58.22,25.0,20.0,70,8,,6.21,29.940945,,,,,,,,,,,FEW,2000,,,,,,,VFR,,,,,,,,,,,,METAR,60.0
SARE 061500Z 04011KT 9999 FEW026 SCT046 26/20 Q1014,SARE,2017-05-06T15:00:00Z,-27.43,-59.03,26.0,20.0,40,11,,6.21,29.940945,,,,,,,,,,,FEW,2600,SCT,4600,,,,,VFR,,,,,,,,,,,,METAR,52.0
SAOC 061500Z 36030G42KT 9999 SCT015 SCT020 20/17 Q1009,SAOC,2017-05-06T15:00:00Z,-33.12,-64.27,20.0,17.0,360,30,42,6.21,29.793306,,,,,,,,,,,SCT,1500,SCT,2000,,,,,VFR,,,,,,,,,,,,METAR,421.0
SANT 061500Z 05004KT 8000 FEW030 BKN045 22/16 Q1009,SANT,2017-05-06T15:00:00Z,-26.85,-65.08,22.0,16.0,50,4,,4.97,29.793306,,,,,,,,,,,FEW,3000,BKN,4500,,,,,MVFR,,,,,,,,,,,,METAR,450.0
SAME 061500Z 14007KT 090V180 9999 FEW040 SCT045 BKN085 19/14 Q1006,SAME,2017-05-06T15:00:00Z,-32.82,-68.77,19.0,14.0,140,7,,6.21,29.704725,,,,,,,,,,,FEW,4000,SCT,4500,BKN,8500,,,VFR,,,,,,,,,,,,METAR,704.0
SAEZ 061500Z 03012KT 9999 FEW015 BKN200 21/17 Q1016,SAEZ,2017-05-06T15:00:00Z,-34.82,-58.52,21.0,17.0,30,12,,6.21,30.0,,,,,,,,,,,FEW,1500,BKN,20000,,,,,VFR,,,,,,,,,,,,METAR,20.0
SACO 061500Z 02012KT 9999 FEW006 SCT100 23/15 Q1011,SACO,2017-05-06T15:00:00Z,-31.32,-64.22,23.0,15.0,20,12,,6.21,29.852362,,,,,,,,,,,FEW,600,SCT,10000,,,,,VFR,,,,,,,,,,,,METAR,474.0
SABE 061500Z 01010KT 9000 OVC008 19/15 Q1017,SABE,2017-05-06T15:00:00Z,-34.57,-58.42,19.0,15.0,10,10,,5.59,30.029528,,,,,,,,,,,OVC,800,,,,,,,IFR,,,,,,,,,,,,METAR,6.0
SAAR 061500Z 02010KT CAVOK 23/17 Q1013,SAAR,2017-05-06T15:00:00Z,-32.92,-60.77,23.0,17.0,20,10,,6.21,29.911417,,,,,,,,,,,CAVOK,,,,,,,,VFR,,,,,,,,,,,,METAR,25.0
LYVR 061500Z VRB02KT 9999 FEW026 19/12 Q1013 NOSIG,LYVR,2017-05-06T15:00:00Z,45.13,21.32,19.0,12.0,0,2,,6.21,29.911417,,,,,,TRUE,,,,,FEW,2600,,,,,,,VFR,,,,,,,,,,,,METAR,85.0
LYUZ 061500Z VRB02KT 9999 BKN017 15/11 Q1015,LYUZ,2017-05-06T15:00:00Z,43.9,19.7,15.0,11.0,0,2,,6.21,29.970472,,,,,,,,,,,BKN,1700,,,,,,,MVFR,,,,,,,,,,,,METAR,904.0
LYTV 061500Z 22005KT 150V280 CAVOK 21/10 Q1016 NOSIG,LYTV,2017-05-06T15:00:00Z,42.38,18.72,21.0,10.0,220,5,,6.21,30.0,,,,,,TRUE,,,,,CAVOK,,,,,,,,VFR,,,,,,,,,,,,METAR,5.0
LYPG 061500Z 15007KT 110V190 9999 FEW033 21/10 Q1014 NOSIG,LYPG,2017-05-06T15:00:00Z,42.37,19.25,21.0,10.0,150,7,,6.21,29.940945,,,,,,TRUE,,,,,FEW,3300,,,,,,,VFR,,,,,,,,,,,,METAR,43.0
LYNI 061500Z 30005KT 250V340 9999 FEW007 SCT020 BKN033 16/12 Q1015 NOSIG,LYNI,2017-05-06T15:00:00Z,43.32,21.88,16.0,12.0,300,5,,6.21,29.970472,,,,,,TRUE,,,,,FEW,700,SCT,2000,BKN,3300,,,VFR,,,,,,,,,,,,METAR,202.0
LYKV 061500Z 07003KT 010V120 9999 SCT040 19/13 Q1015 NOSIG,LYKV,2017-05-06T15:00:00Z,43.82,20.58,19.0,13.0,70,3,,6.21,29.970472,,,,,,TRUE,,,,,SCT,4000,,,,,,,VFR,,,,,,,,,,,,METAR,209.0
LYBT 061500Z 12006KT 090V150 9999 BKN033 17/13 Q1014 NOSIG,LYBT,2017-05-06T15:00:00Z,44.93,20.25,17.0,13.0,120,6,,6.21,29.940945,,,,,,TRUE,,,,,BKN,3300,,,,,,,VFR,,,,,,,,,,,,METAR,80.0
LYBE 061500Z 15006KT 9999 -SHRA FEW030TCU BKN040 16/14 Q1014 TEMPO 5000 SHRA,LYBE,2017-05-06T15:00:00Z,44.82,20.28,16.0,14.0,150,6,,6.21,29.940945,,,,,,,,,,-SHRA,FEW,3000,BKN,4000,,,,,VFR,,,,,,,,,,,,SPECI,99.0
EIKN 061500Z 10012KT 070V140 9999 FEW032 BKN041 16/03 Q1017 NOSIG,EIKN,2017-05-06T15:00:00Z,53.92,-8.82,16.0,3.0,100,12,,6.21,30.029528,,,,,,TRUE,,,,,FEW,3200,BKN,4100,,,,,VFR,,,,,,,,,,,,METAR,64.0
EICK 061500Z 09012KT 9999 FEW021 BKN040 11/07 Q1015 NOSIG,EICK,2017-05-06T15:00:00Z,51.85,-8.47,11.0,7.0,90,12,,6.21,29.970472,,,,,,TRUE,,,,,FEW,2100,BKN,4000,,,,,VFR,,,,,,,,,,,,METAR,162.0
EINN 061500Z 08011KT 9999 FEW022 BKN032 12/06 Q1016 NOSIG,EINN,2017-05-06T15:00:00Z,52.7,-8.92,12.0,6.0,80,11,,6.21,30.0,,,,,,TRUE,,,,,FEW,2200,BKN,3200,,,,,VFR,,,,,,,,,,,,METAR,20.0
EIDW 061500Z 07015KT 9999 FEW025 SCT040 BKN200 12/05 Q1017 NOSIG,EIDW,2017-05-06T15:00:00Z,53.42,-6.25,12.0,5.0,70,15,,6.21,30.029528,,,,,,TRUE,,,,,FEW,2500,SCT,4000,BKN,20000,,,VFR,,,,,,,,,,,,METAR,85.0
YBDV 061500Z AUTO 16010KT //// // ////// 22/06 Q1022,YBDV,2017-05-06T15:00:00Z,-25.9,139.35,22.0,6.0,160,10,,,30.177166,,,TRUE,,,,,,,,,,,,,,,,,,,,,,,,,,,,METAR,47.0
YBCV 061500Z AUTO 05005KT 9999 // NCD 14/07 Q1023,YBCV,2017-05-06T15:00:00Z,-26.38,146.27,14.0,7.0,50,5,,6.21,30.206694,,,TRUE,,,,,,,,CLR,,,,,,,,VFR,,,,,,,,,,,,METAR,304.0
YBCG 061500Z AUTO 18004KT 9999 // BKN076 17/14 Q1023,YBCG,2017-05-06T15:00:00Z,-28.17,153.5,17.0,14.0,180,4,,6.21,30.206694,,,TRUE,,,,,,,,BKN,7600,,,,,,,VFR,,,,,,,,,,,,METAR,6.0
YBBN 061500Z 21006KT 9999 FEW020 BKN058 18/13 Q1023,YBBN,2017-05-06T15:00:00Z,-27.38,153.13,18.0,13.0,210,6,,6.21,30.206694,,,,,,,,,,,FEW,2000,BKN,5800,,,,,VFR,,,,,,,,,,,,METAR,5.0
YBAS 061500Z AUTO 00000KT 9999 // NCD 13/04 Q1025 RF00.0/000.0,YBAS,2017-05-06T15:00:00Z,-23.8,133.9,13.0,4.0,0,0,,6.21,30.265747,,,TRUE,,,,,,,,CLR,,,,,,,,VFR,,,,,,,,,,,,METAR,541.0
YAYE 061500Z AUTO 14008KT 9999 // NCD 14/M01 Q1025,YAYE,2017-05-06T15:00:00Z,-25.18,130.98,14.0,-1.0,140,8,,6.21,30.265747,,,TRUE,,,,,,,,CLR,,,,,,,,VFR,,,,,,,,,,,,SPECI,496.0
YARG 061500Z AUTO 00000KT 9999 // NCD 25/11 Q1016,YARG,2017-05-06T15:00:00Z,-16.63,128.45,25.0,11.0,0,0,,6.21,30.0,,,TRUE,,,,,,,,CLR,,,,,,,,VFR,,,,,,,,,,,,METAR,165.0
YAMB 061500Z AUTO 00000KT 9999 // BKN074 11/11 Q1023,YAMB,2017-05-06T15:00:00Z,-27.63,152.72,11.0,11.0,0,0,,6.21,30.206694,,,TRUE,,,,,,,,BKN,7400,,,,,,,VFR,,,,,,,,,,,,METAR,28.0
YABA 061500Z AUTO 05007KT 9999 // NCD 14/13 Q1027,YABA,2017-05-06T15:00:00Z,-34.93,117.8,14.0,13.0,50,7,,6.21,30.324802,,,TRUE,,,,,,,,CLR,,,,,,,,VFR,,,,,,,,,,,,METAR,69.0
SPQT 061500Z 36003KT 9999 BKN013 27/24 Q1014 NOSIG RMK BIRD HAZARD PP000,SPQT,2017-05-06T15:00:00Z,-3.78,-73.32,27.0,24.0,360,3,,6.21,29.940945,,,,,,TRUE,,,,,BKN,1300,,,,,,,MVFR,,,,,,,,,,,,SPECI,126.0
BIRK 061500Z 26006KT CAVOK 10/06 Q1034,BIRK,2017-05-06T15:00:00Z,64.13,-21.93,10.0,6.0,260,6,,6.21,30.531496,,,,,,,,,,,CAVOK,,,,,,,,VFR,,,,,,,,,,,,METAR,61.0
BIKF 061500Z 03008KT CAVOK 13/08 Q1034,BIKF,2017-05-06T15:00:00Z,63.98,-22.6,13.0,8.0,30,8,,6.21,30.531496,,,,,,,,,,,CAVOK,,,,,,,,VFR,,,,,,,,,,,,METAR,54.0
VILK 061500Z 00000KT 3000 HZ NSC 35/13 Q1004 NOSIG,VILK,2017-05-06T15:00:00Z,26.75,80.87,35.0,13.0,0,0,,1.86,29.64567,,,,,,TRUE,,,,HZ,CLR,,,,,,,,IFR,,,,,,,,,,,,METAR,128.0
VTSG 061500Z AUTO 06003KT 010V120 5000 -RA ////// 25/23 Q1014 A2994,VTSG,2017-05-06T15:00:00Z,8.1,98.98,25.0,23.0,60,3,,3.11,29.940945,,,TRUE,,,,,,,-RA,,,,,,,,,,,,,,,,,,,,,METAR,25.0
HTSU 061500Z 09008KT 9999 SCT020 FEW021CB BKN220 21/13 Q1021,HTSU,2017-05-06T15:00:00Z,-7.95,31.67,21.0,13.0,90,8,,6.21,30.147638,,,,,,,,,,,SCT,2000,FEW,2100,BKN,22000,,,VFR,,,,,,,,,,,,METAR,1804.0
HTMT 061500Z 16010KT 9999 SCT022 FEW023CB BKN080 27/24 Q1014 RERA,HTMT,2017-05-06T15:00:00Z,-10.27,40.17,27.0,24.0,160,10,,6.21,29.940945,,,,,,,,,,,SCT,2200,FEW,2300,BKN,8000,,,VFR,,,,,,,,,,,,METAR,113.0
HTTB 061500Z 12018KT 9999 FEW025 BKN080 28/15 Q1016,HTTB,2017-05-06T15:00:00Z,-5.07,32.82,28.0,15.0,120,18,,6.21,30.0,,,,,,,,,,,FEW,2500,BKN,8000,,,,,VFR,,,,,,,,,,,,METAR,1190.0
HTSO 061500Z 00000KT 9999 SCT023 FEW025CB BKN080 23/18 Q1021,HTSO,2017-05-06T15:00:00Z,-10.67,35.57,23.0,18.0,0,0,,6.21,30.147638,,,,,,,,,,,SCT,2300,FEW,2500,BKN,8000,,,VFR,,,,,,,,,,,,METAR,1067.0
HTMW 061500Z 12015KT 2000 BKN018 FEW019CB OVC090 22/20 Q1015 NOSIG,HTMW,2017-05-06T15:00:00Z,-2.47,32.92,22.0,20.0,120,15,,1.24,29.970472,,,,,,TRUE,,,,,BKN,1800,FEW,1900,OVC,9000,,,IFR,,,,,,,,,,,,METAR,1140.0
HTMU 061500Z 33010KT 9999 BKN022 FEW023CB 24/20 Q1016,HTMU,2017-05-06T15:00:00Z,-1.5,33.78,24.0,20.0,330,10,,6.21,30.0,,,,,,,,,,,BKN,2200,FEW,2300,,,,,MVFR,,,,,,,,,,,,METAR,1147.0
HTMG 061500Z 00000KT 9999 BKN024 28/21 Q1016,HTMG,2017-05-06T15:00:00Z,-6.82,37.63,28.0,21.0,0,0,,6.21,30.0,,,,,,,,,,,BKN,2400,,,,,,,MVFR,,,,,,,,,,,,METAR,526.0
HTKA 061500Z 00000KT 9999 SCT024 FEW025CB SCT270 27/21 Q1016,HTKA,2017-05-06T15:00:00Z,-4.87,29.67,27.0,21.0,0,0,,6.21,30.0,,,,,,,,,,,SCT,2400,FEW,2500,SCT,27000,,,VFR,,,,,,,,,,,,METAR,885.0
HTIR 061500Z 16010KT 9999 BKN020 23/16 Q1020,HTIR,2017-05-06T15:00:00Z,-7.67,35.75,23.0,16.0,160,10,,6.21,30.11811,,,,,,,,,,,BKN,2000,,,,,,,MVFR,,,,,,,,,,,,METAR,1428.0
HTDO 061500Z 10014KT 9999 FEW029 FEW030CB 25/17 Q1017 NOSIG,HTDO,2017-05-06T15:00:00Z,-6.17,35.77,25.0,17.0,100,14,,6.21,30.029528,,,,,,TRUE,,,,,FEW,2900,FEW,3000,,,,,VFR,,,,,,,,,,,,METAR,1120.0
HTBU 061500Z 18008KT 9999 FEW021 FEW023CB SCT250 25/20 Q1015,HTBU,2017-05-06T15:00:00Z,-1.32,31.82,25.0,20.0,180,8,,6.21,29.970472,,,,,,,,,,,FEW,2100,FEW,2300,SCT,25000,,,VFR,,,,,,,,,,,,METAR,1137.0
HTAR 061500Z 10015KT 9999 SCT032 23/19 Q1017,HTAR,2017-05-06T15:00:00Z,-3.37,36.63,23.0,19.0,100,15,,6.21,30.029528,,,,,,,,,,,SCT,3200,,,,,,,VFR,,,,,,,,,,,,METAR,1387.0
CWVT 061500Z AUTO 13013G22KT 11/01 RMK AO1 PK WND 14022/1436 SLP079 T01140013 55000,CWVT,2017-05-06T15:00:00Z,55.82,-108.42,11.4,1.3,130,13,22,,,1007.9,,TRUE,TRUE,,,,,,,,,,,,,,,,0.0,,,,,,,,,,,METAR,434.0
CWWL 061500Z AUTO 30010KT 08/03 RMK AO1 SLP183 T00780029 51011,CWWL,2017-05-06T15:00:00Z,53.5,-130.63,7.8,2.9,300,10,,,,1018.3,,TRUE,TRUE,,,,,,,,,,,,,,,,1.1,,,,,,,,,,,METAR,17.0
CWEK 061500Z AUTO 25008KT 08/04 RMK AO1 SLP158 T00770035 51011,CWEK,2017-05-06T15:00:00Z,54.58,-130.7,7.7,3.5,250,8,,,,1015.8,,TRUE,TRUE,,,,,,,,,,,,,,,,1.1,,,,,,,,,,,METAR,8.0
CXTN 061500Z AUTO 17005KT M04/M08 RMK AO1 SLP227 T10381076 53006,CXTN,2017-05-06T15:00:00Z,69.2,-122.35,-3.8,-7.6,170,5,,,,1022.7,,TRUE,TRUE,,,,,,,,,,,,,,,,0.6,,,,,,,,,,,METAR,552.0
CXSR 061500Z AUTO 22010G15KT 06/02 RMK AO1 PK WND 23017/1418 SLP070 T00560021 53013,CXSR,2017-05-06T15:00:00Z,55.7,-119.23,5.6,2.1,220,10,15,,,1007.0,,TRUE,TRUE,,,,,,,,,,,,,,,,1.3,,,,,,,,,,,METAR,1015.0
CXLL 061500Z AUTO 03006KT 04/04 RMK AO1 1PAST HR 5006 PK WND 00017/1440 SLP051 P0020 T00350035 50132,CXLL,2017-05-06T15:00:00Z,61.12,-122.85,3.5,3.5,30,6,,,,1005.1,,TRUE,TRUE,,,,,,,,,,,,,,,,0.0,,,,,0.2,,,,,,METAR,183.0
CXLC 061500Z AUTO 07015KT M01/M02 RMK AO1 PK WND 06020/1447 SLP158 T10071022 56012,CXLC,2017-05-06T15:00:00Z,63.6,-113.85,-0.7,-2.2,70,15,,,,1015.8,,TRUE,TRUE,,,,,,,,,,,,,,,,-1.2,,,,,,,,,,,METAR,373.0
CWDK 061500Z AUTO 30007KT 18/05 RMK AO1 SLP055 T01770049 50003,CWDK,2017-05-06T15:00:00Z,50.02,-113.62,17.7,4.9,300,7,,,,1005.5,,TRUE,TRUE,,,,,,,,,,,,,,,,0.3,,,,,,,,,,,METAR,1012.0
CWMQ 061500Z AUTO 30005KT 19/09 RMK AO1 SLP051 T01850094 50000,CWMQ,2017-05-06T15:00:00Z,49.9,-109.47,18.5,9.4,300,5,,,,1005.1,,TRUE,TRUE,,,,,,,,,,,,,,,,0.0,,,,,,,,,,,METAR,767.0
CXDK 061500Z AUTO 25004KT 02/02 RMK AO1 2PAST HR 5008 SLP067 P0012 T00230015 50071,CXDK,2017-05-06T15:00:00Z,61.27,-124.47,2.3,1.5,250,4,,,,1006.7,,TRUE,TRUE,,,,,,,,,,,,,,,,7.1,,,,,0.12,,,,,,METAR,283.0
CWXC 061500Z AUTO 30006G15KT 08/04 RMK AO1 SLP028 T00750043 58016,CWXC,2017-05-06T15:00:00Z,48.88,-71.03,7.5,4.3,300,6,15,,,1002.8,,TRUE,TRUE,,,,,,,,,,,,,,,,-1.6,,,,,,,,,,,METAR,300.0
CWWF 061500Z AUTO 15018G23KT 18/04 RMK AO1 PK WND 15024/1427 SLP095 T01810038 58004,CWWF,2017-05-06T15:00:00Z,49.7,-103.8,18.1,3.8,150,18,23,,,1009.5,,TRUE,TRUE,,,,,,,,,,,,,,,,-0.4,,,,,,,,,,,METAR,589.0
CWIJ 061500Z AUTO 10012KT M12/M13 RMK AO1 SOG 91 6002 SLP246 T11171132,CWIJ,2017-05-06T15:00:00Z,65.77,-111.23,-11.7,-13.2,100,12,,,,1024.6,,TRUE,TRUE,,,,,,,,,,,,,,,,,,,,,,,,,,,METAR,500.0
CWGX 061500Z AUTO 05007KT 02/M06 RMK AO1 SLP289 T00211060 50006,CWGX,2017-05-06T15:00:00Z,56.35,-94.7,2.1,-6.0,50,7,,,,1028.9,,TRUE,TRUE,,,,,,,,,,,,,,,,0.6,,,,,,,,,,,METAR,145.0
HTZA 061500Z 15006KT 9999 FEW018 FEW020CB SCT080 28/24 Q1014 NOSIG,HTZA,2017-05-06T15:00:00Z,-6.22,39.22,28.0,24.0,150,6,,6.21,29.940945,,,,,,TRUE,,,,,FEW,1800,FEW,2000,SCT,8000,,,VFR,,,,,,,,,,,,METAR,15.0
HTKJ 061500Z 17016KT 9999 FEW035CB BKN036 25/20 Q1015 NOSIG,HTKJ,2017-05-06T15:00:00Z,-3.42,37.07,25.0,20.0,170,16,,6.21,29.970472,,,,,,TRUE,,,,,FEW,3500,BKN,3600,,,,,VFR,,,,,,,,,,,,METAR,896.0
HTDA 061500Z 17007KT 9999 SCT013 SCT014 FEW015CB 27/25 Q1013 NOSIG,HTDA,2017-05-06T15:00:00Z,-6.88,39.2,27.0,25.0,170,7,,6.21,29.911417,,,,,,TRUE,,,,,SCT,1300,SCT,1400,FEW,1500,,,VFR,,,,,,,,,,,,METAR,55.0
SKIP 061500Z 00000KT 9999 FEW018 BKN080 14/10 A3049,SKIP,2017-05-06T15:00:00Z,0.88,-77.67,14.0,10.0,0,0,,6.21,30.490158,,,,,,,,,,,FEW,1800,BKN,8000,,,,,VFR,,,,,,,,,,,,METAR,2961.0
SKPS 061500Z 00000KT 6000 VCFG SCT015 BKN080 17/16 A3027 RMK AD OPER IMC,SKPS,2017-05-06T15:00:00Z,1.4,-77.28,17.0,16.0,0,0,,3.73,30.268702,,,,,,,,,,VCFG,SCT,1500,BKN,8000,,,,,MVFR,,,,,,,,,,,,METAR,1826.0
SKNV 061500Z 04007KT 330V080 9999 SCT012 BKN110 27/22 A3000,SKNV,2017-05-06T15:00:00Z,2.97,-75.28,27.0,22.0,40,7,,6.21,30.0,,,,,,,,,,,SCT,1200,BKN,11000,,,,,VFR,,,,,,,,,,,,METAR,443.0
SKVV 061500Z 00000KT 9999 FEW017 BKN090 26/21 A2999,SKVV,2017-05-06T15:00:00Z,4.17,-73.62,26.0,21.0,0,0,,6.21,29.991142,,,,,,,,,,,FEW,1700,BKN,9000,,,,,VFR,,,,,,,,,,,,METAR,431.0
SKIB 061500Z 09003KT 3000 BR BKN004 BKN080 21/21 A3017 REDZ RMK AD BLW MNM MET,SKIB,2017-05-06T15:00:00Z,4.42,-75.15,21.0,21.0,90,3,,1.86,30.171259,,,,,,,,,,BR,BKN,400,BKN,8000,,,,,LIFR,,,,,,,,,,,,METAR,928.0
SKAR 061500Z 00000KT 1200 -RA BCFG BKN003 BKN100 19/19 A3018 REDZ RMK AD OPER IMC,SKAR,2017-05-06T15:00:00Z,4.45,-75.77,19.0,19.0,0,0,,0.75,30.180119,,,,,,,,,,-RA BCFG,BKN,300,BKN,10000,,,,,LIFR,,,,,,,,,,,,METAR,1219.0
SKMZ 061500Z 31009KT 7000 VCFG BKN009 17/15 A3039 RMK AD BLW MNM MET,SKMZ,2017-05-06T15:00:00Z,5.03,-75.47,17.0,15.0,310,9,,4.35,30.389763,,,,,,,,,,VCFG,BKN,900,,,,,,,IFR,,,,,,,,,,,,METAR,2080.0
SKUI 061500Z 20006KT 8000 BKN010 26/24 A2995 REDZ RMK HZ AD OPER IMC,SKUI,2017-05-06T15:00:00Z,5.72,-76.62,26.0,24.0,200,6,,4.97,29.949802,,,,,,,,,,,BKN,1000,,,,,,,MVFR,,,,,,,,,,,,METAR,33.0
SKPC 061500Z 34003KT 9999 BKN017 29/24 A2984,SKPC,2017-05-06T15:00:00Z,6.17,-67.5,29.0,24.0,340,3,,6.21,29.840551,,,,,,,,,,,BKN,1700,,,,,,,MVFR,,,,,,,,,,,,METAR,55.0
SKMD 061500Z 00000KT 9999 FEW030 BKN100 23/16 A3022,SKMD,2017-05-06T15:00:00Z,6.22,-75.58,23.0,16.0,0,0,,6.21,30.221457,,,,,,,,,,,FEW,3000,BKN,10000,,,,,VFR,,,,,,,,,,,,METAR,1499.0
SKUC 061500Z 00000KT 9999 FEW024 SCT200 30/25 A2993,SKUC,2017-05-06T15:00:00Z,7.07,-70.72,30.0,25.0,0,0,,6.21,29.929134,,,,,,,,,,,FEW,2400,SCT,20000,,,,,VFR,,,,,,,,,,,,METAR,128.0
SKEJ 061500Z 00000KT 9999 SCT008 SCT120 28/24 A2992,SKEJ,2017-05-06T15:00:00Z,7.02,-73.78,28.0,24.0,0,0,,6.21,29.920275,,,,,,,,,,,SCT,800,SCT,12000,,,,,VFR,,,,,,,,,,,,METAR,134.0
SKLC 061500Z 00000KT 9999 SCT018 OVC090 26/23 A2995,SKLC,2017-05-06T15:00:00Z,7.82,-76.7,26.0,23.0,0,0,,6.21,29.949802,,,,,,,,,,,SCT,1800,OVC,9000,,,,,VFR,,,,,,,,,,,,METAR,30.0
SKMR 061500Z 00000KT 9999 BKN017 28/25 A2991,SKMR,2017-05-06T15:00:00Z,8.82,-75.83,28.0,25.0,0,0,,6.21,29.911417,,,,,,,,,,,BKN,1700,,,,,,,MVFR,,,,,,,,,,,,METAR,26.0
SKVP 061500Z 22003KT 9999 FEW010 SCT200 29/24 A2997,SKVP,2017-05-06T15:00:00Z,10.42,-73.25,29.0,24.0,220,3,,6.21,29.970472,,,,,,,,,,,FEW,1000,SCT,20000,,,,,VFR,,,,,,,,,,,,METAR,138.0
SKRH 061500Z 02008KT 9999 BKN020 31/25 A2988,SKRH,2017-05-06T15:00:00Z,11.52,-72.92,31.0,25.0,20,8,,6.21,29.878937,,,,,,,,,,,BKN,2000,,,,,,,MVFR,,,,,,,,,,,,METAR,4.0
SKSM 061500Z 21012KT 9999 FEW020 BKN200 30/25 A2990,SKSM,2017-05-06T15:00:00Z,11.12,-74.22,30.0,25.0,210,12,,6.21,29.899607,,,,,,,,,,,FEW,2000,BKN,20000,,,,,VFR,,,,,,,,,,,,METAR,4.0
SKPV 061500Z VRB02KT 9999 FEW017 OVC200 30/26 A////,SKPV,2017-05-06T15:00:00Z,13.37,-81.33,30.0,26.0,0,2,,6.21,,,,,,,,,,,,FEW,1700,OVC,20000,,,,,VFR,,,,,,,,,,,,METAR,6.0
FNMA 061500Z 19007KT 9999 BKN007 28/22 Q1014,FNMA,2017-05-06T15:00:00Z,-9.55,16.32,28.0,22.0,190,7,,6.21,29.940945,,,,,,,,,,,BKN,700,,,,,,,IFR,,,,,,,,,,,,METAR,1173.0
FZAA 061500Z 16020KT 3000 TSRA SCT020 SCT028CB BKN100 26/20 Q1012 CB NE/S/SW BECMG 1500,FZAA,2017-05-06T15:00:00Z,-4.38,15.45,26.0,20.0,160,20,,1.86,29.88189,,,,,,,,,,TSRA,SCT,2000,SCT,2800,BKN,10000,,,IFR,,,,,,,,,,,,METAR,312.0
VARK 061500Z 29006KT 6000 NSC 34/11 Q1008,VARK,2017-05-06T15:00:00Z,22.3,70.77,34.0,11.0,290,6,,3.73,29.763779,,,,,,,,,,,CLR,,,,,,,,MVFR,,,,,,,,,,,,METAR,138.0
VEBN 061500Z VRB02KT 4000 HZ NSC 34/14 Q1005,VEBN,2017-05-06T15:00:00Z,25.45,82.85,34.0,14.0,0,2,,2.49,29.675198,,,,,,,,,,HZ,CLR,,,,,,,,IFR,,,,,,,,,,,,METAR,83.0
SBSM 061500Z 10011KT 080V140 9999 FEW015 23/17 Q1019,SBSM,2017-05-06T15:00:00Z,-29.72,-53.7,23.0,17.0,100,11,,6.21,30.088583,,,,,,,,,,,FEW,1500,,,,,,,VFR,,,,,,,,,,,,METAR,85.0
SBJV 061500Z 20002KT 9999 SCT025 BKN040 25/18 Q1018,SBJV,2017-05-06T15:00:00Z,-26.22,-48.8,25.0,18.0,200,2,,6.21,30.059055,,,,,,,,,,,SCT,2500,BKN,4000,,,,,VFR,,,,,,,,,,,,METAR,4.0
SBCM 061500Z 00000KT 8000 -RA SCT007 BKN015 21/20 Q1020,SBCM,2017-05-06T15:00:00Z,-28.72,-49.42,21.0,20.0,0,0,,4.97,30.11811,,,,,,,,,,-RA,SCT,700,BKN,1500,,,,,MVFR,,,,,,,,,,,,METAR,28.0
SBQV 061500Z 12004KT 9999 SCT020 SCT070 24/16 Q1020,SBQV,2017-05-06T15:00:00Z,-14.87,-40.87,24.0,16.0,120,4,,6.21,30.11811,,,,,,,,,,,SCT,2000,SCT,7000,,,,,VFR,,,,,,,,,,,,METAR,893.0
SBKG 061500Z 09011KT 9999 SCT019 BKN021 27/21 Q1014,SBKG,2017-05-06T15:00:00Z,-7.27,-35.87,27.0,21.0,90,11,,6.21,29.940945,,,,,,,,,,,SCT,1900,BKN,2100,,,,,MVFR,,,,,,,,,,,,METAR,560.0
SBTA 061500Z 01003KT 270V060 9999 FEW025 26/16 Q1019,SBTA,2017-05-06T15:00:00Z,-23.03,-45.5,26.0,16.0,10,3,,6.21,30.088583,,,,,,,,,,,FEW,2500,,,,,,,VFR,,,,,,,,,,,,METAR,586.0
SBST 061500Z 21003KT 160V260 9999 BKN030 OVC050 25/20 Q1017,SBST,2017-05-06T15:00:00Z,-23.92,-46.28,25.0,20.0,210,3,,6.21,30.029528,,,,,,,,,,,BKN,3000,OVC,5000,,,,,MVFR,,,,,,,,,,,,METAR,3.0
SBSC 061500Z 18008KT 9999 FEW020 26/18 Q1016,SBSC,2017-05-06T15:00:00Z,-22.92,-43.72,26.0,18.0,180,8,,6.21,30.0,,,,,,,,,,,FEW,2000,,,,,,,VFR,,,,,,,,,,,,METAR,3.0
SBPR 061500Z 30004KT 9999 BKN030 BKN080 25/16 Q1021,SBPR,2017-05-06T15:00:00Z,-19.9,-43.98,25.0,16.0,300,4,,6.21,30.147638,,,,,,,,,,,BKN,3000,BKN,8000,,,,,MVFR,,,,,,,,,,,,METAR,927.0
SBPC 061500Z 26006KT 9999 FEW020 26/17 Q1022,SBPC,2017-05-06T15:00:00Z,-21.85,-46.57,26.0,17.0,260,6,,6.21,30.177166,,,,,,,,,,,FEW,2000,,,,,,,VFR,,,,,,,,,,,,METAR,1260.0
SBMT 061500Z 19003KT 9999 SCT025 21/15 Q1021,SBMT,2017-05-06T15:00:00Z,-23.52,-46.62,21.0,15.0,190,3,,6.21,30.147638,,,,,,,,,,,SCT,2500,,,,,,,VFR,,,,,,,,,,,,METAR,722.0
SBMK 061500Z 35005KT 180V260 9999 SCT040 31/15 Q1017,SBMK,2017-05-06T15:00:00Z,-16.7,-43.82,31.0,15.0,350,5,,6.21,30.029528,,,,,,,,,,,SCT,4000,,,,,,,VFR,,,,,,,,,,,,METAR,646.0
SBME 061500Z 17006KT 9999 FEW025 BKN100 27/21 Q1015,SBME,2017-05-06T15:00:00Z,-22.35,-41.77,27.0,21.0,170,6,,6.21,29.970472,,,,,,,,,,,FEW,2500,BKN,10000,,,,,VFR,,,,,,,,,,,,METAR,2.0
SBLS 061500Z VRB04KT 9999 SCT030 27/16 Q1020,SBLS,2017-05-06T15:00:00Z,-19.67,-43.88,27.0,16.0,0,4,,6.21,30.11811,,,,,,,,,,,SCT,3000,,,,,,,VFR,,,,,,,,,,,,METAR,852.0
SBJF 061500Z 33006KT 9999 SCT006 SCT080 22/16 Q1020,SBJF,2017-05-06T15:00:00Z,-21.77,-43.38,22.0,16.0,330,6,,6.21,30.11811,,,,,,,,,,,SCT,600,SCT,8000,,,,,VFR,,,,,,,,,,,,METAR,939.0
SBGW 061500Z VRB02KT 9999 SCT020 25/15 Q1019,SBGW,2017-05-06T15:00:00Z,-22.77,-45.2,25.0,15.0,0,2,,6.21,30.088583,,,,,,,,,,,SCT,2000,,,,,,,VFR,,,,,,,,,,,,METAR,533.0
SBFS 061500Z /////KT 9999 FEW030 BKN100 ///// Q////,SBFS,2017-05-06T15:00:00Z,-22.02,-41.07,,,,,,6.21,,,,,,,,,,,,FEW,3000,BKN,10000,,,,,VFR,,,,,,,,,,,,METAR,3.0
SBDN 061500Z 09007KT CAVOK 25/15 Q1018,SBDN,2017-05-06T15:00:00Z,-22.18,-51.43,25.0,15.0,90,7,,6.21,30.059055,,,,,,,,,,,CAVOK,,,,,,,,VFR,,,,,,,,,,,,METAR,435.0
SBCO 061500Z 12008KT 9999 BKN018 23/18 Q1020,SBCO,2017-05-06T15:00:00Z,-29.95,-51.15,23.0,18.0,120,8,,6.21,30.11811,,,,,,,,,,,BKN,1800,,,,,,,MVFR,,,,,,,,,,,,METAR,47.0
SBBQ 061500Z 31004KT 9999 BKN010 20/16 Q1023,SBBQ,2017-05-06T15:00:00Z,-21.25,-43.77,20.0,16.0,310,4,,6.21,30.206694,,,,,,,,,,,BKN,1000,,,,,,,MVFR,,,,,,,,,,,,METAR,1171.0
SBBI 061500Z 12003KT 9999 FEW012 BKN016 18/15 Q1022,SBBI,2017-05-06T15:00:00Z,-25.4,-49.23,18.0,15.0,120,3,,6.21,30.177166,,,,,,,,,,,FEW,1200,BKN,1600,,,,,MVFR,,,,,,,,,,,,METAR,923.0
OESK 061500Z 25007KT CAVOK 32/M01 Q1012 NOSIG,OESK,2017-05-06T15:00:00Z,29.77,40.1,32.0,-1.0,250,7,,6.21,29.88189,,,,,,TRUE,,,,,CAVOK,,,,,,,,VFR,,,,,,,,,,,,METAR,684.0
ORER 061500Z 26006KT 9999 SCT035 25/12 Q1014 NOSIG,ORER,2017-05-06T15:00:00Z,36.23,43.97,25.0,12.0,260,6,,6.21,29.940945,,,,,,TRUE,,,,,SCT,3500,,,,,,,VFR,,,,,,,,,,,,METAR,409.0
ORNI 061500Z 07004KT 6000 SCT025CB SCT030 32/10 Q1007 NOSIG,ORNI,2017-05-06T15:00:00Z,31.98,44.4,32.0,10.0,70,4,,3.73,29.734253,,,,,,TRUE,,,,,SCT,2500,SCT,3000,,,,,MVFR,,,,,,,,,,,,METAR,53.0
ORMM 061500Z 02004KT 9999 FEW040 BKN090 35/03 Q1007 NOSIG,ORMM,2017-05-06T15:00:00Z,30.57,47.67,35.0,3.0,20,4,,6.21,29.734253,,,,,,TRUE,,,,,FEW,4000,BKN,9000,,,,,VFR,,,,,,,,,,,,METAR,2.0
FCPP 061500Z 20006KT 9999 SCT013 BKN026 28/24 Q1010 NOSIG,FCPP,2017-05-06T15:00:00Z,-4.82,11.9,28.0,24.0,200,6,,6.21,29.822834,,,,,,TRUE,,,,,SCT,1300,BKN,2600,,,,,MVFR,,,,,,,,,,,,METAR,17.0
FEFF 061500Z 28004KT 9999 FEW013 28/23 Q1009 NOSIG,FEFF,2017-05-06T15:00:00Z,4.4,18.52,28.0,23.0,280,4,,6.21,29.793306,,,,,,TRUE,,,,,FEW,1300,,,,,,,VFR,,,,,,,,,,,,METAR,366.0
FCBB 061500Z 18008KT 8000 FEW020 SCT026 FEW030CB 30/23 Q1012 BECMG 4000 TSRA TEMPO 08015G35KT,FCBB,2017-05-06T15:00:00Z,-4.25,15.25,30.0,23.0,180,8,,4.97,29.88189,,,,,,,,,,,FEW,2000,SCT,2600,FEW,3000,,,MVFR,,,,,,,,,,,,METAR,316.0
MNBL 061500Z 08004KT 9999 SCT018 29/26 Q1012,MNBL,2017-05-06T15:00:00Z,12.0,-83.77,29.0,26.0,80,4,,6.21,29.88189,,,,,,,,,,,SCT,1800,,,,,,,VFR,,,,,,,,,,,,METAR,5.0
MNCH 061500Z 36004KT 9999 FEW025 SCT090 27/25 Q1012,MNCH,2017-05-06T15:00:00Z,12.62,-87.12,27.0,25.0,360,4,,6.21,29.88189,,,,,,,,,,,FEW,2500,SCT,9000,,,,,VFR,,,,,,,,,,,,METAR,53.0
MNJU 061500Z 09006KT 9999 SCT020 30/23 Q1013,MNJU,2017-05-06T15:00:00Z,12.08,-85.37,30.0,23.0,90,6,,6.21,29.911417,,,,,,,,,,,SCT,2000,,,,,,,VFR,,,,,,,,,,,,METAR,90.0
MNJG 061500Z 36006KT 5000 BKN016 22/18 Q1014 BR,MNJG,2017-05-06T15:00:00Z,13.08,-86.02,22.0,18.0,360,6,,3.11,29.940945,,,,,,,,,,BR,BKN,1600,,,,,,,MVFR,,,,,,,,,,,,METAR,985.0
MNRS 061500Z 00000KT 9999 BKN016 30/24 Q1011,MNRS,2017-05-06T15:00:00Z,11.42,-85.82,30.0,24.0,0,0,,6.21,29.852362,,,,,,,,,,,BKN,1600,,,,,,,MVFR,,,,,,,,,,,,METAR,53.0
MNPC 061500Z 32006KT 6000 VCRA FEW014CB SCT016 28/26 Q1011 CBRA/NE TCURA/E/SE/S,MNPC,2017-05-06T15:00:00Z,14.05,-83.38,28.0,26.0,320,6,,3.73,29.852362,,,,,,,,,,VCRA RA RA,FEW,1400,SCT,1600,,,,,MVFR,,,,,,,,,,,,METAR,16.0
FGBT 061500Z 26006KT 9999 TS SCT010 FEW020CB 31/25 Q1009,FGBT,2017-05-06T15:00:00Z,1.88,9.8,31.0,25.0,260,6,,6.21,29.793306,,,,,,,,,,TS,SCT,1000,FEW,2000,,,,,VFR,,,,,,,,,,,,METAR,8.0
FGSL 061500Z VRB01KT 9999 SCT010 FEW020CB 29/25 Q1010 NOSIG,FGSL,2017-05-06T15:00:00Z,3.75,8.72,29.0,25.0,0,1,,6.21,29.822834,,,,,,TRUE,,,,,SCT,1000,FEW,2000,,,,,VFR,,,,,,,,,,,,METAR,56.0
FIMP 061500Z 11010 KT 8000 VCSH FEW010 BKN014 BKN045 25/22 Q1018,FIMP,2017-05-06T15:00:00Z,-20.42,57.67,25.0,22.0,110,10,,4.97,30.059055,,,,,,,,,,VCSH,FEW,1000,BKN,1400,BKN,4500,,,MVFR,,,,,,,,,,,,METAR,57.0
YBPN 061500Z AUTO 17008KT 9999 // BKN092 BKN105 21/19 Q1019,YBPN,2017-05-06T15:00:00Z,-20.5,148.55,21.0,19.0,170,8,,6.21,30.088583,,,TRUE,,,,,,,,BKN,9200,BKN,10500,,,,,VFR,,,,,,,,,,,,METAR,25.0
YBOK 061500Z AUTO 00000KT 9999 // NCD 12/10 Q1024,YBOK,2017-05-06T15:00:00Z,-27.42,151.72,12.0,10.0,0,0,,6.21,30.236221,,,TRUE,,,,,,,,CLR,,,,,,,,VFR,,,,,,,,,,,,METAR,407.0
YBNA 061500Z AUTO 24003KT 9999 // NCD 13/12 Q1024,YBNA,2017-05-06T15:00:00Z,-28.83,153.57,13.0,12.0,240,3,,6.21,30.236221,,,TRUE,,,,,,,,CLR,,,,,,,,VFR,,,,,,,,,,,,METAR,2.0
YBMK 061500Z AUTO 17009KT 9999 // SCT018 BKN025 BKN040 22/20 Q1019,YBMK,2017-05-06T15:00:00Z,-21.17,149.17,22.0,20.0,170,9,,6.21,30.088583,,,TRUE,,,,,,,,SCT,1800,BKN,2500,BKN,4000,,,MVFR,,,,,,,,,,,,METAR,31.0
YBHI 061500Z AUTO 18014KT 9999 // ////// 13/08 Q1027,YBHI,2017-05-06T15:00:00Z,-32.0,141.47,13.0,8.0,180,14,,6.21,30.324802,,,TRUE,,,,,,,,,,,,,,,,,,,,,,,,,,,,METAR,292.0
DRRT 061500Z 14006KT 9999 SCT040TCU 43/10 Q1007,DRRT,2017-05-06T15:00:00Z,14.9,5.25,43.0,10.0,140,6,,6.21,29.734253,,,,,,,,,,,SCT,4000,,,,,,,VFR,,,,,,,,,,,,METAR,391.0
DRRM 061500Z 36004KT 9999 FEW050 42/11 Q1008,DRRM,2017-05-06T15:00:00Z,13.5,7.12,42.0,11.0,360,4,,6.21,29.763779,,,,,,,,,,,FEW,5000,,,,,,,VFR,,,,,,,,,,,,METAR,373.0
DRZR 061500Z 08014KT CAVOK 43/M05 Q1007,DRZR,2017-05-06T15:00:00Z,13.77,8.97,43.0,-5.0,80,14,,6.21,29.734253,,,,,,,,,,,CAVOK,,,,,,,,VFR,,,,,,,,,,,,METAR,453.0
OEDR 061500Z 10009KT CAVOK 35/19 Q1003 NOSIG,OEDR,2017-05-06T15:00:00Z,26.27,50.17,35.0,19.0,100,9,,6.21,29.616142,,,,,,TRUE,,,,,CAVOK,,,,,,,,VFR,,,,,,,,,,,,METAR,17.0
YESP 061500Z AUTO 05009KT 9999 // NCD 12/07 Q1029,YESP,2017-05-06T15:00:00Z,-33.68,121.82,12.0,7.0,50,9,,6.21,30.383858,,,TRUE,,,,,,,,CLR,,,,,,,,VFR,,,,,,,,,,,,METAR,143.0
YEML 061500Z AUTO 16009KT 9999 // NCD 16/08 Q1022,YEML,2017-05-06T15:00:00Z,-23.57,148.18,16.0,8.0,160,9,,6.21,30.177166,,,TRUE,,,,,,,,CLR,,,,,,,,VFR,,,,,,,,,,,,METAR,190.0
YDBY 061500Z AUTO 17007KT 9999 // NCD 23/15 Q1016,YDBY,2017-05-06T15:00:00Z,-17.37,123.67,23.0,15.0,170,7,,6.21,30.0,,,TRUE,,,,,,,,CLR,,,,,,,,VFR,,,,,,,,,,,,METAR,7.0
YCOM 061500Z AUTO 30009KT 9999 // SCT063 09/02 Q1018,YCOM,2017-05-06T15:00:00Z,-36.3,148.97,9.0,2.0,300,9,,6.21,30.059055,,,TRUE,,,,,,,,SCT,6300,,,,,,,VFR,,,,,,,,,,,,METAR,941.0
YCNM 061500Z AUTO 01004G16KT 230V020 //// // ////// 15/08 Q1024,YCNM,2017-05-06T15:00:00Z,-30.98,148.38,15.0,8.0,10,4,16,,30.236221,,,TRUE,,,,,,,,,,,,,,,,,,,,,,,,,,,,METAR,184.0
YCDU 061500Z AUTO 11009KT 9999 // NCD 10/09 Q1029,YCDU,2017-05-06T15:00:00Z,-32.12,133.7,10.0,9.0,110,9,,6.21,30.383858,,,TRUE,,,,,,,,CLR,,,,,,,,VFR,,,,,,,,,,,,METAR,15.0
YPBO 061500Z AUTO 05009KT 9999 // NCD 21/02 Q1022,YPBO,2017-05-06T15:00:00Z,-23.2,117.75,21.0,2.0,50,9,,6.21,30.177166,,,TRUE,,,,,,,,CLR,,,,,,,,VFR,,,,,,,,,,,,METAR,1292.0
YOLD 061500Z AUTO 17008KT 9999 // NCD 15/11 Q1026,YOLD,2017-05-06T15:00:00Z,-30.48,136.88,15.0,11.0,170,8,,6.21,30.295275,,,TRUE,,,,,,,,CLR,,,,,,,,VFR,,,,,,,,,,,,METAR,105.0
YNWN 061500Z AUTO 13001KT 7000 // NCD 15/05 Q1024,YNWN,2017-05-06T15:00:00Z,-23.42,119.8,15.0,5.0,130,1,,4.35,30.236221,,,TRUE,,,,,,,,CLR,,,,,,,,MVFR,,,,,,,,,,,,METAR,525.0
YNTN 061500Z AUTO 13005KT 9999 // NCD 26/16 Q1015,YNTN,2017-05-06T15:00:00Z,-17.68,141.07,26.0,16.0,130,5,,6.21,29.970472,,,TRUE,,,,,,,,CLR,,,,,,,,VFR,,,,,,,,,,,,METAR,22.0
YNBR 061500Z AUTO 09008KT 9999 // NCD 13/06 Q1023,YNBR,2017-05-06T15:00:00Z,-30.32,149.83,13.0,6.0,90,8,,6.21,30.206694,,,TRUE,,,,,,,,CLR,,,,,,,,VFR,,,,,,,,,,,,METAR,240.0
YNAR 061500Z AUTO 21014KT //// // ////// 12/06 Q1025,YNAR,2017-05-06T15:00:00Z,-34.7,146.52,12.0,6.0,210,14,,,30.265747,,,TRUE,,,,,,,,,,,,,,,,,,,,,,,,,,,,METAR,145.0
YMTG 061500Z AUTO 23005KT 9999 // SCT033 SCT057 09/07 Q1028,YMTG,2017-05-06T15:00:00Z,-37.75,140.78,9.0,7.0,230,5,,6.21,30.35433,,,TRUE,,,,,,,,SCT,3300,SCT,5700,,,,,VFR,,,,,,,,,,,,METAR,65.0
YSNW 061500Z AUTO 30004KT 9999 // NCD 15/10 Q1019,YSNW,2017-05-06T15:00:00Z,-34.95,150.52,15.0,10.0,300,4,,6.21,30.088583,,,TRUE,,,,,,,,CLR,,,,,,,,VFR,,,,,,,,,,,,METAR,110.0
YRMD 061500Z AUTO 11008KT //// // ////// 24/08 Q1018,YRMD,2017-05-06T15:00:00Z,-20.7,143.12,24.0,8.0,110,8,,,30.059055,,,TRUE,,,,,,,,,,,,,,,,,,,,,,,,,,,,METAR,207.0
YLEC 061500Z AUTO 11004KT //// // ////// 13/04 Q1026,YLEC,2017-05-06T15:00:00Z,-30.6,138.43,13.0,4.0,110,4,,,30.295275,,,TRUE,,,,,,,,,,,,,,,,,,,,,,,,,,,,METAR,262.0
YKRY 061500Z AUTO 15004KT 9999 // SCT067 13/12 Q1024,YKRY,2017-05-06T15:00:00Z,-26.57,151.83,13.0,12.0,150,4,,6.21,30.236221,,,TRUE,,,,,,,,SCT,6700,,,,,,,VFR,,,,,,,,,,,,METAR,434.0
YHUG 061500Z AUTO 11006KT 9999 // OVC100 23/07 Q1019,YHUG,2017-05-06T15:00:00Z,-20.82,144.23,23.0,7.0,110,6,,6.21,30.088583,,,TRUE,,,,,,,,OVC,10000,,,,,,,VFR,,,,,,,,,,,,METAR,318.0
YGTH 061500Z AUTO 22010KT 9999 // SCT060 13/09 Q1025,YGTH,2017-05-06T15:00:00Z,-34.25,146.07,13.0,9.0,220,10,,6.21,30.265747,,,TRUE,,,,,,,,SCT,6000,,,,,,,VFR,,,,,,,,,,,,METAR,134.0
YGTE 061500Z AUTO 15003KT 9999 // OVC100 25/22 Q1014,YGTE,2017-05-06T15:00:00Z,-13.97,136.45,25.0,22.0,150,3,,6.21,29.940945,,,TRUE,,,,,,,,OVC,10000,,,,,,,VFR,,,,,,,,,,,,METAR,14.0
FNSA 061500Z 00000KT 9999 FEW030 BKN100 29/16 Q1018,FNSA,2017-05-06T15:00:00Z,-9.68,20.43,29.0,16.0,0,0,,6.21,30.059055,,,,,,,,,,,FEW,3000,BKN,10000,,,,,VFR,,,,,,,,,,,,METAR,1093.0
TNCC 061500Z 12019KT 9999 SCT020 32/24 Q1012 NOSIG,TNCC,2017-05-06T15:00:00Z,12.2,-68.97,32.0,24.0,120,19,,6.21,29.88189,,,,,,TRUE,,,,,SCT,2000,,,,,,,VFR,,,,,,,,,,,,METAR,9.0
FIMR 061500Z 11012KT 9999 SCT017 SCT050 BKN250 25/22 Q1019,FIMR,2017-05-06T15:00:00Z,-19.75,63.37,25.0,22.0,110,12,,6.21,30.088583,,,,,,,,,,,SCT,1700,SCT,5000,BKN,25000,,,VFR,,,,,,,,,,,,METAR,31.0
VABO 061500Z 25004KT 6000 NSC 35/14 Q1007 NOSIG,VABO,2017-05-06T15:00:00Z,22.33,73.22,35.0,14.0,250,4,,3.73,29.734253,,,,,,TRUE,,,,,CLR,,,,,,,,MVFR,,,,,,,,,,,,METAR,39.0
CWJX 061500Z AUTO 22006KT 20/09 RMK AO1 SLP045 T02030086 51001,CWJX,2017-05-06T15:00:00Z,50.88,-109.5,20.3,8.6,220,6,,,,1004.5,,TRUE,TRUE,,,,,,,,,,,,,,,,0.1,,,,,,,,,,,METAR,672.0
CWFF 061500Z AUTO 12013G18KT 13/M00 RMK AO1 PK WND 13024/1412 SLP109 T01271004 53005,CWFF,2017-05-06T15:00:00Z,52.82,-104.58,12.7,-0.4,120,13,18,,,1010.9,,TRUE,TRUE,,,,,,,,,,,,,,,,0.5,,,,,,,,,,,METAR,490.0
CZDB 061500Z AUTO 14013KT 12/12 RMK AO1 8PAST HR 8004 PK WND 14021/1405 SLP167 P0003 T01150118 50018,CZDB,2017-05-06T15:00:00Z,45.42,-63.47,11.5,11.8,140,13,,,,1016.7,,TRUE,TRUE,,,,,,,,,,,,,,,,1.8,,,,,0.03,,,,,,METAR,38.0
CXNP 061500Z AUTO 14015G21KT 15/14 RMK AO1 PK WND 14025/1431 SLP134 T01490137 58012,CXNP,2017-05-06T15:00:00Z,45.75,-64.23,14.9,13.7,140,15,21,,,1013.4,,TRUE,TRUE,,,,,,,,,,,,,,,,-1.2,,,,,,,,,,,METAR,20.0
CWZW 061500Z AUTO 08001KT 03/M01 RMK AO1 SOG 02 3006 SLP119 T00301012,CWZW,2017-05-06T15:00:00Z,60.17,-132.73,3.0,-1.2,80,1,,,,1011.9,,TRUE,TRUE,,,,,,,,,,,,,,,,,,,,,,,,,,,METAR,705.0
CWRM 061500Z AUTO 25002KT 13/06 RMK AO1 SLP046 T01330059 51004,CWRM,2017-05-06T15:00:00Z,52.42,-114.92,13.3,5.9,250,2,,,,1004.6,,TRUE,TRUE,,,,,,,,,,,,,,,,0.4,,,,,,,,,,,METAR,988.0
CWWS 061500Z AUTO 12002KT 04/01 RMK AO1 SLP226 T00440005 50003,CWWS,2017-05-06T15:00:00Z,52.82,-97.62,4.4,0.5,120,2,,,,1022.6,,TRUE,TRUE,,,,,,,,,,,,,,,,0.3,,,,,,,,,,,METAR,223.0
CWJD 061500Z AUTO 11005KT 02/M01 RMK AO1 SLP230 T00201007 51008,CWJD,2017-05-06T15:00:00Z,53.17,-99.27,2.0,-0.7,110,5,,,,1023.0,,TRUE,TRUE,,,,,,,,,,,,,,,,0.8,,,,,,,,,,,METAR,223.0
CWCT 061500Z AUTO 32007KT 18/03 RMK AO1 SLP047 T01830033 53004,CWCT,2017-05-06T15:00:00Z,52.07,-111.47,18.3,3.3,320,7,,,,1004.7,,TRUE,TRUE,,,,,,,,,,,,,,,,0.4,,,,,,,,,,,METAR,791.0
CWVU 061500Z AUTO 16013G20KT 09/09 RMK AO1 0PAST HR 0001 PK WND 16021/1409 SLP105 P0008 T00930087 50048,CWVU,2017-05-06T15:00:00Z,44.28,-66.33,9.3,8.7,160,13,20,,,1010.5,,TRUE,TRUE,,,,,,,,,,,,,,,,4.8,,,,,0.08,,,,,,METAR,16.0
CXET 061500Z AUTO 34009KT 05/04 RMK AO1 SLP960 T00500040 55003,CXET,2017-05-06T15:00:00Z,44.23,-79.78,5.0,4.0,340,9,,,,996.0,,TRUE,TRUE,,,,,,,,,,,,,,,,-0.3,,,,,,,,,,,METAR,251.0
CXEG 061500Z AUTO 15/08 RMK AO1 T01540075,CXEG,2017-05-06T15:00:00Z,53.3,-113.6,15.4,7.5,,,,,,,,TRUE,TRUE,,,,,,,,,,,,,,,,,,,,,,,,,,,METAR,715.0
CXDE 061500Z AUTO 23001KT 03/M01 RMK AO1 SLP186 T00321008 53003,CXDE,2017-05-06T15:00:00Z,65.22,-123.43,3.2,-0.8,230,1,,,,1018.6,,TRUE,TRUE,,,,,,,,,,,,,,,,0.3,,,,,,,,,,,METAR,213.0
CXCA 061500Z AUTO 26013G18KT 04/M05 RMK AO1 SOG 00 1012 PK WND 19019/1427 SLP191 T00391052,CXCA,2017-05-06T15:00:00Z,49.15,-88.35,3.9,-5.2,260,13,18,,,1019.1,,TRUE,TRUE,,,,,,,,,,,,,,,,,,,,,,,,,,,METAR,228.0
CWDO 061500Z AUTO 33004KT 02/M04 RMK AO1 SLP345 T00181044 50005,CWDO,2017-05-06T15:00:00Z,49.67,-54.78,1.8,-4.4,330,4,,,,1034.5,,TRUE,TRUE,,,,,,,,,,,,,,,,0.5,,,,,,,,,,,METAR,92.0
CWDM 061500Z AUTO 05013G20KT 03/M02 RMK AO1 PK WND 05020/1441 SLP316 T00321016 53007,CWDM,2017-05-06T15:00:00Z,50.47,-59.62,3.2,-1.6,50,13,20,,,1031.6,,TRUE,TRUE,,,,,,,,,,,,,,,,0.7,,,,,,,,,,,METAR,6.0
CXSE 061500Z AUTO 13010KT M15/M17 RMK AO1 SLP348 T11531169 51006,CXSE,2017-05-06T15:00:00Z,73.77,-105.28,-15.3,-16.9,130,10,,,,1034.8,,TRUE,TRUE,,,,,,,,,,,,,,,,0.6,,,,,,,,,,,METAR,11.0
CWGW 061500Z AUTO 03001KT 08/07 RMK AO1 SLP099 T00840068 52002,CWGW,2017-05-06T15:00:00Z,49.75,-114.9,8.4,6.8,30,1,,,,1009.9,,TRUE,TRUE,,,,,,,,,,,,,,,,0.2,,,,,,,,,,,METAR,1137.0
FLKK 061500Z 08009KT 9999 SCT040 25/12 Q1022,FLKK,2017-05-06T15:00:00Z,-15.32,28.45,25.0,12.0,80,9,,6.21,30.177166,,,,,,,,,,,SCT,4000,,,,,,,VFR,,,,,,,,,,,,METAR,1154.0
FQLC 061500Z 12012KT 080V170 9999 VCSH FEW012 BKN018 FEW020CB 20/17 Q1023 RMK CB TO N,FQLC,2017-05-06T15:00:00Z,-13.27,35.25,20.0,17.0,120,12,,6.21,30.206694,,,,,,,,,,VCSH,FEW,1200,BKN,1800,FEW,2000,,,MVFR,,,,,,,,,,,,METAR,1365.0
FNBC 061500Z 31004KT 9999 SCT016 FEW019CB 29/// Q////,FNBC,2017-05-06T15:00:00Z,-6.27,14.25,,,310,4,,6.21,,,,,,,,,,,,SCT,1600,FEW,1900,,,,,VFR,,,,,,,,,,,,METAR,567.0
FBSP 061500Z 00000KT 9999 FEW030 27/11 Q1020,FBSP,2017-05-06T15:00:00Z,-22.05,27.82,27.0,11.0,0,0,,6.21,30.11811,,,,,,,,,,,FEW,3000,,,,,,,VFR,,,,,,,,,,,,METAR,892.0
FBMN 061500Z 09004KT CAVOK 27/08 Q1020,FBMN,2017-05-06T15:00:00Z,-19.97,23.42,27.0,8.0,90,4,,6.21,30.11811,,,,,,,,,,,CAVOK,,,,,,,,VFR,,,,,,,,,,,,METAR,900.0
FBFT 061500Z 08007KT CAVOK 26/04 Q1021,FBFT,2017-05-06T15:00:00Z,-21.17,27.48,26.0,4.0,80,7,,6.21,30.147638,,,,,,,,,,,CAVOK,,,,,,,,VFR,,,,,,,,,,,,METAR,1000.0
FNHU 061500Z 14004KT 9999 FEW020 27/08 Q1022,FNHU,2017-05-06T15:00:00Z,-12.82,15.77,27.0,8.0,140,4,,6.21,30.177166,,,,,,,,,,,FEW,2000,,,,,,,VFR,,,,,,,,,,,,METAR,1701.0
VOVZ 061500Z 34010G20KT 1500 +TSRA FEW010 SCT012 FEW025CB OVC080 22/22 Q1012 TEMPO 1000 +TSRA,VOVZ,2017-05-06T15:00:00Z,17.75,83.22,22.0,22.0,340,10,20,0.93,29.88189,,,,,,,,,,+TSRA,FEW,1000,SCT,1200,FEW,2500,OVC,8000,LIFR,,,,,,,,,,,,METAR,5.0
VAID 061500Z 29005KT 6000 FEW020 35/08 Q1011 NOSIG,VAID,2017-05-06T15:00:00Z,22.72,75.78,35.0,8.0,290,5,,3.73,29.852362,,,,,,TRUE,,,,,FEW,2000,,,,,,,MVFR,,,,,,,,,,,,METAR,567.0
VIGR 061500Z 000000KT 4000 HZ NSC 33/16 Q1005,VIGR,2017-05-06T15:00:00Z,26.28,78.22,33.0,16.0,0,0,,2.49,29.675198,,,,,,,,,,HZ,CLR,,,,,,,,IFR,,,,,,,,,,,,METAR,189.0
VAJB 061500Z 09008KT 6000 FEW100 32/10 Q1010,VAJB,2017-05-06T15:00:00Z,23.18,80.05,32.0,10.0,90,8,,3.73,29.822834,,,,,,,,,,,FEW,10000,,,,,,,MVFR,,,,,,,,,,,,METAR,494.0
CYZU 061500Z 31011KT 15SM SCT150 OVC240 12/06 A2969 RMK AC3CI5 SLP056 DENSITY ALT 3000FT,CYZU,2017-05-06T15:00:00Z,54.15,-115.78,12.0,6.0,310,11,,15.0,29.68996,1005.6,,,,,,,,,,SCT,15000,OVC,24000,,,,,VFR,,,,,,,,,,,,METAR,785.0
CYWG 061500Z 09004KT 15SM SCT120 BKN180 BKN250 11/03 A3007 RMK AC4AC1CI1 SLP190,CYWG,2017-05-06T15:00:00Z,49.88,-97.22,11.0,3.0,90,4,,15.0,30.070866,1019.0,,,,,,,,,,SCT,12000,BKN,18000,BKN,25000,,,VFR,,,,,,,,,,,,METAR,239.0
NCAI 061500Z AUTO 04002KT //// ////// 25/23 Q1011,NCAI,2017-05-06T15:00:00Z,-18.82,-159.77,25.0,23.0,40,2,,,29.852362,,,TRUE,,,,,,,,,,,,,,,,,,,,,,,,,,,,METAR,6.0
NSFA 061500Z 04003KT 9000 DZ FEW019 BKN038 OVC120 25/24 Q1012,NSFA,2017-05-06T15:00:00Z,-13.83,-172.0,25.0,24.0,40,3,,5.59,29.88189,,,,,,,,,,DZ,FEW,1900,BKN,3800,OVC,12000,,,VFR,,,,,,,,,,,,METAR,5.0
NIUE 061500Z AUTO 15003KT //// ////// 24/23 Q1011,NIUE,2017-05-06T15:00:00Z,-19.07,-169.92,24.0,23.0,150,3,,,29.852362,,,TRUE,,,,,,,,,,,,,,,,,,,,,,,,,,,,METAR,20.0
FNUG 061500Z 30006KT 9999 SCT023 FEW025CB BKN080 28/22 Q1012,FNUG,2017-05-06T15:00:00Z,-7.6,15.28,28.0,22.0,300,6,,6.21,29.88189,,,,,,,,,,,SCT,2300,FEW,2500,BKN,8000,,,VFR,,,,,,,,,,,,METAR,829.0
FDUS 061500Z AUTO 04006KT //// // ////// 24/11 Q1019,FDUS,2017-05-06T15:00:00Z,-26.72,30.92,24.0,11.0,40,6,,,30.088583,,,TRUE,,,,,,,,,,,,,,,,,,,,,,,,,,,,METAR,956.0
FDST 061500Z AUTO 08003KT //// // ////// 23/17 Q1018,FDST,2017-05-06T15:00:00Z,-26.43,31.95,23.0,17.0,80,3,,,30.059055,,,TRUE,,,,,,,,,,,,,,,,,,,,,,,,,,,,METAR,667.0
FDPP 061500Z AUTO 07007KT //// // ////// 20/13 Q1024,FDPP,2017-05-06T15:00:00Z,-25.97,31.25,20.0,13.0,70,7,,,30.236221,,,TRUE,,,,,,,,,,,,,,,,,,,,,,,,,,,,METAR,1099.0
FDMV 061500Z AUTO 00000KT //// // ////// 28/17 Q1022,FDMV,2017-05-06T15:00:00Z,,,28.0,17.0,0,0,,,30.177166,,,TRUE,,,,,,,,,,,,,,,,,,,,,,,,,,,,METAR,
FDLB 061500Z AUTO 04003KT //// // ////// 29/13 Q1018,FDLB,2017-05-06T15:00:00Z,,,29.0,13.0,40,3,,,30.059055,,,TRUE,,,,,,,,,,,,,,,,,,,,,,,,,,,,METAR,
FDJR 061500Z AUTO 03003KT //// // ////// 26/08 Q1019,FDJR,2017-05-06T15:00:00Z,-27.17,31.43,26.0,8.0,30,3,,,30.088583,,,TRUE,,,,,,,,,,,,,,,,,,,,,,,,,,,,METAR,701.0
UTTT 061500Z 07008KT 040V100 4000 -SHRA BR OVC015CB 17/16 Q1015 R08R/29//50 TEMPO VRB20G30KT TS BKN030CB,UTTT,2017-05-06T15:00:00Z,41.27,69.27,17.0,16.0,70,8,,2.49,29.970472,,,,,,,,,,-SHRA BR,OVC,1500,,,,,,,IFR,,,,,,,,,,,,METAR,489.0
UTST 061500Z 02012KT 350V050 9999 BKN060CB 26/10 Q1011 R88/CLRD70 NOSIG,UTST,2017-05-06T15:00:00Z,37.28,67.32,26.0,10.0,20,12,,6.21,29.852362,,,,,,TRUE,,,,,BKN,6000,,,,,,,VFR,,,,,,,,,,,,METAR,302.0
UTSS 061500Z 27018KT 2300 -TSRA OVC045CB 17/13 Q1017 R27/70D NOSIG,UTSS,2017-05-06T15:00:00Z,39.7,66.98,17.0,13.0,270,18,,1.43,30.029528,,,,,,TRUE,,,,-TSRA,OVC,4500,,,,,,,IFR,,,,,,,,,,,,METAR,724.0
UTSK 061500Z 36016KT 5000 -SHRA BKN020CB 16/13 Q1014 R34/290250,UTSK,2017-05-06T15:00:00Z,38.83,65.77,16.0,13.0,360,16,,3.11,29.940945,,,,,,,,,,-SHRA,BKN,2000,,,,,,,MVFR,,,,,,,,,,,,METAR,1365.0
UTSB 061500Z 00000KT CAVOK 16/14 Q1015 R01/290055 NOSIG,UTSB,2017-05-06T15:00:00Z,39.77,64.48,16.0,14.0,0,0,,6.21,29.970472,,,,,,TRUE,,,,,CAVOK,,,,,,,,VFR,,,,,,,,,,,,METAR,226.0
UTSA 061500Z 13004KT 9999 NSC 15/14 Q1014 R07/2///60 NOSIG,UTSA,2017-05-06T15:00:00Z,40.12,65.17,15.0,14.0,130,4,,6.21,29.940945,,,,,,TRUE,,,,,CLR,,,,,,,,VFR,,,,,,,,,,,,METAR,346.0
UTNU 061500Z 34006KT 7000 NSC 23/06 Q1012 R31/CLRD70 NOSIG,UTNU,2017-05-06T15:00:00Z,41.58,60.63,23.0,6.0,340,6,,4.35,29.88189,,,,,,TRUE,,,,,CLR,,,,,,,,MVFR,,,,,,,,,,,,METAR,98.0
UTNN 061500Z 35006KT CAVOK 22/02 Q1014 R33/CLRD60 NOSIG,UTNN,2017-05-06T15:00:00Z,42.48,59.63,22.0,2.0,350,6,,6.21,29.940945,,,,,,TRUE,,,,,CAVOK,,,,,,,,VFR,,,,,,,,,,,,METAR,67.0
UTFN 061500Z VRB02KT 9000 SCT050CB 19/14 Q1014 R28/190060 NOSIG,UTFN,2017-05-06T15:00:00Z,40.98,71.57,19.0,14.0,0,2,,5.59,29.940945,,,,,,TRUE,,,,,SCT,5000,,,,,,,VFR,,,,,,,,,,,,METAR,490.0
FQBR 061500Z /////KT 9999 FEW020 25/19 Q1017,FQBR,2017-05-06T15:00:00Z,-19.8,34.88,25.0,19.0,,,,6.21,30.029528,,,,,,,,,,,FEW,2000,,,,,,,VFR,,,,,,,,,,,,METAR,16.0
OTHH 061500Z 09011KT CAVOK 31/22 Q1007 NOSIG,OTHH,2017-05-06T15:00:00Z,25.25,51.6,31.0,22.0,90,11,,6.21,29.734253,,,,,,TRUE,,,,,CAVOK,,,,,,,,VFR,,,,,,,,,,,,METAR,0.0
OTBD 061500Z 08008KT CAVOK 32/22 Q1007 NOSIG,OTBD,2017-05-06T15:00:00Z,25.25,51.57,32.0,22.0,80,8,,6.21,29.734253,,,,,,TRUE,,,,,CAVOK,,,,,,,,VFR,,,,,,,,,,,,METAR,10.0
LFQG 061500Z AUTO 24010KT 200V270 9999 SCT032 SCT038 BKN074 15/10 Q1011,LFQG,2017-05-06T15:00:00Z,47.0,3.1,15.0,10.0,240,10,,6.21,29.852362,,,TRUE,,,,,,,,SCT,3200,SCT,3800,BKN,7400,,,VFR,,,,,,,,,,,,METAR,181.0
LFLW 061500Z AUTO 29010KT 240V310 9999 BKN017/// BKN025/// BKN050/// ///TCU 13/10 Q1016 TEMPO SHRA FEW020 BKN050,LFLW,2017-05-06T15:00:00Z,44.88,2.42,13.0,10.0,290,10,,6.21,30.0,,,TRUE,,,,,,,,BKN,1700,BKN,2500,BKN,5000,,,MVFR,,,,,,,,,,,,METAR,639.0
FKKN 061500Z 22004KT 9999 TS FEW016 FEW020CB 19/18 Q1016,FKKN,2017-05-06T15:00:00Z,7.33,13.57,19.0,18.0,220,4,,6.21,30.0,,,,,,,,,,TS,FEW,1600,FEW,2000,,,,,VFR,,,,,,,,,,,,METAR,1104.0
MGTU 061500Z 23008KT CAVOK 29/24 FEW080 SCT200,MGTU,2017-05-06T15:00:00Z,,,29.0,24.0,230,8,,6.21,,,,,,,,,,,,FEW,8000,SCT,20000,,,,,VFR,,,,,,,,,,,,METAR,
MGMT 061500Z 00000KT CAVOK 31/24 QFE 1010.5 FEW070 BKN200,MGMT,2017-05-06T15:00:00Z,,,31.0,24.0,0,0,,6.21,,,,,,,,,,,,FEW,7000,BKN,20000,,,,,VFR,,,,,,,,,,,,METAR,
MGES 061500Z 03006KT 7000 OVC010 18/18 QFE 911.0 BR,MGES,2017-05-06T15:00:00Z,14.57,-89.32,18.0,18.0,30,6,,4.35,,,,,,,,,,,BR,OVC,1000,,,,,,,MVFR,,,,,,,,,,,,METAR,965.0
MGZA 061500Z 08006KT 9999 FEW028 OVC200 27/18 QFE 990/6 FEW090,MGZA,2017-05-06T15:00:00Z,14.97,-89.52,27.0,18.0,80,6,,6.21,,,,,,,,,,,,FEW,2800,OVC,20000,FEW,9000,,,VFR,,,,,,,,,,,,METAR,490.0
MGCB 061500Z 00000KT 2000 DZ BR OVC002 16/15 QFE 872.5 APCH CLSD,MGCB,2017-05-06T15:00:00Z,15.48,-90.42,16.0,15.0,0,0,,1.24,,,,,,,,,,,DZ BR,OVC,200,,,,,,,LIFR,,,,,,,,,,,,METAR,1316.0
MGQZ 061500Z 00000KT 9999 SCT020 SCT200 17/12 QFE 773/8,MGQZ,2017-05-06T15:00:00Z,14.87,-91.5,17.0,12.0,0,0,,6.21,,,,,,,,,,,,SCT,2000,SCT,20000,,,,,VFR,,,,,,,,,,,,METAR,2371.0
MGRT 061500Z 00000KT 7000 BKN080 29/24 Q1015 A2997 HZ VOL. STA. MARIA Y SANTIAGUITO EN ACTIVIDAD,MGRT,2017-05-06T15:00:00Z,14.53,-91.7,29.0,24.0,0,0,,4.35,29.970472,,,,,,,,,,HZ SA,BKN,8000,,,,,,,MVFR,,,,,,,,,,,,METAR,200.0
MGSJ 061500Z 00000KT 9000 SCT020TCU SCT090 BKN200 30/25 Q1013 A2991 TCU SMC N,MGSJ,2017-05-06T15:00:00Z,13.92,-90.83,30.0,25.0,0,0,,5.59,29.911417,,,,,,,,,,,SCT,2000,SCT,9000,BKN,20000,,,VFR,,,,,,,,,,,,METAR,9.0
MGPB 061500Z 00000KT 5000 DZ SCT010 OVC060 22/21 Q1018 A3006,MGPB,2017-05-06T15:00:00Z,15.72,-88.58,22.0,21.0,0,0,,3.11,30.059055,,,,,,,,,,DZ,SCT,1000,OVC,6000,,,,,MVFR,,,,,,,,,,,,METAR,10.0
MGHT 061500Z 00000KT 9999 OVC018 17/13 QFE 819/3,MGHT,2017-05-06T15:00:00Z,15.32,-91.5,17.0,13.0,0,0,,6.21,,,,,,,,,,,,OVC,1800,,,,,,,MVFR,,,,,,,,,,,,METAR,1901.0
MGMM 061500Z 02004KT CAVOK 25/18 Q1019 A3009 SCT080,MGMM,2017-05-06T15:00:00Z,16.97,-89.87,25.0,18.0,20,4,,6.21,30.088583,,,,,,,,,,,SCT,8000,,,,,,,VFR,,,,,,,,,,,,METAR,123.0
FNSU 061500Z 25004KT 9999 FEW013 28/// Q1012,FNSU,2017-05-06T15:00:00Z,-11.17,13.85,,,250,4,,6.21,29.88189,,,,,,,,,,,FEW,1300,,,,,,,VFR,,,,,,,,,,,,METAR,11.0
HUEN 061500Z 17016KT 9999 FEW024 FEW026CB BKN230 24/20 Q1016.0 NOSIG,HUEN,2017-05-06T15:00:00Z,0.03,32.45,24.0,20.0,170,16,,6.21,30.0,,,,,,TRUE,,,,,FEW,2400,FEW,2600,BKN,23000,,,VFR,,,,,,,,,,,,METAR,1155.0
HRYR 061500Z 17007KT 9999 SCT025 21/17 Q1018 NOSIG,HRYR,2017-05-06T15:00:00Z,-1.97,30.12,21.0,17.0,170,7,,6.21,30.059055,,,,,,TRUE,,,,,SCT,2500,,,,,,,VFR,,,,,,,,,,,,METAR,1497.0
HKJK 061500Z 07010KT 9999 BKN023 21/17 Q1020 NOSIG,HKJK,2017-05-06T15:00:00Z,-1.32,36.92,21.0,17.0,70,10,,6.21,30.11811,,,,,,TRUE,,,,,BKN,2300,,,,,,,MVFR,,,,,,,,,,,,METAR,1624.0
HKEL 061500Z 08011KT 9999 FEW021CB BKN022 BKN090 20/13 Q1023,HKEL,2017-05-06T15:00:00Z,0.4,35.23,20.0,13.0,80,11,,6.21,30.206694,,,,,,,,,,,FEW,2100,BKN,2200,BKN,9000,,,MVFR,,,,,,,,,,,,METAR,2133.0
VIJP 061500Z 00000KT 5000 HZ FEW035 36/06 Q1008 NOSIG,VIJP,2017-05-06T15:00:00Z,26.82,75.78,36.0,6.0,0,0,,3.11,29.763779,,,,,,TRUE,,,,HZ,FEW,3500,,,,,,,MVFR,,,,,,,,,,,,METAR,390.0
SECO 061500Z 11002KT 9999 SCT020 BKN100 28/24 Q1015,SECO,2017-05-06T15:00:00Z,-0.45,-76.98,28.0,24.0,110,2,,6.21,29.970472,,,,,,,,,,,SCT,2000,BKN,10000,,,,,VFR,,,,,,,,,,,,METAR,220.0
WIOO 061500Z 08003KT 6000 BKN011 25/23 Q1014 NOSIG,WIOO,2017-05-06T15:00:00Z,-0.15,109.4,25.0,23.0,80,3,,3.73,29.940945,,,,,,TRUE,,,,,BKN,1100,,,,,,,MVFR,,,,,,,,,,,,METAR,3.0
WALL 061500Z 22007KT 180V260 8000 TS FEW018CB SCT018 28/24Q1012 RMK CB TO NW SW AND S,WALL,2017-05-06T15:00:00Z,-1.27,116.9,,,220,7,,4.97,29.88189,,,,,,,,,,TS,FEW,1800,SCT,1800,,,,,MVFR,,,,,,,,,,,,METAR,3.0
WIPP 061500Z 10002KT 9999 FEW012 26/25 Q1013,WIPP,2017-05-06T15:00:00Z,-2.88,104.7,26.0,25.0,100,2,,6.21,29.911417,,,,,,,,,,,FEW,1200,,,,,,,VFR,,,,,,,,,,,,METAR,10.0
WIEE 061500Z VRB02KT 9999 BKN020 27/25 Q1013,WIEE,2017-05-06T15:00:00Z,-0.78,100.28,27.0,25.0,0,2,,6.21,29.911417,,,,,,,,,,,BKN,2000,,,,,,,MVFR,,,,,,,,,,,,METAR,5.0
WIBB 061500Z AUTO 00000KT 8000NDV NCD 26/25 Q1012,WIBB,2017-05-06T15:00:00Z,0.47,101.45,26.0,25.0,0,0,,,29.88189,,,TRUE,,,,,,,,CLR,,,,,,,,,,,,,,,,,,,,METAR,31.0
WAQQ 061500Z 00000KT 8000 FEW015 27/25 Q1013,WAQQ,2017-05-06T15:00:00Z,3.33,117.57,27.0,25.0,0,0,,4.97,29.911417,,,,,,,,,,,FEW,1500,,,,,,,MVFR,,,,,,,,,,,,METAR,0.0
WATT 061500Z 11006KT 8000 FEW019 25/23 Q1014 NOSIG,WATT,2017-05-06T15:00:00Z,-10.17,123.67,25.0,23.0,110,6,,4.97,29.940945,,,,,,TRUE,,,,,FEW,1900,,,,,,,MVFR,,,,,,,,,,,,METAR,102.0
YBHM 061500Z AUTO 13024KT 9999 // SCT021 BKN064 OVC074 23/20 Q1018,YBHM,2017-05-06T15:00:00Z,-20.35,148.95,23.0,20.0,130,24,,6.21,30.059055,,,TRUE,,,,,,,,SCT,2100,BKN,6400,OVC,7400,,,VFR,,,,,,,,,,,,METAR,5.0
VMMC 061500Z 11008KT 4500 BR FEW010 SCT025 26/25 Q1015 NOSIG,VMMC,2017-05-06T15:00:00Z,22.15,113.58,26.0,25.0,110,8,,2.8,29.970472,,,,,,TRUE,,,,BR,FEW,1000,SCT,2500,,,,,IFR,,,,,,,,,,,,METAR,6.0
RCNN 061500Z 36004KT 7000 FEW012 SCT060 24/21 Q1015 RMK A2998,RCNN,2017-05-06T15:00:00Z,22.93,120.2,24.0,21.0,360,4,,4.35,29.970472,,,,,,,,,,,FEW,1200,SCT,6000,,,,,MVFR,,,,,,,,,,,,METAR,19.0
RCMQ 061500Z 36008KT 9999 FEW010 SCT050 23/21 Q1015 RMK A3000,RCMQ,2017-05-06T15:00:00Z,24.27,120.62,23.0,21.0,360,8,,6.21,29.970472,,,,,,,,,,,FEW,1000,SCT,5000,,,,,VFR,,,,,,,,,,,,METAR,5.0
RCSS 061500Z 10010KT 9999 FEW008 BKN020 BKN030 23/19 Q1017 NOSIG RMK A3004,RCSS,2017-05-06T15:00:00Z,25.07,121.53,23.0,19.0,100,10,,6.21,30.029528,,,,,,TRUE,,,,,FEW,800,BKN,2000,BKN,3000,,,MVFR,,,,,,,,,,,,METAR,6.0
RCKH 061500Z 05004KT 8000 FEW018 SCT035 BKN120 28/23 Q1015 NOSIG RMK A2999,RCKH,2017-05-06T15:00:00Z,22.57,120.33,28.0,23.0,50,4,,4.97,29.970472,,,,,,TRUE,,,,,FEW,1800,SCT,3500,BKN,12000,,,MVFR,,,,,,,,,,,,METAR,9.0
RCTP 061500Z 05011KT 9999 FEW012 BKN016 BKN022 23/21 Q1017 NOSIG RMK A3004,RCTP,2017-05-06T15:00:00Z,25.07,121.22,23.0,21.0,50,11,,6.21,30.029528,,,,,,TRUE,,,,,FEW,1200,BKN,1600,BKN,2200,,,MVFR,,,,,,,,,,,,METAR,33.0
YGLA 061500Z AUTO 17005KT 9999 // NCD 20/15 Q1021,YGLA,2017-05-06T15:00:00Z,-23.87,151.22,20.0,15.0,170,5,,6.21,30.147638,,,TRUE,,,,,,,,CLR,,,,,,,,VFR,,,,,,,,,,,,METAR,52.0
YGEL 061500Z AUTO 15008KT 9999 // NCD 15/12 Q1023,YGEL,2017-05-06T15:00:00Z,-28.8,114.7,15.0,12.0,150,8,,6.21,30.206694,,,TRUE,,,,,,,,CLR,,,,,,,,VFR,,,,,,,,,,,,METAR,37.0
YHID 061500Z AUTO 13010KT 9999 // SCT018 BKN090 27/14 Q1012,YHID,2017-05-06T15:00:00Z,-10.58,142.3,27.0,14.0,130,10,,6.21,29.88189,,,TRUE,,,,,,,,SCT,1800,BKN,9000,,,,,VFR,,,,,,,,,,,,METAR,13.0
YPJT 061500Z AUTO 15005KT 9999 // NCD 14/12 Q1025 RF00.0/000.0,YPJT,2017-05-06T15:00:00Z,-32.1,115.88,14.0,12.0,150,5,,6.21,30.265747,,,TRUE,,,,,,,,CLR,,,,,,,,VFR,,,,,,,,,,,,METAR,30.0
YSRI 061500Z AUTO 04005KT 9999 // NCD 14/12 Q1020 PRESENT WEATHER SENSOR US,YSRI,2017-05-06T15:00:00Z,-33.6,150.77,14.0,12.0,40,5,,6.21,30.11811,,,TRUE,,,,,,,,CLR,,,,,,,,VFR,,,,,,,,,,,,METAR,21.0
YPWR 061500Z AUTO 16008KT 9999 // NCD 14/11 Q1027,YPWR,2017-05-06T15:00:00Z,-31.12,136.82,14.0,11.0,160,8,,6.21,30.324802,,,TRUE,,,,,,,,CLR,,,,,,,,VFR,,,,,,,,,,,,METAR,167.0
YPGV 061500Z AUTO 14008KT 9999 // NCD 26/22 Q1014,YPGV,2017-05-06T15:00:00Z,-12.27,136.82,26.0,22.0,140,8,,6.21,29.940945,,,TRUE,,,,,,,,CLR,,,,,,,,VFR,,,,,,,,,,,,METAR,55.0
YFRT 061500Z AUTO 13006KT //// // ////// 12/11 Q1029,YFRT,2017-05-06T15:00:00Z,-30.83,128.12,12.0,11.0,130,6,,,30.383858,,,TRUE,,,,,,,,,,,,,,,,,,,,,,,,,,,,METAR,156.0
YCIN 061500Z AUTO 17009KT 9999 // NCD 24/11 Q1015,YCIN,2017-05-06T15:00:00Z,-17.58,123.83,24.0,11.0,170,9,,6.21,29.970472,,,TRUE,,,,,,,,CLR,,,,,,,,VFR,,,,,,,,,,,,METAR,91.0
YLHI 061500Z AUTO 07011KT 9999 // SCT033 SCT042 OVC054 20/13 Q1025,YLHI,2017-05-06T15:00:00Z,-31.53,159.07,20.0,13.0,70,11,,6.21,30.265747,,,TRUE,,,,,,,,SCT,3300,SCT,4200,OVC,5400,,,VFR,,,,,,,,,,,,METAR,2.0
YCFS 061500Z AUTO 35008KT 9999 // NCD 16/13 Q1024,YCFS,2017-05-06T15:00:00Z,-30.32,153.12,16.0,13.0,350,8,,6.21,30.236221,,,TRUE,,,,,,,,CLR,,,,,,,,VFR,,,,,,,,,,,,METAR,5.0
YBRK 061500Z AUTO 12005KT 9999 // NCD 20/18 Q1020,YBRK,2017-05-06T15:00:00Z,-23.37,150.47,20.0,18.0,120,5,,6.21,30.11811,,,TRUE,,,,,,,,CLR,,,,,,,,VFR,,,,,,,,,,,,METAR,14.0
YPPD 061500Z AUTO 18005KT 9999 // NCD 19/13 Q1019,YPPD,2017-05-06T15:00:00Z,-20.37,118.62,19.0,13.0,180,5,,6.21,30.088583,,,TRUE,,,,,,,,CLR,,,,,,,,VFR,,,,,,,,,,,,METAR,6.0
YSNF 061500Z AUTO 08012KT 9999 // SCT025 SCT031 BKN053 19/11 Q1023,YSNF,2017-05-06T15:00:00Z,-29.02,167.92,19.0,11.0,80,12,,6.21,30.206694,,,TRUE,,,,,,,,SCT,2500,SCT,3100,BKN,5300,,,VFR,,,,,,,,,,,,METAR,109.0
YMLT 061500Z AUTO 35008KT 9999 // BKN050 05/04 Q1012,YMLT,2017-05-06T15:00:00Z,-41.52,147.18,5.0,4.0,350,8,,6.21,29.88189,,,TRUE,,,,,,,,BKN,5000,,,,,,,VFR,,,,,,,,,,,,METAR,178.0
YMHB 061500Z 24013KT 9999 SCT024 BKN030 10/06 Q1010 RF00.0/002.0,YMHB,2017-05-06T15:00:00Z,-42.82,147.52,10.0,6.0,240,13,,6.21,29.822834,,,,,,,,,,,SCT,2400,BKN,3000,,,,,MVFR,,,,,,,,,,,,METAR,27.0
YBRM 061500Z AUTO 08003KT 9999 // NCD 22/18 Q1017,YBRM,2017-05-06T15:00:00Z,-17.93,122.22,22.0,18.0,80,3,,6.21,30.029528,,,TRUE,,,,,,,,CLR,,,,,,,,VFR,,,,,,,,,,,,METAR,9.0
YPKG 061500Z AUTO 07007KT 9999 // NCD 16/11 Q1028,YPKG,2017-05-06T15:00:00Z,-30.77,121.45,16.0,11.0,70,7,,6.21,30.35433,,,TRUE,,,,,,,,CLR,,,,,,,,VFR,,,,,,,,,,,,METAR,360.0
YSCB 061500Z AUTO 32008KT 9999 // SCT065 10/04 Q1020,YSCB,2017-05-06T15:00:00Z,-35.28,149.17,10.0,4.0,320,8,,6.21,30.11811,,,TRUE,,,,,,,,SCT,6500,,,,,,,VFR,,,,,,,,,,,,METAR,577.0
VTSP 061500Z 00000KT 9000 FEW018 28/24 Q1014 NOSIG,VTSP,2017-05-06T15:00:00Z,8.12,98.32,28.0,24.0,0,0,,5.59,29.940945,,,,,,TRUE,,,,,FEW,1800,,,,,,,VFR,,,,,,,,,,,,METAR,10.0
OESH 061500Z 04007KT 9999 SCT035 SCT080 38/07 Q1009 NOSIG,OESH,2017-05-06T15:00:00Z,17.47,47.12,38.0,7.0,40,7,,6.21,29.793306,,,,,,TRUE,,,,,SCT,3500,SCT,8000,,,,,VFR,,,,,,,,,,,,METAR,722.0
OERR 061500Z 25010KT 9999 SCT030 34/11 Q1010 NOSIG,OERR,2017-05-06T15:00:00Z,30.88,41.12,34.0,11.0,250,10,,6.21,29.822834,,,,,,TRUE,,,,,SCT,3000,,,,,,,VFR,,,,,,,,,,,,METAR,552.0
OERF 061500Z 32002KT CAVOK 35/01 Q1008,OERF,2017-05-06T15:00:00Z,29.62,43.47,35.0,1.0,320,2,,6.21,29.763779,,,,,,,,,,,CAVOK,,,,,,,,VFR,,,,,,,,,,,,METAR,447.0
OEPA 061500Z 03014KT 4000 BLDU BKN035 37/14 Q1007 NOSIG,OEPA,2017-05-06T15:00:00Z,28.32,46.12,37.0,14.0,30,14,,2.49,29.734253,,,,,,TRUE,,,,BLDU,BKN,3500,,,,,,,IFR,,,,,,,,,,,,METAR,355.0
OENG 061500Z 09009KT 9999 BKN030 BKN090 34/06 Q1013 NOSIG,OENG,2017-05-06T15:00:00Z,17.62,44.42,34.0,6.0,90,9,,6.21,29.911417,,,,,,TRUE,,,,,BKN,3000,BKN,9000,,,,,MVFR,,,,,,,,,,,,METAR,1203.0
OEMK 061500Z 33002KT CAVOK 36/14 Q1008,OEMK,2017-05-06T15:00:00Z,21.43,40.0,36.0,14.0,330,2,,6.21,29.763779,,,,,,,,,,,CAVOK,,,,,,,,VFR,,,,,,,,,,,,METAR,369.0
UMKK 061500Z 35002MPS 290V040 CAVOK 15/06 Q1013 R24/60D NOSIG RMK QFE759/1012,UMKK,2017-05-06T15:00:00Z,54.88,20.6,15.0,6.0,350,4,,6.21,29.911417,,,,,,TRUE,,,,,CAVOK,,,,,,,,VFR,,,,,,,,,,,,METAR,21.0
ULOO 061500Z AUTO 02004MPS 340V040 9000 // ///052/// 15/06 Q1010 RMK QFE753,ULOO,2017-05-06T15:00:00Z,57.78,28.4,15.0,6.0,20,8,,5.59,29.822834,,,TRUE,,,,,,,,,,,,,,,,,,,,,,,,,,,,METAR,47.0
LOAV 061500Z 16014G25KT 30KM FEW040CU SCT300CI 23/07,LOAV,2017-05-06T15:00:00Z,47.97,16.27,23.0,7.0,160,14,25,18.64,,,,,,,,,,,,FEW,4000,,,,,,,VFR,,,,,,,,,,,,METAR,233.0
LOAN 061500Z 17012KT 35KM FEW050CU SCT300CI,LOAN,2017-05-06T15:00:00Z,47.85,16.25,,,170,12,,21.75,,,,,,,,,,,,FEW,5000,,,,,,,VFR,,,,,,,,,,,,METAR,272.0
OEYN 061500Z 27022KT CAVOK 32/12 Q1006 NOSIG,OEYN,2017-05-06T15:00:00Z,24.13,38.07,32.0,12.0,270,22,,6.21,29.704725,,,,,,TRUE,,,,,CAVOK,,,,,,,,VFR,,,,,,,,,,,,METAR,8.0
OEWJ 061500Z 31017KT CAVOK 28/23 Q1009 NOSIG,OEWJ,2017-05-06T15:00:00Z,26.18,36.47,28.0,23.0,310,17,,6.21,29.793306,,,,,,TRUE,,,,,CAVOK,,,,,,,,VFR,,,,,,,,,,,,METAR,16.0
OEWD 061500Z 25006KT 9999 SCT030 SCT100 39/20 Q1007 NOSIG,OEWD,2017-05-06T15:00:00Z,20.5,45.2,39.0,20.0,250,6,,6.21,29.734253,,,,,,TRUE,,,,,SCT,3000,SCT,10000,,,,,VFR,,,,,,,,,,,,METAR,617.0
OETR 061500Z 26008KT 9999 SCT040 28/06 Q1013,OETR,2017-05-06T15:00:00Z,31.7,38.73,28.0,6.0,260,8,,6.21,29.911417,,,,,,,,,,,SCT,4000,,,,,,,VFR,,,,,,,,,,,,METAR,855.0
OETF 061500Z 24018KT 9999 FEW025 SCT090 28/09 Q1017 NOSIG,OETF,2017-05-06T15:00:00Z,21.47,40.53,28.0,9.0,240,18,,6.21,30.029528,,,,,,TRUE,,,,,FEW,2500,SCT,9000,,,,,VFR,,,,,,,,,,,,METAR,1449.0
OETB 061500Z 28008KT CAVOK 30/M03 Q1012 NOSIG,OETB,2017-05-06T15:00:00Z,28.37,36.62,30.0,-3.0,280,8,,6.21,29.88189,,,,,,TRUE,,,,,CAVOK,,,,,,,,VFR,,,,,,,,,,,,METAR,770.0
UUYY 061500Z 29003MPS 230V320 9999 BKN030CB 02/M02 Q0994 R01/29//51 TEMPO 1000 SHSN RMK QFE736/0982,UUYY,2017-05-06T15:00:00Z,61.65,50.82,2.0,-2.0,290,6,,6.21,29.350393,,,,,,,,,,,BKN,3000,,,,,,,MVFR,,,,,,,,,,,,METAR,119.0
UUOO 061500Z 27007MPS CAVOK 21/M03 Q1007 R30/090057 NOSIG RMK QFE742,UUOO,2017-05-06T15:00:00Z,51.82,39.23,21.0,-3.0,270,14,,6.21,29.734253,,,,,,TRUE,,,,,CAVOK,,,,,,,,VFR,,,,,,,,,,,,METAR,157.0
OEKM 061500Z 23012KT 9999 FEW022 FEW025CB 23/16 Q1023 NOSIG,OEKM,2017-05-06T15:00:00Z,18.3,42.78,23.0,16.0,230,12,,6.21,30.206694,,,,,,TRUE,,,,,FEW,2200,FEW,2500,,,,,VFR,,,,,,,,,,,,METAR,2054.0
ULMM 061500Z 31005MPS 9999 -SHSN BKN023CB M03/M07 Q1015 R31/290150 TEMPO 0700 +SHSN VV003 RMK QFE754,ULMM,2017-05-06T15:00:00Z,68.78,32.75,-3.0,-7.0,310,10,,6.21,29.970472,,,,,,,,,,-SHSN,BKN,2300,,,,,,,MVFR,,,,,,,,,,,,METAR,51.0
ULAA 061500Z 36007G15MPS 300V060 5000 -SHSN OVC008CB M01/M05 Q1007 R26/CLRD70 TEMPO 1000 SHSN BKN004CB RMK QFE754/1005,ULAA,2017-05-06T15:00:00Z,64.6,40.72,-1.0,-5.0,360,14,29,3.11,29.734253,,,,,,,,,,-SHSN,OVC,800,,,,,,,IFR,,,,,,,,,,,,METAR,19.0
FNCA 061500Z 23008KT 9999 SCT020 BKN026 28/24 Q1010,FNCA,2017-05-06T15:00:00Z,-5.58,12.18,28.0,24.0,230,8,,6.21,29.822834,,,,,,,,,,,SCT,2000,BKN,2600,,,,,MVFR,,,,,,,,,,,,METAR,20.0
GGOV 061500Z 25008KT CAVOK 36/17 Q1007 NOSIG,GGOV,2017-05-06T15:00:00Z,11.87,-15.65,36.0,17.0,250,8,,6.21,29.734253,,,,,,TRUE,,,,,CAVOK,,,,,,,,VFR,,,,,,,,,,,,SPECI,36.0
OEKK 061500Z 00000KT 9999 BKN035 38/11 Q1008 NOSIG,OEKK,2017-05-06T15:00:00Z,27.88,45.52,38.0,11.0,0,0,,6.21,29.763779,,,,,,TRUE,,,,,BKN,3500,,,,,,,VFR,,,,,,,,,,,,METAR,413.0
OEHL 061500Z 00000KT CAVOK 33/02 Q1012 NOSIG,OEHL,2017-05-06T15:00:00Z,27.42,41.67,33.0,2.0,0,0,,6.21,29.88189,,,,,,TRUE,,,,,CAVOK,,,,,,,,VFR,,,,,,,,,,,,METAR,1013.0
OEGT 061500Z 30016KT CAVOK 30/M03 Q1012 NOSIG,OEGT,2017-05-06T15:00:00Z,31.42,37.27,30.0,-3.0,300,16,,6.21,29.88189,,,,,,TRUE,,,,,CAVOK,,,,,,,,VFR,,,,,,,,,,,,METAR,499.0
OEGS 061500Z 23010KT 9999 BKN030 37/08 Q1008,OEGS,2017-05-06T15:00:00Z,26.3,43.77,37.0,8.0,230,10,,6.21,29.763779,,,,,,,,,,,BKN,3000,,,,,,,MVFR,,,,,,,,,,,,METAR,650.0
OEGN 061500Z 27010KT 9999 FEW030 FEW035CB 33/25 Q1009 NOSIG,OEGN,2017-05-06T15:00:00Z,16.88,42.57,33.0,25.0,270,10,,6.21,29.793306,,,,,,TRUE,,,,,FEW,3000,FEW,3500,,,,,VFR,,,,,,,,,,,,METAR,3.0
OEDM 061500Z 27016KT CAVOK 36/M04 Q1011,OEDM,2017-05-06T15:00:00Z,24.45,44.12,36.0,-4.0,270,16,,6.21,29.852362,,,,,,,,,,,CAVOK,,,,,,,,VFR,,,,,,,,,,,,METAR,922.0
OEBH 061500Z 11001KT 9000 SCT025 SCT028CB 23/14 Q1015 NOSIG,OEBH,2017-05-06T15:00:00Z,19.97,42.62,23.0,14.0,110,1,,5.59,29.970472,,,,,,TRUE,,,,,SCT,2500,SCT,2800,,,,,VFR,,,,,,,,,,,,METAR,1157.0
OEBA 061500Z 21004KT 9999 FEW030 27/12 Q1018 NOSIG,OEBA,2017-05-06T15:00:00Z,20.3,41.62,27.0,12.0,210,4,,6.21,30.059055,,,,,,TRUE,,,,,FEW,3000,,,,,,,VFR,,,,,,,,,,,,METAR,1656.0
OEAR 061500Z 00000KT CAVOK 36/21 Q1008,OEAR,2017-05-06T15:00:00Z,,,36.0,21.0,0,0,,6.21,29.763779,,,,,,,,,,,CAVOK,,,,,,,,VFR,,,,,,,,,,,,METAR,
OEAO 061500Z 00000KT CAVOK 34/M04 Q1012,OEAO,2017-05-06T15:00:00Z,26.48,38.12,34.0,-4.0,0,0,,6.21,29.88189,,,,,,,,,,,CAVOK,,,,,,,,VFR,,,,,,,,,,,,METAR,624.0
OEAH 061500Z 13010KT CAVOK 40/03 Q1005 NOSIG,OEAH,2017-05-06T15:00:00Z,25.27,49.47,40.0,3.0,130,10,,6.21,29.675198,,,,,,TRUE,,,,,CAVOK,,,,,,,,VFR,,,,,,,,,,,,METAR,172.0
OEAB 061500Z 19014KT 9999 FEW020 FEW022CB 22/18 Q1024 NOSIG,OEAB,2017-05-06T15:00:00Z,18.22,42.63,22.0,18.0,190,14,,6.21,30.236221,,,,,,TRUE,,,,,FEW,2000,FEW,2200,,,,,VFR,,,,,,,,,,,,METAR,2084.0
MNMG 061500Z 08008KT 9999 FEW024 SCT300 30/22 Q1012 A2990 2AC070 NOSIG,MNMG,2017-05-06T15:00:00Z,12.15,-86.17,30.0,22.0,80,8,,6.21,29.88189,,,,,,TRUE,,,,,FEW,2400,SCT,30000,,,,,VFR,,,,,,,,,,,,METAR,59.0
WADD 061500Z 12007KT 9999 SCT017 29/25 Q1013 NOSIG,WADD,2017-05-06T15:00:00Z,-8.73,115.17,29.0,25.0,120,7,,6.21,29.911417,,,,,,TRUE,,,,,SCT,1700,,,,,,,VFR,,,,,,,,,,,,METAR,216.0
WAAA 061500Z 04003KT 8000 FEW019 26/23 Q1013 NOSIG,WAAA,2017-05-06T15:00:00Z,-5.07,119.53,26.0,23.0,40,3,,4.97,29.911417,,,,,,TRUE,,,,,FEW,1900,,,,,,,MVFR,,,,,,,,,,,,METAR,14.0
WIDD 061500Z 00000KT 9999 FEW014 27/25 Q1015,WIDD,2017-05-06T15:00:00Z,1.12,104.12,27.0,25.0,0,0,,6.21,29.970472,,,,,,,,,,,FEW,1400,,,,,,,VFR,,,,,,,,,,,,METAR,38.0
WARR 061500Z 04007KT 7000 FEW020 28/25 Q1013 NOSIG,WARR,2017-05-06T15:00:00Z,-7.37,112.78,28.0,25.0,40,7,,4.35,29.911417,,,,,,TRUE,,,,,FEW,2000,,,,,,,MVFR,,,,,,,,,,,,METAR,2.0
WIMM 061500Z 22004KT 5000 HZ BKN017 27/26 Q1012,WIMM,2017-05-06T15:00:00Z,3.57,98.67,27.0,26.0,220,4,,3.11,29.88189,,,,,,,,,,HZ,BKN,1700,,,,,,,MVFR,,,,,,,,,,,,METAR,25.0
DNPO 061500Z 19004KT 7000 TS BKN009 FEW019CB 26/25 Q1009 NOSIG RMK CB(E-NW),DNPO,2017-05-06T15:00:00Z,4.83,7.02,26.0,25.0,190,4,,4.35,29.793306,,,,,,TRUE,,,,TS,BKN,900,FEW,1900,,,,,IFR,,,,,,,,,,,,METAR,18.0
DFFD 061500Z VRB03KT CAVOK 40/21 Q1009 NOSIG,DFFD,2017-05-06T15:00:00Z,12.33,-1.52,40.0,21.0,0,3,,6.21,29.793306,,,,,,TRUE,,,,,CAVOK,,,,,,,,VFR,,,,,,,,,,,,METAR,306.0
DFOO 061500Z 32004KT 9999 FEW020 37/21 Q1010,DFOO,2017-05-06T15:00:00Z,11.17,-4.32,37.0,21.0,320,4,,6.21,29.822834,,,,,,,,,,,FEW,2000,,,,,,,VFR,,,,,,,,,,,,METAR,460.0
FTTA 061500Z 10008KT 9999 FEW040 FEW050CB 39/18 Q1008,FTTA,2017-05-06T15:00:00Z,9.15,18.37,39.0,18.0,100,8,,6.21,29.763779,,,,,,,,,,,FEW,4000,FEW,5000,,,,,VFR,,,,,,,,,,,,METAR,365.0
FTTD 061500Z 22010KT CAVOK 30/23 Q1010,FTTD,2017-05-06T15:00:00Z,8.62,16.07,30.0,23.0,220,10,,6.21,29.822834,,,,,,,,,,,CAVOK,,,,,,,,VFR,,,,,,,,,,,,METAR,422.0
FTTC 061500Z 36004KT CAVOK 41/17 Q1008,FTTC,2017-05-06T15:00:00Z,13.83,20.85,41.0,17.0,360,4,,6.21,29.763779,,,,,,,,,,,CAVOK,,,,,,,,VFR,,,,,,,,,,,,METAR,549.0
FTTJ 061500Z 29006KT 250V330 6000 TS SCT040 FEW050CB 41/17 Q1006 NOSIG,FTTJ,2017-05-06T15:00:00Z,12.12,15.02,41.0,17.0,290,6,,3.73,29.704725,,,,,,TRUE,,,,TS,SCT,4000,FEW,5000,,,,,MVFR,,,,,,,,,,,,METAR,295.0
DBBB 061500Z 16007KT 130V200 9999 SCT016 32/26 Q1008 NOSIG,DBBB,2017-05-06T15:00:00Z,6.33,2.37,32.0,26.0,160,7,,6.21,29.763779,,,,,,TRUE,,,,,SCT,1600,,,,,,,VFR,,,,,,,,,,,,METAR,9.0
DXSK 061500Z 00000KT 9999 FEW020 BKN260 35/23 Q////,DXSK,2017-05-06T15:00:00Z,9.0,1.15,35.0,23.0,0,0,,6.21,,,,,,,,,,,,FEW,2000,BKN,26000,,,,,VFR,,,,,,,,,,,,METAR,387.0
DXNG 061500Z 26006KT 210V300 9999 FEW008 33/21 Q1012 NOSIG,DXNG,2017-05-06T15:00:00Z,9.77,1.1,33.0,21.0,260,6,,6.21,29.88189,,,,,,TRUE,,,,,FEW,800,,,,,,,VFR,,,,,,,,,,,,METAR,343.0
DXXX 061500Z 17008KT 150V210 9999 SCT015 32/26 Q1009 NOSIG,DXXX,2017-05-06T15:00:00Z,6.17,1.25,32.0,26.0,170,8,,6.21,29.793306,,,,,,TRUE,,,,,SCT,1500,,,,,,,VFR,,,,,,,,,,,,METAR,25.0
DNMM 061500Z 18005KT 9999 SCT015 32/25 Q1010 NOSIG,DNMM,2017-05-06T15:00:00Z,6.57,3.32,32.0,25.0,180,5,,6.21,29.822834,,,,,,TRUE,,,,,SCT,1500,,,,,,,VFR,,,,,,,,,,,,METAR,38.0
DGAA 061500Z 18007KT 130V220 CAVOK 31/24 Q1009 NOSIG,DGAA,2017-05-06T15:00:00Z,5.58,-0.17,31.0,24.0,180,7,,6.21,29.793306,,,,,,TRUE,,,,,CAVOK,,,,,,,,VFR,,,,,,,,,,,,METAR,69.0
DRZA 061500Z 08008KT 090V020 7000 NSC 43/M03 Q1010,DRZA,2017-05-06T15:00:00Z,16.97,8.0,43.0,-3.0,80,8,,4.35,29.822834,,,,,,,,,,,CLR,,,,,,,,MVFR,,,,,,,,,,,,METAR,502.0
DRRN 061500Z 28009KT 230V300 CAVOK 43/09 Q1006 NOSIG,DRRN,2017-05-06T15:00:00Z,13.47,2.17,43.0,9.0,280,9,,6.21,29.704725,,,,,,TRUE,,,,,CAVOK,,,,,,,,VFR,,,,,,,,,,,,METAR,227.0
TDCF 061500Z 09009G19KT 9999 FEW019 30/20 Q1014,TDCF,2017-05-06T15:00:00Z,15.33,-61.4,30.0,20.0,90,9,19,6.21,29.940945,,,,,,,,,,,FEW,1900,,,,,,,VFR,,,,,,,,,,,,METAR,5.0
FMEP 061500Z AUTO 09007KT 9999 SCT033 BKN045 24/20 Q1017 TEMPO 11025G35KT,FMEP,2017-05-06T15:00:00Z,-21.32,55.42,24.0,20.0,90,7,,6.21,30.029528,,,TRUE,,,,,,,,SCT,3300,BKN,4500,,,,,VFR,,-2.5,,,,,,,,,,METAR,18.0
GOGG 061500Z 26006KT CAVOK 40/17 Q1008,GOGG,2017-05-06T15:00:00Z,12.55,-16.27,40.0,17.0,260,6,,6.21,29.763779,,,,,,,,,,,CAVOK,,,,,,,,VFR,,,,,,,,,,,,METAR,23.0
GOGS 061500Z 32008KT CAVOK 28/20 Q1009,GOGS,2017-05-06T15:00:00Z,12.4,-16.75,28.0,20.0,320,8,,6.21,29.793306,,,,,,,,,,,CAVOK,,,,,,,,VFR,,,,,,,,,,,,METAR,13.0
GQPZ 061500Z 24010KT 180V280 8000 -RA NSC 35/12 Q1014,GQPZ,2017-05-06T15:00:00Z,22.75,-12.48,35.0,12.0,240,10,,4.97,29.940945,,,,,,,,,,-RA,CLR,,,,,,,,MVFR,,,,,,,,,,,,METAR,344.0
GQNI 061500Z 36010KT 4000 BKN130 41/14 Q////,GQNI,2017-05-06T15:00:00Z,16.6,-7.27,41.0,14.0,360,10,,2.49,,,,,,,,,,,,BKN,13000,,,,,,,IFR,,,,,,,,,,,,SPECI,269.0
GQNO 061500Z 32018KT 8000 NSC 32/14 Q1009 NOSIG,GQNO,2017-05-06T15:00:00Z,18.3,-15.97,32.0,14.0,320,18,,4.97,29.793306,,,,,,TRUE,,,,,CLR,,,,,,,,MVFR,,,,,,,,,,,,METAR,4.0
GANR 061500Z 14006KT 9999 FEW030 SCT250 42/16 Q1009,GANR,2017-05-06T15:00:00Z,15.23,-9.58,42.0,16.0,140,6,,6.21,29.793306,,,,,,,,,,,FEW,3000,SCT,25000,,,,,VFR,,,,,,,,,,,,METAR,237.0
GAMB 061500Z 02006KT CAVOK 42/15 Q1007,GAMB,2017-05-06T15:00:00Z,14.52,-4.08,42.0,15.0,20,6,,6.21,29.734253,,,,,,,,,,,CAVOK,,,,,,,,VFR,,,,,,,,,,,,METAR,272.0
GABS 061500Z 06008KT 9999 FEW030 40/12 Q1010 NOSIG,GABS,2017-05-06T15:00:00Z,12.52,-7.95,40.0,12.0,60,8,,6.21,29.822834,,,,,,TRUE,,,,,FEW,3000,,,,,,,VFR,,,,,,,,,,,,METAR,381.0
WMKB 061500Z 09005KT 9000 FEW024 SCT140 BKN270 27/25 Q1012 NOSIG,WMKB,2017-05-06T15:00:00Z,5.47,100.37,27.0,25.0,90,5,,5.59,29.88189,,,,,,TRUE,,,,,FEW,2400,SCT,14000,BKN,27000,,,VFR,,,,,,,,,,,,METAR,4.0
WMKN 061500Z 18002KT 9999 FEW017CB BKN300 28/26 Q1013,WMKN,2017-05-06T15:00:00Z,5.37,103.08,28.0,26.0,180,2,,6.21,29.911417,,,,,,,,,,,FEW,1700,BKN,30000,,,,,VFR,,,,,,,,,,,,METAR,6.0
WMKM 061500Z 35002KT 9999 FEW028 SCT140 BKN270 27/24 Q1013,WMKM,2017-05-06T15:00:00Z,2.27,102.25,27.0,24.0,350,2,,6.21,29.911417,,,,,,,,,,,FEW,2800,SCT,14000,BKN,27000,,,VFR,,,,,,,,,,,,METAR,9.0
WMKL 061500Z 05002KT 9999 FEW017CB SCT140 BKN270 28/26 Q1012,WMKL,2017-05-06T15:00:00Z,6.32,99.72,28.0,26.0,50,2,,6.21,29.88189,,,,,,,,,,,FEW,1700,SCT,14000,BKN,27000,,,VFR,,,,,,,,,,,,METAR,7.0
WMKI 061500Z 03005KT 9999 FEW030 SCT140 BKN280 26/24 Q1013,WMKI,2017-05-06T15:00:00Z,4.57,101.08,26.0,24.0,30,5,,6.21,29.911417,,,,,,,,,,,FEW,3000,SCT,14000,BKN,28000,,,VFR,,,,,,,,,,,,METAR,39.0
WMKE 061500Z AUTO 00000KT //// // 25/25 Q1012,WMKE,2017-05-06T15:00:00Z,4.53,103.43,25.0,25.0,0,0,,,29.88189,,,TRUE,,,,,,,,,,,,,,,,,,,,,,,,,,,,METAR,5.0
WMKD 061500Z 00000KT 9999 FEW024 BKN280 26/25 Q1013 NOSIG,WMKD,2017-05-06T15:00:00Z,3.77,103.22,26.0,25.0,0,0,,6.21,29.911417,,,,,,TRUE,,,,,FEW,2400,BKN,28000,,,,,VFR,,,,,,,,,,,,METAR,16.0
WMKC 061500Z 26003KT 9999 FEW017CB SCT020 BKN280 28/24 Q1013,WMKC,2017-05-06T15:00:00Z,6.17,102.27,28.0,24.0,260,3,,6.21,29.911417,,,,,,,,,,,FEW,1700,SCT,2000,BKN,28000,,,VFR,,,,,,,,,,,,METAR,5.0
WMKA 061500Z 02003KT 9999 FEW030 BKN260 25/24 Q1012,WMKA,2017-05-06T15:00:00Z,6.2,100.4,25.0,24.0,20,3,,6.21,29.88189,,,,,,,,,,,FEW,3000,BKN,26000,,,,,VFR,,,,,,,,,,,,METAR,5.0
WMBA 061500Z VRB02KT 9000 FEW030 SCT150 BKN280 26/25 Q1012 RETS,WMBA,2017-05-06T15:00:00Z,4.22,100.7,26.0,25.0,0,2,,5.59,29.88189,,,,,,,,,,,FEW,3000,SCT,15000,BKN,28000,,,VFR,,,,,,,,,,,,METAR,8.0
WMAU 061500Z AUTO 24005KT 200V310 //// // 26/25 Q//// QFF1011,WMAU,2017-05-06T15:00:00Z,2.38,103.88,26.0,25.0,240,5,,0.63,,,,TRUE,,,,,,,,,,,,,,,,,,,,,,,,,,,,METAR,45.0
USSS 061500Z 21006MPS 9999 BKN027CB 06/01 Q0996 R26R/010060 NOSIG RMK QFE727/0969,USSS,2017-05-06T15:00:00Z,56.75,60.82,6.0,1.0,210,12,,6.21,29.409449,,,,,,TRUE,,,,,BKN,2700,,,,,,,MVFR,,,,,,,,,,,,METAR,233.0
USRR 061500Z 19001MPS 7000 NSC 07/M06 Q0993 R25/CLRD60 NOSIG RMK QFE739,USRR,2017-05-06T15:00:00Z,61.33,73.42,7.0,-6.0,190,2,,4.35,29.320866,,,,,,TRUE,,,,,CLR,,,,,,,,MVFR,,,,,,,,,,,,METAR,44.0
USNN 061500Z VRB01MPS CAVOK 03/M06 Q0994 R03/0///65 NOSIG RMK QFE742,USNN,2017-05-06T15:00:00Z,60.95,76.48,3.0,-6.0,0,2,,6.21,29.350393,,,,,,TRUE,,,,,CAVOK,,,,,,,,VFR,,,,,,,,,,,,METAR,54.0
USCC 061500Z 22005MPS 9999 SCT030CB 07/M01 Q0999 R27/000060 TEMPO 25015MPS RMK QFE729,USCC,2017-05-06T15:00:00Z,55.3,61.5,7.0,-1.0,220,10,,6.21,29.498032,,,,,,,,,,,SCT,3000,,,,,,,VFR,,,,,,,,,,,,METAR,234.0
UWUU 061500Z 18005MPS 9999 -RA OVC030 07/05 Q1000 R14R/2///50 NOSIG RMK QFE740/0987,UWUU,2017-05-06T15:00:00Z,54.57,55.87,7.0,5.0,180,10,,6.21,29.52756,,,,,,TRUE,,,,-RA,OVC,3000,,,,,,,MVFR,,,,,,,,,,,,METAR,137.0
UWWW 061500Z 28004MPS 250V310 CAVOK 16/01 Q1001 R23/CLRD60 NOSIG RMK QFE740/0987,UWWW,2017-05-06T15:00:00Z,53.5,50.17,16.0,1.0,280,8,,6.21,29.557087,,,,,,TRUE,,,,,CAVOK,,,,,,,,VFR,,,,,,,,,,,,METAR,146.0
UWSS 061500Z 27007G12MPS CAVOK 20/03 Q1006 R30/010095 NOSIG RMK QFE741,UWSS,2017-05-06T15:00:00Z,51.57,46.07,20.0,3.0,270,14,23,6.21,29.704725,,,,,,TRUE,,,,,CAVOK,,,,,,,,VFR,,,,,,,,,,,,METAR,166.0
UWOO 061500Z 24007MPS CAVOK 15/M03 Q1005 R26/65D NOSIG RMK QFE743/0991,UWOO,2017-05-06T15:00:00Z,51.8,55.47,15.0,-3.0,240,14,,6.21,29.675198,,,,,,TRUE,,,,,CAVOK,,,,,,,,VFR,,,,,,,,,,,,METAR,109.0
UWOR 061500Z 26006MPS CAVOK 12/M03 Q1006 R25/CLRD65 NOSIG RMK QFE731/0975,UWOR,2017-05-06T15:00:00Z,51.07,58.6,12.0,-3.0,260,12,,6.21,29.704725,,,,,,TRUE,,,,,CAVOK,,,,,,,,VFR,,,,,,,,,,,,METAR,277.0
UWLW 061500Z 34002MPS 8000 NSC 12/03 Q1001 R20/CLRD60 NOSIG RMK QFE745,UWLW,2017-05-06T15:00:00Z,54.4,48.8,12.0,3.0,340,4,,4.97,29.557087,,,,,,TRUE,,,,,CLR,,,,,,,,MVFR,,,,,,,,,,,,METAR,66.0
UWKS 061500Z 27005MPS 9999 FEW030CB 10/02 Q1000 R24/010060 NOSIG RMK QFE736,UWKS,2017-05-06T15:00:00Z,56.08,47.35,10.0,2.0,270,10,,6.21,29.52756,,,,,,TRUE,,,,,FEW,3000,,,,,,,VFR,,,,,,,,,,,,METAR,170.0
UWKE 061500Z 27007MPS 9999 FEW040 09/M01 Q1000 R21/090070 NOSIG RMK QFE733/0977,UWKE,2017-05-06T15:00:00Z,55.57,52.08,9.0,-1.0,270,14,,6.21,29.52756,,,,,,TRUE,,,,,FEW,4000,,,,,,,VFR,,,,,,,,,,,,METAR,196.0
UWKD 061500Z 34001MPS CAVOK 10/02 Q1000 R29/70D NOSIG RMK QFE739/0985,UWKD,2017-05-06T15:00:00Z,55.62,49.28,10.0,2.0,340,2,,6.21,29.52756,,,,,,TRUE,,,,,CAVOK,,,,,,,,VFR,,,,,,,,,,,,METAR,126.0
USPP 061500Z 23008MPS 9999 SCT033CB 06/04 Q0994 R21/290250 NOSIG RMK QFE735,USPP,2017-05-06T15:00:00Z,57.92,56.02,6.0,4.0,230,16,,6.21,29.350393,,,,,,TRUE,,,,,SCT,3300,,,,,,,VFR,,,,,,,,,,,,METAR,123.0
USHH 061500Z 25005MPS CAVOK 06/M06 Q0992 R24/010060 NOSIG RMK QFE740,USHH,2017-05-06T15:00:00Z,61.03,69.08,6.0,-6.0,250,10,,6.21,29.291338,,,,,,TRUE,,,,,CAVOK,,,,,,,,VFR,,,,,,,,,,,,METAR,23.0
USTR 061500Z 24005MPS CAVOK 07/M07 Q0996 R21/CLRD65 NOSIG RMK QFE738/0984,USTR,2017-05-06T15:00:00Z,57.17,65.32,7.0,-7.0,240,10,,6.21,29.409449,,,,,,TRUE,,,,,CAVOK,,,,,,,,VFR,,,,,,,,,,,,METAR,115.0
UNTT 061500Z 25002MPS 5000 -SHRA FEW019CB 13/11 Q0990 R21/190050 NOSIG RMK QFE727,UNTT,2017-05-06T15:00:00Z,56.38,85.22,13.0,11.0,250,4,,3.11,29.232283,,,,,,TRUE,,,,-SHRA,FEW,1900,,,,,,,MVFR,,,,,,,,,,,,METAR,182.0
UNOO 061500Z 23004MPS CAVOK 04/00 Q0999 R25/220060 NOSIG RMK QFE741,UNOO,2017-05-06T15:00:00Z,54.97,73.32,4.0,0.0,230,8,,6.21,29.498032,,,,,,TRUE,,,,,CAVOK,,,,,,,,VFR,,,,,,,,,,,,METAR,95.0
UNNT 061500Z 18006MPS 9999 SCT062CB 14/11 Q0989 R25/290160 R16/290160 NOSIG RMK QFE732/0976,UNNT,2017-05-06T15:00:00Z,55.02,82.63,14.0,11.0,180,12,,6.21,29.202755,,,,,,TRUE,,,,,SCT,6200,,,,,,,VFR,,,,,,,,,,,,METAR,111.0
UNKL 061500Z 22003MPS 9999 SCT038CB 21/01 Q0993 R29/CLRD65 NOSIG RMK QFE720,UNKL,2017-05-06T15:00:00Z,56.17,92.48,21.0,1.0,220,6,,6.21,29.320866,,,,,,TRUE,,,,,SCT,3800,,,,,,,VFR,,,,,,,,,,,,METAR,276.0
UNEE 061500Z 24013G18MPS 9999 -SHRA FEW033CB 18/10 Q0992 R23/CLRD60 NOSIG RMK QFE721,UNEE,2017-05-06T15:00:00Z,55.27,86.08,18.0,10.0,240,25,35,6.21,29.291338,,,,,,TRUE,,,,-SHRA,FEW,3300,,,,,,,VFR,,,,,,,,,,,,METAR,260.0
UNBB 061500Z 21007MPS 9999 BKN040 17/09 Q0994 R24/190057 NOSIG RMK QFE724,UNBB,2017-05-06T15:00:00Z,53.37,83.53,17.0,9.0,210,14,,6.21,29.350393,,,,,,TRUE,,,,,BKN,4000,,,,,,,VFR,,,,,,,,,,,,METAR,255.0
UNAA 061500Z 16004MPS CAVOK 20/M05 Q0998 R20/090065 NOSIG RMK QFE726,UNAA,2017-05-06T15:00:00Z,53.75,91.4,20.0,-5.0,160,8,,6.21,29.468504,,,,,,TRUE,,,,,CAVOK,,,,,,,,VFR,,,,,,,,,,,,METAR,245.0
VANP 061500Z 08006KT 4000 HZ FEW020 SCT100 37/12 Q1008 NOSIG,VANP,2017-05-06T15:00:00Z,21.08,79.05,37.0,12.0,80,6,,2.49,29.763779,,,,,,TRUE,,,,HZ,FEW,2000,SCT,10000,,,,,IFR,,,,,,,,,,,,METAR,310.0
FNUE 061500Z 13008KT 9999 SCT040 26/19 Q1018,FNUE,2017-05-06T15:00:00Z,-11.77,19.9,26.0,19.0,130,8,,6.21,30.059055,,,,,,,,,,,SCT,4000,,,,,,,VFR,,,,,,,,,,,,METAR,1329.0
MKJP 061500Z 15010KT 9999 FEW020 FEW022CB BKN090 30/23 Q1013,MKJP,2017-05-06T15:00:00Z,17.92,-76.78,30.0,23.0,150,10,,6.21,29.911417,,,,,,,,,,,FEW,2000,FEW,2200,BKN,9000,,,VFR,,,,,,,,,,,,METAR,3.0
WBSB 061500Z 22003KT 9999 FEW014 BKN140 27/26 Q1013 NOSIG,WBSB,2017-05-06T15:00:00Z,4.92,114.92,27.0,26.0,220,3,,6.21,29.911417,,,,,,TRUE,,,,,FEW,1400,BKN,14000,,,,,VFR,,,,,,,,,,,,METAR,15.0
WBKT 061500Z 24002KT 9999 FEW014 FEW016CB SCT140 BKN280 27/25 Q1013,WBKT,2017-05-06T15:00:00Z,6.92,116.82,27.0,25.0,240,2,,6.21,29.911417,,,,,,,,,,,FEW,1400,FEW,1600,SCT,14000,BKN,28000,VFR,,,,,,,,,,,,METAR,5.0
WBKS 061500Z 25002KT 9999 FEW015 BKN270 28/25 Q1012,WBKS,2017-05-06T15:00:00Z,5.9,118.07,28.0,25.0,250,2,,6.21,29.88189,,,,,,,,,,,FEW,1500,BKN,27000,,,,,VFR,,,,,,,,,,,,METAR,13.0
WBKL 061500Z 30001KT 9999 FEW013 SCT140 BKN290 26/25 Q1013,WBKL,2017-05-06T15:00:00Z,5.28,115.25,26.0,25.0,300,1,,6.21,29.911417,,,,,,,,,,,FEW,1300,SCT,14000,BKN,29000,,,VFR,,,,,,,,,,,,METAR,30.0
WBGY 061500Z 00000KT 9999 SCT022 BKN150 25/24 Q1013,WBGY,2017-05-06T15:00:00Z,1.22,111.43,25.0,24.0,0,0,,6.21,29.911417,,,,,,,,,,,SCT,2200,BKN,15000,,,,,VFR,,,,,,,,,,,,METAR,34.0
WBGS 061500Z 00000KT 9999 SCT016 OVC150 26/25 Q1013 RERA,WBGS,2017-05-06T15:00:00Z,2.27,111.98,26.0,25.0,0,0,,6.21,29.911417,,,,,,,,,,,SCT,1600,OVC,15000,,,,,VFR,,,,,,,,,,,,METAR,8.0
WBGR 061500Z 12002KT 9999 FEW016 BKN150 27/26 Q1013,WBGR,2017-05-06T15:00:00Z,4.32,113.97,27.0,26.0,120,2,,6.21,29.911417,,,,,,,,,,,FEW,1600,BKN,15000,,,,,VFR,,,,,,,,,,,,METAR,18.0
WBGB 061500Z 05001KT 9999 FEW016 BKN150 26/25 Q1013,WBGB,2017-05-06T15:00:00Z,3.12,113.02,26.0,25.0,50,1,,6.21,29.911417,,,,,,,,,,,FEW,1600,BKN,15000,,,,,VFR,,,,,,,,,,,,METAR,5.0
WMSA 061500Z 32001KT 7000 FEW025 BKN280 26/24 Q1014,WMSA,2017-05-06T15:00:00Z,3.13,101.55,26.0,24.0,320,1,,4.35,29.940945,,,,,,,,,,,FEW,2500,BKN,28000,,,,,MVFR,,,,,,,,,,,,METAR,27.0
WMKP 061500Z 06003KT 9000 FEW025 SCT140 BKN270 28/25 Q1012 NOSIG,WMKP,2017-05-06T15:00:00Z,5.28,100.27,28.0,25.0,60,3,,5.59,29.88189,,,,,,TRUE,,,,,FEW,2500,SCT,14000,BKN,27000,,,VFR,,,,,,,,,,,,METAR,4.0
WMKK 061500Z 03003KT 9999 FEW030 SCT140 BKN280 27/25 Q1013 NOSIG,WMKK,2017-05-06T15:00:00Z,2.75,101.72,27.0,25.0,30,3,,6.21,29.911417,,,,,,TRUE,,,,,FEW,3000,SCT,14000,BKN,28000,,,VFR,,,,,,,,,,,,METAR,22.0
WMKJ 061500Z VRB01KT 9999 FEW022 BKN280 25/25 Q1013,WMKJ,2017-05-06T15:00:00Z,1.62,103.67,25.0,25.0,0,1,,6.21,29.911417,,,,,,,,,,,FEW,2200,BKN,28000,,,,,VFR,,,,,,,,,,,,METAR,40.0
WBKK 061500Z 12006KT 9999 FEW014 SCT140 BKN270 26/24 Q1013 NOSIG,WBKK,2017-05-06T15:00:00Z,5.92,116.03,26.0,24.0,120,6,,6.21,29.911417,,,,,,TRUE,,,,,FEW,1400,SCT,14000,BKN,27000,,,VFR,,,,,,,,,,,,METAR,3.0
WBGG 061500Z 21003KT 9999 SCT020 BKN150 25/24 Q1014 NOSIG,WBGG,2017-05-06T15:00:00Z,1.47,110.35,25.0,24.0,210,3,,6.21,29.940945,,,,,,TRUE,,,,,SCT,2000,BKN,15000,,,,,VFR,,,,,,,,,,,,METAR,27.0
VVTS 061500Z 02003KT 340V070 9999 FEW017 28/26 Q1013 NOSIG,VVTS,2017-05-06T15:00:00Z,10.82,106.67,28.0,26.0,20,3,,6.21,29.911417,,,,,,TRUE,,,,,FEW,1700,,,,,,,VFR,,,,,,,,,,,,METAR,19.0
VVPQ 061500Z 00000KT 8000 SCT013 BKN040 25/24 Q1014 NOSIG,VVPQ,2017-05-06T15:00:00Z,10.23,103.97,25.0,24.0,0,0,,4.97,29.940945,,,,,,TRUE,,,,,SCT,1300,BKN,4000,,,,,MVFR,,,,,,,,,,,,METAR,4.0
VVPB 061500Z 10005KT 9999 FEW017 SCT150 28/26 Q1015 NOSIG,VVPB,2017-05-06T15:00:00Z,16.38,107.7,28.0,26.0,100,5,,6.21,29.970472,,,,,,TRUE,,,,,FEW,1700,SCT,15000,,,,,VFR,,,,,,,,,,,,METAR,17.0
VVNB 061500Z 13005KT 100V170 9000 NSC 27/26 Q1013 NOSIG,VVNB,2017-05-06T15:00:00Z,21.22,105.8,27.0,26.0,130,5,,5.59,29.911417,,,,,,TRUE,,,,,CLR,,,,,,,,VFR,,,,,,,,,,,,METAR,12.0
VVDN 061500Z 16003KT 8000 FEW013 28/25 Q1015 NOSIG,VVDN,2017-05-06T15:00:00Z,16.02,108.2,28.0,25.0,160,3,,4.97,29.970472,,,,,,TRUE,,,,,FEW,1300,,,,,,,MVFR,,,,,,,,,,,,METAR,7.0
VVCR 061500Z 01004KT 9999 FEW017CB SCT060 29/25 Q1015 NOSIG,VVCR,2017-05-06T15:00:00Z,12.0,109.22,29.0,25.0,10,4,,6.21,29.970472,,,,,,TRUE,,,,,FEW,1700,SCT,6000,,,,,VFR,,,,,,,,,,,,METAR,12.0
ROYN 061500Z AUTO 02019KT 9000 OVC011 //////TCU 25/23 Q1016,ROYN,2017-05-06T15:00:00Z,24.47,122.97,25.0,23.0,20,19,,5.59,30.0,,,TRUE,,,,,,,,OVC,1100,,,,,,,MVFR,,,,,,,,,,,,METAR,17.0
RORY 061500Z AUTO 04007KT 7000 FEW014 SCT015 OVC018 22/20 Q1016,RORY,2017-05-06T15:00:00Z,27.05,128.4,22.0,20.0,40,7,,4.35,30.0,,,TRUE,,,,,,,,FEW,1400,SCT,1500,OVC,1800,,,MVFR,,,,,,,,,,,,METAR,16.0
VYYY 061500Z 18008KT 7000 NSC 30/24 Q1011,VYYY,2017-05-06T15:00:00Z,16.9,96.13,30.0,24.0,180,8,,4.35,29.852362,,,,,,,,,,,CLR,,,,,,,,MVFR,,,,,,,,,,,,METAR,33.0
VLVT 061500Z 18004KT 3000 DZ BKN040 OVC083 24/23 Q1014 NOSIG,VLVT,2017-05-06T15:00:00Z,17.98,102.57,24.0,23.0,180,4,,1.86,29.940945,,,,,,TRUE,,,,DZ,BKN,4000,OVC,8300,,,,,IFR,,,,,,,,,,,,METAR,171.0
VDSR 061500Z 00000KT 9000 FEW018 SCT040 29/25 Q1011,VDSR,2017-05-06T15:00:00Z,13.42,103.83,29.0,25.0,0,0,,5.59,29.852362,,,,,,,,,,,FEW,1800,SCT,4000,,,,,VFR,,,,,,,,,,,,METAR,15.0
VDPP 061500Z 14006KT 9000 FEW017 29/25 Q1012,VDPP,2017-05-06T15:00:00Z,11.55,104.83,29.0,25.0,140,6,,5.59,29.88189,,,,,,,,,,,FEW,1700,,,,,,,VFR,,,,,,,,,,,,METAR,10.0
UUWW 061500Z 31007MPS CAVOK 17/05 Q1004 WS R24 R24/000070 NOSIG,UUWW,2017-05-06T15:00:00Z,55.6,37.27,17.0,5.0,310,14,,6.21,29.64567,,,,,,TRUE,,,,,CAVOK,,,,,,,,VFR,,,,,,,,,,,,METAR,203.0
UUEE 061500Z 29008MPS CAVOK 16/04 Q1004 R24R/CLRD62 R24L/CLRD62 NOSIG,UUEE,2017-05-06T15:00:00Z,55.97,37.42,16.0,4.0,290,16,,6.21,29.64567,,,,,,TRUE,,,,,CAVOK,,,,,,,,VFR,,,,,,,,,,,,METAR,190.0
UUDL 061500Z 32005MPS 9999 -SHRA OVC034CB 07/04 Q1003 R23/290150 NOSIG RMK QFE744,UUDL,2017-05-06T15:00:00Z,57.57,40.17,7.0,4.0,320,10,,6.21,29.616142,,,,,,TRUE,,,,-SHRA,OVC,3400,,,,,,,VFR,,,,,,,,,,,,METAR,88.0
UUDD 061500Z 30009MPS CAVOK 19/02 Q1003 R88/010095 NOSIG,UUDD,2017-05-06T15:00:00Z,55.4,37.9,19.0,2.0,300,17,,6.21,29.616142,,,,,,TRUE,,,,,CAVOK,,,,,,,,VFR,,,,,,,,,,,,METAR,168.0
UUBW 061500Z 29006MPS CAVOK 18/05 Q1003 R30/010060 NOSIG,UUBW,2017-05-06T15:00:00Z,55.55,38.15,18.0,5.0,290,12,,6.21,29.616142,,,,,,TRUE,,,,,CAVOK,,,,,,,,VFR,,,,,,,,,,,,METAR,115.0
ULLI 061500Z 04006MPS 010V070 9999 SCT040 09/M04 Q1013 R88/090060 NOSIG,ULLI,2017-05-06T15:00:00Z,59.8,30.27,9.0,-4.0,40,12,,6.21,29.911417,,,,,,TRUE,,,,,SCT,4000,,,,,,,VFR,,,,,,,,,,,,METAR,4.0
UTDD 061500Z 06001MPS 8000 SCT066CB BKN120 20/15 Q1015 R09/19//60 NOSIG RMK QFE693/0924,UTDD,2017-05-06T15:00:00Z,38.53,68.82,20.0,15.0,60,2,,4.97,29.970472,,,,,,TRUE,,,,,SCT,6600,BKN,12000,,,,,MVFR,,,,,,,,,,,,METAR,803.0
UEEE 061500Z 32002MPS CAVOK M03/M09 Q1005 R23L/09//60 NOSIG RMK QFE745,UEEE,2017-05-06T15:00:00Z,62.08,129.77,-3.0,-9.0,320,4,,6.21,29.675198,,,,,,TRUE,,,,,CAVOK,,,,,,,,VFR,,,,,,,,,,,,METAR,103.0
UWGG 061500Z VRB01MPS 9999 -RA OVC033 10/07 Q1001 R36L/290050 NOSIG RMK QFE743,UWGG,2017-05-06T15:00:00Z,56.23,43.78,10.0,7.0,0,2,,6.21,29.557087,,,,,,TRUE,,,,-RA,OVC,3300,,,,,,,VFR,,,,,,,,,,,,METAR,73.0
UUOB 061500Z 29005MPS CAVOK 21/M03 Q1011 R29/090060 NOSIG,UUOB,2017-05-06T15:00:00Z,50.65,36.58,21.0,-3.0,290,10,,6.21,29.852362,,,,,,TRUE,,,,,CAVOK,,,,,,,,VFR,,,,,,,,,,,,METAR,224.0
UUBP 061500Z 28006MPS 9999 SCT033 21/04 Q1007 R34/CLRD70 NOSIG RMK QFE738/0984,UUBP,2017-05-06T15:00:00Z,53.22,34.18,21.0,4.0,280,12,,6.21,29.734253,,,,,,TRUE,,,,,SCT,3300,,,,,,,VFR,,,,,,,,,,,,METAR,202.0
UUBC 061500Z 29007MPS 260V320 CAVOK 21/M01 Q1005 R31/CLRD60 TEMPO 29010G15MPS RMK QFE737/0982,UUBC,2017-05-06T15:00:00Z,54.55,36.37,21.0,-1.0,290,14,,6.21,29.675198,,,,,,,,,,,CAVOK,,,,,,,,VFR,,,,,,,,,,,,METAR,199.0
ULWC 061500Z 02005G10MPS 9999 SCT016CB 06/M06 Q1007 R21/190060 NOSIG RMK QFE745/0993,ULWC,2017-05-06T15:00:00Z,59.28,38.02,6.0,-6.0,20,10,19,6.21,29.734253,,,,,,TRUE,,,,,SCT,1600,,,,,,,VFR,,,,,,,,,,,,METAR,115.0
URWW 061500Z 26005MPS CAVOK 19/M02 Q1011 R24/010070 NOSIG,URWW,2017-05-06T15:00:00Z,48.78,44.33,19.0,-2.0,260,10,,6.21,29.852362,,,,,,TRUE,,,,,CAVOK,,,,,,,,VFR,,,,,,,,,,,,METAR,147.0
URWI 061500Z AUTO 12003MPS 9999 // NCD 20/03 Q1012,URWI,2017-05-06T15:00:00Z,46.37,44.33,20.0,3.0,120,6,,6.21,29.88189,,,TRUE,,,,,,,,CLR,,,,,,,,VFR,,,,,,,,,,,,METAR,150.0
URWA 061500Z 19003MPS CAVOK 20/M06 Q1014 R27/010070 NOSIG RMK QFE762/1016,URWA,2017-05-06T15:00:00Z,46.28,48.02,20.0,-6.0,190,6,,6.21,29.940945,,,,,,TRUE,,,,,CAVOK,,,,,,,,VFR,,,,,,,,,,,,METAR,-20.0
URSS 061500Z 28003MPS 9999 FEW040 17/13 Q1009 R02/090070 R06/090070 NOSIG RMK R06/29003MPS MT OBSC QFE755,URSS,2017-05-06T15:00:00Z,43.45,39.95,17.0,13.0,280,6,,6.21,29.793306,,,,,,TRUE,,,,,FEW,4000,,,,,,,VFR,,,,,,,,,,,,METAR,16.0
URRR 061500Z 07002MPS 010V120 CAVOK 21/05 Q1011 R04/CLRD70 TEMPO 10005G10MPS RMK QFE752/1003,URRR,2017-05-06T15:00:00Z,47.25,39.82,21.0,5.0,70,4,,6.21,29.852362,,,,,,,,,,,CAVOK,,,,,,,,VFR,,0.5,,,,,,,,,,METAR,77.0
URMT 061500Z 11006MPS 9999 FEW040 20/11 Q1011 R07/010070 NOSIG RMK QFE718,URMT,2017-05-06T15:00:00Z,45.12,42.12,20.0,11.0,110,12,,6.21,29.852362,,,,,,TRUE,,,,,FEW,4000,,,,,,,VFR,,,,,,,,,,,,METAR,453.0
URMO 061500Z 08008MPS 9999 NSC 19/08 Q1011 R09/010070 NOSIG RMK QFE715/0953,URMO,2017-05-06T15:00:00Z,43.2,44.6,19.0,8.0,80,16,,6.21,29.852362,,,,,,TRUE,,,,,CLR,,,,,,,,VFR,,,,,,,,,,,,METAR,510.0
URMN 061500Z 07004MPS 9999 SCT///CB 21/10 Q1010 R24/010070 NOSIG RMK QFE721,URMN,2017-05-06T15:00:00Z,43.52,43.63,21.0,10.0,70,8,,6.21,29.822834,,,,,,TRUE,,,,,,,,,,,,,,,,,,,,,,,,,METAR,445.0
URMM 061500Z 10006MPS 9999 FEW053 21/09 Q1010 R12/000070 NOSIG RMK QFE730/0973,URMM,2017-05-06T15:00:00Z,44.22,43.1,21.0,9.0,100,12,,6.21,29.822834,,,,,,TRUE,,,,,FEW,5300,,,,,,,VFR,,,,,,,,,,,,METAR,314.0
URML 061500Z 16005MPS 9999 NSC 13/09 Q1014 R14/01//70 NOSIG RMK QFE760/1014,URML,2017-05-06T15:00:00Z,42.82,47.65,13.0,9.0,160,10,,6.21,29.940945,,,,,,TRUE,,,,,CLR,,,,,,,,VFR,,,,,,,,,,,,METAR,4.0
URMG 061500Z 10008MPS CAVOK 18/07 Q1011 R08/000070 NOSIG RMK QFE744/0992,URMG,2017-05-06T15:00:00Z,43.37,45.7,18.0,7.0,100,16,,6.21,29.852362,,,,,,TRUE,,,,,CAVOK,,,,,,,,VFR,,,,,,,,,,,,METAR,263.0
URKK 061500Z 03002MPS 9999 FEW/// 22/14 Q1009 R23C/CLRD60 NOSIG RMK QFE753,URKK,2017-05-06T15:00:00Z,45.03,39.15,22.0,14.0,30,4,,6.21,29.793306,,,,,,TRUE,,,,,,,,,,,,,,,,,,,,,,,,,METAR,34.0
URKA 061500Z 29002MPS CAVOK 18/15 Q1011 R22/010070 NOSIG RMK QFE753/1004,URKA,2017-05-06T15:00:00Z,45.0,37.35,18.0,15.0,290,4,,6.21,29.852362,,,,,,TRUE,,,,,CAVOK,,,,,,,,VFR,,,,,,,,,,,,METAR,53.0
UIUU 061500Z 29003MPS 9999 NSC 09/03 Q1007 R26/CLRD60 NOSIG RMK QFE711/0948,UIUU,2017-05-06T15:00:00Z,51.8,107.45,9.0,3.0,290,6,,6.21,29.734253,,,,,,TRUE,,,,,CLR,,,,,,,,VFR,,,,,,,,,,,,METAR,515.0
UIII 061500Z 17005MPS CAVOK 15/01 Q1005 R12/CLRD60 NOSIG RMK QFE711/0949,UIII,2017-05-06T15:00:00Z,52.27,104.4,15.0,1.0,170,10,,6.21,29.675198,,,,,,TRUE,,,,,CAVOK,,,,,,,,VFR,,,,,,,,,,,,METAR,513.0
UIBB 061500Z 10003MPS 9999 NSC 09/06 Q0998 R30/CLRD60 NOSIG RMK QFE706/0942,UIBB,2017-05-06T15:00:00Z,56.37,101.7,9.0,6.0,100,6,,6.21,29.468504,,,,,,TRUE,,,,,CLR,,,,,,,,VFR,,,,,,,,,,,,METAR,490.0
UIAA 061500Z 22006MPS 9999 NSC 09/02 Q1005 R29/CLRD70 NOSIG RMK QFE695,UIAA,2017-05-06T15:00:00Z,52.02,113.32,9.0,2.0,220,12,,6.21,29.675198,,,,,,TRUE,,,,,CLR,,,,,,,,VFR,,,,,,,,,,,,METAR,685.0
USCM 061500Z 25008MPS 9999 BKN040CB 08/M00 Q1002 R01/090065 TEMPO 25015MPS RMK QFE713,USCM,2017-05-06T15:00:00Z,53.4,58.75,8.0,0.0,250,16,,6.21,29.586615,,,,,,,,,,,BKN,4000,,,,,,,VFR,,,,,,,,,,,,METAR,435.0
SVVA 061500Z 07003KT 9999 BKN016 28/22 Q1015,SVVA,2017-05-06T15:00:00Z,10.15,-67.92,28.0,22.0,70,3,,6.21,29.970472,,,,,,,,,,,BKN,1600,,,,,,,MVFR,,,,,,,,,,,,METAR,431.0
VTUU 061500Z 08009KT 5000 TSRA FEW018CB BKN035 26/23 Q1014 TEMPO VRB15KT 5000 TSRA,VTUU,2017-05-06T15:00:00Z,15.25,104.87,26.0,23.0,80,9,,3.11,29.940945,,,,,,,,,,TSRA,FEW,1800,BKN,3500,,,,,MVFR,,,,,,,,,,,,METAR,127.0
VTUQ 061500Z AUTO VRB04KT ////NDV ////// 27/21 Q1014 A2996,VTUQ,2017-05-06T15:00:00Z,14.95,102.32,27.0,21.0,0,4,,,29.940945,,,TRUE,,,,,,,,,,,,,,,,,,,,,,,,,,,,METAR,234.0
VTUK 061500Z 02004KT 340V060 9000 FEW020CB SCT035 BKN100 24/23 Q1014 NOSIG,VTUK,2017-05-06T15:00:00Z,16.47,102.78,24.0,23.0,20,4,,5.59,29.940945,,,,,,TRUE,,,,,FEW,2000,SCT,3500,BKN,10000,,,VFR,,,,,,,,,,,,METAR,204.0
VTUI 061500Z AUTO 18005KT 140V210 9999 -RA OVC091/// 24/23 Q1014 A2996,VTUI,2017-05-06T15:00:00Z,17.2,104.12,24.0,23.0,180,5,,6.21,29.940945,,,TRUE,,,,,,,-RA,OVC,9100,,,,,,,VFR,,,,,,,,,,,,METAR,172.0
VTUD 061500Z VRB02KT 9999 -RA FEW045 25/21 Q1015,VTUD,2017-05-06T15:00:00Z,17.37,102.78,25.0,21.0,0,2,,6.21,29.970472,,,,,,,,,,-RA,FEW,4500,,,,,,,VFR,,,,,,,,,,,,METAR,182.0
FSPP 061500Z 00000KT //// //// 27/24 Q1012,FSPP,2017-05-06T15:00:00Z,-4.32,55.7,27.0,24.0,0,0,,,29.88189,,,,,,,,,,,,,,,,,,,,,,,,,,,,,,,METAR,4.0
UHWW 061500Z 24010MPS 5000 HZ SCT033 09/M03 Q0999 R25L/0///70 NOSIG RMK QFE748,UHWW,2017-05-06T15:00:00Z,43.4,132.15,9.0,-3.0,240,19,,3.11,29.498032,,,,,,TRUE,,,,HZ,SCT,3300,,,,,,,MVFR,,,,,,,,,,,,METAR,14.0
UHSS 061500Z 14004MPS 9999 SCT036 04/00 Q1000 R19/250060 NOSIG RMK QFE748/0998,UHSS,2017-05-06T15:00:00Z,46.88,142.72,4.0,0.0,140,8,,6.21,29.52756,,,,,,TRUE,,,,,SCT,3600,,,,,,,VFR,,,,,,,,,,,,METAR,31.0
UHPP 061500Z 13004MPS 9999 SCT014 OVC033CB 02/00 Q1013 R34L/290150 NOSIG RMK QFE756/1009,UHPP,2017-05-06T15:00:00Z,53.17,158.45,2.0,0.0,130,8,,6.21,29.911417,,,,,,TRUE,,,,,SCT,1400,OVC,3300,,,,,VFR,,,,,,,,,,,,METAR,40.0
UHMM 061500Z 00000MPS 9999 SCT036 M02/M03 Q1006 RMK QFE740,UHMM,2017-05-06T15:00:00Z,59.92,150.72,-2.0,-3.0,0,0,,6.21,29.704725,,,,,,,,,,,SCT,3600,,,,,,,VFR,,,,,,,,,,,,METAR,175.0
UHHH 061500Z 20003MPS 160V230 9999 SCT026CB 04/02 Q0991 R23L/290045 NOSIG RMK QFE737/0983,UHHH,2017-05-06T15:00:00Z,48.52,135.18,4.0,2.0,200,6,,6.21,29.26181,,,,,,TRUE,,,,,SCT,2600,,,,,,,VFR,,,,,,,,,,,,METAR,72.0
UHBB 061500Z 36008G13MPS 9999 SCT033 08/00 Q0990 R36/290250 NOSIG RMK QFE726/0968,UHBB,2017-05-06T15:00:00Z,50.43,127.42,8.0,0.0,360,16,25,6.21,29.232283,,,,,,TRUE,,,,,SCT,3300,,,,,,,VFR,,,,,,,,,,,,METAR,195.0
FNBG 061500Z 31008KT 9999 FEW015 27/23 Q1010,FNBG,2017-05-06T15:00:00Z,-12.62,13.4,27.0,23.0,310,8,,6.21,29.822834,,,,,,,,,,,FEW,1500,,,,,,,VFR,,,,,,,,,,,,METAR,36.0
SVBM 061500Z 11010KT 9999 SCT016 29/17 Q1016,SVBM,2017-05-06T15:00:00Z,10.05,-69.37,29.0,17.0,110,10,,6.21,30.0,,,,,,,,,,,SCT,1600,,,,,,,VFR,,,,,,,,,,,,METAR,614.0
VEPT 061500Z 09010KT 3000 HZ NSC 30/24 Q1006 NOSIG,VEPT,2017-05-06T15:00:00Z,25.6,85.08,30.0,24.0,90,10,,1.86,29.704725,,,,,,TRUE,,,,HZ,CLR,,,,,,,,IFR,,,,,,,,,,,,METAR,60.0
VABP 061500Z 34004KT 6000 FEW100 35/12 Q1010 NOSIG,VABP,2017-05-06T15:00:00Z,23.27,77.33,35.0,12.0,340,4,,3.73,29.822834,,,,,,TRUE,,,,,FEW,10000,,,,,,,MVFR,,,,,,,,,,,,METAR,523.0
FKYS 061500Z VRB02KT 9999 -TSRA FEW003 SCT006 FEW016CB 20/19 Q1016 NOSIG,FKYS,2017-05-06T15:00:00Z,3.82,11.52,20.0,19.0,0,2,,6.21,30.0,,,,,,TRUE,,,,-TSRA,FEW,300,SCT,600,FEW,1600,,,VFR,,,,,,,,,,,,METAR,760.0
FKKR 061500Z 18008KT 150V240 9999 BKN020 FEW023CB 30/19 Q1009 NOSIG,FKKR,2017-05-06T15:00:00Z,9.32,13.37,30.0,19.0,180,8,,6.21,29.793306,,,,,,TRUE,,,,,BKN,2000,FEW,2300,,,,,MVFR,,,,,,,,,,,,METAR,244.0
CWSF 061500Z AUTO 08017G23KT 04/03 RMK AO1 8PAST HR 7028 PK WND 09029/1406 SLP149 P0003 T00390031 50023,CWSF,2017-05-06T15:00:00Z,49.25,-65.32,3.9,3.1,80,17,23,,,1014.9,,TRUE,TRUE,,,,,,,,,,,,,,,,2.3,,,,,0.03,,,,,,METAR,29.0
CWRA 061500Z AUTO 17005KT 05/M02 RMK AO1 SLP322 T00461022 53002,CWRA,2017-05-06T15:00:00Z,46.63,-53.07,4.6,-2.2,170,5,,,,1032.2,,TRUE,TRUE,,,,,,,,,,,,,,,,0.2,,,,,,,,,,,METAR,28.0
CWER 061500Z AUTO 05030G35KT RMK AO1 PK WND 05035/1449,CWER,2017-05-06T15:00:00Z,47.0,-70.82,,,50,30,35,,,,,TRUE,TRUE,,,,,,,,,,,,,,,,,,,,,,,,,,,METAR,5.0
CWEP 061500Z AUTO 13018G25KT 08/07 RMK AO1 7PAST HR 8013 PK WND 13025/1454 SLP203 P0003 T00780067 50033,CWEP,2017-05-06T15:00:00Z,46.45,-61.97,7.8,6.7,130,18,25,,,1020.3,,TRUE,TRUE,,,,,,,,,,,,,,,,3.3,,,,,0.03,,,,,,METAR,11.0
CMFM 061500Z AUTO 10001KT 07/06 RMK AO1 8010 SLP036 T00660055 50009,CMFM,2017-05-06T15:00:00Z,47.32,-71.15,6.6,5.5,100,1,,,,1003.6,,TRUE,TRUE,,,,,,,,,,,,,,,,0.9,,,,,,,,,,,METAR,672.0
CWZG 061500Z AUTO 26003KT 07/04 RMK AO1 2PAST HR 0001 SLP089 P0001 T00670043 50002,CWZG,2017-05-06T15:00:00Z,51.2,-115.53,6.7,4.3,260,3,,,,1008.9,,TRUE,TRUE,,,,,,,,,,,,,,,,0.2,,,,,0.01,,,,,,METAR,1397.0
CWRO 061500Z AUTO 27015KT 08/ RMK AO1 PK WND 27020/1446 T0076,CWRO,2017-05-06T15:00:00Z,54.17,-131.67,7.6,,270,15,,,,,,TRUE,TRUE,,,,,,,,,,,,,,,,,,,,,,,,,,,METAR,7.0
CWLP 061500Z AUTO 14012KT 07/05 RMK AO1 1007 SLP191 T00690052 50004,CWLP,2017-05-06T15:00:00Z,50.93,-127.63,6.9,5.2,140,12,,,,1019.1,,TRUE,TRUE,,,,,,,,,,,,,,,,0.4,,,,,,,,,,,METAR,17.0
CWEQ 061500Z AUTO 06013KT 06/04 RMK AO1 5PAST HR 8013 PK WND 05020/1439 SLP168 P0002 T00590042 50005,CWEQ,2017-05-06T15:00:00Z,52.12,-101.22,5.9,4.2,60,13,,,,1016.8,,TRUE,TRUE,,,,,,,,,,,,,,,,0.5,,,,,0.02,,,,,,METAR,335.0
CWOY 061500Z AUTO 14019G26KT 14/01 RMK AO1 PK WND 13029/1444 SLP100 T01380008 58007,CWOY,2017-05-06T15:00:00Z,51.77,-104.2,13.8,0.8,140,19,26,,,1010.0,,TRUE,TRUE,,,,,,,,,,,,,,,,-0.7,,,,,,,,,,,METAR,560.0
CWKO 061500Z AUTO 15012G18KT 17/05 RMK AO1 PK WND 14019/1422 SLP069 T01710051 58008,CWKO,2017-05-06T15:00:00Z,49.17,-105.97,17.1,5.1,150,12,18,,,1006.9,,TRUE,TRUE,,,,,,,,,,,,,,,,-0.8,,,,,,,,,,,METAR,917.0
CWEH 061500Z AUTO 06010KT 17/06 RMK AO1 SLP046 T01690063 50000,CWEH,2017-05-06T15:00:00Z,49.42,-108.97,16.9,6.3,60,10,,,,1004.6,,TRUE,TRUE,,,,,,,,,,,,,,,,0.0,,,,,,,,,,,METAR,1078.0
CWDC 061500Z AUTO 08007G18KT 04/02 RMK AO1 3PAST HR M PK WND 06022/1443 SLP134 P0001 T00380018,CWDC,2017-05-06T15:00:00Z,59.57,-108.47,3.8,1.8,80,7,18,,,1013.4,,TRUE,TRUE,,,,,,,,,,,,,,,,,,,,,0.01,,,,,,METAR,318.0
CWLB 061500Z AUTO 05004KT 14/04 RMK AO1 SLP021 T01380040 51015,CWLB,2017-05-06T15:00:00Z,54.77,-112.02,13.8,4.0,50,4,,,,1002.1,,TRUE,TRUE,,,,,,,,,,,,,,,,1.5,,,,,,,,,,,METAR,567.0
CZEL 061500Z AUTO 34012G17KT 05/03 RMK AO1 PK WND 35021/1415 SLP969 T00490027 53001,CZEL,2017-05-06T15:00:00Z,43.65,-80.42,4.9,2.7,340,12,17,,,996.9,,TRUE,TRUE,,,,,,,,,,,,,,,,0.1,,,,,,,,,,,METAR,376.0
CXZC 061500Z AUTO 33015G23KT 02/M04 RMK AO1 PK WND 33023/1456 SLP139 T00211040 56005,CXZC,2017-05-06T15:00:00Z,51.3,-80.62,2.1,-4.0,330,15,23,,,1013.9,,TRUE,TRUE,,,,,,,,,,,,,,,,-0.5,,,,,,,,,,,METAR,9.0
CXBI 061500Z AUTO 34010G16KT 05/04 RMK AO1 2PAST HR 5003 PK WND 34017/1424 SLP964 P0001 T00510037 50023,CXBI,2017-05-06T15:00:00Z,44.48,-79.55,5.1,3.7,340,10,16,,,996.4,,TRUE,TRUE,,,,,,,,,,,,,,,,2.3,,,,,0.01,,,,,,METAR,289.0
CTRA 061500Z AUTO 06006KT 07/02 RMK AO1 SLP194 T00660023 52016,CTRA,2017-05-06T15:00:00Z,49.67,-93.73,6.6,2.3,60,6,,,,1019.4,,TRUE,TRUE,,,,,,,,,,,,,,,,1.6,,,,,,,,,,,METAR,435.0
CTNK 061500Z AUTO 02003KT 04/03 RMK AO1 SLP956 T00440030 56007,CTNK,2017-05-06T15:00:00Z,45.53,-78.27,4.4,3.0,20,3,,,,995.6,,TRUE,TRUE,,,,,,,,,,,,,,,,-0.7,,,,,,,,,,,METAR,410.0
CWPZ 061500Z AUTO 10003KT 01/01 RMK AO1 1PAST HR 1012 SLP122 P0000 T00140007 50012,CWPZ,2017-05-06T15:00:00Z,54.38,-125.97,1.4,0.7,100,3,,,,1012.2,,TRUE,TRUE,,,,,,,,,,,,,,,,1.2,,,,,0.005,,,,,,METAR,713.0
CWPR 061500Z AUTO 14002KT 05/M00 RMK AO1 SLP167 T00521001 51017,CWPR,2017-05-06T15:00:00Z,49.47,-120.52,5.2,-0.1,140,2,,,,1016.7,,TRUE,TRUE,,,,,,,,,,,,,,,,1.7,,,,,,,,,,,METAR,700.0
CWPE 061500Z AUTO 15005KT 08/08 RMK AO1 SLP093 T00800082 50004,CWPE,2017-05-06T15:00:00Z,45.07,-66.47,8.0,8.2,150,5,,,,1009.3,,TRUE,TRUE,,,,,,,,,,,,,,,,0.4,,,,,,,,,,,METAR,1.0
CWPD 061500Z AUTO 35002KT 05/05 RMK AO1 0PAST HR 8013 SLP021 P0004 T00450051 50010,CWPD,2017-05-06T15:00:00Z,47.57,-71.22,4.5,5.1,350,2,,,,1002.1,,TRUE,TRUE,,,,,,,,,,,,,,,,1.0,,,,,0.04,,,,,,METAR,803.0
CWOD 061500Z AUTO 10012G18KT 07/07 RMK AO1 7PAST HR 8023 PK WND 11023/1431 SLP012 P0003 T00720070 50035,CWOD,2017-05-06T15:00:00Z,48.85,-72.55,7.2,7.0,100,12,18,,,1001.2,,TRUE,TRUE,,,,,,,,,,,,,,,,3.5,,,,,0.03,,,,,,METAR,137.0
CWOC 061500Z AUTO 07010G20KT 06/05 RMK AO1 0PAST HR 8026 PK WND 06024/1445 SLP133 P0016 T00570053 50151,CWOC,2017-05-06T15:00:00Z,48.02,-65.32,5.7,5.3,70,10,20,,,1013.3,,TRUE,TRUE,,,,,,,,,,,,,,,,0.0,,,,,0.16,,,,,,METAR,47.0
CWNQ 061500Z AUTO 06010KT 10/09 RMK AO1 3PAST HR 6014 PK WND 04018/1421 SLP976 P0021 T00980092 50053,CWNQ,2017-05-06T15:00:00Z,46.22,-72.65,9.8,9.2,60,10,,,,997.6,,TRUE,TRUE,,,,,,,,,,,,,,,,5.3,,,,,0.21,,,,,,METAR,10.0
CWNP 061500Z AUTO 31003KT 08/06 RMK AO1 5PAST HR 1018 SLP118 P0002 T00830060 50013,CWNP,2017-05-06T15:00:00Z,50.27,-117.82,8.3,6.0,310,3,,,,1011.8,,TRUE,TRUE,,,,,,,,,,,,,,,,1.3,,,,,0.02,,,,,,METAR,524.0
CWNM 061500Z AUTO 19003KT 10/09 RMK AO1 9PAST HR 3010 SLP111 P0004 T00990088 50016,CWNM,2017-05-06T15:00:00Z,49.5,-117.28,9.9,8.8,190,3,,,,1011.1,,TRUE,TRUE,,,,,,,,,,,,,,,,1.6,,,,,0.04,,,,,,METAR,535.0
CWNK 061500Z AUTO 09006KT 15/01 RMK AO1 T01460013,CWNK,2017-05-06T15:00:00Z,49.5,-98.03,14.6,1.3,90,6,,,,,,TRUE,TRUE,,,,,,,,,,,,,,,,,,,,,,,,,,,METAR,268.0
CWNE 061500Z AUTO 12020G27KT 06/05 RMK AO1 7PAST HR 7009 PK WND 13030/1409 SLP145 P0003 T00620054 50030,CWNE,2017-05-06T15:00:00Z,47.07,-64.0,6.2,5.4,120,20,27,,,1014.5,,TRUE,TRUE,,,,,,,,,,,,,,,,3.0,,,,,0.03,,,,,,METAR,15.0
CWMM 061500Z AUTO 08005KT 07/06 RMK AO1 2PAST HR 2013 SLP199 P0001 T00690057 50014,CWMM,2017-05-06T15:00:00Z,49.22,-122.68,6.9,5.7,80,5,,,,1019.9,,TRUE,TRUE,,,,,,,,,,,,,,,,1.4,,,,,0.01,,,,,,METAR,5.0
CWMJ 061500Z AUTO 33005KT 07/07 RMK AO1 0PAST HR 6012 SLP955 P0023 T00690066 50080,CWMJ,2017-05-06T15:00:00Z,46.27,-76.0,6.9,6.6,330,5,,,,995.5,,TRUE,TRUE,,,,,,,,,,,,,,,,8.0,,,,,0.23,,,,,,METAR,200.0
CWLM 061500Z AUTO 26010KT 08/05 RMK AO1 PK WND 25017/1404 SLP201 T00800053 53008,CWLM,2017-05-06T15:00:00Z,48.42,-123.32,8.0,5.3,260,10,,,,1020.1,,TRUE,TRUE,,,,,,,,,,,,,,,,0.8,,,,,,,,,,,METAR,70.0
CWLE 061500Z AUTO 04005KT 22/06 RMK AO1 SLP048 T02150057 55001,CWLE,2017-05-06T15:00:00Z,50.95,-107.15,21.5,5.7,40,5,,,,1004.8,,TRUE,TRUE,,,,,,,,,,,,,,,,-0.1,,,,,,,,,,,METAR,665.0
CWLC 061500Z AUTO 27011G17KT 08/04 RMK AO1 PK WND 27020/1410 T00770035,CWLC,2017-05-06T15:00:00Z,54.3,-130.62,7.7,3.5,270,11,17,,,,,TRUE,TRUE,,,,,,,,,,,,,,,,,,,,,,,,,,,METAR,27.0
CWKX 061500Z AUTO 25004KT 03/01 RMK AO1 SLP112 T00270009 53007,CWKX,2017-05-06T15:00:00Z,58.43,-130.02,2.7,0.9,250,4,,,,1011.2,,TRUE,TRUE,,,,,,,,,,,,,,,,0.7,,,,,,,,,,,METAR,793.0
CWKH 061500Z AUTO 06/01 RMK AO1 SLP187 T00600005 53011,CWKH,2017-05-06T15:00:00Z,48.57,-123.55,6.0,0.5,,,,,,1018.7,,TRUE,TRUE,,,,,,,,,,,,,,,,1.1,,,,,,,,,,,METAR,366.0
CWKG 061500Z AUTO 24008G19KT 17/16 RMK AO1 2PAST HR 8006 PK WND 21020/1449 SLP118 P0001 T01660155 50002,CWKG,2017-05-06T15:00:00Z,44.43,-65.2,16.6,15.5,240,8,19,,,1011.8,,TRUE,TRUE,,,,,,,,,,,,,,,,0.2,,,,,0.01,,,,,,METAR,165.0
CWJW 061500Z AUTO 18002KT 08/05 RMK AO1 2PAST HR 0002 SLP080 P0001 T00780053 50002,CWJW,2017-05-06T15:00:00Z,52.93,-118.03,7.8,5.3,180,2,,,,1008.0,,TRUE,TRUE,,,,,,,,,,,,,,,,0.2,,,,,0.01,,,,,,METAR,1020.0
CWJV 061500Z AUTO 32001KT 08/04 RMK AO1 SLP142 T00840035 51012,CWJV,2017-05-06T15:00:00Z,50.22,-119.18,8.4,3.5,320,1,,,,1014.2,,TRUE,TRUE,,,,,,,,,,,,,,,,1.2,,,,,,,,,,,METAR,556.0
CWJU 061500Z AUTO 26014KT 07/04 RMK AO1 PK WND 26017/1400 SLP177 T00700035 51009,CWJU,2017-05-06T15:00:00Z,54.25,-133.07,7.0,3.5,260,14,,,,1017.7,,TRUE,TRUE,,,,,,,,,,,,,,,,0.9,,,,,,,,,,,METAR,41.0
CWJT 061500Z AUTO 12004KT 12/11 RMK AO1 0PAST HR 6017 SLP949 P0004 T01240114 50010,CWJT,2017-05-06T15:00:00Z,46.07,-74.57,12.4,11.4,120,4,,,,994.9,,TRUE,TRUE,,,,,,,,,,,,,,,,1.0,,,,,0.04,,,,,,METAR,239.0
CWJR 061500Z AUTO 14005KT 10/08 RMK AO1 7PAST HR 3010 SLP114 P0003 T01000082 50014,CWJR,2017-05-06T15:00:00Z,49.07,-116.5,10.0,8.2,140,5,,,,1011.4,,TRUE,TRUE,,,,,,,,,,,,,,,,1.4,,,,,0.03,,,,,,METAR,646.0
CWJI 061500Z AUTO 15012G21KT 20/04 RMK AO1 PK WND 14021/1500 SLP061 T02020040 58009,CWJI,2017-05-06T15:00:00Z,49.72,-105.92,20.2,4.0,150,12,21,,,1006.1,,TRUE,TRUE,,,,,,,,,,,,,,,,-0.9,,,,,,,,,,,METAR,724.0
CZZJ 061500Z AUTO 26003KT 12/02 RMK AO1 SLP063 T01150022 50009,CZZJ,2017-05-06T15:00:00Z,53.58,-116.47,11.5,2.2,260,3,,,,1006.3,,TRUE,TRUE,,,,,,,,,,,,,,,,0.9,,,,,,,,,,,METAR,927.0
CZTB 061500Z AUTO 02010KT 07/M02 RMK AO1 SLP186 T00651017 51015,CZTB,2017-05-06T15:00:00Z,48.37,-89.32,6.5,-1.7,20,10,,,,1018.6,,TRUE,TRUE,,,,,,,,,,,,,,,,1.5,,,,,,,,,,,METAR,199.0
CZMJ 061500Z AUTO 15011KT 22/04 RMK AO1 SLP070 T02200038 58002,CZMJ,2017-05-06T15:00:00Z,50.33,-105.57,22.0,3.8,150,11,,,,1007.0,,TRUE,TRUE,,,,,,,,,,,,,,,,-0.2,,,,,,,,,,,METAR,577.0
CZKD 061500Z AUTO 11005KT 04/M02 RMK AO1 SLP269 T00401023 50002,CZKD,2017-05-06T15:00:00Z,56.03,-96.52,4.0,-2.3,110,5,,,,1026.9,,TRUE,TRUE,,,,,,,,,,,,,,,,0.2,,,,,,,,,,,METAR,183.0
CXZV 061500Z AUTO 09014G26KT 04/03 RMK AO1 8027 PK WND 10033/1449 SLP178 T00430034 50002,CXZV,2017-05-06T15:00:00Z,50.22,-66.25,4.3,3.4,90,14,26,,,1017.8,,TRUE,TRUE,,,,,,,,,,,,,,,,0.2,,,,,,,,,,,METAR,52.0
CXVN 061500Z AUTO 30007KT 06/05 RMK AO1 SLP950 T00620054 55001,CXVN,2017-05-06T15:00:00Z,43.18,-79.4,6.2,5.4,300,7,,,,995.0,,TRUE,TRUE,,,,,,,,,,,,,,,,-0.1,,,,,,,,,,,METAR,79.0
CXTO 061500Z AUTO 07/04 RMK AO1 SLP948 T00730035 56001,CXTO,2017-05-06T15:00:00Z,43.67,-79.4,7.3,3.5,,,,,,994.8,,TRUE,TRUE,,,,,,,,,,,,,,,,-0.1,,,,,,,,,,,METAR,113.0
CXTD 061500Z AUTO 12017G25KT 09/09 RMK AO1 0PAST HR 0003 PK WND 12028/1418 SLP222 P0008 T00920086 50047,CXTD,2017-05-06T15:00:00Z,45.62,-61.68,9.2,8.6,120,17,25,,,1022.2,,TRUE,TRUE,,,,,,,,,,,,,,,,4.7,,,,,0.08,,,,,,METAR,68.0
CXRL 061500Z AUTO 30004KT 13/07 RMK AO1 T01330073,CXRL,2017-05-06T15:00:00Z,54.5,-111.7,13.3,7.3,300,4,,,,,,TRUE,TRUE,,,,,,,,,,,,,,,,,,,,,,,,,,,METAR,585.0
CXRB 061500Z AUTO 16002KT M13/M18 RMK AO1 SOG 01 2004 SLP381 T11261183,CXRB,2017-05-06T15:00:00Z,74.72,-94.98,-12.6,-18.3,160,2,,,,1038.1,,TRUE,TRUE,,,,,,,,,,,,,,,,,,,,,,,,,,,METAR,68.0
CXPC 061500Z AUTO 05/03 RMK AO1 5PAST HR 5007 SLP969 P0002 T00510032 50013,CXPC,2017-05-06T15:00:00Z,45.35,-80.05,5.1,3.2,,,,,,996.9,,TRUE,TRUE,,,,,,,,,,,,,,,,1.3,,,,,0.02,,,,,,METAR,176.0
CXLB 061500Z AUTO 12019KT 11/11 RMK AO1 PK WND 12023/1449 SLP137 T01130111 58005,CXLB,2017-05-06T15:00:00Z,44.37,-64.3,11.3,11.1,120,19,,,,1013.7,,TRUE,TRUE,,,,,,,,,,,,,,,,-0.5,,,,,,,,,,,METAR,4.0
CXKI 061500Z AUTO 05/00 RMK AO1 SLP044 T00460000 58007,CXKI,2017-05-06T15:00:00Z,48.22,-80.0,4.6,0.0,,,,,,1004.4,,TRUE,TRUE,,,,,,,,,,,,,,,,-0.7,,,,,,,,,,,METAR,324.0
CXFR 061500Z AUTO 27009KT 10/07 RMK AO1 T00980068,CXFR,2017-05-06T15:00:00Z,56.08,-118.43,9.8,6.8,270,9,,,,,,TRUE,TRUE,,,,,,,,,,,,,,,,,,,,,,,,,,,METAR,655.0
CXCP 061500Z AUTO 26010KT 16/07 RMK AO1 T01550068,CXCP,2017-05-06T15:00:00Z,50.28,-113.35,15.5,6.8,260,10,,,,,,TRUE,TRUE,,,,,,,,,,,,,,,,,,,,,,,,,,,METAR,1006.0
CWBU 061500Z AUTO 09008KT 11/04 RMK AO1 SLP126 T01130035 50004,CWBU,2017-05-06T15:00:00Z,53.33,-104.02,11.3,3.5,90,8,,,,1012.6,,TRUE,TRUE,,,,,,,,,,,,,,,,0.4,,,,,,,,,,,METAR,373.0
CXKE 061500Z AUTO 06003KT 12/12 RMK AO1 8013 SLP918 T01200120 50003,CXKE,2017-05-06T15:00:00Z,45.0,-75.63,12.0,12.0,60,3,,,,991.8,,TRUE,TRUE,,,,,,,,,,,,,,,,0.3,,,,,,,,,,,METAR,99.0
CXKA 061500Z AUTO 35015G24KT 05/M04 RMK AO1 SOG 00 8003 PK WND 35024/1454 SLP118 T00531042,CXKA,2017-05-06T15:00:00Z,49.4,-82.45,5.3,-4.2,350,15,24,,,1011.8,,TRUE,TRUE,,,,,,,,,,,,,,,,,,,,,,,,,,,METAR,218.0
CXHM 061500Z AUTO 31003KT 07/06 RMK AO1 2PAST HR 5000 SLP956 P0001 T00730064 50007,CXHM,2017-05-06T15:00:00Z,43.28,-79.9,7.3,6.4,310,3,,,,995.6,,TRUE,TRUE,,,,,,,,,,,,,,,,0.7,,,,,0.01,,,,,,METAR,107.0
CWZS 061500Z AUTO 16009G16KT 08/06 RMK AO1 0PAST HR 8020 SLP092 P0004 T00790063 50010,CWZS,2017-05-06T15:00:00Z,48.47,-67.43,7.9,6.3,160,9,16,,,1009.2,,TRUE,TRUE,,,,,,,,,,,,,,,,1.0,,,,,0.04,,,,,,METAR,166.0
CWZO 061500Z AUTO 26008KT RMK AO1,CWZO,2017-05-06T15:00:00Z,48.55,-123.23,,,260,8,,,,,,TRUE,TRUE,,,,,,,,,,,,,,,,,,,,,,,,,,,METAR,1.0
CWZA 061500Z AUTO 34001KT 08/05 RMK AO1 SLP197 T00750047 51010,CWZA,2017-05-06T15:00:00Z,49.25,-121.77,7.5,4.7,340,1,,,,1019.7,,TRUE,TRUE,,,,,,,,,,,,,,,,1.0,,,,,,,,,,,METAR,15.0
CWYY 061500Z AUTO 33010G18KT 12/01 RMK AO1 PK WND 31018/1451 SLP134 T01230005 51015,CWYY,2017-05-06T15:00:00Z,49.03,-119.43,12.3,0.5,330,10,18,,,1013.4,,TRUE,TRUE,,,,,,,,,,,,,,,,1.5,,,,,,,,,,,METAR,283.0
CWYL 061500Z AUTO 23005KT 04/04 RMK AO1 SOG 36 0005 SLP095 T00440042,CWYL,2017-05-06T15:00:00Z,51.45,-116.32,4.4,4.2,230,5,,,,1009.5,,TRUE,TRUE,,,,,,,,,,,,,,,,,,,,,,,,,,,METAR,1615.0
CWYJ 061500Z AUTO 25005KT 09/04 RMK AO1 SLP201 T00900038 52008,CWYJ,2017-05-06T15:00:00Z,48.45,-123.3,9.0,3.8,250,5,,,,1020.1,,TRUE,TRUE,,,,,,,,,,,,,,,,0.8,,,,,,,,,,,METAR,39.0
CWXL 061500Z AUTO 26002KT 13/11 RMK AO1 T01330108,CWXL,2017-05-06T15:00:00Z,49.73,-111.45,13.3,10.8,260,2,,,,,,TRUE,TRUE,,,,,,,,,,,,,,,,,,,,,,,,,,,METAR,817.0
CWNH 061500Z AUTO 01008KT 06/06 RMK AO1 4PAST HR 6014 SLP067 P0005 T00630059 50040,CWNH,2017-05-06T15:00:00Z,47.78,-69.53,6.3,5.9,10,8,,,,1006.7,,TRUE,TRUE,,,,,,,,,,,,,,,,4.0,,,,,0.05,,,,,,METAR,148.0
CWBY 061500Z AUTO 10020G29KT 06/05 RMK AO1 6PAST HR 6018 PK WND 10032/1418 SLP205 P0002 T00620049 50018,CWBY,2017-05-06T15:00:00Z,49.82,-64.28,6.2,4.9,100,20,29,,,1020.5,,TRUE,TRUE,,,,,,,,,,,,,,,,1.8,,,,,0.02,,,,,,METAR,53.0
CWWE 061500Z AUTO 15017KT 10/10 RMK AO1 8004 PK WND 16022/1422 SLP136 T01020102 50003,CWWE,2017-05-06T15:00:00Z,43.97,-64.67,10.2,10.2,150,17,,,,1013.6,,TRUE,TRUE,,,,,,,,,,,,,,,,0.3,,,,,,,,,,,METAR,9.0
CWPK 061500Z AUTO 04004KT 05/05 RMK AO1 7PAST HR 6015 SLP992 P0003 T00510048 50021,CWPK,2017-05-06T15:00:00Z,47.92,-74.62,5.1,4.8,40,4,,,,999.2,,TRUE,TRUE,,,,,,,,,,,,,,,,2.1,,,,,0.03,,,,,,METAR,442.0
CWSS 061500Z AUTO 14004KT 13/12 RMK AO1 6PAST HR 0005 SLP081 P0002 T01330123 50014,CWSS,2017-05-06T15:00:00Z,45.2,-67.25,13.3,12.3,140,4,,,,1008.1,,TRUE,TRUE,,,,,,,,,,,,,,,,1.4,,,,,0.02,,,,,,METAR,26.0
CWRN 061500Z AUTO 11022G30KT 06/05 RMK AO1 PK WND 11030/1452 SLP227 T00590054 58007,CWRN,2017-05-06T15:00:00Z,45.35,-60.98,5.9,5.4,110,22,30,,,1022.7,,TRUE,TRUE,,,,,,,,,,,,,,,,-0.7,,,,,,,,,,,METAR,8.0
CWHO 061500Z AUTO 00002KT M02/M07 RMK AO1 SLP355 T10241067 50003,CWHO,2017-05-06T15:00:00Z,55.45,-60.22,-2.4,-6.7,0,2,,,,1035.5,,TRUE,TRUE,,,,,,,,,,,,,,,,0.3,,,,,,,,,,,METAR,8.0
CWBV 061500Z AUTO 15027KT 06/ RMK AO1 PK WND 14030/1452 SLP182 T0064 58004,CWBV,2017-05-06T15:00:00Z,44.82,-62.32,6.4,,150,27,,,,1018.2,,TRUE,TRUE,,,,,,,,,,,,,,,,-0.4,,,,,,,,,,,METAR,10.0
CWST 061500Z AUTO 03010G15KT 06/06 RMK AO1 6012 PK WND 03017/1405 SLP050 T00580055 50012,CWST,2017-05-06T15:00:00Z,47.35,-70.02,5.8,5.5,30,10,15,,,1005.0,,TRUE,TRUE,,,,,,,,,,,,,,,,1.2,,,,,,,,,,,METAR,31.0
CWSR 061500Z AUTO 12016G23KT 13/03 RMK AO1 PK WND 11026/1408 SLP047 T01330030 53003,CWSR,2017-05-06T15:00:00Z,53.37,-107.53,13.3,3.0,120,16,23,,,1004.7,,TRUE,TRUE,,,,,,,,,,,,,,,,0.3,,,,,,,,,,,METAR,584.0
CWSP 061500Z AUTO 30005KT 08/04 RMK AO1 SLP208 T00750041 53009,CWSP,2017-05-06T15:00:00Z,48.38,-123.92,7.5,4.1,300,5,,,,1020.8,,TRUE,TRUE,,,,,,,,,,,,,,,,0.9,,,,,,,,,,,METAR,21.0
CWSL 061500Z AUTO 08002KT 10/08 RMK AO1 SLP145 T00970076 52015,CWSL,2017-05-06T15:00:00Z,50.7,-119.27,9.7,7.6,80,2,,,,1014.5,,TRUE,TRUE,,,,,,,,,,,,,,,,1.5,,,,,,,,,,,METAR,351.0
CWSK 061500Z AUTO 00000KT 07/06 RMK AO1 SLP188 T00740064 51011,CWSK,2017-05-06T15:00:00Z,49.78,-123.17,7.4,6.4,0,0,,,,1018.8,,TRUE,TRUE,,,,,,,,,,,,,,,,1.1,,,,,,,,,,,METAR,60.0
CWSG 061500Z AUTO 08010G15KT 07/06 RMK AO1 0PAST HR 6020 SLP105 P0008 T00690055 50050,CWSG,2017-05-06T15:00:00Z,49.12,-66.65,6.9,5.5,80,10,15,,,1010.5,,TRUE,TRUE,,,,,,,,,,,,,,,,5.0,,,,,0.08,,,,,,METAR,5.0
CWSD 061500Z AUTO 13020G27KT 12/11 RMK AO1 3PAST HR 8010 PK WND 13027/1451 SLP144 P0001 T01170108 50013,CWSD,2017-05-06T15:00:00Z,46.42,-63.85,11.7,10.8,130,20,27,,,1014.4,,TRUE,TRUE,,,,,,,,,,,,,,,,1.3,,,,,0.01,,,,,,METAR,24.0
CWRZ 061500Z AUTO 10024KT 04/04 RMK AO1 0PAST HR 8034 PK WND 11031/1440 SLP162 P0016 T00420042 50180,CWRZ,2017-05-06T15:00:00Z,48.42,-64.32,4.2,4.2,100,24,,,,1016.2,,TRUE,TRUE,,,,,,,,,,,,,,,,0.0,,,,,0.16,,,,,,METAR,16.0
CWRY 061500Z AUTO 06003KT 13/11 RMK AO1 SLP063 T01310109 50004,CWRY,2017-05-06T15:00:00Z,49.12,-112.03,13.1,10.9,60,3,,,,1006.3,,TRUE,TRUE,,,,,,,,,,,,,,,,0.4,,,,,,,,,,,METAR,1050.0
CWRT 061500Z AUTO 12001KT 09/09 RMK AO1 T00940088,CWRT,2017-05-06T15:00:00Z,49.62,-114.47,9.4,8.8,120,1,,,,,,TRUE,TRUE,,,,,,,,,,,,,,,,,,,,,,,,,,,METAR,1303.0
CWRK 061500Z AUTO 01006KT 06/06 RMK AO1 3002 SLP943 T00590057 50003,CWRK,2017-05-06T15:00:00Z,45.07,-77.87,5.9,5.7,10,6,,,,994.3,,TRUE,TRUE,,,,,,,,,,,,,,,,0.3,,,,,,,,,,,METAR,331.0
CWRJ 061500Z AUTO 25004KT 21/07 RMK AO1 SLP036 T02100071 50004,CWRJ,2017-05-06T15:00:00Z,51.57,-107.92,21.0,7.1,250,4,,,,1003.6,,TRUE,TRUE,,,,,,,,,,,,,,,,0.4,,,,,,,,,,,METAR,586.0
CWQV 061500Z AUTO 09017KT 06/05 RMK AO1 PK WND 09022/1449 T00610048,CWQV,2017-05-06T15:00:00Z,48.27,-70.12,6.1,4.8,90,17,,,,,,TRUE,TRUE,,,,,,,,,,,,,,,,,,,,,,,,,,,METAR,1.0
CWQR 061500Z AUTO 09027G36KT 04/ RMK AO1 PK WND 08036/1459 T0042,CWQR,2017-05-06T15:00:00Z,50.22,-64.22,4.2,,90,27,36,,,,,TRUE,TRUE,,,,,,,,,,,,,,,,,,,,,,,,,,,METAR,9.0
CWQP 061500Z AUTO 26004KT 08/08 RMK AO1 2PAST HR 0012 SLP919 P0001 T00810075 50006,CWQP,2017-05-06T15:00:00Z,43.83,-77.15,8.1,7.5,260,4,,,,991.9,,TRUE,TRUE,,,,,,,,,,,,,,,,0.6,,,,,0.01,,,,,,METAR,79.0
CWQO 061500Z AUTO 05016G21KT 04/03 RMK AO1 PK WND 06022/1450 T00440032,CWQO,2017-05-06T15:00:00Z,48.42,-68.9,4.4,3.2,50,16,21,,,,,TRUE,TRUE,,,,,,,,,,,,,,,,,,,,,,,,,,,METAR,1.0
CWQK 061500Z AUTO 27015KT 08/04 RMK AO1 PK WND 25019/1409 SLP202 T00830035 51011,CWQK,2017-05-06T15:00:00Z,48.3,-123.53,8.3,3.5,270,15,,,,1020.2,,TRUE,TRUE,,,,,,,,,,,,,,,,1.1,,,,,,,,,,,METAR,5.0
CWQH 061500Z AUTO 12011G18KT 16/12 RMK AO1 PK WND 10018/1436 T01610115,CWQH,2017-05-06T15:00:00Z,45.37,-71.82,16.1,11.5,120,11,18,,,,,TRUE,TRUE,,,,,,,,,,,,,,,,,,,,,,,,,,,METAR,181.0
CAHR 061500Z AUTO 14018G28KT 11/10 RMK AO1 3PAST HR 8015 PK WND 13029/1435 SLP164 P0001 T01120095 50012,CAHR,2017-05-06T15:00:00Z,46.35,-63.17,11.2,9.5,140,18,28,,,1016.4,,TRUE,TRUE,,,,,,,,,,,,,,,,1.2,,,,,0.01,,,,,,METAR,53.0
CWWB 061500Z AUTO 30007KT 07/05 RMK AO1 SLP959 T00680046 55000,CWWB,2017-05-06T15:00:00Z,43.3,-79.78,6.8,4.6,300,7,,,,995.9,,TRUE,TRUE,,,,,,,,,,,,,,,,0.0,,,,,,,,,,,METAR,76.0
CWNZ 061500Z AUTO 01011G18KT 04/M06 RMK AO1 PK WND 35019/1448 SLP165 T00421061 53003,CWNZ,2017-05-06T15:00:00Z,49.75,-84.17,4.2,-6.1,10,11,18,,,1016.5,,TRUE,TRUE,,,,,,,,,,,,,,,,0.3,,,,,,,,,,,METAR,256.0
CWNC 061500Z AUTO 35008G15KT 10/06 RMK AO1 SLP922 T01000055 56004,CWNC,2017-05-06T15:00:00Z,43.95,-78.17,10.0,5.5,350,8,15,,,992.2,,TRUE,TRUE,,,,,,,,,,,,,,,,-0.4,,,,,,,,,,,METAR,78.0
CWDV 061500Z AUTO 04003KT 05/M02 RMK AO1 SLP202 T00481024 51015,CWDV,2017-05-06T15:00:00Z,49.02,-90.47,4.8,-2.4,40,3,,,,1020.2,,TRUE,TRUE,,,,,,,,,,,,,,,,1.5,,,,,,,,,,,METAR,489.0
CWDQ 061500Z AUTO 35004KT 08/07 RMK AO1 6018 SLP997 T00800073 50010,CWDQ,2017-05-06T15:00:00Z,47.42,-72.78,8.0,7.3,350,4,,,,999.7,,TRUE,TRUE,,,,,,,,,,,,,,,,1.0,,,,,,,,,,,METAR,169.0
CWWZ 061500Z AUTO 29012KT 07/06 RMK AO1 SLP953 T00680059 56005,CWWZ,2017-05-06T15:00:00Z,43.25,-79.22,6.8,5.9,290,12,,,,995.3,,TRUE,TRUE,,,,,,,,,,,,,,,,-0.5,,,,,,,,,,,METAR,79.0
CWPO 061500Z AUTO 12012KT 16/M02 RMK AO1 SLP172 T01621021 50001,CWPO,2017-05-06T15:00:00Z,49.2,-98.9,16.2,-2.1,120,12,,,,1017.2,,TRUE,TRUE,,,,,,,,,,,,,,,,0.1,,,,,,,,,,,METAR,470.0
CWPC 061500Z AUTO 33011KT 06/04 RMK AO1 PK WND 35017/1406 SLP956 T00570039 57001,CWPC,2017-05-06T15:00:00Z,42.87,-79.25,5.7,3.9,330,11,,,,995.6,,TRUE,TRUE,,,,,,,,,,,,,,,,-0.1,,,,,,,,,,,METAR,184.0
CWLS 061500Z AUTO 35013KT 04/03 RMK AO1 2PAST HR 5002 PK WND 35022/1401 SLP981 P0001 T00400031 50015,CWLS,2017-05-06T15:00:00Z,43.97,-80.75,4.0,3.1,350,13,,,,998.1,,TRUE,TRUE,,,,,,,,,,,,,,,,1.5,,,,,0.01,,,,,,METAR,415.0
CWBE 061500Z AUTO 01012G22KT 09/01 RMK AO1 PK WND 03028/1410 SLP022 T00890006 58010,CWBE,2017-05-06T15:00:00Z,45.98,-81.48,8.9,0.6,10,12,22,,,1002.2,,TRUE,TRUE,,,,,,,,,,,,,,,,-1.0,,,,,,,,,,,METAR,196.0
CTCK 061500Z AUTO 07017G23KT 14/12 RMK AO1 PK WND 07025/1426 SLP920 T01400121 58020,CTCK,2017-05-06T15:00:00Z,45.25,-74.97,14.0,12.1,70,17,23,,,992.0,,TRUE,TRUE,,,,,,,,,,,,,,,,-2.0,,,,,,,,,,,METAR,85.0
CXWN 061500Z AUTO 07004KT 12/03 RMK AO1 SLP184 T01210028 51004,CXWN,2017-05-06T15:00:00Z,49.88,-97.13,12.1,2.8,70,4,,,,1018.4,,TRUE,TRUE,,,,,,,,,,,,,,,,0.4,,,,,,,,,,,METAR,230.0
CXTP 061500Z AUTO 36004KT 10/M07 RMK AO1 SLP323 T01031072 58002,CXTP,2017-05-06T15:00:00Z,48.55,-53.97,10.3,-7.2,360,4,,,,1032.3,,TRUE,TRUE,,,,,,,,,,,,,,,,-0.2,,,,,,,,,,,METAR,107.0
CXSH 061500Z AUTO 07012G20KT 08/08 RMK AO1 0PAST HR 6015 PK WND 07020/1458 SLP988 P0008 T00830075 50042,CXSH,2017-05-06T15:00:00Z,46.58,-72.73,8.3,7.5,70,12,20,,,998.8,,TRUE,TRUE,,,,,,,,,,,,,,,,4.2,,,,,0.08,,,,,,METAR,110.0
CXRH 061500Z AUTO 15007KT 12/M02 RMK AO1 17 T01221023,CXRH,2017-05-06T15:00:00Z,49.57,-57.88,12.2,-2.3,150,7,,,,,,TRUE,TRUE,,,,,,,,,,,,,,,,,,,,,,,,,,,METAR,68.0
CXOX 061500Z AUTO 10013G19KT 06/02 RMK AO1 PK WND 07022/1427 SLP132 T00590024 55000,CXOX,2017-05-06T15:00:00Z,55.15,-105.27,5.9,2.4,100,13,19,,,1013.2,,TRUE,TRUE,,,,,,,,,,,,,,,,0.0,,,,,,,,,,,METAR,379.0
CXNM 061500Z AUTO 14017G29KT RMK AO1 SOG 78 PK WND 15029/1459,CXNM,2017-05-06T15:00:00Z,46.82,-60.67,,,140,17,29,,,,,TRUE,TRUE,,,,,,,,,,,,,,,,,,,,,,,,,,,METAR,439.0
CXMY 061500Z AUTO 09/09 RMK AO1 T00910086,CXMY,2017-05-06T15:00:00Z,44.98,-62.48,9.1,8.6,,,,,,,,TRUE,TRUE,,,,,,,,,,,,,,,,,,,,,,,,,,,METAR,40.0
CXMI 061500Z AUTO 16008KT 07/07 RMK AO1 T00720069,CXMI,2017-05-06T15:00:00Z,44.6,-63.53,7.2,6.9,160,8,,,,,,TRUE,TRUE,,,,,,,,,,,,,,,,,,,,,,,,,,,METAR,15.0
CXMD 061500Z AUTO 12004KT 14/M01 RMK AO1 SLP172 T01391009 50002,CXMD,2017-05-06T15:00:00Z,49.22,-98.08,13.9,-0.9,120,4,,,,1017.2,,TRUE,TRUE,,,,,,,,,,,,,,,,0.2,,,,,,,,,,,METAR,301.0
CXIB 061500Z AUTO 14004KT 08/02 RMK AO1 SLP274 T00810018 55000,CXIB,2017-05-06T15:00:00Z,46.67,-60.38,8.1,1.8,140,4,,,,1027.4,,TRUE,TRUE,,,,,,,,,,,,,,,,0.0,,,,,,,,,,,METAR,8.0
CXHF 061500Z AUTO 09/08 RMK AO1 0PAST HR M P0004 T00870075 50010,CXHF,2017-05-06T15:00:00Z,45.83,-75.65,8.7,7.5,,,,,,,,TRUE,TRUE,,,,,,,,,,,,,,,,1.0,,,,,0.04,,,,,,METAR,190.0
CXHA 061500Z AUTO 33008G16KT 10/04 RMK AO1 PK WND 31017/1443 SLP017 T00980037 55001,CXHA,2017-05-06T15:00:00Z,42.03,-82.9,9.8,3.7,330,8,16,,,1001.7,,TRUE,TRUE,,,,,,,,,,,,,,,,-0.1,,,,,,,,,,,METAR,191.0
CXGH 061500Z AUTO 05012KT 08/05 RMK AO1 T00820050,CXGH,2017-05-06T15:00:00Z,50.63,-97.0,8.2,5.0,50,12,,,,,,TRUE,TRUE,,,,,,,,,,,,,,,,,,,,,,,,,,,METAR,217.0
CXEC 061500Z AUTO 29006KT 16/06 RMK AO1 SLP040 T01570059 51012,CXEC,2017-05-06T15:00:00Z,53.57,-113.52,15.7,5.9,290,6,,,,1004.0,,TRUE,TRUE,,,,,,,,,,,,,,,,1.2,,,,,,,,,,,METAR,671.0
CXEA 061500Z AUTO 03005KT 05/01 RMK AO1 SLP221 T00520011 51015,CXEA,2017-05-06T15:00:00Z,50.63,-93.22,5.2,1.1,30,5,,,,1022.1,,TRUE,TRUE,,,,,,,,,,,,,,,,1.5,,,,,,,,,,,METAR,355.0
CXDW 061500Z AUTO 11005KT 14/01 RMK AO1 SLP173 T01440006 50000,CXDW,2017-05-06T15:00:00Z,49.4,-98.32,14.4,0.6,110,5,,,,1017.3,,TRUE,TRUE,,,,,,,,,,,,,,,,0.0,,,,,,,,,,,METAR,341.0
CXDI 061500Z AUTO 34011G18KT 07/04 RMK AO1 6002 PK WND 31019/1424 SLP967 T00710041 50002,CXDI,2017-05-06T15:00:00Z,42.87,-80.55,7.1,4.1,340,11,18,,,996.7,,TRUE,TRUE,,,,,,,,,,,,,,,,0.2,,,,,,,,,,,METAR,232.0
CXCK 061500Z AUTO 32002KT 01/M03 RMK AO1 SLP145 T00141026 52005,CXCK,2017-05-06T15:00:00Z,62.12,-136.2,1.4,-2.6,320,2,,,,1014.5,,TRUE,TRUE,,,,,,,,,,,,,,,,0.5,,,,,,,,,,,METAR,540.0
CXCH 061500Z AUTO 11/06 RMK AO1 T01090059 50010,CXCH,2017-05-06T15:00:00Z,46.63,-60.95,10.9,5.9,,,,,,,,TRUE,TRUE,,,,,,,,,,,,,,,,1.0,,,,,,,,,,,METAR,44.0
CXBO 061500Z AUTO 07018G27KT RMK AO1 PK WND 07029/1415,CXBO,2017-05-06T15:00:00Z,46.83,-71.2,,,70,18,27,,,,,TRUE,TRUE,,,,,,,,,,,,,,,,,,,,,,,,,,,METAR,100.0
CXKT 061500Z AUTO 15009G20KT 16/14 RMK AO1 PK WND 14020/1452 SLP128 T01640141 58010,CXKT,2017-05-06T15:00:00Z,45.07,-64.48,16.4,14.1,150,9,20,,,1012.8,,TRUE,TRUE,,,,,,,,,,,,,,,,-1.0,,,,,,,,,,,METAR,49.0
CXBK 061500Z AUTO 15017KT 20/02 RMK AO1 PK WND 14023/1442 SLP069 T01980023 58004,CXBK,2017-05-06T15:00:00Z,50.2,-104.7,19.8,2.3,150,17,,,,1006.9,,TRUE,TRUE,,,,,,,,,,,,,,,,-0.4,,,,,,,,,,,METAR,580.0
CWXA 061500Z AUTO 26006KT 11/05 RMK AO1 SLP066 T01080048 50001,CWXA,2017-05-06T15:00:00Z,51.07,-115.07,10.8,4.8,260,6,,,,1006.6,,TRUE,TRUE,,,,,,,,,,,,,,,,0.1,,,,,,,,,,,METAR,1298.0
CWWK 061500Z AUTO 20003KT 09/04 RMK AO1 SLP201 T00850039 52009,CWWK,2017-05-06T15:00:00Z,49.02,-122.78,8.5,3.9,200,3,,,,1020.1,,TRUE,TRUE,,,,,,,,,,,,,,,,0.9,,,,,,,,,,,METAR,15.0
CWWA 061500Z AUTO 00000KT 09/05 RMK AO1 SLP191 T00920048 52012,CWWA,2017-05-06T15:00:00Z,49.35,-123.17,9.2,4.8,0,0,,,,1019.1,,TRUE,TRUE,,,,,,,,,,,,,,,,1.2,,,,,,,,,,,METAR,178.0
CWVQ 061500Z AUTO 07007KT 13/12 RMK AO1 8018 SLP947 T01270123 50040,CWVQ,2017-05-06T15:00:00Z,45.42,-73.92,12.7,12.3,70,7,,,,994.7,,TRUE,TRUE,,,,,,,,,,,,,,,,4.0,,,,,,,,,,,METAR,39.0
CWVP 061500Z AUTO 34007KT 17/05 RMK AO1 SLP050 T01720047 50000,CWVP,2017-05-06T15:00:00Z,49.63,-109.52,17.2,4.7,340,7,,,,1005.0,,TRUE,TRUE,,,,,,,,,,,,,,,,0.0,,,,,,,,,,,METAR,1271.0
CWVN 061500Z AUTO 15008KT 20/08 RMK AO1 SLP047 T01980076 50000,CWVN,2017-05-06T15:00:00Z,49.07,-107.57,19.8,7.6,150,8,,,,1004.7,,TRUE,TRUE,,,,,,,,,,,,,,,,0.0,,,,,,,,,,,METAR,785.0
CWVI 061500Z AUTO 30012KT 18/07 RMK AO1 1014 SLP020 T01810072 50002,CWVI,2017-05-06T15:00:00Z,53.52,-112.1,18.1,7.2,300,12,,,,1002.0,,TRUE,TRUE,,,,,,,,,,,,,,,,0.2,,,,,,,,,,,METAR,639.0
CWUX 061500Z AUTO 09015G21KT 08/05 RMK AO1 8020 PK WND 08024/1440 SLP044 T00810053 50002,CWUX,2017-05-06T15:00:00Z,48.3,-70.93,8.1,5.3,90,15,21,,,1004.4,,TRUE,TRUE,,,,,,,,,,,,,,,,0.2,,,,,,,,,,,METAR,135.0
CWUS 061500Z AUTO 34010G17KT 09/M02 RMK AO1 PK WND 02017/1450 SLP151 T00891022 51016,CWUS,2017-05-06T15:00:00Z,49.57,-119.65,8.9,-2.2,340,10,17,,,1015.1,,TRUE,TRUE,,,,,,,,,,,,,,,,1.6,,,,,,,,,,,METAR,454.0
CWTY 061500Z AUTO 04007KT 09/08 RMK AO1 9PAST HR 6013 SLP985 P0019 T00870083 50049,CWTY,2017-05-06T15:00:00Z,46.35,-72.52,8.7,8.3,40,7,,,,998.5,,TRUE,TRUE,,,,,,,,,,,,,,,,4.9,,,,,0.19,,,,,,METAR,6.0
CWTT 061500Z AUTO 12004KT 14/12 RMK AO1 T01380123,CWTT,2017-05-06T15:00:00Z,45.27,-72.17,13.8,12.3,120,4,,,,,,TRUE,TRUE,,,,,,,,,,,,,,,,,,,,,,,,,,,METAR,209.0
CWTN 061500Z AUTO 08018G24KT 09/08 RMK AO1 PK WND 09024/1456 SLP039 T00860082 58010,CWTN,2017-05-06T15:00:00Z,47.07,-70.78,8.6,8.2,80,18,24,,,1003.9,,TRUE,TRUE,,,,,,,,,,,,,,,,-1.0,,,,,,,,,,,METAR,6.0
CWTG 061500Z AUTO 04015G21KT 03/02 RMK AO1 PK WND 04023/1418 SLP118 T00340015 58023,CWTG,2017-05-06T15:00:00Z,49.32,-67.37,3.4,1.5,40,15,21,,,1011.8,,TRUE,TRUE,,,,,,,,,,,,,,,,-2.3,,,,,,,,,,,METAR,5.0
CWTA 061500Z AUTO 05004KT 11/10 RMK AO1 2PAST HR 8012 SLP958 P0001 T01060100 50040,CWTA,2017-05-06T15:00:00Z,45.5,-73.58,10.6,10.0,50,4,,,,995.8,,TRUE,TRUE,,,,,,,,,,,,,,,,4.0,,,,,0.01,,,,,,METAR,63.0
CZSM 061500Z AUTO 36008G15KT 07/03 RMK AO1 5009 SLP084 T00700027 50002,CZSM,2017-05-06T15:00:00Z,60.03,-111.93,7.0,2.7,360,8,15,,,1008.4,,TRUE,TRUE,,,,,,,,,,,,,,,,0.2,,,,,,,,,,,METAR,203.0
CZHY 061500Z AUTO 00008KT 04/03 RMK AO1 SLP054 T00420027 56012,CZHY,2017-05-06T15:00:00Z,60.83,-115.78,4.2,2.7,0,8,,,,1005.4,,TRUE,TRUE,,,,,,,,,,,,,,,,-1.2,,,,,,,,,,,METAR,164.0
CWMT 061500Z AUTO 08009KT 04/M00 RMK AO1 SLP122 T00381002 56013,CWMT,2017-05-06T15:00:00Z,63.13,-117.25,3.8,-0.2,80,9,,,,1012.2,,TRUE,TRUE,,,,,,,,,,,,,,,,-1.3,,,,,,,,,,,METAR,271.0
OJAQ 061500Z 36010KT CAVOK 33/05 Q1010 NOSIG,OJAQ,2017-05-06T15:00:00Z,29.62,35.02,33.0,5.0,360,10,,6.21,29.822834,,,,,,TRUE,,,,,CAVOK,,,,,,,,VFR,,,,,,,,,,,,METAR,51.0
OJAI 061500Z 26010KT 7000 NSC 24/03 Q1016 NOSIG,OJAI,2017-05-06T15:00:00Z,31.72,36.0,24.0,3.0,260,10,,4.35,30.0,,,,,,TRUE,,,,,CLR,,,,,,,,MVFR,,,,,,,,,,,,METAR,730.0
CWJH 061500Z AUTO 12003KT 03/M00 RMK AO1 SLP192 T00321003 58001,CWJH,2017-05-06T15:00:00Z,56.32,-103.27,3.2,-0.3,120,3,,,,1019.2,,TRUE,TRUE,,,,,,,,,,,,,,,,-0.1,,,,,,,,,,,METAR,344.0
CWJB 061500Z AUTO 07011G20KT 09/08 RMK AO1 PK WND 07025/1415 T00890076,CWJB,2017-05-06T15:00:00Z,46.78,-71.27,8.9,7.6,70,11,20,,,,,TRUE,TRUE,,,,,,,,,,,,,,,,,,,,,,,,,,,METAR,91.0
CWIZ 061500Z AUTO 13005KT 15/13 RMK AO1 T01490130 50004,CWIZ,2017-05-06T15:00:00Z,45.28,-73.33,14.9,13.0,130,5,,,,,,TRUE,TRUE,,,,,,,,,,,,,,,,0.4,,,,,,,,,,,METAR,45.0
CWIW 061500Z AUTO 16020G25KT 17/04 RMK AO1 PK WND 15027/1404 SLP071 T01710039 56020,CWIW,2017-05-06T15:00:00Z,51.67,-105.4,17.1,3.9,160,20,25,,,1007.1,,TRUE,TRUE,,,,,,,,,,,,,,,,-2.0,,,,,,,,,,,METAR,526.0
CWIT 061500Z AUTO 12008KT 14/12 RMK AO1 8007 SLP948 T01420124 50015,CWIT,2017-05-06T15:00:00Z,45.17,-73.67,14.2,12.4,120,8,,,,994.8,,TRUE,TRUE,,,,,,,,,,,,,,,,1.5,,,,,,,,,,,METAR,52.0
CWIP 061500Z AUTO 07016G28KT 05/ RMK AO1 PK WND 06030/1423 T0047 50004,CWIP,2017-05-06T15:00:00Z,50.17,-66.43,4.7,,70,16,28,,,,,TRUE,TRUE,,,,,,,,,,,,,,,,0.4,,,,,,,,,,,METAR,25.0
CWII 061500Z AUTO 09016KT 08/04 RMK AO1 PK WND 08020/1439 T00750036,CWII,2017-05-06T15:00:00Z,50.7,-96.57,7.5,3.6,90,16,,,,,,TRUE,TRUE,,,,,,,,,,,,,,,,,,,,,,,,,,,METAR,220.0
CWIG 061500Z AUTO 04021G27KT RMK AO1 PK WND 03027/1447,CWIG,2017-05-06T15:00:00Z,47.07,-70.53,,,40,21,27,,,,,TRUE,TRUE,,,,,,,,,,,,,,,,,,,,,,,,,,,METAR,18.0
CWID 061500Z AUTO 08007KT 04/02 RMK AO1 PK WND 08017/1450 SLP058 T00380024 56013,CWID,2017-05-06T15:00:00Z,61.32,-117.6,3.8,2.4,80,7,,,,1005.8,,TRUE,TRUE,,,,,,,,,,,,,,,,-1.3,,,,,,,,,,,METAR,161.0
CWHV 061500Z AUTO 15004KT 13/11 RMK AO1 SLP014 T01290113 58013,CWHV,2017-05-06T15:00:00Z,46.2,-70.77,12.9,11.3,150,4,,,,1001.4,,TRUE,TRUE,,,,,,,,,,,,,,,,-1.3,,,,,,,,,,,METAR,229.0
CWHT 061500Z AUTO 16001KT 02/M01 RMK AO1 SOG 02 1005 SLP153 T00171009,CWHT,2017-05-06T15:00:00Z,60.77,-137.58,1.7,-0.9,160,1,,,,1015.3,,TRUE,TRUE,,,,,,,,,,,,,,,,,,,,,,,,,,,METAR,599.0
CWHQ 061500Z AUTO 10011G18KT 09/08 RMK AO1 PK WND 06024/1407 T00900075 50070,CWHQ,2017-05-06T15:00:00Z,46.68,-71.97,9.0,7.5,100,11,18,,,,,TRUE,TRUE,,,,,,,,,,,,,,,,7.0,,,,,,,,,,,METAR,55.0
CWHL 061500Z AUTO 13004KT 06/03 RMK AO1 8PAST HR 1010 PK WND 22018/1413 SLP166 P0007 T00590033 50020,CWHL,2017-05-06T15:00:00Z,54.17,-130.35,5.9,3.3,130,4,,,,1016.6,,TRUE,TRUE,,,,,,,,,,,,,,,,2.0,,,,,0.07,,,,,,METAR,5.0
CWGY 061500Z AUTO 23005KT 20/05 RMK AO1 SLP041 T02020050 51005,CWGY,2017-05-06T15:00:00Z,51.67,-110.2,20.2,5.0,230,5,,,,1004.1,,TRUE,TRUE,,,,,,,,,,,,,,,,0.5,,,,,,,,,,,METAR,707.0
CWGT 061500Z AUTO 26007KT 08/03 RMK AO1 SLP198 T00760034 51010,CWGT,2017-05-06T15:00:00Z,49.48,-124.43,7.6,3.4,260,7,,,,1019.8,,TRUE,TRUE,,,,,,,,,,,,,,,,1.0,,,,,,,,,,,METAR,5.0
CWGR 061500Z AUTO 10017KT 05/04 RMK AO1 0PAST HR 6009 PK WND 09023/1436 SLP223 P0008 T00460037 50030,CWGR,2017-05-06T15:00:00Z,47.42,-61.8,4.6,3.7,100,17,,,,1022.3,,TRUE,TRUE,,,,,,,,,,,,,,,,3.0,,,,,0.08,,,,,,METAR,60.0
CERM 061500Z AUTO 12005KT 10/08 RMK AO1 6012 SLP074 T00970079 50005,CERM,2017-05-06T15:00:00Z,47.42,-68.32,9.7,7.9,120,5,,,,1007.4,,TRUE,TRUE,,,,,,,,,,,,,,,,0.5,,,,,,,,,,,METAR,154.0
CZSP 061500Z AUTO 13017G28KT 08/07 RMK AO1 7009 PK WND 14030/1421 SLP194 T00830071 50039,CZSP,2017-05-06T15:00:00Z,46.45,-62.58,8.3,7.1,130,17,28,,,1019.4,,TRUE,TRUE,,,,,,,,,,,,,,,,3.9,,,,,,,,,,,METAR,30.0
CZCR 061500Z AUTO 08021G27KT 05/05 RMK AO1 1PAST HR 8021 PK WND 08027/1400 SLP120 P0008 T00540050 50092,CZCR,2017-05-06T15:00:00Z,47.97,-66.32,5.4,5.0,80,21,27,,,1012.0,,TRUE,TRUE,,,,,,,,,,,,,,,,9.2,,,,,0.08,,,,,,METAR,38.0
CWXI 061500Z AUTO 06013KT 04/M02 RMK AO1 PK WND 06018/1438 SLP321 T00391023 58002,CWXI,2017-05-06T15:00:00Z,51.02,-57.1,3.9,-2.3,60,13,,,,1032.1,,TRUE,TRUE,,,,,,,,,,,,,,,,-0.2,,,,,,,,,,,METAR,6.0
CWBK 061500Z AUTO 15018G28KT 10/08 RMK AO1 PK WND 15028/1458 SLP177 T00980084 56007,CWBK,2017-05-06T15:00:00Z,45.77,-62.67,9.8,8.4,150,18,28,,,1017.7,,TRUE,TRUE,,,,,,,,,,,,,,,,-0.7,,,,,,,,,,,METAR,2.0
FQNP 061500Z 19005KT 9999 SCT020 27/20 Q1016,FQNP,2017-05-06T15:00:00Z,-15.08,39.27,27.0,20.0,190,5,,6.21,30.0,,,,,,,,,,,SCT,2000,,,,,,,VFR,,,,,,,,,,,,METAR,441.0
CWGM 061500Z AUTO 23015G21KT 15/05 RMK AO1 PK WND 23021/1459 T01520051,CWGM,2017-05-06T15:00:00Z,49.13,-113.78,15.2,5.1,230,15,21,,,,,TRUE,TRUE,,,,,,,,,,,,,,,,,,,,,,,,,,,METAR,1296.0
CWGL 061500Z AUTO 36010G15KT 05/04 RMK AO1 PK WND 00018/1447 SLP950 T00530042 55003,CWGL,2017-05-06T15:00:00Z,44.52,-79.22,5.3,4.2,360,10,15,,,995.0,,TRUE,TRUE,,,,,,,,,,,,,,,,-0.3,,,,,,,,,,,METAR,221.0
CWGD 061500Z AUTO 35017G27KT 06/03 RMK AO1 PK WND 34029/1410 SLP994 T00600034 55002,CWGD,2017-05-06T15:00:00Z,43.77,-81.72,6.0,3.4,350,17,27,,,999.4,,TRUE,TRUE,,,,,,,,,,,,,,,,-0.2,,,,,,,,,,,METAR,214.0
CWGB 061500Z AUTO 26009KT 08/03 RMK AO1 SLP195 T00820030 51013,CWGB,2017-05-06T15:00:00Z,49.35,-124.17,8.2,3.0,260,9,,,,1019.5,,TRUE,TRUE,,,,,,,,,,,,,,,,1.3,,,,,,,,,,,METAR,5.0
CWFQ 061500Z AUTO 15008G16KT 17/14 RMK AO1 8011 SLP953 T01670139 50020,CWFQ,2017-05-06T15:00:00Z,45.03,-72.82,16.7,13.9,150,8,16,,,995.3,,TRUE,TRUE,,,,,,,,,,,,,,,,2.0,,,,,,,,,,,METAR,152.0
CWFJ 061500Z AUTO 01003KT 14/07 RMK AO1 T01400067,CWFJ,2017-05-06T15:00:00Z,49.2,-113.27,14.0,6.7,10,3,,,,,,TRUE,TRUE,,,,,,,,,,,,,,,,,,,,,,,,,,,METAR,1136.0
CWEZ 061500Z AUTO 23005KT 08/04 RMK AO1 SLP200 T00840037 52011,CWEZ,2017-05-06T15:00:00Z,48.78,-123.05,8.4,3.7,230,5,,,,1020.0,,TRUE,TRUE,,,,,,,,,,,,,,,,1.1,,,,,,,,,,,METAR,7.0
CWEW 061500Z AUTO 04006KT 10/10 RMK AO1 8014 SLP972 T01020098 50040,CWEW,2017-05-06T15:00:00Z,45.82,-73.43,10.2,9.8,40,6,,,,997.2,,TRUE,TRUE,,,,,,,,,,,,,,,,4.0,,,,,,,,,,,METAR,21.0
CWEL 061500Z AUTO 33014KT 09/04 RMK AO1 PK WND 32017/1409 SLP196 T00920043 52010,CWEL,2017-05-06T15:00:00Z,49.22,-123.78,9.2,4.3,330,14,,,,1019.6,,TRUE,TRUE,,,,,,,,,,,,,,,,1.0,,,,,,,,,,,METAR,5.0
CWEB 061500Z AUTO 07003KT 07/06 RMK AO1 6PAST HR 1012 SLP202 P0002 T00670062 50022,CWEB,2017-05-06T15:00:00Z,49.38,-126.55,6.7,6.2,70,3,,,,1020.2,,TRUE,TRUE,,,,,,,,,,,,,,,,2.2,,,,,0.02,,,,,,METAR,7.0
CWDZ 061500Z AUTO 32004KT 16/07 RMK AO1 T01620070,CWDZ,2017-05-06T15:00:00Z,51.42,-112.67,16.2,7.0,320,4,,,,,,TRUE,TRUE,,,,,,,,,,,,,,,,,,,,,,,,,,,METAR,678.0
CWDJ 061500Z AUTO 15016G22KT 19/03 RMK AO1 PK WND 15022/1412 SLP077 T01930027 58007,CWDJ,2017-05-06T15:00:00Z,50.4,-104.58,19.3,2.7,150,16,22,,,1007.7,,TRUE,TRUE,,,,,,,,,,,,,,,,-0.7,,,,,,,,,,,METAR,573.0
CWCO 061500Z AUTO 31014G19KT 05/04 RMK AO1 5004 PK WND 30019/1422 SLP977 T00470039 50014,CWCO,2017-05-06T15:00:00Z,44.45,-80.17,4.7,3.9,310,14,19,,,997.7,,TRUE,TRUE,,,,,,,,,,,,,,,,1.4,,,,,,,,,,,METAR,221.0
CWCJ 061500Z AUTO 02009G17KT 06/M09 RMK AO1 PK WND 02018/1425 SLP153 T00621088 51010,CWCJ,2017-05-06T15:00:00Z,48.6,-86.28,6.2,-8.8,20,9,17,,,1015.3,,TRUE,TRUE,,,,,,,,,,,,,,,,1.0,,,,,,,,,,,METAR,206.0
CWCF 061500Z AUTO 10011G16KT 07/M01 RMK AO1 PK WND 11020/1447 SLP219 T00661006 56004,CWCF,2017-05-06T15:00:00Z,52.35,-97.03,6.6,-0.6,100,11,16,,,1021.9,,TRUE,TRUE,,,,,,,,,,,,,,,,-0.4,,,,,,,,,,,METAR,222.0
CWBZ 061500Z AUTO 08008KT 16/14 RMK AO1 SLP926 T01630138 56026,CWBZ,2017-05-06T15:00:00Z,45.12,-74.27,16.3,13.8,80,8,,,,992.6,,TRUE,TRUE,,,,,,,,,,,,,,,,-2.6,,,,,,,,,,,METAR,49.0
CWBT 061500Z AUTO 08011G19KT 04/04 RMK AO1 0PAST HR 8009 PK WND 09021/1443 SLP238 P0008 T00410041 50044,CWBT,2017-05-06T15:00:00Z,50.27,-64.23,4.1,4.1,80,11,19,,,1023.8,,TRUE,TRUE,,,,,,,,,,,,,,,,4.4,,,,,0.08,,,,,,METAR,11.0
CWBS 061500Z AUTO 05017KT 10/09 RMK AO1 PK WND 05023/1400 T00960089,CWBS,2017-05-06T15:00:00Z,46.18,-72.92,9.6,8.9,50,17,,,,,,TRUE,TRUE,,,,,,,,,,,,,,,,,,,,,,,,,,,METAR,16.0
CWBO 061500Z AUTO 19005KT 16/09 RMK AO1 SLP046 T01570094 51006,CWBO,2017-05-06T15:00:00Z,50.53,-111.83,15.7,9.4,190,5,,,,1004.6,,TRUE,TRUE,,,,,,,,,,,,,,,,0.6,,,,,,,,,,,METAR,747.0
CWBA 061500Z AUTO 35009G16KT 05/04 RMK AO1 6PAST HR M PK WND 34018/1403 P0006 T00470040 50016,CWBA,2017-05-06T15:00:00Z,46.72,-79.1,4.7,4.0,350,9,16,,,,,TRUE,TRUE,,,,,,,,,,,,,,,,1.6,,,,,0.06,,,,,,METAR,181.0
CWAV 061500Z AUTO 28002KT 14/05 RMK AO1 SLP052 T01380049 51005,CWAV,2017-05-06T15:00:00Z,51.77,-114.67,13.8,4.9,280,2,,,,1005.2,,TRUE,TRUE,,,,,,,,,,,,,,,,0.5,,,,,,,,,,,METAR,1114.0
CWAQ 061500Z AUTO 13016G22KT 19/04 RMK AO1 PK WND 15023/1441 SLP064 T01930035 58006,CWAQ,2017-05-06T15:00:00Z,49.05,-105.48,19.3,3.5,130,16,22,,,1006.4,,TRUE,TRUE,,,,,,,,,,,,,,,,-0.6,,,,,,,,,,,METAR,756.0
CWAF 061500Z AUTO 03020KT 04/04 RMK AO1 4PAST HR M PK WND 03025/1428 P0002 T00440038 50006,CWAF,2017-05-06T15:00:00Z,48.07,-69.53,4.4,3.8,30,20,,,,,,TRUE,TRUE,,,,,,,,,,,,,,,,0.6,,,,,0.02,,,,,,METAR,5.0
CXSL 061500Z AUTO 32008KT 15/08 RMK AO1 T01450078,CXSL,2017-05-06T15:00:00Z,54.28,-112.5,14.5,7.8,320,8,,,,,,TRUE,TRUE,,,,,,,,,,,,,,,,,,,,,,,,,,,METAR,680.0
CXHP 061500Z AUTO 28006KT 12/07 RMK AO1 T01180072,CXHP,2017-05-06T15:00:00Z,55.4,-116.48,11.8,7.2,280,6,,,,,,TRUE,TRUE,,,,,,,,,,,,,,,,,,,,,,,,,,,METAR,602.0
CPXL 061500Z AUTO 20004KT 14/10 RMK AO1 T01390095,CPXL,2017-05-06T15:00:00Z,49.87,-111.38,13.9,9.5,200,4,,,,,,TRUE,TRUE,,,,,,,,,,,,,,,,,,,,,,,,,,,METAR,799.0
CPSV 061500Z AUTO 22009KT 15/10 RMK AO1 T01500103,CPSV,2017-05-06T15:00:00Z,49.92,-110.92,15.0,10.3,220,9,,,,,,TRUE,TRUE,,,,,,,,,,,,,,,,,,,,,,,,,,,METAR,766.0
CPST 061500Z AUTO 26004KT 14/08 RMK AO1 T01350076,CPST,2017-05-06T15:00:00Z,51.03,-113.28,13.5,7.6,260,4,,,,,,TRUE,TRUE,,,,,,,,,,,,,,,,,,,,,,,,,,,METAR,967.0
CPRO 061500Z AUTO 26010KT 16/08 RMK AO1 T01640078,CPRO,2017-05-06T15:00:00Z,50.83,-112.05,16.4,7.8,260,10,,,,,,TRUE,TRUE,,,,,,,,,,,,,,,,,,,,,,,,,,,METAR,714.0
CPFI 061500Z AUTO 24006KT 15/09 RMK AO1 T01530090,CPFI,2017-05-06T15:00:00Z,49.8,-112.03,15.3,9.0,240,6,,,,,,TRUE,TRUE,,,,,,,,,,,,,,,,,,,,,,,,,,,METAR,833.0
SEAM 061500Z 00000KT 9999 SCT020 BKN100 17/12 Q1031,SEAM,2017-05-06T15:00:00Z,-1.18,-78.57,17.0,12.0,0,0,,6.21,30.442913,,,,,,,,,,,SCT,2000,BKN,10000,,,,,VFR,,,,,,,,,,,,METAR,2520.0
FOON 061500Z /////KT 9999 SCT013 27/23 Q1012,FOON,2017-05-06T15:00:00Z,-1.63,13.42,27.0,23.0,,,,6.21,29.88189,,,,,,,,,,,SCT,1300,,,,,,,VFR,,,,,,,,,,,,METAR,441.0
FOOL 061500Z 18014G31KT 100V270 2500 TSRA SCT013 FEW018CB BKN030 28/23 Q1010 TEMPO 1000 +TSRA,FOOL,2017-05-06T15:00:00Z,0.45,9.42,28.0,23.0,180,14,31,1.55,29.822834,,,,,,,,,,TSRA,SCT,1300,FEW,1800,BKN,3000,,,IFR,,,,,,,,,,,,METAR,15.0
FOOG 061500Z 22008KT 9999 SCT013 FEW020CB 29/25 Q1010,FOOG,2017-05-06T15:00:00Z,-0.7,8.75,29.0,25.0,220,8,,6.21,29.822834,,,,,,,,,,,SCT,1300,FEW,2000,,,,,VFR,,,,,,,,,,,,METAR,4.0
TNCM 061500Z 11011KT 080V140 9999 FEW022 29/21 Q1016 A3002 NOSIG ,TNCM,2017-05-06T15:00:00Z,18.05,-63.12,29.0,21.0,110,11,,6.21,30.0,,,,,,TRUE,,,,,FEW,2200,,,,,,,VFR,,,,,,,,,,,,METAR,4.0
FMNN 061500Z 19002KT 9999 FEW020 SCT250 28/25 Q1013,FMNN,2017-05-06T15:00:00Z,-13.32,48.32,28.0,25.0,190,2,,6.21,29.911417,,,,,,,,,,,FEW,2000,SCT,25000,,,,,VFR,,,,,,,,,,,,METAR,9.0
FNSO 061500Z 20005KT 9999 SCT023 ///// Q1013,FNSO,2017-05-06T15:00:00Z,-6.13,12.37,,,200,5,,6.21,29.911417,,,,,,,,,,,SCT,2300,,,,,,,VFR,,,,,,,,,,,,METAR,5.0
VTSM 061500Z 00000KT 9999 FEW020 30/26 Q1014,VTSM,2017-05-06T15:00:00Z,9.55,100.07,30.0,26.0,0,0,,6.21,29.940945,,,,,,,,,,,FEW,2000,,,,,,,VFR,,,,,,,,,,,,METAR,17.0
VTSF 061500Z 27002KT 9999 FEW018 26/24 Q1013,VTSF,2017-05-06T15:00:00Z,8.53,99.95,26.0,24.0,270,2,,6.21,29.911417,,,,,,,,,,,FEW,1800,,,,,,,VFR,,,,,,,,,,,,METAR,4.0
VTSB 061500Z 00000KT 8000 FEW020 25/24 Q1013,VTSB,2017-05-06T15:00:00Z,9.12,99.13,25.0,24.0,0,0,,4.97,29.911417,,,,,,,,,,,FEW,2000,,,,,,,MVFR,,,,,,,,,,,,METAR,11.0
VTCP 061500Z AUTO 21002KT 9999 // ////// 29/22 Q1011,VTCP,2017-05-06T15:00:00Z,18.13,100.17,29.0,22.0,210,2,,6.21,29.852362,,,TRUE,,,,,,,,,,,,,,,,,,,,,,,,,,,,METAR,162.0
FDMS 061500Z 16004KT 9999 FEW035 27/14 Q1018 NOSIG,FDMS,2017-05-06T15:00:00Z,-26.52,31.3,27.0,14.0,160,4,,6.21,30.059055,,,,,,TRUE,,,,,FEW,3500,,,,,,,VFR,,,,,,,,,,,,METAR,641.0
LFKC 061500Z 21021G33KT 9999 -SHRA FEW016 FEW040TCU BKN040 19/15 Q1009 NOSIG,LFKC,2017-05-06T15:00:00Z,42.52,8.8,19.0,15.0,210,21,33,6.21,29.793306,,,,,,TRUE,,,,-SHRA,FEW,1600,FEW,4000,BKN,4000,,,VFR,,,,,,,,,,,,METAR,58.0
NZCH 061500Z AUTO 21001KT 6000 BKN012/// BKN025/// 10/09 Q1027 BECMG 9999 BKN016,NZCH,2017-05-06T15:00:00Z,-43.47,172.55,10.0,9.0,210,1,,3.73,30.324802,,,TRUE,,,,,,,,BKN,1200,BKN,2500,,,,,MVFR,,,,,,,,,,,,METAR,34.0
NZWN 061500Z AUTO 02012KT 9999 OVC026/// 12/10 Q1027 NOSIG,NZWN,2017-05-06T15:00:00Z,-41.32,174.8,12.0,10.0,20,12,,6.21,30.324802,,,TRUE,,,TRUE,,,,,OVC,2600,,,,,,,MVFR,,,,,,,,,,,,METAR,7.0
NZAA 061500Z AUTO 06002KT 0200 R23L/P2000N R05R/P2000N FG FEW013/// SCT037/// 09/09 Q1028 TEMPO 2000 BR,NZAA,2017-05-06T15:00:00Z,-37.02,174.8,9.0,9.0,60,2,,0.12,30.35433,,,TRUE,,,,,,,FG,FEW,1300,SCT,3700,,,,,LIFR,,,,,,,,,,,,METAR,6.0
FQPB 061500Z 16008KT 9999 FEW020 BKN100 26/23 Q1015,FQPB,2017-05-06T15:00:00Z,-12.97,40.5,26.0,23.0,160,8,,6.21,29.970472,,,,,,,,,,,FEW,2000,BKN,10000,,,,,VFR,,,,,,,,,,,,METAR,50.0
YSSY 061500Z 35011KT CAVOK 18/13 Q1020 NOSIG,YSSY,2017-05-06T15:00:00Z,-33.95,151.17,18.0,13.0,350,11,,6.21,30.11811,,,,,,TRUE,,,,,CAVOK,,,,,,,,VFR,,,,,,,,,,,,METAR,3.0
YPXM 061500Z AUTO 13011KT 9999 // SCT020 26/22 Q1016,YPXM,2017-05-06T15:00:00Z,-10.45,105.67,26.0,22.0,130,11,,6.21,30.0,,,TRUE,,,,,,,,SCT,2000,,,,,,,VFR,,,,,,,,,,,,METAR,259.0
YPTN 061500Z AUTO 13005KT 9999 // NCD 23/18 Q1015,YPTN,2017-05-06T15:00:00Z,-14.52,132.38,23.0,18.0,130,5,,6.21,29.970472,,,TRUE,,,,,,,,CLR,,,,,,,,VFR,,,,,,,,,,,,METAR,109.0
YPPH 061500Z 02004KT CAVOK 13/11 Q1024 NOSIG,YPPH,2017-05-06T15:00:00Z,-31.93,115.98,13.0,11.0,20,4,,6.21,30.236221,,,,,,TRUE,,,,,CAVOK,,,,,,,,VFR,,,,,,,,,,,,METAR,13.0
YPLM 061500Z AUTO 22007KT 9999 // NCD 21/16 Q1019,YPLM,2017-05-06T15:00:00Z,-22.22,114.07,21.0,16.0,220,7,,6.21,30.088583,,,TRUE,,,,,,,,CLR,,,,,,,,VFR,,,,,,,,,,,,METAR,6.0
YPKU 061500Z AUTO 15002KT 9999 // BKN094 23/18 Q1015,YPKU,2017-05-06T15:00:00Z,-15.77,128.68,23.0,18.0,150,2,,6.21,29.970472,,,TRUE,,,,,,,,BKN,9400,,,,,,,VFR,,,,,,,,,,,,METAR,45.0
YPDN 061500Z 12003KT CAVOK 26/23 Q1014,YPDN,2017-05-06T15:00:00Z,-12.42,130.9,26.0,23.0,120,3,,6.21,29.940945,,,,,,,,,,,CAVOK,,,,,,,,VFR,,,,,,,,,,,,METAR,30.0
YPCC 061500Z AUTO 10009KT 9999 // NCD 27/25 Q1015,YPCC,2017-05-06T15:00:00Z,-12.17,96.82,27.0,25.0,100,9,,6.21,29.970472,,,TRUE,,,,,,,,CLR,,,,,,,,VFR,,,,,,,,,,,,METAR,3.0
YPAD 061500Z 16007KT 9999 BKN047 13/04 Q1030 NOSIG,YPAD,2017-05-06T15:00:00Z,-34.95,138.52,13.0,4.0,160,7,,6.21,30.413385,,,,,,TRUE,,,,,BKN,4700,,,,,,,VFR,,,,,,,,,,,,METAR,4.0
ZYHB 061500Z 28008MPS 9999 -RA OVC033 06/03 Q1001 NOSIG,ZYHB,2017-05-06T15:00:00Z,45.62,126.25,6.0,3.0,280,16,,6.21,29.557087,,,,,,TRUE,,,,-RA,OVC,3300,,,,,,,VFR,,,,,,,,,,,,METAR,140.0
ZYCC 061500Z 22003MPS 170V250 9999 BKN026 06/M02 Q1006 NOSIG,ZYCC,2017-05-06T15:00:00Z,43.98,125.68,6.0,-2.0,220,6,,6.21,29.704725,,,,,,TRUE,,,,,BKN,2600,,,,,,,MVFR,,,,,,,,,,,,METAR,238.0
ZUCK 061500Z VRB01MPS 4000 -RA BR FEW010 SCT020 OVC043 14/11 Q1022 NOSIG,ZUCK,2017-05-06T15:00:00Z,29.72,106.63,14.0,11.0,0,2,,2.49,30.177166,,,,,,TRUE,,,,-RA BR,FEW,1000,SCT,2000,OVC,4300,,,IFR,,,,,,,,,,,,METAR,416.0
ZSOF 061500Z VRB03MPS CAVOK 18/14 Q1018 NOSIG,ZSOF,2017-05-06T15:00:00Z,31.98,116.97,18.0,14.0,0,6,,6.21,30.059055,,,,,,TRUE,,,,,CAVOK,,,,,,,,VFR,,,,,,,,,,,,METAR,63.0
ZSNJ 061500Z VRB01MPS 4000 BR FEW040 20/19 Q1018 NOSIG,ZSNJ,2017-05-06T15:00:00Z,31.75,118.87,20.0,19.0,0,2,,2.49,30.059055,,,,,,TRUE,,,,BR,FEW,4000,,,,,,,IFR,,,,,,,,,,,,METAR,33.0
ZLLL 061500Z VRB01MPS CAVOK 10/M11 Q1021 NOSIG,ZLLL,2017-05-06T15:00:00Z,36.52,103.62,10.0,-11.0,0,2,,6.21,30.147638,,,,,,TRUE,,,,,CAVOK,,,,,,,,VFR,,,,,,,,,,,,METAR,1947.0
ZJSY 061500Z 09003MPS 9999 FEW020 28/25 Q1015 NOSIG,ZJSY,2017-05-06T15:00:00Z,18.3,109.42,28.0,25.0,90,6,,6.21,29.970472,,,,,,TRUE,,,,,FEW,2000,,,,,,,VFR,,,,,,,,,,,,METAR,27.0
ZJHK 061500Z 14001MPS CAVOK 26/25 Q1015 NOSIG,ZJHK,2017-05-06T15:00:00Z,19.93,110.47,26.0,25.0,140,2,,6.21,29.970472,,,,,,TRUE,,,,,CAVOK,,,,,,,,VFR,,,,,,,,,,,,METAR,23.0
ZHHH 061500Z 31001MPS 5000 HZ NSC 19/13 Q1019 NOSIG,ZHHH,2017-05-06T15:00:00Z,30.78,114.22,19.0,13.0,310,2,,3.11,30.088583,,,,,,TRUE,,,,HZ,CLR,,,,,,,,MVFR,,,,,,,,,,,,METAR,33.0
ZHCC 061500Z 20002MPS 160V270 4000 DU NSC 18/10 Q1017 NOSIG,ZHCC,2017-05-06T15:00:00Z,34.52,113.83,18.0,10.0,200,4,,2.49,30.029528,,,,,,TRUE,,,,DU,CLR,,,,,,,,IFR,,,,,,,,,,,,METAR,151.0
ZGHA 061500Z 36004MPS 6000 NSC 19/13 Q1019 NOSIG,ZGHA,2017-05-06T15:00:00Z,28.18,113.22,19.0,13.0,360,8,,3.73,30.088583,,,,,,TRUE,,,,,CLR,,,,,,,,MVFR,,,,,,,,,,,,METAR,66.0
ZBHH 061500Z 10001MPS CAVOK 11/M03 Q1019 NOSIG,ZBHH,2017-05-06T15:00:00Z,40.85,111.82,11.0,-3.0,100,2,,6.21,30.088583,,,,,,TRUE,,,,,CAVOK,,,,,,,,VFR,,,,,,,,,,,,METAR,1065.0
FVHA 061500Z 26005KT 220V290 CAVOK 24/07 Q1024 NOSIG,FVHA,2017-05-06T15:00:00Z,-17.92,31.12,24.0,7.0,260,5,,6.21,30.236221,,,,,,TRUE,,,,,CAVOK,,,,,,,,VFR,,,,,,,,,,,,METAR,1503.0
DTTZ 061500Z 14004KT 100V190 8000 NSC 39/04 Q1011 NOSIG,DTTZ,2017-05-06T15:00:00Z,33.92,8.08,39.0,4.0,140,4,,4.97,29.852362,,,,,,TRUE,,,,,CLR,,,,,,,,MVFR,,,,,,,,,,,,METAR,93.0
DTTX 061500Z 10007KT 070V130 CAVOK 31/14 Q1013 NOSIG,DTTX,2017-05-06T15:00:00Z,34.72,10.67,31.0,14.0,100,7,,6.21,29.911417,,,,,,TRUE,,,,,CAVOK,,,,,,,,VFR,,,,,,,,,,,,METAR,23.0
DTTJ 061500Z 07013KT CAVOK 33/11 Q1012 NOSIG,DTTJ,2017-05-06T15:00:00Z,33.87,10.77,33.0,11.0,70,13,,6.21,29.88189,,,,,,TRUE,,,,,CAVOK,,,,,,,,VFR,,,,,,,,,,,,METAR,4.0
DTTG 061500Z 08013KT 9000 NSC 35/07 Q1012 SIROCCO NOSIG,DTTG,2017-05-06T15:00:00Z,33.73,9.92,35.0,7.0,80,13,,5.59,29.88189,,,,,,TRUE,,,,,CLR,,,,,,,,VFR,,,,,,,,,,,,METAR,5.0
DTTF 061500Z 28008KT 240V320 CAVOK 38/07 Q1010 SIROCCO NOSIG,DTTF,2017-05-06T15:00:00Z,34.42,8.82,38.0,7.0,280,8,,6.21,29.822834,,,,,,TRUE,,,,,CAVOK,,,,,,,,VFR,,,,,,,,,,,,METAR,314.0
DTTA 061500Z 31018G29KT 9999 FEW026 28/14 Q1015 NOSIG,DTTA,2017-05-06T15:00:00Z,36.85,10.22,28.0,14.0,310,18,29,6.21,29.970472,,,,,,TRUE,,,,,FEW,2600,,,,,,,VFR,,,,,,,,,,,,METAR,4.0
DTNH 061500Z AUTO 11016KT 9999NDV NCD 24/17 Q1014,DTNH,2017-05-06T15:00:00Z,36.07,10.43,24.0,17.0,110,16,,,29.940945,,,TRUE,,,,,,,,CLR,,,,,,,,,,,,,,,,,,,,METAR,2.0
DTMB 061500Z 06016KT 8000 NSC 26/16 Q1015 NOSIG,DTMB,2017-05-06T15:00:00Z,35.77,10.75,26.0,16.0,60,16,,4.97,29.970472,,,,,,TRUE,,,,,CLR,,,,,,,,MVFR,,,,,,,,,,,,METAR,2.0
DTKA 061500Z 25014KT 9999 FEW020 21/16 Q1018 NOSIG,DTKA,2017-05-06T15:00:00Z,36.98,8.88,21.0,16.0,250,14,,6.21,30.059055,,,,,,TRUE,,,,,FEW,2000,,,,,,,VFR,,,,,,,,,,,,METAR,21.0
RPVD 061500Z 00000KT 9999 VCSH BKN015 BKN080 27/25 Q1012 RMK A2988 VCSH SE AND SW,RPVD,2017-05-06T15:00:00Z,9.33,123.3,27.0,25.0,0,0,,6.21,29.88189,,,,,,,,,,VCSH,BKN,1500,BKN,8000,,,,,MVFR,,,,,,,,,,,,METAR,8.0
RPLC 061500Z 01003KT 9999 FEW020 BKN300 28/23 Q1014 NOSIG RMK A2994,RPLC,2017-05-06T15:00:00Z,15.17,120.58,28.0,23.0,10,3,,6.21,29.940945,,,,,,TRUE,,,,,FEW,2000,BKN,30000,,,,,VFR,,,,,,,,,,,,METAR,196.0
DAUT 061500Z 26017KT CAVOK 40/// Q1012,DAUT,2017-05-06T15:00:00Z,29.25,0.27,,,260,17,,6.21,29.88189,,,,,,,,,,,CAVOK,,,,,,,,VFR,,,,,,,,,,,,METAR,312.0
DAUE 061500Z 23012KT CAVOK 41/02 Q1013,DAUE,2017-05-06T15:00:00Z,30.57,2.87,41.0,2.0,230,12,,6.21,29.911417,,,,,,,,,,,CAVOK,,,,,,,,VFR,,,,,,,,,,,,METAR,397.0
DAOY 061500Z 07007KT CAVOK 27/03 Q1019,DAOY,2017-05-06T15:00:00Z,33.72,1.08,27.0,3.0,70,7,,6.21,30.088583,,,,,,,,,,,CAVOK,,,,,,,,VFR,,,,,,,,,,,,METAR,1347.0
DAOV 061500Z 36014KT 9999 FEW030 SCT230 26/11 Q1018,DAOV,2017-05-06T15:00:00Z,35.2,0.15,26.0,11.0,360,14,,6.21,30.059055,,,,,,,,,,,FEW,3000,SCT,23000,,,,,VFR,,,,,,,,,,,,METAR,514.0
DAUO 061500Z 14003KT CAVOK 40/12 Q1011,DAUO,2017-05-06T15:00:00Z,33.5,6.78,40.0,12.0,140,3,,6.21,29.852362,,,,,,,,,,,CAVOK,,,,,,,,VFR,,,,,,,,,,,,METAR,63.0
DAUK 061500Z 12007KT CAVOK 40/11 Q1010,DAUK,2017-05-06T15:00:00Z,33.08,6.12,40.0,11.0,120,7,,6.21,29.822834,,,,,,,,,,,CAVOK,,,,,,,,VFR,,,,,,,,,,,,METAR,85.0
DAFH 061500Z 24016KT CAVOK 37/// Q1014,DAFH,2017-05-06T15:00:00Z,32.93,3.32,,,240,16,,6.21,29.940945,,,,,,,,,,,CAVOK,,,,,,,,VFR,,,,,,,,,,,,METAR,774.0
DABT 061500Z 23013KT 9999 FEW030 34/12 Q1017,DABT,2017-05-06T15:00:00Z,35.75,6.32,34.0,12.0,230,13,,6.21,30.029528,,,,,,,,,,,FEW,3000,,,,,,,VFR,,,,,,,,,,,,METAR,823.0
DAAV 061500Z 31012KT CAVOK 23/11 Q1019,DAAV,2017-05-06T15:00:00Z,36.8,5.88,23.0,11.0,310,12,,6.21,30.088583,,,,,,,,,,,CAVOK,,,,,,,,VFR,,,,,,,,,,,,METAR,11.0
DAAP 061500Z 36014KT CAVOK 41/02 Q1014,DAAP,2017-05-06T15:00:00Z,26.72,8.62,41.0,2.0,360,14,,6.21,29.940945,,,,,,,,,,,CAVOK,,,,,,,,VFR,,,,,,,,,,,,METAR,558.0
DAAJ 061500Z 32009KT CAVOK 38/05 Q1017,DAAJ,2017-05-06T15:00:00Z,24.28,9.47,38.0,5.0,320,9,,6.21,30.029528,,,,,,,,,,,CAVOK,,,,,,,,VFR,,,,,,,,,,,,METAR,968.0
DAAE 061500Z 12011KT 9999 FEW020 SCT233 22/15 Q1019,DAAE,2017-05-06T15:00:00Z,36.72,5.07,22.0,15.0,120,11,,6.21,30.088583,,,,,,,,,,,FEW,2000,SCT,23300,,,,,VFR,,,,,,,,,,,,METAR,2.0
DAAD 061500Z 02008KT CAVOK 32/07 Q1016,DAAD,2017-05-06T15:00:00Z,35.32,4.2,32.0,7.0,20,8,,6.21,30.0,,,,,,,,,,,CAVOK,,,,,,,,VFR,,,,,,,,,,,,METAR,461.0
DAUG 061500Z 23005KT 190V270 CAVOK 39/// Q1012,DAUG,2017-05-06T15:00:00Z,32.37,3.82,,,230,5,,6.21,29.88189,,,,,,,,,,,CAVOK,,,,,,,,VFR,,,,,,,,,,,,METAR,450.0
DAUL 061500Z 33006KT CAVOK 35/03 Q1014,DAUL,2017-05-06T15:00:00Z,33.77,2.92,35.0,3.0,330,6,,6.21,29.940945,,,,,,,,,,,CAVOK,,,,,,,,VFR,,,,,,,,,,,,METAR,765.0
DAOI 061500Z 30010KT CAVOK 27/15 Q1017,DAOI,2017-05-06T15:00:00Z,36.22,1.32,27.0,15.0,300,10,,6.21,30.029528,,,,,,,,,,,CAVOK,,,,,,,,VFR,,,,,,,,,,,,METAR,143.0
DAAY 061500Z 03016KT CAVOK 26/08 Q1021,DAAY,2017-05-06T15:00:00Z,33.53,-0.25,26.0,8.0,30,16,,6.21,30.147638,,,,,,,,,,,CAVOK,,,,,,,,VFR,,,,,,,,,,,,METAR,1149.0
DAOL 061500Z 34014KT CAVOK 24/09 Q1018,DAOL,2017-05-06T15:00:00Z,35.53,-0.52,24.0,9.0,340,14,,6.21,30.059055,,,,,,,,,,,CAVOK,,,,,,,,VFR,,,,,,,,,,,,METAR,112.0
DAUZ 061500Z 09017KT 8000 NSC 40/01 Q1014,DAUZ,2017-05-06T15:00:00Z,28.05,9.62,40.0,1.0,90,17,,4.97,29.940945,,,,,,,,,,,CLR,,,,,,,,MVFR,,,,,,,,,,,,METAR,562.0
DAUU 061500Z 18010KT 8000 NSC 42/// Q1009,DAUU,2017-05-06T15:00:00Z,31.92,5.4,,,180,10,,4.97,29.793306,,,,,,,,,,,CLR,,,,,,,,MVFR,,,,,,,,,,,,METAR,141.0
DAUB 061500Z 15005KT CAVOK 39/07 Q1011,DAUB,2017-05-06T15:00:00Z,34.78,5.72,39.0,7.0,150,5,,6.21,29.852362,,,,,,,,,,,CAVOK,,,,,,,,VFR,,,,,,,,,,,,METAR,87.0
DAUA 061500Z 30015KT 8000 NSC 41/// Q1012,DAUA,2017-05-06T15:00:00Z,27.83,-0.18,,,300,15,,4.97,29.88189,,,,,,,,,,,CLR,,,,,,,,MVFR,,,,,,,,,,,,METAR,263.0
DAOR 061500Z 19005KT 8000 NSC 34/M03 Q1015,DAOR,2017-05-06T15:00:00Z,31.65,-2.27,34.0,-3.0,190,5,,4.97,29.970472,,,,,,,,,,,CLR,,,,,,,,MVFR,,,,,,,,,,,,METAR,773.0
DAOF 061500Z 25015KT 9999 SCT046 35/02 Q1014,DAOF,2017-05-06T15:00:00Z,27.7,-8.17,35.0,2.0,250,15,,6.21,29.940945,,,,,,,,,,,SCT,4600,,,,,,,VFR,,,,,,,,,,,,METAR,431.0
DAOB 061500Z 34010KT CAVOK 23/09 Q1021,DAOB,2017-05-06T15:00:00Z,35.33,1.47,23.0,9.0,340,10,,6.21,30.147638,,,,,,,,,,,CAVOK,,,,,,,,VFR,,,,,,,,,,,,METAR,989.0
DABS 061500Z 20008KT 9999 FEW040 34/02 Q1017,DABS,2017-05-06T15:00:00Z,35.43,8.12,34.0,2.0,200,8,,6.21,30.029528,,,,,,,,,,,FEW,4000,,,,,,,VFR,,,,,,,,,,,,METAR,813.0
DAAS 061500Z 36012KT CAVOK 26/10 Q1019,DAAS,2017-05-06T15:00:00Z,36.18,5.33,26.0,10.0,360,12,,6.21,30.088583,,,,,,,,,,,CAVOK,,,,,,,,VFR,,,,,,,,,,,,METAR,1038.0
CZSJ 061500Z AUTO 13008KT 9SM CLR 05/M07 A3026 RMK SLP264,CZSJ,2017-05-06T15:00:00Z,53.07,-93.35,5.0,-7.0,130,8,,9.0,30.259842,1026.4,,TRUE,,,,,,,,CLR,,,,,,,,VFR,,,,,,,,,,,,METAR,290.0
CZMD 061500Z AUTO 08006KT 9SM CLR 03/M08 A3028 RMK SLP273,CZMD,2017-05-06T15:00:00Z,53.43,-91.77,3.0,-8.0,80,6,,9.0,30.280512,1027.3,,TRUE,,,,,,,,CLR,,,,,,,,VFR,,,,,,,,,,,,METAR,278.0
CYYW 061500Z AUTO 03006KT 320V070 9SM SCT070 05/M07 A3011 RMK SLP209,CYYW,2017-05-06T15:00:00Z,50.3,-88.9,5.0,-7.0,30,6,,9.0,30.109253,1020.9,,TRUE,,,,,,,,SCT,7000,,,,,,,VFR,,,,,,,,,,,,METAR,351.0
CYYU 061500Z 02016G28KT 15SM BKN250 05/M06 A2987 RMK CI6 SLP126,CYYU,2017-05-06T15:00:00Z,49.42,-82.47,5.0,-6.0,20,16,28,15.0,29.870079,1012.6,,,,,,,,,,BKN,25000,,,,,,,VFR,,,,,,,,,,,,METAR,227.0
CYYH 061500Z 17004KT 15SM -SN BKN012 OVC020 M12/M15 A3061 RMK SC6SC2 BLN DSAPRD 1265FT SLP372,CYYH,2017-05-06T15:00:00Z,69.53,-93.57,-12.0,-15.0,170,4,,15.0,30.611221,1037.2,,,,,,,,,-SN,BKN,1200,OVC,2000,,,,,MVFR,,,,,,,,,,,,METAR,28.0
CYYB 061500Z 36016G30KT 8SM -RA BR BKN010 OVC050 04/02 A2945 RMK SF5SC3 SLP986,CYYB,2017-05-06T15:00:00Z,46.35,-79.42,4.0,2.0,360,16,30,8.0,29.450787,998.6,,,,,,,,,-RA BR,BKN,1000,OVC,5000,,,,,MVFR,,,,,,,,,,,,METAR,371.0
CYXZ 061500Z 04014G23KT 15SM SKC 07/M09 A2986 RMK SLP123,CYXZ,2017-05-06T15:00:00Z,47.97,-84.77,7.0,-9.0,40,14,23,15.0,29.861221,1012.3,,,,,,,,,,SKC,,,,,,,,VFR,,,,,,,,,,,,METAR,287.0
CYXU 061500Z 32013G22KT 12SM -RA OVC012 06/05 A2946 RMK SC8 CIG RAG SLP985,CYXU,2017-05-06T15:00:00Z,43.02,-81.15,6.0,5.0,320,13,22,12.0,29.459646,998.5,,,,,,,,,-RA,OVC,1200,,,,,,,MVFR,,,,,,,,,,,,METAR,278.0
CYXL 061500Z VRB06KT 15SM FEW020 BKN050 06/M00 A3012 RMK SC1SC6 SLP215,CYXL,2017-05-06T15:00:00Z,50.12,-91.9,6.0,0.0,0,6,,15.0,30.121063,1021.5,,,,,,,,,,FEW,2000,BKN,5000,,,,,VFR,,,,,,,,,,,,METAR,390.0
CYVQ 061500Z 15003KT 30SM FEW040 BKN074 OVC230 00/M02 A3006 RMK SC1AS6CI1 SLP187,CYVQ,2017-05-06T15:00:00Z,65.27,-126.78,0.0,-2.0,150,3,,30.0,30.059055,1018.7,,,,,,,,,,FEW,4000,BKN,7400,OVC,23000,,,VFR,,,,,,,,,,,,METAR,74.0
CYVO 061500Z 01016KT 9SM -RA BKN008 OVC012 04/03 A2953 RMK SF6SC2 -RA INTMT SLP016,CYVO,2017-05-06T15:00:00Z,48.07,-77.77,4.0,3.0,10,16,,9.0,29.530512,1001.6,,,,,,,,,-RA,BKN,800,OVC,1200,,,,,IFR,,,,,,,,,,,,METAR,337.0
CYSP 061500Z 02014G19KT 360V080 15SM SKC 05/M08 A2997 RMK SLP163,CYSP,2017-05-06T15:00:00Z,48.75,-86.35,5.0,-8.0,20,14,19,15.0,29.970472,1016.3,,,,,,,,,,SKC,,,,,,,,VFR,,,,,,,,,,,,METAR,315.0
CYSN 061500Z 30008KT 1 3/4SM -DZ BR BKN004 OVC008 07/06 A2938 RMK SF5SF3 SLP951,CYSN,2017-05-06T15:00:00Z,43.2,-79.17,7.0,6.0,300,8,,1.75,29.379921,995.1,,,,,,,,,-DZ BR,BKN,400,OVC,800,,,,,LIFR,,,,,,,,,,,,METAR,98.0
CYSC 061500Z AUTO 12018G25KT 9SM OVC055 16/13 A2947 RMK SLP985 DENSITY ALT 1500FT,CYSC,2017-05-06T15:00:00Z,45.43,-71.68,16.0,13.0,120,18,25,9.0,29.471457,998.5,,TRUE,,,,,,,,OVC,5500,,,,,,,VFR,,,,,,,,,,,,METAR,241.0
CYSB 061500Z CCA 36020G31KT 15SM -RA OVC015 04/01 A2955 RMK SC8 SLP019,CYSB,2017-05-06T15:00:00Z,46.63,-80.8,4.0,1.0,360,20,31,15.0,29.551182,1001.9,,,,,,,,,-RA,OVC,1500,,,,,,,MVFR,,,,,,,,,,,,METAR,348.0
CYRB 061500Z 17003KT 15SM FEW110 M14/M17 A3065 RMK AC1 AC TR SLP390,CYRB,2017-05-06T15:00:00Z,74.72,-94.97,-14.0,-17.0,170,3,,15.0,30.649607,1039.0,,,,,,,,,,FEW,11000,,,,,,,VFR,,,,,,,,,,,,METAR,67.0
CYQK 061500Z 08010KT 15SM BKN016 08/03 A3010 RMK SC7 CIG RAG SLP203,CYQK,2017-05-06T15:00:00Z,49.77,-94.37,8.0,3.0,80,10,,15.0,30.100393,1020.3,,,,,,,,,,BKN,1600,,,,,,,MVFR,,,,,,,,,,,,METAR,411.0
CYPO 061500Z AUTO 36011KT 9SM -SN BKN013 M08/M12 A3034 RMK SLP281,CYPO,2017-05-06T15:00:00Z,54.98,-85.43,-8.0,-12.0,360,11,,9.0,30.339567,1028.1,,TRUE,,,,,,,-SN,BKN,1300,,,,,,,MVFR,,,,,,,,,,,,METAR,53.0
CYPL 061500Z 01010KT 330V060 15SM FEW055 04/M07 A3017 RMK SC2 SLP235,CYPL,2017-05-06T15:00:00Z,51.47,-90.2,4.0,-7.0,10,10,,15.0,30.171259,1023.5,,,,,,,,,,FEW,5500,,,,,,,VFR,,,,,,,,,,,,METAR,373.0
CYLH 061500Z AUTO 03011G16KT 9SM CLR 01/M06 A3020 RMK SLP243,CYLH,2017-05-06T15:00:00Z,52.2,-87.93,1.0,-6.0,30,11,16,9.0,30.200787,1024.3,,TRUE,,,,,,,,CLR,,,,,,,,VFR,,,,,,,,,,,,METAR,254.0
CYLD 061500Z 36019G27KT 340V040 15SM FEW230 06/M08 A2978 RMK CI2 SLP102,CYLD,2017-05-06T15:00:00Z,47.82,-83.33,6.0,-8.0,360,19,27,15.0,29.778543,1010.2,,,,,,,,,,FEW,23000,,,,,,,VFR,,,,,,,,,,,,METAR,447.0
CYKZ 061500Z 35015G22KT 15SM OVC009 07/05 A2937 RMK SC8 SLP952,CYKZ,2017-05-06T15:00:00Z,43.87,-79.37,7.0,5.0,350,15,22,15.0,29.371063,995.2,,,,,,,,,,OVC,900,,,,,,,IFR,,,,,,,,,,,,METAR,198.0
CYKP 061500Z AUTO 35014G22KT 330V030 9SM CLR 02/M10 A3013 RMK SLP214,CYKP,2017-05-06T15:00:00Z,51.67,-85.9,2.0,-10.0,350,14,22,9.0,30.129921,1021.4,,TRUE,,,,,,,,CLR,,,,,,,,VFR,,,,,,,,,,,,METAR,179.0
CYKF 061500Z AUTO 34016KT 9SM -RA OVC016 06/04 A2941 RMK SLP968,CYKF,2017-05-06T15:00:00Z,43.47,-80.38,6.0,4.0,340,16,,9.0,29.409449,996.8,,TRUE,,,,,,,-RA,OVC,1600,,,,,,,MVFR,,,,,,,,,,,,METAR,317.0
CYHM 061500Z 32007KT 1 1/4SM -RADZ BR BKN008 OVC015 06/05 A2941 RMK SF5SC3 SLP964,CYHM,2017-05-06T15:00:00Z,43.17,-79.93,6.0,5.0,320,7,,1.25,29.409449,996.4,,,,,,,,,-RA -DZ BR,BKN,800,OVC,1500,,,,,IFR,,,,,,,,,,,,METAR,238.0
CYGQ 061500Z 36010G18KT 340V050 15SM FEW080 04/M11 A3005 RMK AC1 SLP194,CYGQ,2017-05-06T15:00:00Z,49.77,-86.92,4.0,-11.0,360,10,18,15.0,30.050198,1019.4,,,,,,,,,,FEW,8000,,,,,,,VFR,,,,,,,,,,,,METAR,351.0
CYER 061500Z AUTO 03007KT 340V050 9SM -SN OVC008 M09/M11 A3042 RMK SLP304,CYER,2017-05-06T15:00:00Z,56.02,-87.68,-9.0,-11.0,30,7,,9.0,30.41929,1030.4,,TRUE,,,,,,,-SN,OVC,800,,,,,,,IFR,,,,,,,,,,,,METAR,16.0
CYCK 061500Z AUTO 35016G25KT 9SM OVC018 07/05 A2953 RMK SLP005,CYCK,2017-05-06T15:00:00Z,42.3,-82.08,7.0,5.0,350,16,25,9.0,29.530512,1000.5,,TRUE,,,,,,,,OVC,1800,,,,,,,MVFR,,,,,,,,,,,,METAR,198.0
CYBN 061500Z AUTO 32010G17KT 290V350 1 1/2SM -DZ OVC004 05/05 A2942 RMK PCPN 0.5MM PAST HR SLP968,CYBN,2017-05-06T15:00:00Z,44.27,-79.92,5.0,5.0,320,10,17,1.5,29.421259,996.8,,TRUE,,,,,,,-DZ,OVC,400,,,,,,,LIFR,,,,,,,,,,,,METAR,223.0
CYAT 061500Z AUTO 35014G19KT 9SM CLR M02/M09 A3013 RMK SLP204,CYAT,2017-05-06T15:00:00Z,52.93,-82.43,-2.0,-9.0,350,14,19,9.0,30.129921,1020.4,,TRUE,,,,,,,,CLR,,,,,,,,VFR,,,,,,,,,,,,METAR,9.0
CZST 061500Z 21008KT 15SM FEW015 BKN060 OVC065 08/04 A2993 RMK CU1CU6CU1 CLIMAT 10.2/7.0/1.2 SLP136,CZST,2017-05-06T15:00:00Z,55.93,-129.98,8.0,4.0,210,8,,15.0,29.929134,1013.6,,,,,,,,,,FEW,1500,BKN,6000,OVC,6500,,,VFR,,,,,,,,,,,,METAR,7.0
CZCP 061500Z AUTO 09024KT ////SM //// SCT022 BKN050 OVC085 M09/M10 A3013,CZCP,2017-05-06T15:00:00Z,70.17,-124.72,-9.0,-10.0,90,24,,,30.129921,,,TRUE,,,,,,,,SCT,2200,BKN,5000,OVC,8500,,,,,,,,,,,,,,,METAR,93.0
CZBF 061500Z 05003KT 360V100 1 1/4SM RA BR OVC004 07/07 A2986 RMK FG3SF5 SLP116,CZBF,2017-05-06T15:00:00Z,47.62,-65.75,7.0,7.0,50,3,,1.25,29.861221,1011.6,,,,,,,,,RA BR,OVC,400,,,,,,,LIFR,,,,,,,,,,,,METAR,59.0
CWZZ 061500Z AUTO ///// ////SM //// NCD M03/M12 A3040,CWZZ,2017-05-06T15:00:00Z,58.32,-62.57,-3.0,-12.0,,,,,30.398623,,,TRUE,,,,,,,,CLR,,,,,,,,,,,,,,,,,,,,METAR,483.0
CWYK 061500Z AUTO ///// M07/ A3034 RMK SLP339,CWYK,2017-05-06T15:00:00Z,57.12,-61.47,-7.0,,,,,,30.339567,1033.9,,TRUE,,,,,,,,,,,,,,,,,,,,,,,,,,,,METAR,834.0
CWVH 061500Z AUTO 14004KT A3004,CWVH,2017-05-06T15:00:00Z,68.9,-133.93,,,140,4,,,30.041338,,,TRUE,,,,,,,,,,,,,,,,,,,,,,,,,,,,METAR,261.0
CWUW 061500Z AUTO 07030G39KT ////SM //// OVC003 M07/M08 A3012,CWUW,2017-05-06T15:00:00Z,68.65,-71.17,-7.0,-8.0,70,30,39,,30.121063,,,TRUE,,,,,,,,OVC,300,,,,,,,,,,,,,,,,,,,METAR,527.0
CWUP 061500Z AUTO ///// M08/ A3025 RMK SLP284,CWUP,2017-05-06T15:00:00Z,68.47,-66.82,-8.0,,,,,,30.250984,1028.4,,TRUE,,,,,,,,,,,,,,,,,,,,,,,,,,,,METAR,390.0
CWSW 061500Z VRB02KT 4SM BR OVC006 08/07 A2982 RMK ST8 SLP099 DENSITY ALT 4000FT,CWSW,2017-05-06T15:00:00Z,49.75,-114.87,8.0,7.0,0,2,,4.0,29.819881,1009.9,,,,,,,,,BR,OVC,600,,,,,,,IFR,,,,,,,,,,,,METAR,1138.0
CWRX 061500Z AUTO 35018KT 3 1/2SM //// NCD ///// A////,CWRX,2017-05-06T15:00:00Z,69.07,-79.02,,,350,18,,3.5,,,,TRUE,,,,,,,,CLR,,,,,,,,MVFR,,,,,,,,,,,,METAR,41.0
CWPX 061500Z AUTO 05017KT ////SM //// OVC011 M15/M17 A3022,CWPX,2017-05-06T15:00:00Z,69.02,-107.82,-15.0,-17.0,50,17,,,30.221457,,,TRUE,,,,,,,,OVC,1100,,,,,,,,,,,,,,,,,,,METAR,165.0
CWOB 061500Z AUTO 22031G38KT ////SM //// OVC003 ///// A3030,CWOB,2017-05-06T15:00:00Z,63.32,-64.15,,,220,31,38,,30.301182,,,TRUE,,,,,,,,OVC,300,,,,,,,,,,,,,,,,,,,METAR,367.0
CWLY 061500Z AUTO 19014G22KT 9SM CLR 09/01 A3000 RMK SLP162,CWLY,2017-05-06T15:00:00Z,50.22,-121.58,9.0,1.0,190,14,22,9.0,30.0,1016.2,,TRUE,,,,,,,,CLR,,,,,,,,VFR,,,,,,,,,,,,METAR,229.0
CWLX 061500Z AUTO 09026KT M05/ A3020 RMK SLP244,CWLX,2017-05-06T15:00:00Z,68.9,-75.15,-5.0,,90,26,,,30.200787,1024.4,,TRUE,,,,,,,,,,,,,,,,,,,,,,,,,,,,METAR,162.0
CWLI 061500Z AUTO ///// ////SM //// FEW041 BKN055 OVC070 ///// A////,CWLI,2017-05-06T15:00:00Z,69.58,-130.9,,,,,,,,,,TRUE,,,,,,,,FEW,4100,BKN,5500,OVC,7000,,,,,,,,,,,,,,,METAR,102.0
CWKW 061500Z AUTO ///// A3037,CWKW,2017-05-06T15:00:00Z,59.97,-64.17,,,,,,,30.369095,,,TRUE,,,,,,,,,,,,,,,,,,,,,,,,,,,,METAR,551.0
CWKM 061500Z AUTO 10019KT A3001,CWKM,2017-05-06T15:00:00Z,69.6,-140.17,,,100,19,,,30.008858,,,TRUE,,,,,,,,,,,,,,,,,,,,,,,,,,,,METAR,13.0
CWIL 061500Z AUTO 13017KT M17/ A3045 RMK SLP320,CWIL,2017-05-06T15:00:00Z,68.32,-100.07,-17.0,,130,17,,,30.448818,1032.0,,TRUE,,,,,,,,,,,,,,,,,,,,,,,,,,,,METAR,36.0
CWCA 061500Z 01006KT 15SM BKN200 00/M06 A3057 RMK CI5 SLP354,CWCA,2017-05-06T15:00:00Z,53.7,-57.02,0.0,-6.0,10,6,,15.0,30.569881,1035.4,,,,,,,,,,BKN,20000,,,,,,,VFR,,,,,,,,,,,,METAR,14.0
CWAE 061500Z 00000KT 15SM SCT013 BKN026 OVC039 03/02 A3004 RMK SC3CU3SC2 SLP183,CWAE,2017-05-06T15:00:00Z,50.13,-122.95,3.0,2.0,0,0,,15.0,30.041338,1018.3,,,,,,,,,,SCT,1300,BKN,2600,OVC,3900,,,MVFR,,,,,,,,,,,,METAR,658.0
CZUM 061500Z AUTO 10012G19KT 9SM BKN065 BKN078 06/M03 A3022 RMK SLP259,CZUM,2017-05-06T15:00:00Z,53.53,-64.08,6.0,-3.0,100,12,19,9.0,30.221457,1025.9,,TRUE,,,,,,,,BKN,6500,BKN,7800,,,,,VFR,,,,,,,,,,,,METAR,440.0
CZPC 061500Z AUTO 28014KT 9SM OVC190 16/06 A2976 RMK SLP067 DENSITY ALT 5000FT,CZPC,2017-05-06T15:00:00Z,49.52,-114.0,16.0,6.0,280,14,,9.0,29.760826,1006.7,,TRUE,,,,,,,,OVC,19000,,,,,,,VFR,,,,,,,,,,,,METAR,1190.0
CZFM 061500Z 11004KT 35SM FEW040 M01/M05 A3007 RMK SC2 SLP186,CZFM,2017-05-06T15:00:00Z,67.4,-134.87,-1.0,-5.0,110,4,,35.0,30.070866,1018.6,,,,,,,,,,FEW,4000,,,,,,,VFR,,,,,,,,,,,,METAR,43.0
CWYM 061500Z AUTO 13014G25KT M08/ A3029 RMK SLP311,CWYM,2017-05-06T15:00:00Z,64.95,-63.57,-8.0,,130,14,25,,30.28937,1031.1,,TRUE,,,,,,,,,,,,,,,,,,,,,,,,,,,,METAR,583.0
CWXR 061500Z AUTO 12012KT M15/ A3024 RMK SLP254,CWXR,2017-05-06T15:00:00Z,69.27,-119.22,-15.0,,120,12,,,30.239174,1025.4,,TRUE,,,,,,,,,,,,,,,,,,,,,,,,,,,,METAR,69.0
CWTU 061500Z AUTO ///// M06/ A3044 RMK SLP354,CWTU,2017-05-06T15:00:00Z,54.72,-58.35,-6.0,,,,,,30.43996,1035.4,,TRUE,,,,,,,,,,,,,,,,,,,,,,,,,,,,METAR,683.0
CWSA 061500Z AUTO 13019G27KT 2 1/4SM BR FEW024 OVC033 09/08 A3023 RMK SLP237,CWSA,2017-05-06T15:00:00Z,43.93,-60.0,9.0,8.0,130,19,27,2.25,30.230314,1023.7,,TRUE,,,,,,,BR,FEW,2400,OVC,3300,,,,,IFR,,,,,,,,,,,,METAR,4.0
CWRH 061500Z AUTO 20002KT M08/ A3039 RMK SLP333,CWRH,2017-05-06T15:00:00Z,61.57,-64.65,-8.0,,200,2,,,30.389763,1033.3,,TRUE,,,,,,,,,,,,,,,,,,,,,,,,,,,,METAR,369.0
CWKP 061500Z AUTO 12018KT M06/ A3011 RMK SLP235,CWKP,2017-05-06T15:00:00Z,69.67,-121.67,-6.0,,120,18,,,30.109253,1023.5,,TRUE,,,,,,,,,,,,,,,,,,,,,,,,,,,,METAR,330.0
CWFD 061500Z AUTO ///// ////SM //// NCD M04/M05 A3019,CWFD,2017-05-06T15:00:00Z,66.57,-61.58,-4.0,-5.0,,,,,30.188976,,,TRUE,,,,,,,,CLR,,,,,,,,,,,,,,,,,,,,METAR,393.0
CWEU 061500Z 13010KT 15SM BKN150 M13/M17 A3069 RMK AC5 SLP396,CWEU,2017-05-06T15:00:00Z,80.0,-85.92,-13.0,-17.0,130,10,,15.0,30.690945,1039.6,,,,,,,,,,BKN,15000,,,,,,,VFR,,,,,,,,,,,,METAR,10.0
CYWK 061500Z 13010G16KT 8SM -RA BKN012 OVC028 03/01 A3006 RMK SF5SC3 SLP208,CYWK,2017-05-06T15:00:00Z,52.92,-66.87,3.0,1.0,130,10,16,8.0,30.059055,1020.8,,,,,,,,,-RA,BKN,1200,OVC,2800,,,,,MVFR,,,,,,,,,,,,METAR,551.0
CYQI 061500Z 17017G24KT 2SM -RA BR OVC003 13/13 A2982 RMK SF8 SLP100,CYQI,2017-05-06T15:00:00Z,43.83,-66.08,13.0,13.0,170,17,24,2.0,29.819881,1010.0,,,,,,,,,-RA BR,OVC,300,,,,,,,LIFR,,,,,,,,,,,,METAR,43.0
CYNM 061500Z AUTO 01009G15KT 9SM -RA OVC010 04/03 A2967 RMK SLP059,CYNM,2017-05-06T15:00:00Z,49.77,-77.82,4.0,3.0,10,9,15,9.0,29.66929,1005.9,,TRUE,,,,,,,-RA,OVC,1000,,,,,,,MVFR,,,,,,,,,,,,METAR,281.0
CYMH 061500Z AUTO 05007KT 9SM CLR 02/M04 A3056 RMK SLP349,CYMH,2017-05-06T15:00:00Z,52.28,-55.85,2.0,-4.0,50,7,,9.0,30.561024,1034.9,,TRUE,,,,,,,,CLR,,,,,,,,VFR,,,,,,,,,,,,METAR,11.0
CYLA 061500Z 00000KT 15SM FEW180 M11/M14 A3042 RMK AC1 SLP307,CYLA,2017-05-06T15:00:00Z,59.28,-69.58,-11.0,-14.0,0,0,,15.0,30.41929,1030.7,,,,,,,,,,FEW,18000,,,,,,,VFR,,,,,,,,,,,,METAR,35.0
CYKG 061500Z 22008KT 50SM FEW100 M06/M11 A3026 RMK AC1 SLP264,CYKG,2017-05-06T15:00:00Z,61.57,-71.92,-6.0,-11.0,220,8,,50.0,30.259842,1026.4,,,,,,,,,,FEW,10000,,,,,,,VFR,,,,,,,,,,,,METAR,151.0
CYIK 061500Z 26010KT 3SM DRSN DRSN SCT011 OVC023 M08/M10 A3029 RMK SN1SC2CU5 SLP262,CYIK,2017-05-06T15:00:00Z,62.42,-77.93,-8.0,-10.0,260,10,,3.0,30.28937,1026.2,,,,,,,,,DRSN DRSN,SCT,1100,OVC,2300,,,,,MVFR,,,,,,,,,,,,METAR,42.0
CYGV 061500Z AUTO 09014G21KT 8SM -RA FEW013 SCT018 BKN027 OVC049 04/03 A3026 RMK SLP252,CYGV,2017-05-06T15:00:00Z,50.27,-63.62,4.0,3.0,90,14,21,8.0,30.259842,1025.2,,TRUE,,,,,,,-RA,FEW,1300,SCT,1800,BKN,2700,OVC,4900,MVFR,,,,,,,,,,,,METAR,33.0
CYBX 061500Z 09017KT 15SM SCT120 BKN220 05/M08 A3052 RMK AC3CI3 SLP338,CYBX,2017-05-06T15:00:00Z,51.45,-57.17,5.0,-8.0,90,17,,15.0,30.519686,1033.8,,,,,,,,,,SCT,12000,BKN,22000,,,,,VFR,,,,,,,,,,,,METAR,35.0
CYAS 061500Z 25006KT 15SM FEW120 M13/M16 A3039 RMK AS1 SLP306,CYAS,2017-05-06T15:00:00Z,60.02,-70.0,-13.0,-16.0,250,6,,15.0,30.389763,1030.6,,,,,,,,,,FEW,12000,,,,,,,VFR,,,,,,,,,,,,METAR,117.0
CYAH 061500Z AUTO 05007KT 9SM -RA OVC008 02/00 A2988 RMK SLP139,CYAH,2017-05-06T15:00:00Z,53.75,-73.67,2.0,0.0,50,7,,9.0,29.878937,1013.9,,TRUE,,,,,,,-RA,OVC,800,,,,,,,IFR,,,,,,,,,,,,METAR,306.0
CYZR 061500Z AUTO 35025G31KT 9SM OVC027 07/03 A2955 RMK SLP013,CYZR,2017-05-06T15:00:00Z,43.0,-82.3,7.0,3.0,350,25,31,9.0,29.551182,1001.3,,TRUE,,,,,,,,OVC,2700,,,,,,,MVFR,,,,,,,,,,,,METAR,181.0
CYZE 061500Z AUTO 01017G22KT 9SM BKN040 09/02 A2961 RMK SLP035,CYZE,2017-05-06T15:00:00Z,45.87,-82.57,9.0,2.0,10,17,22,9.0,29.610237,1003.5,,TRUE,,,,,,,,BKN,4000,,,,,,,VFR,,,,,,,,,,,,METAR,193.0
CYYY 061500Z 06016G22KT 2 1/2SM -RA BR SCT003 OVC020 05/04 A2978 RMK SF3SC5 SLP089,CYYY,2017-05-06T15:00:00Z,48.6,-68.22,5.0,4.0,60,16,22,2.5,29.778543,1008.9,,,,,,,,,-RA BR,SCT,300,OVC,2000,,,,,IFR,,,,,,,,,,,,METAR,52.0
CYXR 061500Z AUTO 34015G28KT 9SM BKN014 OVC020 05/03 A2961 RMK PRESRR SLP036,CYXR,2017-05-06T15:00:00Z,47.7,-79.83,5.0,3.0,340,15,28,9.0,29.610237,1003.6,,TRUE,,,,,,,,BKN,1400,OVC,2000,,,,,MVFR,,,,,,,,,,,,METAR,243.0
CYWA 061500Z AUTO 30005KT 260V320 9SM FEW008 OVC013 OVC029 OVC039 08/08 A2937 RMK PCPN 1.5MM PAST HR SLP950,CYWA,2017-05-06T15:00:00Z,45.95,-77.32,8.0,8.0,300,5,,9.0,29.371063,995.0,,TRUE,,,,,,,,FEW,800,OVC,1300,OVC,2900,OVC,3900,MVFR,,,,,,,,,,,,METAR,130.0
CYVV 061500Z 01012G18KT 330V040 10SM -SHRA OVC010 05/04 A2950 RMK SF8 SLP997,CYVV,2017-05-06T15:00:00Z,44.75,-81.08,5.0,4.0,10,12,18,10.0,29.500984,999.7,,,,,,,,,-SHRA,OVC,1000,,,,,,,MVFR,,,,,,,,,,,,METAR,222.0
CYVP 061500Z 03011KT 15SM BKN240 M04/M11 A3037 RMK CI7 SLP289,CYVP,2017-05-06T15:00:00Z,58.12,-68.42,-4.0,-11.0,30,11,,15.0,30.369095,1028.9,,,,,,,,,,BKN,24000,,,,,,,VFR,,,,,,,,,,,,METAR,60.0
CYTZ 061500Z AUTO 33012G19KT 310V020 9SM OVC018 08/04 A2937 RMK SLP949,CYTZ,2017-05-06T15:00:00Z,43.63,-79.4,8.0,4.0,330,12,19,9.0,29.371063,994.9,,TRUE,,,,,,,,OVC,1800,,,,,,,MVFR,,,,,,,,,,,,METAR,77.0
CYTS 061500Z 36016G25KT 15SM SCT004 BKN050 BKN220 07/M06 A2973 RMK SC4SC2CI1 SLP081,CYTS,2017-05-06T15:00:00Z,48.57,-81.37,7.0,-6.0,360,16,25,15.0,29.731298,1008.1,,,,,,,,,,SCT,400,BKN,5000,BKN,22000,,,VFR,,,,,,,,,,,,METAR,295.0
CYTL 061500Z AUTO 04005KT 360V090 9SM CLR 01/M12 A3030 RMK SLP276,CYTL,2017-05-06T15:00:00Z,53.82,-89.88,1.0,-12.0,40,5,,9.0,30.301182,1027.6,,TRUE,,,,,,,,CLR,,,,,,,,VFR,,,,,,,,,,,,METAR,224.0
CYRL 061500Z 10010KT 15SM BKN030 06/00 A3017 RMK SC5 SLP230,CYRL,2017-05-06T15:00:00Z,51.07,-93.78,6.0,0.0,100,10,,15.0,30.171259,1023.0,,,,,,,,,,BKN,3000,,,,,,,MVFR,,,,,,,,,,,,METAR,383.0
CYQT 061500Z 01009KT 20SM BKN060 BKN250 07/M03 A3006 RMK SC5CI1 SLP188,CYQT,2017-05-06T15:00:00Z,48.37,-89.32,7.0,-3.0,10,9,,20.0,30.059055,1018.8,,,,,,,,,,BKN,6000,BKN,25000,,,,,VFR,,,,,,,,,,,,METAR,199.0
CYPQ 061500Z AUTO 32008KT 9SM OVC009 09/08 A2933 RMK SLP936,CYPQ,2017-05-06T15:00:00Z,44.22,-78.37,9.0,8.0,320,8,,9.0,29.329725,993.6,,TRUE,,,,,,,,OVC,900,,,,,,,IFR,,,,,,,,,,,,METAR,191.0
CYND 061500Z 09014KT 8SM OVC009 12/10 A2932 RMK ST8 SLP933 DENSITY ALT 500FT,CYND,2017-05-06T15:00:00Z,45.52,-75.57,12.0,10.0,90,14,,8.0,29.320866,993.3,,,,,,,,,,OVC,900,,,,,,,IFR,,,,,,,,,,,,METAR,64.0
CYNA 061500Z AUTO 09017KT 9SM -RA BKN055 OVC070 03/01 A3037 RMK SLP286,CYNA,2017-05-06T15:00:00Z,50.17,-61.82,3.0,1.0,90,17,,9.0,30.369095,1028.6,,TRUE,,,,,,,-RA,BKN,5500,OVC,7000,,,,,VFR,,,,,,,,,,,,METAR,11.0
CYMO 061500Z AUTO 33016G25KT 9SM CLR 02/M04 A2992 RMK SLP135,CYMO,2017-05-06T15:00:00Z,51.28,-80.62,2.0,-4.0,330,16,25,9.0,29.920275,1013.5,,TRUE,,,,,,,,CLR,,,,,,,,VFR,,,,,,,,,,,,METAR,10.0
CYHD 061500Z AUTO 05012KT 9SM BKN010 OVC018 05/03 A3010 RMK SLP209,CYHD,2017-05-06T15:00:00Z,49.82,-92.75,5.0,3.0,50,12,,9.0,30.100393,1020.9,,TRUE,,,,,,,,BKN,1000,OVC,1800,,,,,MVFR,,,,,,,,,,,,METAR,413.0
CYGR 061500Z 11018KT 3SM -RA BR SCT020 OVC040 05/04 A3019 RMK SC4SC4 SLP226,CYGR,2017-05-06T15:00:00Z,47.42,-61.77,5.0,4.0,110,18,,3.0,30.188976,1022.6,,,,,,,,,-RA BR,SCT,2000,OVC,4000,,,,,MVFR,,,,,,,,,,,,METAR,10.0
CYFT 061500Z 08010KT 010V090 15SM SCT220 01/M10 A3054 RMK CI4 SLP348,CYFT,2017-05-06T15:00:00Z,55.07,-59.17,1.0,-10.0,80,10,,15.0,30.540354,1034.8,,,,,,,,,,SCT,22000,,,,,,,VFR,,,,,,,,,,,,METAR,71.0
CYAM 061500Z 33016G22KT 15SM FEW250 10/M02 A2975 RMK CI1 CONTRAILS SLP082,CYAM,2017-05-06T15:00:00Z,46.47,-84.52,10.0,-2.0,330,16,22,15.0,29.749016,1008.2,,,,,,,,,,FEW,25000,,,,,,,VFR,,,,,,,,,,,,METAR,192.0
CYSJ 061500Z 16014KT 1 1/2SM +RA BR OVC003 16/16 A2982 RMK SF8 SLP100 DENSITY ALT 600FT,CYSJ,2017-05-06T15:00:00Z,45.32,-65.87,16.0,16.0,160,14,,1.5,29.819881,1010.0,,,,,,,,,+RA BR,OVC,300,,,,,,,LIFR,,,,,,,,,,,,METAR,109.0
CYGW 061500Z AUTO 01010KT 9SM CLR 00/M06 A3007 RMK SLP185,CYGW,2017-05-06T15:00:00Z,55.27,-77.77,0.0,-6.0,10,10,,9.0,30.070866,1018.5,,TRUE,,,,,,,,CLR,,,,,,,,VFR,,,,,,,,,,,,METAR,12.0
CYDP 061500Z 07008KT 15SM SCT032 BKN110 OVC210 M03/M11 A3055 RMK SC4AC2CS2 SLP348,CYDP,2017-05-06T15:00:00Z,56.53,-61.67,-3.0,-11.0,70,8,,15.0,30.549213,1034.8,,,,,,,,,,SCT,3200,BKN,11000,OVC,21000,,,VFR,,,,,,,,,,,,METAR,7.0
CYDF 061500Z 09009KT 15SM SCT120 BKN150 10/M03 A3048 RMK AC3AC4 SLP324,CYDF,2017-05-06T15:00:00Z,49.22,-57.4,10.0,-3.0,90,9,,15.0,30.481298,1032.4,,,,,,,,,,SCT,12000,BKN,15000,,,,,VFR,,,,,,,,,,,,METAR,22.0
CYCX 061500Z 18009KT 140V200 4SM -RA BR OVC007 15/14 A2980 RMK SF8 DA501FT SLP093,CYCX,2017-05-06T15:00:00Z,45.82,-66.42,15.0,14.0,180,9,,4.0,29.799213,1009.3,,,,,,,,,-RA BR,OVC,700,,,,,,,IFR,,,,,,,,,,,,METAR,51.0
CYAY 061500Z AUTO 06010KT 9SM CLR 02/M05 A3055 RMK SLP350,CYAY,2017-05-06T15:00:00Z,51.38,-56.07,2.0,-5.0,60,10,,9.0,30.549213,1035.0,,TRUE,,,,,,,,CLR,,,,,,,,VFR,,,,,,,,,,,,METAR,28.0
CYZS 061500Z 36011KT 15SM FEW150 BKN210 M11/M14 A3035 RMK AC2CS5 SLP287,CYZS,2017-05-06T15:00:00Z,64.2,-83.37,-11.0,-14.0,360,11,,15.0,30.351377,1028.7,,,,,,,,,,FEW,15000,BKN,21000,,,,,VFR,,,,,,,,,,,,METAR,64.0
CYXP 061500Z 12016G21KT 15SM BKN025 01/M04 A3032 RMK SC5 CF ASOCTD PRESRR SLP272,CYXP,2017-05-06T15:00:00Z,66.15,-65.72,1.0,-4.0,120,16,21,15.0,30.318897,1027.2,,,,,,,,,,BKN,2500,,,,,,,MVFR,,,,,,,,,,,,METAR,23.0
CYXN 061500Z 03007KT 15SM FEW018 SCT240 M14/M17 A3053 RMK SC2CI1 SLP342,CYXN,2017-05-06T15:00:00Z,62.22,-92.58,-14.0,-17.0,30,7,,15.0,30.528543,1034.2,,,,,,,,,,FEW,1800,SCT,24000,,,,,VFR,,,,,,,,,,,,METAR,20.0
CYWJ 061500Z 00000KT 30SM BKN069 03/M01 A3001 RMK AS7 CIG RAG SLP179,CYWJ,2017-05-06T15:00:00Z,65.22,-123.43,3.0,-1.0,0,0,,30.0,30.008858,1017.9,,,,,,,,,,BKN,6900,,,,,,,VFR,,,,,,,,,,,,METAR,176.0
CYWE 061500Z AUTO 06014G19KT 9SM BKN120 M03/M05 A3000 RMK SLP186,CYWE,2017-05-06T15:00:00Z,64.18,-114.08,-3.0,-5.0,60,14,19,9.0,30.0,1018.6,,TRUE,,,,,,,,BKN,12000,,,,,,,VFR,,,,,,,,,,,,METAR,371.0
CYUT 061500Z 36018KT 15SM IC DRSN SCT220 M13/M17 A3049 RMK CI4 SLP328,CYUT,2017-05-06T15:00:00Z,66.52,-86.25,-13.0,-17.0,360,18,,15.0,30.490158,1032.8,,,,,,,,,IC DRSN,SCT,22000,,,,,,,VFR,,,,,,,,,,,,METAR,24.0
CYSY 061500Z 10005KT 15SM BKN080 M10/M17 A3024 RMK AC5 SLP253,CYSY,2017-05-06T15:00:00Z,72.0,-125.27,-10.0,-17.0,100,5,,15.0,30.239174,1025.3,,,,,,,,,,BKN,8000,,,,,,,VFR,,,,,,,,,,,,METAR,86.0
CYRT 061500Z 02007KT 15SM -SN BKN020 M12/M15 A3053 RMK SC6 SLP344,CYRT,2017-05-06T15:00:00Z,62.82,-92.12,-12.0,-15.0,20,7,,15.0,30.528543,1034.4,,,,,,,,,-SN,BKN,2000,,,,,,,MVFR,,,,,,,,,,,,METAR,32.0
CYLK 061500Z 06011KT 25SM SCT021 BKN080 03/M01 A2997 RMK SC4AC3 8.1/ -4.3/ 0.0 SLP161,CYLK,2017-05-06T15:00:00Z,62.42,-110.67,3.0,-1.0,60,11,,25.0,29.970472,1016.1,,,,,,,,,,SCT,2100,BKN,8000,,,,,VFR,,,,,,,,,,,,METAR,179.0
CYKD 061500Z 12004KT 12SM OVC008 M02/M05 A3007 RMK SC8 CIG RAG SLP184,CYKD,2017-05-06T15:00:00Z,68.22,-135.0,-2.0,-5.0,120,4,,12.0,30.070866,1018.4,,,,,,,,,,OVC,800,,,,,,,IFR,,,,,,,,,,,,METAR,7.0
CYHY 061500Z 08013KT 15SM FEW016 SCT064 BKN090 OVC120 04/03 A2967 RMK SC2SC2AC3AS1 SLP058,CYHY,2017-05-06T15:00:00Z,60.82,-115.77,4.0,3.0,80,13,,15.0,29.66929,1005.8,,,,,,,,,,FEW,1600,SCT,6400,BKN,9000,OVC,12000,VFR,,,,,,,,,,,,METAR,166.0
CYHK 061500Z AUTO 13008KT 9SM CLR M16/M18 A3055 RMK SLP355,CYHK,2017-05-06T15:00:00Z,68.62,-95.83,-16.0,-18.0,130,8,,9.0,30.549213,1035.5,,TRUE,,,,,,,,CLR,,,,,,,,VFR,,,,,,,,,,,,METAR,46.0
CYHI 061500Z 07012KT 15SM FEW012 FEW070 FEW210 M11/M17 A3035 RMK SC1AC1CI1 SC TR AC TR CI TR SLP283,CYHI,2017-05-06T15:00:00Z,70.77,-117.78,-11.0,-17.0,70,12,,15.0,30.351377,1028.3,,,,,,,,,,FEW,1200,FEW,7000,FEW,21000,,,VFR,,,,,,,,,,,,METAR,36.0
CYGH 061500Z VRB02KT 20SM FEW008 FEW060 FEW190 BKN260 M01/M03 A3006 RMK ST1SC1AS1CS5 ST TR SC TR SLP185,CYGH,2017-05-06T15:00:00Z,66.27,-128.62,-1.0,-3.0,0,2,,20.0,30.059055,1018.5,,,,,,,,,,FEW,800,FEW,6000,FEW,19000,BKN,26000,VFR,,,,,,,,,,,,METAR,66.0
CYFS 061500Z 33005KT 320V080 10SM -RA SCT005 BKN010 OVC020 05/04 A2970 RMK SF3SF3SC2 SLP065,CYFS,2017-05-06T15:00:00Z,61.75,-121.22,5.0,4.0,330,5,,10.0,29.698818,1006.5,,,,,,,,,-RA,SCT,500,BKN,1000,OVC,2000,,,MVFR,,,,,,,,,,,,METAR,169.0
CYCS 061500Z 31007KT 13SM -SN OVC020 M11/M14 A3053 RMK SC8 SLP342,CYCS,2017-05-06T15:00:00Z,63.35,-90.72,-11.0,-14.0,310,7,,13.0,30.528543,1034.2,,,,,,,,,-SN,OVC,2000,,,,,,,MVFR,,,,,,,,,,,,METAR,11.0
CYCO 061500Z 03006KT 8SM -SG OVC030 M11/M14 A3030 RMK ST8 SLP263,CYCO,2017-05-06T15:00:00Z,67.82,-115.15,-11.0,-14.0,30,6,,8.0,30.301182,1026.3,,,,,,,,,-SG,OVC,3000,,,,,,,MVFR,,,,,,,,,,,,METAR,22.0
CZVL 061500Z AUTO 29008KT 9SM CLR 15/06 A2965 RMK SLP041 DENSITY ALT 3100FT,CZVL,2017-05-06T15:00:00Z,53.67,-113.85,15.0,6.0,290,8,,9.0,29.648623,1004.1,,TRUE,,,,,,,,CLR,,,,,,,,VFR,,,,,,,,,,,,METAR,686.0
CYZH 061500Z AUTO 30010G16KT 9SM FEW250 08/04 A2966 RMK SLP051,CYZH,2017-05-06T15:00:00Z,55.28,-114.77,8.0,4.0,300,10,16,9.0,29.660433,1005.1,,TRUE,,,,,,,,FEW,25000,,,,,,,VFR,,,,,,,,,,,,METAR,581.0
CYYN 061500Z AUTO 20006G22KT 160V230 9SM CLR 22/06 A2969 RMK SLP044 DENSITY ALT 4300FT,CYYN,2017-05-06T15:00:00Z,50.27,-107.67,22.0,6.0,200,6,22,9.0,29.68996,1004.4,,TRUE,,,,,,,,CLR,,,,,,,,VFR,,,,,,,,,,,,METAR,818.0
CYYL 061500Z AUTO 12014G20KT 9SM CLR 05/M00 A3017 RMK SLP236,CYYL,2017-05-06T15:00:00Z,56.87,-101.07,5.0,0.0,120,14,20,9.0,30.171259,1023.6,,TRUE,,,,,,,,CLR,,,,,,,,VFR,,,,,,,,,,,,METAR,357.0
CYQW 061500Z AUTO 13013KT 9SM BKN130 17/07 A2966 RMK SLP046 DENSITY ALT 2700FT,CYQW,2017-05-06T15:00:00Z,52.77,-108.25,17.0,7.0,130,13,,9.0,29.660433,1004.6,,TRUE,,,,,,,,BKN,13000,,,,,,,VFR,,,,,,,,,,,,METAR,548.0
CYQR 061500Z 14018G25KT 15SM BKN250 19/05 A2979 RMK CI5 SLP090 DENSITY ALT 2900FT,CYQR,2017-05-06T15:00:00Z,50.43,-104.67,19.0,5.0,140,18,25,15.0,29.790354,1009.0,,,,,,,,,,BKN,25000,,,,,,,VFR,,,,,,,,,,,,METAR,577.0
CYQL 061500Z 26005KT 60SM FEW120 SCT140 BKN260 15/08 A2972 RMK AC1AC2CI3 SLP059 DENSITY ALT 3900FT,CYQL,2017-05-06T15:00:00Z,49.63,-112.8,15.0,8.0,260,5,,60.0,29.719488,1005.9,,,,,,,,,,FEW,12000,SCT,14000,BKN,26000,,,VFR,,,,,,,,,,,,METAR,929.0
CYQF 061500Z 00000KT 15SM FEW140 BKN260 17/05 A2969 RMK ACC1CI6 SLP053 DENSITY ALT 4100FT,CYQF,2017-05-06T15:00:00Z,52.17,-113.9,17.0,5.0,0,0,,15.0,29.68996,1005.3,,,,,,,,,,FEW,14000,BKN,26000,,,,,VFR,,,,,,,,,,,,METAR,905.0
CYPY 061500Z AUTO 09012G20KT 9SM SCT110 BKN180 09/04 A2970 RMK SLP069,CYPY,2017-05-06T15:00:00Z,58.77,-111.12,9.0,4.0,90,12,20,9.0,29.698818,1006.9,,TRUE,,,,,,,,SCT,11000,BKN,18000,,,,,VFR,,,,,,,,,,,,METAR,232.0
CYPA 061500Z 12019G29KT 15SM BKN170 BKN250 12/02 A2977 RMK AC5CI2 SLP090 DENSITY ALT 1500FT,CYPA,2017-05-06T15:00:00Z,53.22,-105.67,12.0,2.0,120,19,29,15.0,29.769686,1009.0,,,,,,,,,,BKN,17000,BKN,25000,,,,,VFR,,,,,,,,,,,,METAR,428.0
CYOJ 061500Z 15005KT 120V190 15SM FEW035 SCT110 BKN260 11/05 A2961 RMK FU1AC3CI3 SLP035 DENSITY ALT 1200FT,CYOJ,2017-05-06T15:00:00Z,58.62,-117.17,11.0,5.0,150,5,,15.0,29.610237,1003.5,,,,,,,,,,FEW,3500,SCT,11000,BKN,26000,,,VFR,,,,,,,,,,,,METAR,338.0
CYNE 061500Z AUTO 11010G19KT 080V140 9SM CLR 05/M01 A3020 RMK SLP240,CYNE,2017-05-06T15:00:00Z,53.97,-97.82,5.0,-1.0,110,10,19,9.0,30.200787,1024.0,,TRUE,,,,,,,,CLR,,,,,,,,VFR,,,,,,,,,,,,METAR,223.0
CYMM 061500Z AUTO 11015G21KT 9SM CLR 15/03 A2961 RMK SLP036 DENSITY ALT 1800FT,CYMM,2017-05-06T15:00:00Z,56.65,-111.22,15.0,3.0,110,15,21,9.0,29.610237,1003.6,,TRUE,,,,,,,,CLR,,,,,,,,VFR,,,,,,,,,,,,METAR,369.0
CYLL 061500Z 22005KT 160V250 15SM FEW160 SCT250 17/08 A2962 RMK AC2CI2 SLP032 DENSITY ALT 3200FT,CYLL,2017-05-06T15:00:00Z,53.32,-110.07,17.0,8.0,220,5,,15.0,29.619095,1003.2,,,,,,,,,,FEW,16000,SCT,25000,,,,,VFR,,,,,,,,,,,,METAR,669.0
CYKJ 061500Z AUTO 11017KT 9SM OVC085 04/01 A2994 RMK SLP160,CYKJ,2017-05-06T15:00:00Z,57.25,-105.62,4.0,1.0,110,17,,9.0,29.940945,1016.0,,TRUE,,,,,,,,OVC,8500,,,,,,,VFR,,,,,,,,,,,,METAR,509.0
CYGX 061500Z 06006KT 030V120 15SM FEW073 03/M07 A3036 RMK AS1 AS TR SLP292,CYGX,2017-05-06T15:00:00Z,56.35,-94.7,3.0,-7.0,60,6,,15.0,30.360237,1029.2,,,,,,,,,,FEW,7300,,,,,,,VFR,,,,,,,,,,,,METAR,145.0
CYET 061500Z AUTO 30003KT 9SM CLR 12/04 A2970 RMK SLP058 DENSITY ALT 3600FT,CYET,2017-05-06T15:00:00Z,53.57,-116.47,12.0,4.0,300,3,,9.0,29.698818,1005.8,,TRUE,,,,,,,,CLR,,,,,,,,VFR,,,,,,,,,,,,METAR,925.0
CYEN 061500Z 12012KT 15SM FEW100 BKN250 18/06 A2985 RMK AC1CI5 AC TR SLP111 DENSITY ALT 2800FT,CYEN,2017-05-06T15:00:00Z,49.22,-102.97,18.0,6.0,120,12,,15.0,29.84941,1011.1,,,,,,,,,,FEW,10000,BKN,25000,,,,,VFR,,,,,,,,,,,,METAR,581.0
CYDN 061500Z AUTO 09008KT 9SM OVC100 09/04 A3007 RMK SLP192,CYDN,2017-05-06T15:00:00Z,51.1,-100.03,9.0,4.0,90,8,,9.0,30.070866,1019.2,,TRUE,,,,,,,,OVC,10000,,,,,,,VFR,,,,,,,,,,,,METAR,305.0
CYBU 061500Z AUTO 06010KT 9SM SCT140 11/05 A2988 RMK SLP129,CYBU,2017-05-06T15:00:00Z,53.32,-104.0,11.0,5.0,60,10,,9.0,29.878937,1012.9,,TRUE,,,,,,,,SCT,14000,,,,,,,VFR,,,,,,,,,,,,METAR,374.0
CYBR 061500Z 10007KT 15SM FEW100 BKN130 BKN250 12/02 A3001 RMK AC1AC5CI1 SLP174,CYBR,2017-05-06T15:00:00Z,49.92,-99.95,12.0,2.0,100,7,,15.0,30.008858,1017.4,,,,,,,,,,FEW,10000,BKN,13000,BKN,25000,,,VFR,,,,,,,,,,,,METAR,409.0
CYBQ 061500Z AUTO 12010KT 9SM CLR M02/M05 A3033 RMK ICG MISG SLP293,CYBQ,2017-05-06T15:00:00Z,58.7,-98.5,-2.0,-5.0,120,10,,9.0,30.33071,1029.3,,TRUE,,,,,,,,CLR,,,,,,,,VFR,,,,,,,,,,,,METAR,262.0
CYBK 061500Z VRB02KT 10SM VCFG SCT003 SCT015 M18/M20 A3057 RMK ST3SC1 SLP356,CYBK,2017-05-06T15:00:00Z,64.28,-96.07,-18.0,-20.0,0,2,,10.0,30.569881,1035.6,,,,,,,,,VCFG,SCT,300,SCT,1500,,,,,VFR,,,,,,,,,,,,METAR,18.0
CWHN 061500Z AUTO 11006KT 9SM CLR 13/05 A2962 RMK SLP038,CWHN,2017-05-06T15:00:00Z,54.88,-109.97,13.0,5.0,110,6,,9.0,29.619095,1003.8,,TRUE,,,,,,,,CLR,,,,,,,,VFR,,,,,,,,,,,,METAR,636.0
CYXH 061500Z 21008KT 30SM SCT180 BKN210 BKN270 18/11 A2971 RMK AC4CI2CI1 SLP056 DENSITY ALT 3400FT,CYXH,2017-05-06T15:00:00Z,50.02,-110.72,18.0,11.0,210,8,,30.0,29.71063,1005.6,,,,,,,,,,SCT,18000,BKN,21000,BKN,27000,,,VFR,,,,,,,,,,,,METAR,716.0
CYVT 061500Z 13020G27KT 15SM FEW055 SCT100 BKN160 BKN220 12/01 A2970 RMK SC2AC2AC1CI2 SLP067 DENSITY ALT 1600FT,CYVT,2017-05-06T15:00:00Z,55.82,-108.42,12.0,1.0,130,20,27,15.0,29.698818,1006.7,,,,,,,,,,FEW,5500,SCT,10000,BKN,16000,BKN,22000,VFR,,,,,,,,,,,,METAR,434.0
CYUX 061500Z 36025G31KT 1 1/2SM BLSN BKN210 M11/M14 A3038 RMK BLSN2CI3 SLP289,CYUX,2017-05-06T15:00:00Z,68.77,-81.25,-11.0,-14.0,360,25,31,1.5,30.380905,1028.9,,,,,,,,,BLSN,BKN,21000,,,,,,,IFR,,,,,,,,,,,,METAR,8.0
CYUS 061500Z AUTO 16010KT ////SM //// OVC006 M15/M17 A3057,CYUS,2017-05-06T15:00:00Z,68.82,-93.42,-15.0,-17.0,160,10,,,30.569881,,,TRUE,,,,,,,,OVC,600,,,,,,,,,,,,,,,,,,,METAR,42.0
CYUB 061500Z 11005KT 10SM -SN BKN045 BKN084 M07/M09 A3009 RMK SC6AC1 SLP191,CYUB,2017-05-06T15:00:00Z,69.45,-133.02,-7.0,-9.0,110,5,,10.0,30.088583,1019.1,,,,,,,,,-SN,BKN,4500,BKN,8400,,,,,VFR,,,,,,,,,,,,METAR,5.0
CYTH 061500Z 14005KT 050V200 15SM BKN220 06/M05 A3027 RMK CI6 SLP265,CYTH,2017-05-06T15:00:00Z,55.78,-97.87,6.0,-5.0,140,5,,15.0,30.268702,1026.5,,,,,,,,,,BKN,22000,,,,,,,VFR,,,,,,,,,,,,METAR,218.0
CYSM 061500Z 12008G18KT 070V150 15SM FEW017 SCT070 BKN110 BKN150 07/03 A2975 RMK SC1AC3AC2AC1 SLP085,CYSM,2017-05-06T15:00:00Z,60.03,-111.97,7.0,3.0,120,8,18,15.0,29.749016,1008.5,,,,,,,,,,FEW,1700,SCT,7000,BKN,11000,BKN,15000,VFR,,,,,,,,,,,,METAR,203.0
CYQV 061500Z AUTO 12019G24KT 9SM BKN130 12/01 A2991 RMK SLP139,CYQV,2017-05-06T15:00:00Z,51.27,-102.47,12.0,1.0,120,19,24,9.0,29.911417,1013.9,,TRUE,,,,,,,,BKN,13000,,,,,,,VFR,,,,,,,,,,,,METAR,498.0
CYPE 061500Z 25005KT 15SM VCFG FEW004 FEW100 SCT140 BKN250 08/07 A2967 RMK SF1AS2AC1CI2 SF TR VIS E 2 BR SLP056,CYPE,2017-05-06T15:00:00Z,56.22,-117.45,8.0,7.0,250,5,,15.0,29.66929,1005.6,,,,,,,,,VCFG,FEW,400,FEW,10000,SCT,14000,BKN,25000,VFR,,,,,,,,,,,,METAR,571.0
CYOD 061500Z 12012KT 15SM OVC250 17/07 A2961 RMK CI8 SLP028,CYOD,2017-05-06T15:00:00Z,54.4,-110.28,17.0,7.0,120,12,,15.0,29.610237,1002.8,,,,,,,,,,OVC,25000,,,,,,,VFR,,,,,,,,,,,,METAR,544.0
CYLT 061500Z 32005KT 6SM -SN FEW005 FEW040 OVC200 M18/M21 A3063 RMK ST1SC2CS4 HALO SLP378,CYLT,2017-05-06T15:00:00Z,82.52,-62.27,-18.0,-21.0,320,5,,6.0,30.628937,1037.8,,,,,,,,,-SN,FEW,500,FEW,4000,OVC,20000,,,VFR,,,,,,,,,,,,METAR,31.0
CYLJ 061500Z 13014G19KT 15SM SCT180 BKN240 15/04 A2966 RMK AC4CI2 SLP051 DENSITY ALT 2200FT,CYLJ,2017-05-06T15:00:00Z,54.12,-108.52,15.0,4.0,130,14,19,15.0,29.660433,1005.1,,,,,,,,,,SCT,18000,BKN,24000,,,,,VFR,,,,,,,,,,,,METAR,480.0
CYIO 061500Z AUTO 20008KT 9SM CLR M12/M15 A3056 RMK PRESFR SLP359,CYIO,2017-05-06T15:00:00Z,72.67,-77.97,-12.0,-15.0,200,8,,9.0,30.561024,1035.9,,TRUE,,,,,,,,CLR,,,,,,,,VFR,,,,,,,,,,,,METAR,57.0
CYEK 061500Z 01007KT 15SM FEW001 M15/M17 A3053 RMK SC2 SLP341,CYEK,2017-05-06T15:00:00Z,61.1,-94.07,-15.0,-17.0,10,7,,15.0,30.528543,1034.1,,,,,,,,,,FEW,100,,,,,,,VFR,,,,,,,,,,,,METAR,10.0
CYED 061500Z AUTO 28007KT 9SM CLR 15/07 A2966 RMK SLP043,CYED,2017-05-06T15:00:00Z,53.67,-113.47,15.0,7.0,280,7,,9.0,29.660433,1004.3,,TRUE,,,,,,,,CLR,,,,,,,,VFR,,,,,,,,,,,,METAR,688.0
CYCY 061500Z 32017KT 2 1/4SM -SN DRSN OVC028 M08/M10 A3058 RMK SC8 SLP359,CYCY,2017-05-06T15:00:00Z,70.47,-68.52,-8.0,-10.0,320,17,,2.25,30.578741,1035.9,,,,,,,,,-SN DRSN,OVC,2800,,,,,,,IFR,,,,,,,,,,,,METAR,26.0
CYBW 061500Z AUTO 00000KT 9SM BKN120 13/07 A2973 RMK SLP070 DENSITY ALT 4700FT,CYBW,2017-05-06T15:00:00Z,51.1,-114.37,13.0,7.0,0,0,,9.0,29.731298,1007.0,,TRUE,,,,,,,,BKN,12000,,,,,,,VFR,,,,,,,,,,,,METAR,1200.0
CWVD 061500Z AUTO 13009KT M06/ A3021 RMK SLP290,CWVD,2017-05-06T15:00:00Z,67.52,-63.77,-6.0,,130,9,,,30.209646,1029.0,,TRUE,,,,,,,,,,,,,,,,,,,,,,,,,,,,METAR,573.0
CWRF 061500Z AUTO ///// A3046,CWRF,2017-05-06T15:00:00Z,69.42,-89.72,,,,,,,30.46063,,,TRUE,,,,,,,,,,,,,,,,,,,,,,,,,,,,METAR,325.0
RJGG 061500Z 33007KT 9999 FEW020 BKN080 18/16 Q1010 NOSIG,RJGG,2017-05-06T15:00:00Z,34.87,136.8,18.0,16.0,330,7,,6.21,29.822834,,,,,,TRUE,,,,,FEW,2000,BKN,8000,,,,,VFR,,,,,,,,,,,,METAR,5.0
RJBB 061500Z AUTO VRB02KT 9999 FEW031 SCT170 17/13 Q1012 NOSIG,RJBB,2017-05-06T15:00:00Z,34.42,135.25,17.0,13.0,0,2,,6.21,29.88189,,,TRUE,,,TRUE,,,,,FEW,3100,SCT,17000,,,,,VFR,,,,,,,,,,,,METAR,8.0
RJNK 061500Z VRB02KT 6000 FEW008 BKN180 BKN/// 13/11 Q1012,RJNK,2017-05-06T15:00:00Z,36.37,136.42,13.0,11.0,0,2,,3.73,29.88189,,,,,,,,,,,FEW,800,BKN,18000,,,,,MVFR,,,,,,,,,,,,METAR,9.0
CYZX 061500Z 14014G19KT 10SM SCT008 OVC013 18/16 A2988 RMK SF3SC5 WNDY HILL UNAVBL SLP120,CYZX,2017-05-06T15:00:00Z,44.98,-64.92,18.0,16.0,140,14,19,10.0,29.878937,1012.0,,,,,,,,,,SCT,800,OVC,1300,,,,,MVFR,,,,,,,,,,,,METAR,28.0
CYZV 061500Z 08025G38KT 15SM -RA SCT012 OVC025 04/03 A3004 RMK SF4SC4 SLP176,CYZV,2017-05-06T15:00:00Z,50.22,-66.27,4.0,3.0,80,25,38,15.0,30.041338,1017.6,,,,,,,,,-RA,SCT,1200,OVC,2500,,,,,MVFR,,,,,,,,,,,,METAR,55.0
CYZF 061500Z 09018G25KT 15SM OVC080 04/M01 A2986 RMK AC8 SLP125,CYZF,2017-05-06T15:00:00Z,62.47,-114.45,4.0,-1.0,90,18,25,15.0,29.861221,1012.5,,,,,,,,,,OVC,8000,,,,,,,VFR,,,,,,,,,,,,METAR,206.0
CYYZ 061500Z 34019G26KT 15SM -DZ OVC012 07/05 A2937 RMK ST8 SLP951,CYYZ,2017-05-06T15:00:00Z,43.67,-79.62,7.0,5.0,340,19,26,15.0,29.371063,995.1,,,,,,,,,-DZ,OVC,1200,,,,,,,MVFR,,,,,,,,,,,,METAR,173.0
CYYT 061500Z 02017KT 15SM SCT130 08/M11 A3046 RMK AC4 CLD HGT ESTD SLP323,CYYT,2017-05-06T15:00:00Z,47.62,-52.72,8.0,-11.0,20,17,,15.0,30.46063,1032.3,,,,,,,,,,SCT,13000,,,,,,,VFR,,,,,,,,,,,,METAR,140.0
CYYR 061500Z 05010KT 15SM FEW082 BKN130 BKN160 OVC250 04/M05 A3047 RMK AC2AC2AC2CS1 SLP321,CYYR,2017-05-06T15:00:00Z,53.32,-60.42,4.0,-5.0,50,10,,15.0,30.469488,1032.1,,,,,,,,,,FEW,8200,BKN,13000,BKN,16000,OVC,25000,VFR,,,,,,,,,,,,METAR,49.0
CYYQ 061500Z 06008KT 360V070 15SM FEW006 SCT046 M05/M07 A3046 RMK SF1SC2 SLP318,CYYQ,2017-05-06T15:00:00Z,58.75,-94.07,-5.0,-7.0,60,8,,15.0,30.46063,1031.8,,,,,,,,,,FEW,600,SCT,4600,,,,,VFR,,,,,,,,,,,,METAR,29.0
CYYJ 061500Z 29007KT 30SM FEW060 09/03 A3012 RMK SC1 SLP202,CYYJ,2017-05-06T15:00:00Z,48.63,-123.42,9.0,3.0,290,7,,30.0,30.121063,1020.2,,,,,,,,,,FEW,6000,,,,,,,VFR,,,,,,,,,,,,METAR,19.0
CYYC 061500Z 20005KT 40SM FEW060 SCT130 BKN180 BKN240 16/05 A2971 RMK SC1AC3AC2CI2 SC TR SLP060 DENSITY ALT 4700FT,CYYC,2017-05-06T15:00:00Z,51.12,-114.02,16.0,5.0,200,5,,40.0,29.71063,1006.0,,,,,,,,,,FEW,6000,SCT,13000,BKN,18000,BKN,24000,VFR,,,,,,,,,,,,METAR,1084.0
CYXX 061500Z 19008KT 25SM BKN034 BKN068 08/05 A3011 RMK CU5AC2 SLP200,CYXX,2017-05-06T15:00:00Z,49.03,-122.38,8.0,5.0,190,8,,25.0,30.109253,1020.0,,,,,,,,,,BKN,3400,BKN,6800,,,,,VFR,,,,,,,,,,,,METAR,58.0
CYVR 061500Z 29010KT 30SM FEW028 BKN063 10/06 A3010 RMK CU1SC4 SLP195,CYVR,2017-05-06T15:00:00Z,49.17,-123.17,10.0,6.0,290,10,,30.0,30.100393,1019.5,,,,,,,,,,FEW,2800,BKN,6300,,,,,VFR,,,,,,,,,,,,METAR,2.0
CYUL 061500Z 06009KT 15SM FEW030 SCT060 BKN090 OVC150 13/12 A2939 RMK SC1SC2AC4AC1 SLP953 DENSITY ALT 500FT,CYUL,2017-05-06T15:00:00Z,45.47,-73.73,13.0,12.0,60,9,,15.0,29.388779,995.3,,,,,,,,,,FEW,3000,SCT,6000,BKN,9000,OVC,15000,VFR,,,,,,,,,,,,METAR,36.0
CYQY 061500Z 15018G24KT 7SM -DZ OVC021 07/05 A3032 RMK SC8 SLP270,CYQY,2017-05-06T15:00:00Z,46.17,-60.03,7.0,5.0,150,18,24,7.0,30.318897,1027.0,,,,,,,,,-DZ,OVC,2100,,,,,,,MVFR,,,,,,,,,,,,METAR,62.0
CYQX 061500Z 01007G16KT 20SM FEW200 BKN250 08/M08 A3050 RMK CC2CI5 AC TR SLP334,CYQX,2017-05-06T15:00:00Z,48.95,-54.58,8.0,-8.0,10,7,16,20.0,30.499016,1033.4,,,,,,,,,,FEW,20000,BKN,25000,,,,,VFR,,,,,,,,,,,,METAR,151.0
CYQQ 061500Z 29004KT 20SM FEW030 FEW070 08/03 A3012 RMK SC1AC1 SLP201,CYQQ,2017-05-06T15:00:00Z,49.72,-124.9,8.0,3.0,290,4,,20.0,30.121063,1020.1,,,,,,,,,,FEW,3000,FEW,7000,,,,,VFR,,,,,,,,,,,,METAR,24.0
CYQM 061500Z 14016G22KT 6SM -RA DRDU OVC005 14/13 A2987 RMK SF8 SLP118,CYQM,2017-05-06T15:00:00Z,46.12,-64.67,14.0,13.0,140,16,22,6.0,29.870079,1011.8,,,,,,,,,-RA DRDU,OVC,500,,,,,,,IFR,,,,,,,,,,,,METAR,71.0
CYQG 061500Z 33017KT 15SM BKN028 BKN240 10/04 A2958 RMK CU7CI1 CI TR SLP022,CYQG,2017-05-06T15:00:00Z,42.27,-82.97,10.0,4.0,330,17,,15.0,29.58071,1002.2,,,,,,,,,,BKN,2800,BKN,24000,,,,,MVFR,,,,,,,,,,,,METAR,190.0
CYQB 061500Z 07016G26KT 15SM -SHRA SCT009 OVC016 09/07 A2958 RMK SF3SC5 CVCTV CLDS EMBD SLP020,CYQB,2017-05-06T15:00:00Z,46.78,-71.37,9.0,7.0,70,16,26,15.0,29.58071,1002.0,,,,,,,,,-SHRA,SCT,900,OVC,1600,,,,,MVFR,,,,,,,,,,,,METAR,73.0
CYOW 061500Z 07010KT 2SM -SHRA BR OVC006 11/10 A2931 RMK SF8 CVCTV CLD EMBD SLP928 DENSITY ALT 600FT,CYOW,2017-05-06T15:00:00Z,45.32,-75.67,11.0,10.0,70,10,,2.0,29.309055,992.8,,,,,,,,,-SHRA BR,OVC,600,,,,,,,IFR,,,,,,,,,,,,METAR,114.0
CYMX 061500Z 05008G15KT 010V100 15SM BKN005 OVC012 10/10 A2938 RMK ST7SC1 SLP953 DENSITY ALT 300FT,CYMX,2017-05-06T15:00:00Z,45.67,-74.02,10.0,10.0,50,8,15,15.0,29.379921,995.3,,,,,,,,,,BKN,500,OVC,1200,,,,,IFR,,,,,,,,,,,,METAR,82.0
CYJT 061500Z 11013G19KT 15SM -SHRA OVC030 09/05 A3043 RMK SC8 SLP306,CYJT,2017-05-06T15:00:00Z,48.55,-58.57,9.0,5.0,110,13,19,15.0,30.431103,1030.6,,,,,,,,,-SHRA,OVC,3000,,,,,,,MVFR,,,,,,,,,,,,METAR,26.0
CYGL 061500Z 03008G16KT 15SM FEW160 OVC220 04/M07 A2991 RMK AC1CI8 AC TR SLP141,CYGL,2017-05-06T15:00:00Z,53.62,-77.7,4.0,-7.0,30,8,16,15.0,29.911417,1014.1,,,,,,,,,,FEW,16000,OVC,22000,,,,,VFR,,,,,,,,,,,,METAR,195.0
CYFC 061500Z AUTO 17010G15KT 4SM RA BR OVC010 14/13 A2978 RMK SLP088 DENSITY ALT 100FT,CYFC,2017-05-06T15:00:00Z,45.87,-66.52,14.0,13.0,170,10,15,4.0,29.778543,1008.8,,TRUE,,,,,,,RA BR,OVC,1000,,,,,,,MVFR,,,,,,,,,,,,METAR,20.0
CYFB 061500Z 14016KT 30SM -SN SCT032 OVC061 M05/M08 A3030 RMK SC4SC4 SLP265,CYFB,2017-05-06T15:00:00Z,63.75,-68.55,-5.0,-8.0,140,16,,30.0,30.301182,1026.5,,,,,,,,,-SN,SCT,3200,OVC,6100,,,,,VFR,,,,,,,,,,,,METAR,34.0
CYEG 061500Z 29008KT 15SM FEW180 SCT240 BKN270 15/05 A2968 RMK AC1CI2CI4 SLP048 DENSITY ALT 3200FT,CYEG,2017-05-06T15:00:00Z,53.28,-113.57,15.0,5.0,290,8,,15.0,29.681103,1004.8,,,,,,,,,,FEW,18000,SCT,24000,BKN,27000,,,VFR,,,,,,,,,,,,METAR,723.0
CYWH 061500Z 24010KT 15SM FEW030 FEW070 08/05 A3012 RMK CU1AC1 CU TR AC TR SLP203,CYWH,2017-05-06T15:00:00Z,48.42,-123.38,8.0,5.0,240,10,,15.0,30.121063,1020.3,,,,,,,,,,FEW,3000,FEW,7000,,,,,VFR,,,,,,,,,,,,METAR,10.0
CZMT 061500Z 25004KT 220V280 15SM OVC040 07/01 A3005 RMK SC8 SLP177,CZMT,2017-05-06T15:00:00Z,54.03,-132.13,7.0,1.0,250,4,,15.0,30.050198,1017.7,,,,,,,,,,OVC,4000,,,,,,,VFR,,,,,,,,,,,,METAR,8.0
CZFA 061500Z 32004KT 30SM FEW085 SCT120 BKN160 02/M06 A2983 RMK AC1AC2AS3 SLP131,CZFA,2017-05-06T15:00:00Z,62.2,-133.37,2.0,-6.0,320,4,,30.0,29.828741,1013.1,,,,,,,,,,FEW,8500,SCT,12000,BKN,16000,,,VFR,,,,,,,,,,,,METAR,717.0
CYZY 061500Z AUTO 15011G18KT 9SM BKN024 05/02 A2977 RMK SLP103,CYZY,2017-05-06T15:00:00Z,55.28,-123.12,5.0,2.0,150,11,18,9.0,29.769686,1010.3,,TRUE,,,,,,,,BKN,2400,,,,,,,MVFR,,,,,,,,,,,,METAR,690.0
CYYF 061500Z 36005KT 340V050 15SM FEW060 BKN085 10/02 A2997 RMK SC1AC6 SLP153,CYYF,2017-05-06T15:00:00Z,49.47,-119.58,10.0,2.0,360,5,,15.0,29.970472,1015.3,,,,,,,,,,FEW,6000,BKN,8500,,,,,VFR,,,,,,,,,,,,METAR,344.0
CYYE 061500Z 28006KT 8SM -RA BKN010 OVC017 06/04 A2963 RMK SF6SC2 SLP047,CYYE,2017-05-06T15:00:00Z,58.82,-122.57,6.0,4.0,280,6,,8.0,29.630905,1004.7,,,,,,,,,-RA,BKN,1000,OVC,1700,,,,,MVFR,,,,,,,,,,,,METAR,382.0
CYYD 061500Z 19004KT 25SM SCT026 BKN055 OVC090 04/02 A2985 RMK SC4SC3AC1 SLP121,CYYD,2017-05-06T15:00:00Z,54.82,-127.18,4.0,2.0,190,4,,25.0,29.84941,1012.1,,,,,,,,,,SCT,2600,BKN,5500,OVC,9000,,,VFR,,,,,,,,,,,,METAR,523.0
CYXY 061500Z 35005KT 310V020 40SM FEW030 FEW120 SCT220 03/M02 A2986 RMK CU1AC1CI1 SLP142,CYXY,2017-05-06T15:00:00Z,60.72,-135.07,3.0,-2.0,350,5,,40.0,29.861221,1014.2,,,,,,,,,,FEW,3000,FEW,12000,SCT,22000,,,VFR,,,,,,,,,,,,METAR,703.0
CYXT 061500Z 17013G23KT 20SM FEW009 BKN040 BKN100 BKN220 05/02 A2998 RMK CF2CU4AC1CI1 AC TR SLP161,CYXT,2017-05-06T15:00:00Z,54.47,-128.57,5.0,2.0,170,13,23,20.0,29.97933,1016.1,,,,,,,,,,FEW,900,BKN,4000,BKN,10000,BKN,22000,VFR,,,,,,,,,,,,METAR,217.0
CYXJ 061500Z 22016G21KT 15SM SCT120 SCT220 09/03 A2968 RMK AC3CI1 SLP068 DENSITY ALT 2300FT,CYXJ,2017-05-06T15:00:00Z,56.25,-120.73,9.0,3.0,220,16,21,15.0,29.681103,1006.8,,,,,,,,,,SCT,12000,SCT,22000,,,,,VFR,,,,,,,,,,,,METAR,695.0
CYQU 061500Z 24006KT 25SM BKN077 BKN100 BKN250 10/03 A2973 RMK AC5AC1CI1 VIRGA SLP082 DENSITY ALT 2200FT,CYQU,2017-05-06T15:00:00Z,55.18,-118.88,10.0,3.0,240,6,,25.0,29.731298,1008.2,,,,,,,,,,BKN,7700,BKN,10000,BKN,25000,,,VFR,,,,,,,,,,,,METAR,669.0
CYPW 061500Z 29005KT 270V330 40SM FEW035 FEW250 07/06 A3011 RMK CU1CI1 CU TR CI TR SLP201,CYPW,2017-05-06T15:00:00Z,49.82,-124.5,7.0,6.0,290,5,,40.0,30.109253,1020.1,,,,,,,,,,FEW,3500,FEW,25000,,,,,VFR,,,,,,,,,,,,METAR,130.0
CYOC 061500Z 00000KT 35SM FEW045 M01/M04 A2997 RMK SC1 SC TR SLP166,CYOC,2017-05-06T15:00:00Z,67.57,-139.82,-1.0,-4.0,0,0,,35.0,29.970472,1016.6,,,,,,,,,,FEW,4500,,,,,,,VFR,,,,,,,,,,,,METAR,251.0
CYMA 061500Z VRB02KT 20SM FEW090 02/M04 A2991 RMK AC1 AC TR SLP152,CYMA,2017-05-06T15:00:00Z,63.62,-135.87,2.0,-4.0,0,2,,20.0,29.911417,1015.2,,,,,,,,,,FEW,9000,,,,,,,VFR,,,,,,,,,,,,METAR,504.0
CYLW 061500Z AUTO 16007KT 9SM OVC085 09/02 A2996 RMK SLP151,CYLW,2017-05-06T15:00:00Z,49.95,-119.37,9.0,2.0,160,7,,9.0,29.958662,1015.1,,TRUE,,,,,,,,OVC,8500,,,,,,,VFR,,,,,,,,,,,,METAR,430.0
CYKA 061500Z VRB02KT 40SM BKN120 10/01 A2995 RMK AC5 SLP149,CYKA,2017-05-06T15:00:00Z,50.7,-120.45,10.0,1.0,0,2,,40.0,29.949802,1014.9,,,,,,,,,,BKN,12000,,,,,,,VFR,,,,,,,,,,,,METAR,346.0
CYIN 061500Z AUTO 32004KT 300V080 9SM SCT055 SCT069 SCT081 04/M03 A2990 RMK SLP138,CYIN,2017-05-06T15:00:00Z,51.27,-121.68,4.0,-3.0,320,4,,9.0,29.899607,1013.8,,TRUE,,,,,,,,SCT,5500,SCT,6900,SCT,8100,,,VFR,,,,,,,,,,,,METAR,1128.0
CYGE 061500Z 34005KT 290V050 20SM FEW010 SCT025 BKN040 OVC075 10/07 A2979 RMK SC1SC2SC2AS3 SLP096 DENSITY ALT 2600FT,CYGE,2017-05-06T15:00:00Z,51.3,-116.98,10.0,7.0,340,5,,20.0,29.790354,1009.6,,,,,,,,,,FEW,1000,SCT,2500,BKN,4000,OVC,7500,VFR,,,,,,,,,,,,METAR,785.0
CYDA 061500Z 06002KT 20SM SKC M01/M03 A2995 RMK SLP160,CYDA,2017-05-06T15:00:00Z,64.03,-139.12,-1.0,-3.0,60,2,,20.0,29.949802,1016.0,,,,,,,,,,SKC,,,,,,,,VFR,,,,,,,,,,,,METAR,369.0
CYCD 061500Z 29004KT 260V340 30SM SKC 09/01 A3012 RMK SLP200,CYCD,2017-05-06T15:00:00Z,49.05,-123.87,9.0,1.0,290,4,,30.0,30.121063,1020.0,,,,,,,,,,SKC,,,,,,,,VFR,,,,,,,,,,,,METAR,30.0
CYBD 061500Z 28006KT 250V320 15SM FEW025 BKN150 BKN240 07/04 A3005 RMK SC2AC3CI2 SLP180,CYBD,2017-05-06T15:00:00Z,52.37,-126.57,7.0,4.0,280,6,,15.0,30.050198,1018.0,,,,,,,,,,FEW,2500,BKN,15000,BKN,24000,,,VFR,,,,,,,,,,,,METAR,35.0
CBBC 061500Z AUTO 14004KT 9SM BKN029 OVC055 07/05 A3006 RMK SLP183,CBBC,2017-05-06T15:00:00Z,52.18,-128.15,7.0,5.0,140,4,,9.0,30.059055,1018.3,,TRUE,,,,,,,,BKN,2900,OVC,5500,,,,,MVFR,,,,,,,,,,,,METAR,43.0
CYZT 061500Z 16003KT 20SM -SHRA FEW020 BKN043TCU BKN210 06/06 A3010 RMK SC2TCU4CI1 SLP196,CYZT,2017-05-06T15:00:00Z,50.67,-127.37,6.0,6.0,160,3,,20.0,30.100393,1019.6,,,,,,,,,-SHRA,FEW,2000,BKN,4300,BKN,21000,,,VFR,,,,,,,,,,,,METAR,22.0
CYZP 061500Z AUTO 25006KT 9SM FEW044 07/03 A3007 RMK SLP183,CYZP,2017-05-06T15:00:00Z,53.25,-131.82,7.0,3.0,250,6,,9.0,30.070866,1018.3,,TRUE,,,,,,,,FEW,4400,,,,,,,VFR,,,,,,,,,,,,METAR,6.0
CYXS 061500Z AUTO 17006KT 9SM CLR 02/M01 A2987 RMK SLP137,CYXS,2017-05-06T15:00:00Z,53.9,-122.68,2.0,-1.0,170,6,,9.0,29.870079,1013.7,,TRUE,,,,,,,,CLR,,,,,,,,VFR,,,,,,,,,,,,METAR,691.0
CYXE 061500Z 15013KT 15SM FEW035 SCT180 BKN300 19/07 A2969 RMK CU1AC4CI2 CU TR SLP057 DENSITY ALT 2700FT,CYXE,2017-05-06T15:00:00Z,52.17,-106.7,19.0,7.0,150,13,,15.0,29.68996,1005.7,,,,,,,,,,FEW,3500,SCT,18000,BKN,30000,,,VFR,,,,,,,,,,,,METAR,504.0
CYXC 061500Z 26003KT 15SM -SHRA FEW010 SCT030 BKN050 OVC085 09/07 A2979 RMK SF1SC3SC3AC2 SF TR CVCTV CLD EMBD SLP095 DENSITY ALT 3200FT,CYXC,2017-05-06T15:00:00Z,49.6,-115.77,9.0,7.0,260,3,,15.0,29.790354,1009.5,,,,,,,,,-SHRA,FEW,1000,SCT,3000,BKN,5000,OVC,8500,VFR,,,,,,,,,,,,METAR,939.0
CYVL 061500Z AUTO 26004KT 9SM CLR M01/M03 A3005 RMK SLP197,CYVL,2017-05-06T15:00:00Z,67.02,-126.13,-1.0,-3.0,260,4,,9.0,30.050198,1019.7,,TRUE,,,,,,,,CLR,,,,,,,,VFR,,,,,,,,,,,,METAR,259.0
CYUA 061500Z AUTO 11007KT ////SM //// OVC002 M04/M05 A3003,CYUA,2017-05-06T15:00:00Z,68.95,-137.28,-4.0,-5.0,110,7,,,30.029528,,,TRUE,,,,,,,,OVC,200,,,,,,,,,,,,,,,,,,,METAR,38.0
CYRV 061500Z AUTO 34015G20KT 9SM BKN065 BKN077 10/04 A2986 RMK SLP120,CYRV,2017-05-06T15:00:00Z,50.97,-118.17,10.0,4.0,340,15,20,9.0,29.861221,1012.0,,TRUE,,,,,,,,BKN,6500,BKN,7700,,,,,VFR,,,,,,,,,,,,METAR,443.0
CYQZ 061500Z AUTO 16003KT 9SM OVC075 07/M02 A2991 RMK SLP142,CYQZ,2017-05-06T15:00:00Z,53.02,-122.52,7.0,-2.0,160,3,,9.0,29.911417,1014.2,,TRUE,,,,,,,,OVC,7500,,,,,,,VFR,,,,,,,,,,,,METAR,545.0
CYQD 061500Z 10011G17KT 12SM -RA OVC025 03/01 A3009 RMK SC8 SLP201,CYQD,2017-05-06T15:00:00Z,53.97,-101.08,3.0,1.0,100,11,17,12.0,30.088583,1020.1,,,,,,,,,-RA,OVC,2500,,,,,,,MVFR,,,,,,,,,,,,METAR,271.0
CYKY 061500Z 21007KT 15SM FEW050 FEW090 FEW260 19/08 A2967 RMK SC1AC1CI1 SC TR TCU TOPS S SLP041 DENSITY ALT 3500FT,CYKY,2017-05-06T15:00:00Z,51.52,-109.17,19.0,8.0,210,7,,15.0,29.66929,1004.1,,,,,,,,,,FEW,5000,FEW,9000,FEW,26000,,,VFR,,,,,,,,,,,,METAR,694.0
CYIV 061500Z VRB08KT 15SM FEW250 06/M06 A3028 RMK CI1 SLP267,CYIV,2017-05-06T15:00:00Z,53.85,-94.65,6.0,-6.0,0,8,,15.0,30.280512,1026.7,,,,,,,,,,FEW,25000,,,,,,,VFR,,,,,,,,,,,,METAR,237.0
CYHE 061500Z AUTO VRB03KT 9SM OVC055 09/04 A3009 RMK SLP192,CYHE,2017-05-06T15:00:00Z,49.37,-121.5,9.0,4.0,0,3,,9.0,30.088583,1019.2,,TRUE,,,,,,,,OVC,5500,,,,,,,VFR,,,,,,,,,,,,METAR,39.0
CYFO 061500Z 11007KT 15SM OVC090 04/M00 A3009 RMK AC8 SLP203,CYFO,2017-05-06T15:00:00Z,54.67,-101.67,4.0,0.0,110,7,,15.0,30.088583,1020.3,,,,,,,,,,OVC,9000,,,,,,,VFR,,,,,,,,,,,,METAR,304.0
CYDQ 061500Z AUTO 26008G17KT 9SM FEW100 BKN130 09/03 A2971 RMK SLP076,CYDQ,2017-05-06T15:00:00Z,55.75,-120.17,9.0,3.0,260,8,17,9.0,29.71063,1007.6,,TRUE,,,,,,,,FEW,10000,BKN,13000,,,,,VFR,,,,,,,,,,,,METAR,655.0
CYDC 061500Z 14003KT 20SM SCT050 BKN090 05/M01 A3001 RMK CU3AC4 SLP172,CYDC,2017-05-06T15:00:00Z,49.47,-120.52,5.0,-1.0,140,3,,20.0,30.008858,1017.2,,,,,,,,,,SCT,5000,BKN,9000,,,,,VFR,,,,,,,,,,,,METAR,700.0
CYDB 061500Z 00000KT 3/8SM FZFG BKN002 M02/M02 A2991 RMK FG4ST3 SLP166,CYDB,2017-05-06T15:00:00Z,61.37,-139.05,-2.0,-2.0,0,0,,0.38,29.911417,1016.6,,,,,,,,,FZFG,BKN,200,,,,,,,LIFR,,,,,,,,,,,,METAR,801.0
CYCQ 061500Z VRB02KT 35SM FEW045 FEW053 FEW120 08/03 A2972 RMK CU1SC2AC1 CU TR AC TR DEW VIRGA MTS W SLP080,CYCQ,2017-05-06T15:00:00Z,55.7,-121.62,8.0,3.0,0,2,,35.0,29.719488,1008.0,,,,,,,,,,FEW,4500,FEW,5300,FEW,12000,,,VFR,,,,,,,,,,,,METAR,609.0
CYCP 061500Z VRB04KT 4SM -RA BR FEW008 FEW019 OVC038 06/05 A2990 RMK SF1SF1NS6 SLP141,CYCP,2017-05-06T15:00:00Z,52.13,-119.28,6.0,5.0,0,4,,4.0,29.899607,1014.1,,,,,,,,,-RA BR,FEW,800,FEW,1900,OVC,3800,,,MVFR,,,,,,,,,,,,METAR,683.0
CYBL 061500Z VRB02KT 30SM FEW040 FEW090 FEW220 06/04 A3011 RMK SC1AC1CI1 SC TR SLP199,CYBL,2017-05-06T15:00:00Z,49.95,-125.27,6.0,4.0,0,2,,30.0,30.109253,1019.9,,,,,,,,,,FEW,4000,FEW,9000,FEW,22000,,,VFR,,,,,,,,,,,,METAR,106.0
CYAZ 061500Z 04003KT 360V070 12SM -SHRA FEW003 FEW020 SCT028 BKN036 06/06 A3014 RMK CF1CF2CU2SC2 CF TR VRY LGT SHRA FG OVR INLET SLP207,CYAZ,2017-05-06T15:00:00Z,49.08,-125.77,6.0,6.0,40,3,,12.0,30.138779,1020.7,,,,,,,,,-SHRA,FEW,300,FEW,2000,SCT,2800,BKN,3600,VFR,,,,,,,,,,,,METAR,24.0
CYCG 061500Z CCA 36004KT 6SM -SHRA BR FEW003 BKN012 OVC050CB 10/09 A2986 RMK SF2SF5CB1 SLP118,CYCG,2017-05-06T15:00:00Z,49.28,-117.62,10.0,9.0,360,4,,6.0,29.861221,1011.8,,,,,,,,,-SHRA BR,FEW,300,BKN,1200,OVC,5000,,,MVFR,,,,,,,,,,,,METAR,495.0
FDSK 061500Z 05006KT CAVOK 28/16 Q1016 NOSIG,FDSK,2017-05-06T15:00:00Z,-26.35,31.72,28.0,16.0,50,6,,6.21,30.0,,,,,,TRUE,,,,,CAVOK,,,,,,,,VFR,,,,,,,,,,,,METAR,324.0
FMSD 061500Z 06012KT 9999 FEW016 24/21 Q1017,FMSD,2017-05-06T15:00:00Z,-25.02,46.95,24.0,21.0,60,12,,6.21,30.029528,,,,,,,,,,,FEW,1600,,,,,,,VFR,,,,,,,,,,,,METAR,9.0
FMNM 061500Z 30006KT 9999 FEW020 28/23 Q1013 NOSIG,FMNM,2017-05-06T15:00:00Z,-15.67,46.35,28.0,23.0,300,6,,6.21,29.911417,,,,,,TRUE,,,,,FEW,2000,,,,,,,VFR,,,,,,,,,,,,METAR,18.0
FMMT 061500Z 18004KT 6000 -RA SCT017 BKN033 26/23 Q1017 TEMPO 3500 RA,FMMT,2017-05-06T15:00:00Z,-18.12,49.38,26.0,23.0,180,4,,3.73,30.029528,,,,,,,,,,-RA,SCT,1700,BKN,3300,,,,,MVFR,,,,,,,,,,,,METAR,6.0
FMCH 071500Z 11006KT 9999 FEW020CB SCT025 27/23 Q1014 NOSIG,FMCH,2017-05-06T15:00:00Z,-11.52,43.27,27.0,23.0,110,6,,6.21,29.940945,,,,,,TRUE,,,,,FEW,2000,SCT,2500,,,,,VFR,,,,,,,,,,,,METAR,29.0
VTSS 061500Z 30004KT 9999 FEW020 BKN100 27/24 Q1013 NOSIG,VTSS,2017-05-06T15:00:00Z,6.92,100.38,27.0,24.0,300,4,,6.21,29.911417,,,,,,TRUE,,,,,FEW,2000,BKN,10000,,,,,VFR,,,,,,,,,,,,METAR,35.0
VTCT 061500Z 21008KT CAVOK 28/19 Q1013 A2992,VTCT,2017-05-06T15:00:00Z,19.95,99.88,28.0,19.0,210,8,,6.21,29.911417,,,,,,,,,,,CAVOK,,,,,,,,VFR,,,,,,,,,,,,METAR,390.0
VTCC 061500Z 03009KT 9999 FEW035 30/18 Q1014 NOSIG,VTCC,2017-05-06T15:00:00Z,18.77,98.97,30.0,18.0,30,9,,6.21,29.940945,,,,,,TRUE,,,,,FEW,3500,,,,,,,VFR,,,,,,,,,,,,METAR,314.0
VTBU 061500Z 17006KT 8000 FEW020CB 30/23 Q1013 NOSIG,VTBU,2017-05-06T15:00:00Z,12.68,101.0,30.0,23.0,170,6,,4.97,29.911417,,,,,,TRUE,,,,,FEW,2000,,,,,,,MVFR,,,,,,,,,,,,METAR,5.0
VTBS 061500Z 19009KT 9999 FEW020 31/25 Q1013 NOSIG,VTBS,2017-05-06T15:00:00Z,13.68,100.75,31.0,25.0,190,9,,6.21,29.911417,,,,,,TRUE,,,,,FEW,2000,,,,,,,VFR,,,,,,,,,,,,METAR,2.0
VTBD 061500Z 19006KT 9999 FEW020 30/26 Q1012 NOSIG,VTBD,2017-05-06T15:00:00Z,13.92,100.6,30.0,26.0,190,6,,6.21,29.88189,,,,,,TRUE,,,,,FEW,2000,,,,,,,VFR,,,,,,,,,,,,METAR,3.0
DAUH 061500Z 16009KT 8000 NSC 42/08 Q1011,DAUH,2017-05-06T15:00:00Z,31.67,6.15,42.0,8.0,160,9,,4.97,29.852362,,,,,,,,,,,CLR,,,,,,,,MVFR,,,,,,,,,,,,METAR,142.0
DAOO 061500Z 36014KT 9999 FEW020 SCT233 22/11 Q1018,DAOO,2017-05-06T15:00:00Z,35.62,-0.6,22.0,11.0,360,14,,6.21,30.059055,,,,,,,,,,,FEW,2000,SCT,23300,,,,,VFR,,,,,,,,,,,,METAR,90.0
DAON 061500Z 34012KT 9999 FEW026 SCT233 24/10 Q1018,DAON,2017-05-06T15:00:00Z,35.02,-1.47,24.0,10.0,340,12,,6.21,30.059055,,,,,,,,,,,FEW,2600,SCT,23300,,,,,VFR,,,,,,,,,,,,METAR,247.0
DABC 061500Z 36012KT 330V040 9999 FEW026 25/12 Q1018,DABC,2017-05-06T15:00:00Z,36.27,6.62,25.0,12.0,360,12,,6.21,30.059055,,,,,,,,,,,FEW,2600,,,,,,,VFR,,,,,,,,,,,,METAR,694.0
DABB 061500Z 01013KT 340V040 9999 FEW040 26/11 Q1016,DABB,2017-05-06T15:00:00Z,36.82,7.82,26.0,11.0,10,13,,6.21,30.0,,,,,,,,,,,FEW,4000,,,,,,,VFR,,,,,,,,,,,,METAR,4.0
DAAT 061500Z 26008KT 9999 SCT046 SCT100 35/// Q1021,DAAT,2017-05-06T15:00:00Z,22.82,5.47,,,260,8,,6.21,30.147638,,,,,,,,,,,SCT,4600,SCT,10000,,,,,VFR,,,,,,,,,,,,METAR,1377.0
DAAG 061500Z 35013KT 310V010 9999 FEW030 23/13 Q1019,DAAG,2017-05-06T15:00:00Z,36.72,3.22,23.0,13.0,350,13,,6.21,30.088583,,,,,,,,,,,FEW,3000,,,,,,,VFR,,,,,,,,,,,,METAR,25.0
FMCZ 061500Z 18004KT 9999 FEW022 SCT260 28/22 Q1014 NOSIG,FMCZ,2017-05-06T15:00:00Z,-12.8,45.27,28.0,22.0,180,4,,6.21,29.940945,,,,,,TRUE,,,,,FEW,2200,SCT,26000,,,,,VFR,,,,,,,,,,,,METAR,7.0
FSIA 061500Z 20004KT 9999 FEW014CB SCT018 28/25 Q1011 NOSIG,FSIA,2017-05-06T15:00:00Z,-4.67,55.52,28.0,25.0,200,4,,6.21,29.852362,,,,,,TRUE,,,,,FEW,1400,SCT,1800,,,,,VFR,,,,,,,,,,,,METAR,3.0
VEAT 061500Z 13003KT 5000 BR NSC 28/23 Q1008 NOSIG,VEAT,2017-05-06T15:00:00Z,23.87,91.25,28.0,23.0,130,3,,3.11,29.763779,,,,,,TRUE,,,,BR,CLR,,,,,,,,MVFR,,,,,,,,,,,,METAR,16.0
VEBS 061500Z 23018G30KT 4000 HZ SCT018 BKN100 30/26 Q1009 NOSIG,VEBS,2017-05-06T15:00:00Z,20.25,85.82,30.0,26.0,230,18,30,2.49,29.793306,,,,,,TRUE,,,,HZ,SCT,1800,BKN,10000,,,,,IFR,,,,,,,,,,,,METAR,46.0
VIDP 061500Z 04003KT 4000 HZ NSC 37/09 Q1006 NOSIG,VIDP,2017-05-06T15:00:00Z,28.57,77.12,37.0,9.0,40,3,,2.49,29.704725,,,,,,TRUE,,,,HZ,CLR,,,,,,,,IFR,,,,,,,,,,,,METAR,233.0
VAUD 061500Z 00000KT 5000 HZ FEW030 34/14 Q1010 NOSIG,VAUD,2017-05-06T15:00:00Z,24.6,73.9,34.0,14.0,0,0,,3.11,29.822834,,,,,,TRUE,,,,HZ,FEW,3000,,,,,,,MVFR,,,,,,,,,,,,METAR,514.0
VAAH 061500Z 25002KT 4000 FU NSC 37/09 Q1007 NOSIG,VAAH,2017-05-06T15:00:00Z,23.07,72.62,37.0,9.0,250,2,,2.49,29.734253,,,,,,TRUE,,,,FU,CLR,,,,,,,,IFR,,,,,,,,,,,,METAR,55.0
VIAR 061500Z 00000KT 3500 DU NSC 33/11 Q1006 BECMG 3000 DU,VIAR,2017-05-06T15:00:00Z,31.7,74.8,33.0,11.0,0,0,,2.17,29.704725,,,,,,,,,,DU,CLR,,,,,,,,IFR,,,,,,,,,,,,METAR,234.0
VOCI 061500Z 00000KT 3000 -TSRA FEW010 SCT020 FEW025CB BKN090 25/22 Q1012 NOSIG,VOCI,2017-05-06T15:00:00Z,10.15,76.4,25.0,22.0,0,0,,1.86,29.88189,,,,,,TRUE,,,,-TSRA,FEW,1000,SCT,2000,FEW,2500,BKN,9000,IFR,,,,,,,,,,,,METAR,8.0
VGEG 061500Z 21012KT 6000 SCT100 29/25 Q1009 NOSIG,VGEG,2017-05-06T15:00:00Z,22.27,91.82,29.0,25.0,210,12,,3.73,29.793306,,,,,,TRUE,,,,,SCT,10000,,,,,,,MVFR,,,,,,,,,,,,METAR,6.0
WSAP 061500Z 03002KT 9999 FEW018 SCT150 28/24 Q1013,WSAP,2017-05-06T15:00:00Z,1.37,103.92,28.0,24.0,30,2,,6.21,29.911417,,,,,,,,,,,FEW,1800,SCT,15000,,,,,VFR,,,,,,,,,,,,METAR,32.0
ROAH 061500Z 02005KT 8000 FEW010 BKN015 23/21 Q1015 RMK 1CU010 6CU015 A3000,ROAH,2017-05-06T15:00:00Z,26.17,127.65,23.0,21.0,20,5,,4.97,29.970472,,,,,,,,,,,FEW,1000,BKN,1500,,,,,MVFR,,,,,,,,,,,,METAR,8.0
RJTT 061500Z 23011KT 9999 FEW020 21/18 Q1006 NOSIG RMK 1CU020 A2973,RJTT,2017-05-06T15:00:00Z,35.53,139.77,21.0,18.0,230,11,,6.21,29.704725,,,,,,TRUE,,,,,FEW,2000,,,,,,,VFR,,,,,,,,,,,,METAR,8.0
RJFF 061500Z AUTO 06003KT 9999 NSC 17/11 Q1016 RMK A3001,RJFF,2017-05-06T15:00:00Z,33.57,130.43,17.0,11.0,60,3,,6.21,30.0,,,TRUE,,,,,,,,CLR,,,,,,,,VFR,,,,,,,,,,,,METAR,12.0
RJCC 061500Z 12004KT 0400 R19R/0200V0250N R19L/0250VP1800D FG SCT001 05/05 Q1006,RJCC,2017-05-06T15:00:00Z,42.77,141.67,5.0,5.0,120,4,,0.25,29.704725,,,,,,,,,,FG,SCT,100,,,,,,,LIFR,,,,,,,,,,,,METAR,30.0
GQPP 061500Z 34017KT 6000 DRSA NSC 22/17 Q1013 NOSIG,GQPP,2017-05-06T15:00:00Z,20.92,-17.02,22.0,17.0,340,17,,3.73,29.911417,,,,,,TRUE,,,,DRSA,CLR,,,,,,,,MVFR,,,,,,,,,,,,METAR,3.0
WSSL 061500Z 14003KT 9999 FEW018 BKN300 27/25 Q1013 RMK 1430Z Q1013,WSSL,2017-05-06T15:00:00Z,1.42,103.87,27.0,25.0,140,3,,6.21,29.911417,,,,,,,,,,,FEW,1800,BKN,30000,,,,,VFR,,,,,,,,,,,,SPECI,14.0
RJAA 061500Z 15004KT 9999 FEW015 SCT/// 18/17 Q1007 NOSIG,RJAA,2017-05-06T15:00:00Z,35.77,140.37,18.0,17.0,150,4,,6.21,29.734253,,,,,,TRUE,,,,,FEW,1500,,,,,,,VFR,,,,,,,,,,,,METAR,44.0
OMSJ 061500Z 36006KT CAVOK 35/20 Q1009,OMSJ,2017-05-06T15:00:00Z,25.32,55.52,35.0,20.0,360,6,,6.21,29.793306,,,,,,,,,,,CAVOK,,,,,,,,VFR,,,,,,,,,,,,METAR,33.0
OMFJ 061500Z 08004KT CAVOK 35/17 Q1009 A2980,OMFJ,2017-05-06T15:00:00Z,25.1,56.32,35.0,17.0,80,4,,6.21,29.793306,,,,,,,,,,,CAVOK,,,,,,,,VFR,,,,,,,,,,,,METAR,28.0
OMDW 061500Z 02006KT CAVOK 36/11 Q1009 NOSIG,OMDW,2017-05-06T15:00:00Z,24.9,55.17,36.0,11.0,20,6,,6.21,29.793306,,,,,,TRUE,,,,,CAVOK,,,,,,,,VFR,,,,,,,,,,,,METAR,25.0
OMDB 061500Z 32010KT CAVOK 34/20 Q1009 NOSIG,OMDB,2017-05-06T15:00:00Z,25.25,55.37,34.0,20.0,320,10,,6.21,29.793306,,,,,,TRUE,,,,,CAVOK,,,,,,,,VFR,,,,,,,,,,,,METAR,5.0
OMAL 061500Z 19008KT CAVOK 38/07 Q1010 NOSIG,OMAL,2017-05-06T15:00:00Z,24.25,55.6,38.0,7.0,190,8,,6.21,29.822834,,,,,,TRUE,,,,,CAVOK,,,,,,,,VFR,,,,,,,,,,,,METAR,262.0
OMAD 061500Z 16005KT 130V210 CAVOK 41/06 Q1007 NOSIG,OMAD,2017-05-06T15:00:00Z,24.42,54.47,41.0,6.0,160,5,,6.21,29.734253,,,,,,TRUE,,,,,CAVOK,,,,,,,,VFR,,,,,,,,,,,,METAR,3.0
OMAA 061500Z 17007KT CAVOK 41/04 Q1007 NOSIG,OMAA,2017-05-06T15:00:00Z,24.42,54.63,41.0,4.0,170,7,,6.21,29.734253,,,,,,TRUE,,,,,CAVOK,,,,,,,,VFR,,,,,,,,,,,,METAR,27.0
NCMH 061500Z AUTO NIL,NCMH,2017-05-06T15:00:00Z,-10.38,-161.0,,,,,,,,,,TRUE,,,,,,,,,,,,,,,,,,,,,,,,,,,,METAR,0.0
NCPY 061500Z AUTO 16004KT //// ///// 27/25 Q1009,NCPY,2017-05-06T15:00:00Z,-9.02,-158.07,27.0,25.0,160,4,,,29.793306,,,TRUE,,,,,,,,,,,,,,,,,,,,,,,,,,,,METAR,2.0
NCRG 061500Z 11003KT 9999 -SHRA SCT018TCU BKN100 25/24 Q1010,NCRG,2017-05-06T15:00:00Z,-21.2,-159.82,25.0,24.0,110,3,,6.21,29.822834,,,,,,,,,,-SHRA,SCT,1800,BKN,10000,,,,,VFR,,,,,,,,,,,,METAR,7.0
FYWH 061500Z 00000KT 9999 FEW040CB BKN090 22/07 Q1025 NOSIG,FYWH,2017-05-06T15:00:00Z,-22.47,17.47,22.0,7.0,0,0,,6.21,30.265747,,,,,,TRUE,,,,,FEW,4000,BKN,9000,,,,,VFR,,,,,,,,,,,,METAR,1700.0
FYWE 061500Z 27005KT 9999 FEW040TCU BKN090 23/04 Q1025,FYWE,2017-05-06T15:00:00Z,-22.62,17.08,23.0,4.0,270,5,,6.21,30.265747,,,,,,,,,,,FEW,4000,BKN,9000,,,,,VFR,,,,,,,,,,,,METAR,1700.0
FYKT 061500Z 24010KT 9999 FEW050 28/04 Q1019,FYKT,2017-05-06T15:00:00Z,-26.52,18.12,28.0,4.0,240,10,,6.21,30.088583,,,,,,,,,,,FEW,5000,,,,,,,VFR,,,,,,,,,,,,METAR,1061.0
FYGF 061500Z 10004KT 9999 SCT040 23/09 Q////,FYGF,2017-05-06T15:00:00Z,-19.6,18.12,23.0,9.0,100,4,,6.21,,,,,,,,,,,,SCT,4000,,,,,,,VFR,,,,,,,,,,,,METAR,1400.0
LPPD 061500Z 25020KT 9999 FEW025 16/11 Q1001,LPPD,2017-05-06T15:00:00Z,37.72,-25.68,16.0,11.0,250,20,,6.21,29.557087,,,,,,,,,,,FEW,2500,,,,,,,VFR,,,,,,,,,,,,METAR,72.0
LPLA 061500Z 23015KT 9999 SCT025 17/14 Q0998,LPLA,2017-05-06T15:00:00Z,38.77,-27.1,17.0,14.0,230,15,,6.21,29.468504,,,,,,,,,,,SCT,2500,,,,,,,VFR,,,,,,,,,,,,METAR,55.0
LPHR 061500Z 27027G38KT 9000 SCT017 FEW020CB 15/11 Q0997,LPHR,2017-05-06T15:00:00Z,38.52,-28.72,15.0,11.0,270,27,38,5.59,29.438976,,,,,,,,,,,SCT,1700,FEW,2000,,,,,VFR,,,,,,,,,,,,METAR,41.0
LPFL 061500Z VRB14G28KT 9999 VCSH BKN019 FEW022CB 14/09 Q0994 RESHRA,LPFL,2017-05-06T15:00:00Z,39.45,-31.12,14.0,9.0,0,14,28,6.21,29.350393,,,,,,,,,,VCSH,BKN,1900,FEW,2200,,,,,MVFR,,,,,,,,,,,,METAR,29.0
LPAZ 061500Z 25020KT 9999 FEW020 18/11 Q1003,LPAZ,2017-05-06T15:00:00Z,36.97,-25.17,18.0,11.0,250,20,,6.21,29.616142,,,,,,,,,,,FEW,2000,,,,,,,VFR,,,,,,,,,,,,METAR,100.0
LPPT 061500Z 20010KT 170V230 9999 FEW032 21/12 Q1018,LPPT,2017-05-06T15:00:00Z,38.77,-9.12,21.0,12.0,200,10,,6.21,30.059055,,,,,,,,,,,FEW,3200,,,,,,,VFR,,,,,,,,,,,,METAR,123.0
LPPS 061500Z 18014KT 9999 FEW014 22/14 Q1015,LPPS,2017-05-06T15:00:00Z,33.07,-16.35,22.0,14.0,180,14,,6.21,29.970472,,,,,,,,,,,FEW,1400,,,,,,,VFR,,,,,,,,,,,,METAR,82.0
LPPR 061500Z 22011KT 190V250 9999 FEW025 19/13 Q1018,LPPR,2017-05-06T15:00:00Z,41.22,-8.67,19.0,13.0,220,11,,6.21,30.059055,,,,,,,,,,,FEW,2500,,,,,,,VFR,,,,,,,,,,,,METAR,73.0
LPMA 061500Z 21017KT 9999 SCT018 22/14 Q1015,LPMA,2017-05-06T15:00:00Z,32.7,-16.77,22.0,14.0,210,17,,6.21,29.970472,,,,,,,,,,,SCT,1800,,,,,,,VFR,,,,,,,,,,,,METAR,55.0
LPFR 061500Z 18008KT 140V220 9999 FEW022 21/14 Q1019,LPFR,2017-05-06T15:00:00Z,37.02,-7.97,21.0,14.0,180,8,,6.21,30.088583,,,,,,,,,,,FEW,2200,,,,,,,VFR,,,,,,,,,,,,METAR,4.0
LPCS 061500Z 18009KT 140V220 9999 SCT018 20/15 Q1019,LPCS,2017-05-06T15:00:00Z,38.73,-9.35,20.0,15.0,180,9,,6.21,30.088583,,,,,,,,,,,SCT,1800,,,,,,,VFR,,,,,,,,,,,,METAR,99.0
LPBJ 061500Z 18010KT 150V220 9999 FEW036 SCT045 22/11 Q1018,LPBJ,2017-05-06T15:00:00Z,38.08,-7.93,22.0,11.0,180,10,,6.21,30.059055,,,,,,,,,,,FEW,3600,SCT,4500,,,,,VFR,,,,,,,,,,,,METAR,194.0
DTTN 061500Z 31016G27KT 9999 FEW020 25/17 Q1016,DTTN,2017-05-06T15:00:00Z,36.47,8.8,25.0,17.0,310,16,27,6.21,30.0,,,,,,,,,,,FEW,2000,,,,,,,VFR,,,,,,,,,,,,METAR,144.0
DTTL 061500Z 30010G23KT 240V350 CAVOK 24/15 Q1015,DTTL,2017-05-06T15:00:00Z,36.85,11.07,24.0,15.0,300,10,23,6.21,29.970472,,,,,,,,,,,CAVOK,,,,,,,,VFR,,,,,,,,,,,,METAR,30.0
DTTK 061500Z 09008KT CAVOK 32/15 Q1013,DTTK,2017-05-06T15:00:00Z,35.67,10.08,32.0,15.0,90,8,,6.21,29.911417,,,,,,,,,,,CAVOK,,,,,,,,VFR,,,,,,,,,,,,METAR,68.0
DTTD 061500Z AUTO VRB03KT NCD 38/M01 Q1014,DTTD,2017-05-06T15:00:00Z,32.32,10.4,38.0,-1.0,0,3,,,29.940945,,,TRUE,,,,,,,,CLR,,,,,,,,,,,,,,,,,,,,METAR,301.0
DTTB 061500Z 29016G26KT 9999 FEW020 23/15 Q1016,DTTB,2017-05-06T15:00:00Z,37.25,9.8,23.0,15.0,290,16,26,6.21,30.0,,,,,,,,,,,FEW,2000,,,,,,,VFR,,,,,,,,,,,,METAR,3.0
RJOH 061500Z 26008KT 9999 FEW050 BKN/// 17/07 Q1013,RJOH,2017-05-06T15:00:00Z,35.47,133.25,17.0,7.0,260,8,,6.21,29.911417,,,,,,,,,,,FEW,5000,,,,,,,VFR,,,,,,,,,,,,METAR,9.0
RJAH 061500Z 09004KT 9999 FEW015 SCT035 BKN/// 19/16 Q1007,RJAH,2017-05-06T15:00:00Z,36.17,140.42,19.0,16.0,90,4,,6.21,29.734253,,,,,,,,,,,FEW,1500,SCT,3500,,,,,VFR,,,,,,,,,,,,METAR,35.0
RJFR 061500Z 27012KT 9999 FEW030 BKN160 19/07 Q1014,RJFR,2017-05-06T15:00:00Z,33.82,131.03,19.0,7.0,270,12,,6.21,29.940945,,,,,,,,,,,FEW,3000,BKN,16000,,,,,VFR,,,,,,,,,,,,METAR,6.0
VOHY 061500Z VRB02KT 6000 SCT020 SCT100 32/16 Q1012 NOSIG,VOHY,2017-05-06T15:00:00Z,17.45,78.45,32.0,16.0,0,2,,3.73,29.88189,,,,,,TRUE,,,,,SCT,2000,SCT,10000,,,,,MVFR,,,,,,,,,,,,METAR,545.0
VOMD 061500Z 18015G25KT 6000 FEW020 31/22 Q1012 NOSIG,VOMD,2017-05-06T15:00:00Z,9.82,78.07,31.0,22.0,180,15,25,3.73,29.88189,,,,,,TRUE,,,,,FEW,2000,,,,,,,MVFR,,,,,,,,,,,,METAR,131.0
FAKM 061500Z 31007KT CAVOK 25/02 Q1021,FAKM,2017-05-06T15:00:00Z,-28.8,24.77,25.0,2.0,310,7,,6.21,30.147638,,,,,,,,,,,CAVOK,,,,,,,,VFR,,,,,,,,,,,,METAR,1192.0
VABB 061500Z 25004KT 4000 HZ NSC 30/25 Q1010 NOSIG,VABB,2017-05-06T15:00:00Z,19.1,72.87,30.0,25.0,250,4,,2.49,29.822834,,,,,,TRUE,,,,HZ,CLR,,,,,,,,IFR,,,,,,,,,,,,METAR,8.0
FAWK 061500Z AUTO 31006KT //// ///// Q1026,FAWK,2017-05-06T15:00:00Z,-25.82,28.22,,,310,6,,,30.295275,,,TRUE,,,,,,,,,,,,,,,,,,,,,,,,,,,,METAR,1500.0
FAWB 061500Z AUTO 27003KT //// 23/05 Q1022,FAWB,2017-05-06T15:00:00Z,-25.63,28.22,23.0,5.0,270,3,,,30.177166,,,TRUE,,,,,,,,,,,,,,,,,,,,,,,,,,,,METAR,1248.0
FAUT 061500Z 10004KT 9999 FEW030 24/16 Q1017,FAUT,2017-05-06T15:00:00Z,-31.52,28.67,24.0,16.0,100,4,,6.21,30.029528,,,,,,,,,,,FEW,3000,,,,,,,VFR,,,,,,,,,,,,METAR,732.0
VOCL 061500Z 31006KT 6000 SCT012 FEW025CB 31/24 Q1011 NOSIG,VOCL,2017-05-06T15:00:00Z,11.13,75.95,31.0,24.0,310,6,,3.73,29.852362,,,,,,TRUE,,,,,SCT,1200,FEW,2500,,,,,MVFR,,,,,,,,,,,,METAR,104.0
VOBL 061500Z 13006KT 6000 SCT015 SCT020 FEW025CB 30/15 Q1015 NOSIG,VOBL,2017-05-06T15:00:00Z,13.2,77.7,30.0,15.0,130,6,,3.73,29.970472,,,,,,TRUE,,,,,SCT,1500,SCT,2000,FEW,2500,,,MVFR,,,,,,,,,,,,METAR,915.0
WAMM 061500Z 05001KT 9999 FEW022 25/24 Q1012 NOSIG,WAMM,2017-05-06T15:00:00Z,1.55,124.92,25.0,24.0,50,1,,6.21,29.88189,,,,,,TRUE,,,,,FEW,2200,,,,,,,VFR,,,,,,,,,,,,METAR,80.0
VOCB 061500Z 18008KT 6000 TS SCT015 FEW018CB 30/23 Q1012 TEMPO 5000 -TSRA,VOCB,2017-05-06T15:00:00Z,11.02,77.03,30.0,23.0,180,8,,3.73,29.88189,,,,,,,,,,TS,SCT,1500,FEW,1800,,,,,MVFR,,,,,,,,,,,,METAR,399.0
TNCA 061500Z 12016KT 9999 FEW022 31/25 Q1011 A2988 NOSIG,TNCA,2017-05-06T15:00:00Z,12.5,-70.0,31.0,25.0,120,16,,6.21,29.852362,,,,,,TRUE,,,,,FEW,2200,,,,,,,VFR,,,,,,,,,,,,METAR,18.0
EIWF 061500Z 06007G18KT 9999 SCT023 BKN031 12/07 Q1015,EIWF,2017-05-06T15:00:00Z,52.18,-7.08,12.0,7.0,60,7,18,6.21,29.970472,,,,,,,,,,,SCT,2300,BKN,3100,,,,,VFR,,,,,,,,,,,,METAR,36.0
EIME 061500Z 07013G29KT 9999 BKN027 BKN043 12/05 Q1017,EIME,2017-05-06T15:00:00Z,53.3,-6.45,12.0,5.0,70,13,29,6.21,30.029528,,,,,,,,,,,BKN,2700,BKN,4300,,,,,MVFR,,,,,,,,,,,,METAR,93.0
EIKY 061500Z 09010KT 9999 SCT027 BKN043 13/07 Q1015,EIKY,2017-05-06T15:00:00Z,52.18,-9.52,13.0,7.0,90,10,,6.21,29.970472,,,,,,,,,,,SCT,2700,BKN,4300,,,,,VFR,,,,,,,,,,,,METAR,34.0
EIDL 061500Z 04020KT CAVOK 15/08 Q1018,EIDL,2017-05-06T15:00:00Z,55.05,-8.33,15.0,8.0,40,20,,6.21,30.059055,,,,,,,,,,,CAVOK,,,,,,,,VFR,,,,,,,,,,,,METAR,9.0
TDPD 061500Z 11010KT 9999 BKN018 29/23 Q1017,TDPD,2017-05-06T15:00:00Z,15.55,-61.3,29.0,23.0,110,10,,6.21,30.029528,,,,,,,,,,,BKN,1800,,,,,,,MVFR,,,,,,,,,,,,METAR,14.0
VOTR 061500Z 15010KT 6000 FEW018 FEW025CB 34/23 Q1009 NOSIG,VOTR,2017-05-06T15:00:00Z,10.77,78.72,34.0,23.0,150,10,,3.73,29.793306,,,,,,TRUE,,,,,FEW,1800,FEW,2500,,,,,MVFR,,,,,,,,,,,,METAR,88.0
VERC 061500Z 00000KT 5000 HZ NSC 32/15 Q1011 NOSIG,VERC,2017-05-06T15:00:00Z,23.32,85.32,32.0,15.0,0,0,,3.11,29.852362,,,,,,TRUE,,,,HZ,CLR,,,,,,,,MVFR,,,,,,,,,,,,METAR,652.0
VOTV 061500Z 36006KT 4000 -TSRA FEW010 SCT015 FEW025CB BKN090 29/25 Q1011 NOSIG,VOTV,2017-05-06T15:00:00Z,8.47,76.95,29.0,25.0,360,6,,2.49,29.852362,,,,,,TRUE,,,,-TSRA,FEW,1000,SCT,1500,FEW,2500,BKN,9000,IFR,,,,,,,,,,,,METAR,8.0
VOBG 061500Z 13006KT 9999 SCT015 FEW025CB SCT080 31/17 Q1015,VOBG,2017-05-06T15:00:00Z,12.95,77.63,31.0,17.0,130,6,,6.21,29.970472,,,,,,,,,,,SCT,1500,FEW,2500,SCT,8000,,,VFR,,,,,,,,,,,,METAR,897.0
VOTP 061500Z 18005KT 6000 FEW020 35/20 Q1008,VOTP,2017-05-06T15:00:00Z,13.63,79.55,35.0,20.0,180,5,,3.73,29.763779,,,,,,,,,,,FEW,2000,,,,,,,MVFR,,,,,,,,,,,,METAR,107.0
VOBZ 061500Z 18006KT 2500 HZ FEW020 31/26 Q1008 NOSIG,VOBZ,2017-05-06T15:00:00Z,16.52,80.78,31.0,26.0,180,6,,1.55,29.763779,,,,,,TRUE,,,,HZ,FEW,2000,,,,,,,IFR,,,,,,,,,,,,METAR,24.0
SLET 061500Z 33010KT 9999 SCT015 BKN017 27/22 Q1013,SLET,2017-05-06T15:00:00Z,-17.8,-63.17,27.0,22.0,330,10,,6.21,29.911417,,,,,,,,,,,SCT,1500,BKN,1700,,,,,MVFR,,,,,,,,,,,,METAR,414.0
NGTT 061500Z 07013KT 9999 FEW018TCU 28/25 Q1009,NGTT,2017-05-06T15:00:00Z,1.35,172.92,28.0,25.0,70,13,,6.21,29.793306,,,,,,,,,,,FEW,1800,,,,,,,VFR,,,,,,,,,,,,METAR,2.0
LERI 061500Z VRB03KT CAVOK 27/07 Q1016 NOSIG,LERI,2017-05-06T15:00:00Z,37.95,-1.22,27.0,7.0,0,3,,6.21,30.0,,,,,,TRUE,,,,,CAVOK,,,,,,,,VFR,,,,,,,,,,,,METAR,75.0
LEGT 061500Z 24011KT 9999 FEW040 20/05 Q1019,LEGT,2017-05-06T15:00:00Z,40.28,-3.72,20.0,5.0,240,11,,6.21,30.088583,,,,,,,,,,,FEW,4000,,,,,,,VFR,,,,,,,,,,,,METAR,612.0
FAVV 061500Z AUTO /////KT //// // ////// 21/// Q////,FAVV,2017-05-06T15:00:00Z,-26.57,27.97,,,,,,,,,,TRUE,,,,,,,,,,,,,,,,,,,0.0,,,,,,,,,METAR,1483.0
FASI 061500Z AUTO /////KT //// // ////// 18/06 Q1029,FASI,2017-05-06T15:00:00Z,-26.25,28.4,18.0,6.0,,,,,30.383858,,,TRUE,,,,,,,,,,,,,,,,,,,,,,,,,,,,METAR,1628.0
FAJB 061500Z AUTO 00000KT //// // ////// 21/04 Q1025,FAJB,2017-05-06T15:00:00Z,-26.15,28.0,21.0,4.0,0,0,,,30.265747,,,TRUE,,,,,,,,,,,,,,,,,,,,,,,,,,,,METAR,1626.0
LERT 061500Z 27011KT 240V320 9999 FEW035 21/12 Q1018 NOSIG,LERT,2017-05-06T15:00:00Z,36.63,-6.33,21.0,12.0,270,11,,6.21,30.059055,,,,,,TRUE,,,,,FEW,3500,,,,,,,VFR,,,,,,,,,,,,METAR,26.0
SUDU 061500Z 04012KT 9000 OVC008 17/15 Q1018,SUDU,2017-05-06T15:00:00Z,-33.35,-56.5,17.0,15.0,40,12,,5.59,30.059055,,,,,,,,,,,OVC,800,,,,,,,IFR,,,,,,,,,,,,SPECI,93.0
SUSO 061500Z 09010KT 9999 FEW010 BKN200 23/18 Q1016,SUSO,2017-05-06T15:00:00Z,-31.43,-57.98,23.0,18.0,90,10,,6.21,30.0,,,,,,,,,,,FEW,1000,BKN,20000,,,,,VFR,,,,,,,,,,,,SPECI,34.0
SULS 061500Z 05008KT 9999 FEW020 BKN200 22/17 Q1019,SULS,2017-05-06T15:00:00Z,-34.87,-55.1,22.0,17.0,50,8,,6.21,30.088583,,,,,,,,,,,FEW,2000,BKN,20000,,,,,VFR,,,,,,,,,,,,SPECI,30.0
SUCA 061500Z XXXXXKT 9999 FEW030 BKN200 21/16 Q1015,SUCA,2017-05-06T15:00:00Z,-34.45,-57.77,21.0,16.0,,,,6.21,29.970472,,,,,,,,,,,FEW,3000,BKN,20000,,,,,VFR,,,,,,,,,,,,METAR,23.0
SUAA 061500Z 03010KT 9999 SCT010 BKN200 19/16 Q1019,SUAA,2017-05-06T15:00:00Z,-34.77,-56.25,19.0,16.0,30,10,,6.21,30.088583,,,,,,,,,,,SCT,1000,BKN,20000,,,,,VFR,,,,,,,,,,,,SPECI,54.0
SLVR 061500Z 35015KT 9999 FEW015 BKN020 29/23 Q1014,SLVR,2017-05-06T15:00:00Z,-17.63,-63.12,29.0,23.0,350,15,,6.21,29.940945,,,,,,,,,,,FEW,1500,BKN,2000,,,,,MVFR,,,,,,,,,,,,SPECI,373.0
SLTR 061500Z 00000KT 9999 FEW020 31/26 Q1014,SLTR,2017-05-06T15:00:00Z,-14.83,-64.92,31.0,26.0,0,0,,6.21,29.940945,,,,,,,,,,,FEW,2000,,,,,,,VFR,,,,,,,,,,,,SPECI,157.0
SLTJ 061500Z 22004KT 9999 NSC 21/12 Q1016,SLTJ,2017-05-06T15:00:00Z,-21.55,-64.72,21.0,12.0,220,4,,6.21,30.0,,,,,,,,,,,CLR,,,,,,,,VFR,,,,,,,,,,,,SPECI,1858.0
SLLP 061500Z 11006KT 9999 FEW015 12/02 Q1039,SLLP,2017-05-06T15:00:00Z,-16.52,-68.17,12.0,2.0,110,6,,6.21,30.679134,,,,,,,,,,,FEW,1500,,,,,,,VFR,,,,,,,,,,,,SPECI,4014.0
SLCB 061500Z VRB02KT 9999 FEW033 21/06 Q1026,SLCB,2017-05-06T15:00:00Z,-17.42,-66.18,21.0,6.0,0,2,,6.21,30.295275,,,,,,,,,,,FEW,3300,,,,,,,VFR,,,,,,,,,,,,SPECI,2548.0
SGES 061500Z 06004G14KT 030V100 7000 BKN008 OVC013 23/21 Q1017,SGES,2017-05-06T15:00:00Z,-25.45,-54.85,23.0,21.0,60,4,14,4.35,30.029528,,,,,,,,,,,BKN,800,OVC,1300,,,,,IFR,,,,,,,,,,,,SPECI,849.0
SGAS 061500Z 05008KT 350V070 9999 FEW033 26/21 Q1015,SGAS,2017-05-06T15:00:00Z,-25.25,-57.52,26.0,21.0,50,8,,6.21,29.970472,,,,,,,,,,,FEW,3300,,,,,,,VFR,,,,,,,,,,,,SPECI,101.0
SBTF 061500Z 09006KT 9999 FEW018 31/25 Q1013,SBTF,2017-05-06T15:00:00Z,-3.37,-64.72,31.0,25.0,90,6,,6.21,29.911417,,,,,,,,,,,FEW,1800,,,,,,,VFR,,,,,,,,,,,,SPECI,47.0
SBPP 061500Z 35011KT 9999 SCT015 24/19 Q1018,SBPP,2017-05-06T15:00:00Z,-22.55,-55.7,24.0,19.0,350,11,,6.21,30.059055,,,,,,,,,,,SCT,1500,,,,,,,VFR,,,,,,,,,,,,SPECI,660.0
SBCY 061500Z 32003KT CAVOK 33/21 Q1014,SBCY,2017-05-06T15:00:00Z,-15.65,-56.12,33.0,21.0,320,3,,6.21,29.940945,,,,,,,,,,,CAVOK,,,,,,,,VFR,,,,,,,,,,,,SPECI,182.0
SBTT 061500Z 08003KT 9999 BKN015 BKN080 27/24 Q1014,SBTT,2017-05-06T15:00:00Z,-4.25,-69.93,27.0,24.0,80,3,,6.21,29.940945,,,,,,,,,,,BKN,1500,BKN,8000,,,,,MVFR,,,,,,,,,,,,SPECI,85.0
SBSG 061500Z 17010KT 140V210 9999 BKN030 29/23 Q1011,SBSG,2017-05-06T15:00:00Z,-5.77,-35.37,29.0,23.0,170,10,,6.21,29.852362,,,,,,,,,,,BKN,3000,,,,,,,MVFR,,,,,,,,,,,,SPECI,83.0
SBBE 061500Z 12006KT 9999 BKN030 32/24 Q1011,SBBE,2017-05-06T15:00:00Z,-1.37,-48.47,32.0,24.0,120,6,,6.21,29.852362,,,,,,,,,,,BKN,3000,,,,,,,MVFR,,,,,,,,,,,,SPECI,16.0
SLYA 061500Z 04010KT 9999 BKN015 OVC070 21/20 Q1012,SLYA,2017-05-06T15:00:00Z,-21.97,-63.65,21.0,20.0,40,10,,6.21,29.88189,,,,,,,,,,,BKN,1500,OVC,7000,,,,,MVFR,,,,,,,,,,,,SPECI,645.0
SLVM 061500Z 36012KT 9999 SCT020 BKN070 26/20 Q1011,SLVM,2017-05-06T15:00:00Z,-21.25,-63.4,26.0,20.0,360,12,,6.21,29.852362,,,,,,,,,,,SCT,2000,BKN,7000,,,,,VFR,,,,,,,,,,,,SPECI,400.0
SLSI 061500Z 06006KT 9999 SCT017 30/24 Q1015,SLSI,2017-05-06T15:00:00Z,-16.37,-60.95,30.0,24.0,60,6,,6.21,29.970472,,,,,,,,,,,SCT,1700,,,,,,,VFR,,,,,,,,,,,,SPECI,413.0
SLSA 061500Z 00000KT 9999 SCT020 31/24 Q1014,SLSA,2017-05-06T15:00:00Z,-13.77,-65.43,31.0,24.0,0,0,,6.21,29.940945,,,,,,,,,,,SCT,2000,,,,,,,VFR,,,,,,,,,,,,SPECI,144.0
SLRY 061500Z 00000KT 9999 SCT017 30/25 Q1014,SLRY,2017-05-06T15:00:00Z,-14.3,-67.37,30.0,25.0,0,0,,6.21,29.940945,,,,,,,,,,,SCT,1700,,,,,,,VFR,,,,,,,,,,,,SPECI,280.0
SLRQ 061500Z 00000KT 9999 SCT015 BKN070 29/26 Q1015,SLRQ,2017-05-06T15:00:00Z,-14.42,-67.5,29.0,26.0,0,0,,6.21,29.970472,,,,,,,,,,,SCT,1500,BKN,7000,,,,,VFR,,,,,,,,,,,,SPECI,203.0
SLRI 061500Z 17006KT 9999 BKN017 BKN200 30/24 Q1014,SLRI,2017-05-06T15:00:00Z,-11.02,-66.08,30.0,24.0,170,6,,6.21,29.940945,,,,,,,,,,,BKN,1700,BKN,20000,,,,,MVFR,,,,,,,,,,,,SPECI,135.0
SLRB 061500Z 00000KT 9999 SCT020 26/22 Q1018,SLRB,2017-05-06T15:00:00Z,-18.32,-59.75,26.0,22.0,0,0,,6.21,30.059055,,,,,,,,,,,SCT,2000,,,,,,,VFR,,,,,,,,,,,,SPECI,284.0
SLPS 061500Z 09004KT 9999 SCT015 29/25 Q1014,SLPS,2017-05-06T15:00:00Z,-18.98,-57.82,29.0,25.0,90,4,,6.21,29.940945,,,,,,,,,,,SCT,1500,,,,,,,VFR,,,,,,,,,,,,SPECI,135.0
SLOR 061500Z 34005KT 9999 FEW017 13/01 Q1037,SLOR,2017-05-06T15:00:00Z,-17.97,-67.08,13.0,1.0,340,5,,6.21,30.620079,,,,,,,,,,,FEW,1700,,,,,,,VFR,,,,,,,,,,,,SPECI,3702.0
SLMG 061500Z 12004KT 9999 SCT017 29/26 Q1014,SLMG,2017-05-06T15:00:00Z,-13.27,-64.07,29.0,26.0,120,4,,6.21,29.940945,,,,,,,,,,,SCT,1700,,,,,,,VFR,,,,,,,,,,,,SPECI,141.0
SLJO 061500Z 00000KT 9999 SCT017 31/25 Q1014,SLJO,2017-05-06T15:00:00Z,-13.07,-64.67,31.0,25.0,0,0,,6.21,29.940945,,,,,,,,,,,SCT,1700,,,,,,,VFR,,,,,,,,,,,,SPECI,140.0
SLJE 061500Z 36004KT 9999 SCT012 29/24 Q1017,SLJE,2017-05-06T15:00:00Z,-17.82,-60.75,29.0,24.0,360,4,,6.21,30.029528,,,,,,,,,,,SCT,1200,,,,,,,VFR,,,,,,,,,,,,SPECI,284.0
SLCP 061500Z 36008KT 9999 BKN015 28/24 Q1018,SLCP,2017-05-06T15:00:00Z,-16.15,-62.02,28.0,24.0,360,8,,6.21,30.059055,,,,,,,,,,,BKN,1500,,,,,,,MVFR,,,,,,,,,,,,SPECI,497.0
SLCO 061500Z 19006KT 9999 BKN017 30/25 Q1014,SLCO,2017-05-06T15:00:00Z,-11.03,-68.78,30.0,25.0,190,6,,6.21,29.940945,,,,,,,,,,,BKN,1700,,,,,,,MVFR,,,,,,,,,,,,SPECI,272.0
SLCA 061500Z 36006KT 9999 BKN033 23/18 Q1016,SLCA,2017-05-06T15:00:00Z,-20.0,-63.53,23.0,18.0,360,6,,6.21,30.0,,,,,,,,,,,BKN,3300,,,,,,,VFR,,,,,,,,,,,,SPECI,798.0
OMRK 061500Z 01008KT CAVOK 34/15 Q1009 A2980,OMRK,2017-05-06T15:00:00Z,25.62,55.92,34.0,15.0,10,8,,6.21,29.793306,,,,,,,,,,,CAVOK,,,,,,,,VFR,,,,,,,,,,,,SPECI,31.0
GMME 061500Z 36016KT 8000 NSC 22/14 Q1016 NOSIG,GMME,2017-05-06T15:00:00Z,34.03,-6.77,22.0,14.0,360,16,,4.97,30.0,,,,,,TRUE,,,,,CLR,,,,,,,,MVFR,,,,,,,,,,,,SPECI,75.0
FBSK 061500Z VRB02KT CAVOK 26/03 Q1022 NOSIG,FBSK,2017-05-06T15:00:00Z,-24.55,25.92,26.0,3.0,0,2,,6.21,30.177166,,,,,,TRUE,,,,,CAVOK,,,,,,,,VFR,,,,,,,,,,,,SPECI,1005.0
DIAP 061500Z 20009KT 9999 FEW011 31/26 Q1009 NOSIG,DIAP,2017-05-06T15:00:00Z,5.25,-3.92,31.0,26.0,200,9,,6.21,29.793306,,,,,,TRUE,,,,,FEW,1100,,,,,,,VFR,,,,,,,,,,,,SPECI,8.0
SARC 061500Z 05011KT 9999 SCT015 BKN020 25/19 Q1014,SARC,2017-05-06T15:00:00Z,-27.43,-58.77,25.0,19.0,50,11,,6.21,29.940945,,,,,,,,,,,SCT,1500,BKN,2000,,,,,MVFR,,,,,,,,,,,,METAR,62.0
GEML 061500Z 03007KT 360V060 CAVOK 24/10 Q1018,GEML,2017-05-06T15:00:00Z,35.27,-2.95,24.0,10.0,30,7,,6.21,30.059055,,,,,,,,,,,CAVOK,,,,,,,,VFR,,,,,,,,,,,,METAR,55.0
LESU 061500Z 20010KT 170V230 9999 SCT070 20/02 Q1014,LESU,2017-05-06T15:00:00Z,42.33,1.4,20.0,2.0,200,10,,6.21,29.940945,,,,,,,,,,,SCT,7000,,,,,,,VFR,,,,,,,,,,,,METAR,800.0
LECH 061500Z 14012KT 080V200 CAVOK 24/05 Q1016,LECH,2017-05-06T15:00:00Z,40.2,0.07,24.0,5.0,140,12,,6.21,30.0,,,,,,,,,,,CAVOK,,,,,,,,VFR,,,,,,,,,,,,METAR,337.0
LEHC 061500Z 26014KT 220V310 9999 FEW040 21/03 Q1016,LEHC,2017-05-06T15:00:00Z,42.08,-0.32,21.0,3.0,260,14,,6.21,30.0,,,,,,,,,,,FEW,4000,,,,,,,VFR,,,,,,,,,,,,METAR,539.0
LEBG 061500Z 23009KT 200V260 9999 BKN054 14/05 Q1019,LEBG,2017-05-06T15:00:00Z,42.37,-3.62,14.0,5.0,230,9,,6.21,30.088583,,,,,,,,,,,BKN,5400,,,,,,,VFR,,,,,,,,,,,,METAR,891.0
LEBA 061500Z AUTO 18002KT 9999 NCD 24/09 Q1018,LEBA,2017-05-06T15:00:00Z,37.85,-4.82,24.0,9.0,180,2,,6.21,30.059055,,,TRUE,,,,,,,,CLR,,,,,,,,VFR,,,,,,,,,,,,METAR,92.0
LELO 061500Z 29015G26KT 250V340 9999 SCT040 21/03 Q1017,LELO,2017-05-06T15:00:00Z,42.45,-2.32,21.0,3.0,290,15,26,6.21,30.029528,,,,,,,,,,,SCT,4000,,,,,,,VFR,,,,,,,,,,,,METAR,363.0
LECV 061500Z 20004KT 9999 BKN055 17/03 Q1019,LECV,2017-05-06T15:00:00Z,40.63,-3.72,17.0,3.0,200,4,,6.21,30.088583,,,,,,,,,,,BKN,5500,,,,,,,VFR,,,,,,,,,,,,METAR,710.0
LEBT 061500Z AUTO 27013KT 240V320 9999 // NCD 29/M00 Q1015,LEBT,2017-05-06T15:00:00Z,39.58,-0.45,29.0,0.0,270,13,,6.21,29.970472,,,TRUE,,,,,,,,CLR,,,,,,,,VFR,,,,,,,,,,,,METAR,50.0
KFME 061500Z AUTO 23004KT 2 1/2SM SCT015 BKN020 OVC025 12/11 A2942 RMK AO1,KFME,2017-05-06T15:00:00Z,39.08,-76.77,12.0,11.0,230,4,,2.5,29.421259,,,TRUE,TRUE,,,,,,,SCT,1500,BKN,2000,OVC,2500,,,IFR,,,,,,,,,,,,METAR,46.0
VEGY 061500Z 07007KT 4000 HZ NSC 33/24 Q1005,VEGY,2017-05-06T15:00:00Z,24.75,84.95,33.0,24.0,70,7,,2.49,29.675198,,,,,,,,,,HZ,CLR,,,,,,,,IFR,,,,,,,,,,,,METAR,116.0
VEGT 061500Z 22011KT 2000 -TSRA SCT016 FEW025CB OVC090 23/22 Q1009 BECMG 3000 BR,VEGT,2017-05-06T15:00:00Z,26.1,91.58,23.0,22.0,220,11,,1.24,29.793306,,,,,,,,,,-TSRA,SCT,1600,FEW,2500,OVC,9000,,,IFR,,,,,,,,,,,,METAR,54.0
VECC 061500Z 24012KT 3200 HZ SCT020 FEW030CB SCT100 30/26 Q1007 TEMPO TL1530 2000 TSRA,VECC,2017-05-06T15:00:00Z,22.65,88.43,30.0,26.0,240,12,,1.99,29.734253,,,,,,,,,,HZ,SCT,2000,FEW,3000,SCT,10000,,,IFR,,,,,,,,,,,,METAR,6.0
WIII 061500Z VRB03KT 4000 -RA BKN018 26/25 Q1013 NOSIG,WIII,2017-05-06T15:00:00Z,-6.13,106.67,26.0,25.0,0,3,,2.49,29.911417,,,,,,TRUE,,,,-RA,BKN,1800,,,,,,,IFR,,,,,,,,,,,,METAR,8.0
YMOR 061500Z AUTO 07008KT 9999 // NCD 10/06 Q1024,YMOR,2017-05-06T15:00:00Z,-29.5,149.85,10.0,6.0,70,8,,6.21,30.236221,,,TRUE,,,,,,,,CLR,,,,,,,,VFR,,,,,,,,,,,,METAR,214.0
YMML 061500Z 27012KT 9999 FEW035 08/04 Q1024 FM1500 MOD TURB BLW 5000FT,YMML,2017-05-06T15:00:00Z,-37.67,144.82,8.0,4.0,270,12,,6.21,30.236221,,,,,,,,,,,FEW,3500,,,,,,,VFR,,,,,,,,,,,,METAR,141.0
YMIA 061500Z AUTO 21006KT 9999 // NCD 10/04 Q1028,YMIA,2017-05-06T15:00:00Z,-34.23,142.08,10.0,4.0,210,6,,6.21,30.35433,,,TRUE,,,,,,,,CLR,,,,,,,,VFR,,,,,,,,,,,,METAR,51.0
YMER 061500Z AUTO 19007KT 9999 // BKN084 BKN100 13/09 Q1018,YMER,2017-05-06T15:00:00Z,-36.92,149.9,13.0,9.0,190,7,,6.21,30.059055,,,TRUE,,,,,,,,BKN,8400,BKN,10000,,,,,VFR,,,,,,,,,,,,METAR,2.0
YMEN 061500Z AUTO 29010KT 9999 // SCT062 BKN074 08/05 Q1024,YMEN,2017-05-06T15:00:00Z,-37.72,144.9,8.0,5.0,290,10,,6.21,30.236221,,,TRUE,,,,,,,,SCT,6200,BKN,7400,,,,,VFR,,,,,,,,,,,,METAR,86.0
YMEK 061500Z AUTO 09007KT 9999 // NCD 19/02 Q1025,YMEK,2017-05-06T15:00:00Z,-26.62,118.55,19.0,2.0,90,7,,6.21,30.265747,,,TRUE,,,,,,,,CLR,,,,,,,,VFR,,,,,,,,,,,,METAR,522.0
YMDG 061500Z AUTO 00000KT 9999 // SCT060 10/10 Q1024,YMDG,2017-05-06T15:00:00Z,-32.57,149.62,10.0,10.0,0,0,,6.21,30.236221,,,TRUE,,,,,,,,SCT,6000,,,,,,,VFR,,,,,,,,,,,,METAR,471.0
YMAY 061500Z AUTO 27007KT 9999 // NCD 09/05 Q1023,YMAY,2017-05-06T15:00:00Z,-36.07,146.93,9.0,5.0,270,7,,6.21,30.206694,,,TRUE,,,,,,,,CLR,,,,,,,,VFR,,,,,,,,,,,,METAR,171.0
YMAV 061500Z AUTO 28016KT 9999 // NCD 08/06 Q1024,YMAV,2017-05-06T15:00:00Z,-38.03,144.48,8.0,6.0,280,16,,6.21,30.236221,,,TRUE,,,,,,,,CLR,,,,,,,,VFR,,,,,,,,,,,,METAR,8.0
YLRE 061500Z AUTO 14007KT 9999 // NCD 17/04 Q1020,YLRE,2017-05-06T15:00:00Z,-23.43,144.28,17.0,4.0,140,7,,6.21,30.11811,,,TRUE,,,,,,,,CLR,,,,,,,,VFR,,,,,,,,,,,,METAR,193.0
FAUP 061500Z 24006KT 9999 FEW050 28/04 Q1018 NOSIG,FAUP,2017-05-06T15:00:00Z,-28.38,21.27,28.0,4.0,240,6,,6.21,30.059055,,,,,,TRUE,,,,,FEW,5000,,,,,,,VFR,,,,,,,,,,,,METAR,836.0
FAPP 061500Z 19002KT CAVOK 24/06 Q1022 NOSIG,FAPP,2017-05-06T15:00:00Z,-23.83,29.45,24.0,6.0,190,2,,6.21,30.177166,,,,,,TRUE,,,,,CAVOK,,,,,,,,VFR,,,,,,,,,,,,METAR,1242.0
FAPE 061500Z 23015KT 9999 BKN030 17/10 Q1017 NOSIG,FAPE,2017-05-06T15:00:00Z,-33.97,25.6,17.0,10.0,230,15,,6.21,30.029528,,,,,,TRUE,,,,,BKN,3000,,,,,,,MVFR,,,,,,,,,,,,METAR,60.0
FAOR 061500Z 31006KT 270V350 CAVOK 20/03 Q1026 NOSIG,FAOR,2017-05-06T15:00:00Z,-26.12,28.22,20.0,3.0,310,6,,6.21,30.295275,,,,,,TRUE,,,,,CAVOK,,,,,,,,VFR,,,,,,,,,,,,METAR,1700.0
FAOB 061500Z AUTO 33014KT //// // ////// 21/06 Q1017,FAOB,2017-05-06T15:00:00Z,-34.6,20.27,21.0,6.0,330,14,,,30.029528,,,TRUE,,,,,,,,,,,,,,,,,,,,,,,,,,,,METAR,75.0
FAMM 061500Z 33005KT 9999 SCT030 22/06 Q1024 NOSIG,FAMM,2017-05-06T15:00:00Z,-25.8,25.52,22.0,6.0,330,5,,6.21,30.236221,,,,,,TRUE,,,,,SCT,3000,,,,,,,VFR,,,,,,,,,,,,METAR,1277.0
FALW 061500Z AUTO 29006KT //// // ////// 19/08 Q1020,FALW,2017-05-06T15:00:00Z,-32.97,18.17,19.0,8.0,290,6,,,30.11811,,,TRUE,,,,,,,,,,,,,,,,,,,,,,,,,,,,METAR,0.0
FALE 061500Z 17004KT 9999 SCT013 23/19 Q1015 NOSIG,FALE,2017-05-06T15:00:00Z,-29.62,31.12,23.0,19.0,170,4,,6.21,29.970472,,,,,,TRUE,,,,,SCT,1300,,,,,,,VFR,,,,,,,,,,,,METAR,109.0
FALA 061500Z 36005KT CAVOK 22/06 Q1025 NOSIG,FALA,2017-05-06T15:00:00Z,-25.92,27.92,22.0,6.0,360,5,,6.21,30.265747,,,,,,TRUE,,,,,CAVOK,,,,,,,,VFR,,,,,,,,,,,,METAR,1377.0
FAKN 061500Z AUTO 05006KT //// 24/12 Q1020,FAKN,2017-05-06T15:00:00Z,-25.38,31.1,24.0,12.0,50,6,,,30.11811,,,TRUE,,,,,,,,,,,,,,,,,,,,,,,,,,,,METAR,862.0
FAGG 061500Z VRB02KT 9999 FEW040 17/10 Q1018,FAGG,2017-05-06T15:00:00Z,-34.0,22.37,17.0,10.0,0,2,,6.21,30.059055,,,,,,,,,,,FEW,4000,,,,,,,VFR,,,,,,,,,,,,METAR,193.0
FAEL 061500Z 23012KT 9999 BKN012 17/15 Q1016,FAEL,2017-05-06T15:00:00Z,-33.02,27.82,17.0,15.0,230,12,,6.21,30.0,,,,,,,,,,,BKN,1200,,,,,,,MVFR,,,,,,,,,,,,METAR,125.0
FACT 061500Z 31017KT 9999 FEW030 SCT040 18/10 Q1019 NOSIG,FACT,2017-05-06T15:00:00Z,-33.97,18.6,18.0,10.0,310,17,,6.21,30.088583,,,,,,TRUE,,,,,FEW,3000,SCT,4000,,,,,VFR,,,,,,,,,,,,METAR,42.0
FABL 061500Z 30009KT CAVOK 23/02 Q1023 NOSIG,FABL,2017-05-06T15:00:00Z,-29.1,26.3,23.0,2.0,300,9,,6.21,30.206694,,,,,,TRUE,,,,,CAVOK,,,,,,,,VFR,,,,,,,,,,,,METAR,1348.0
TTCP 061500Z 11015KT 9999 FEW018 31/24 Q1014 NOSIG,TTCP,2017-05-06T15:00:00Z,11.15,-60.85,31.0,24.0,110,15,,6.21,29.940945,,,,,,TRUE,,,,,FEW,1800,,,,,,,VFR,,,,,,,,,,,,SPECI,8.0
TTPP 061500Z 110017KT 9999 SCT022 SCT042 34/23 Q1013 NOSIG RMK DIST SHWRS...ENE/ SE/ SW,TTPP,2017-05-06T15:00:00Z,10.58,-61.35,34.0,23.0,110,17,,6.21,29.911417,,,,,,TRUE,,,,,SCT,2200,SCT,4200,,,,,VFR,,,,,,,,,,,,METAR,15.0
TKPN 061500Z 11014KT 9999 SCT024 30/20 Q1016,TKPN,2017-05-06T15:00:00Z,17.18,-62.57,30.0,20.0,110,14,,6.21,30.0,,,,,,,,,,,SCT,2400,,,,,,,VFR,,,,,,,,,,,,METAR,17.0
ZUUU 061500Z 17003MPS 120V220 9999 FEW040TCU SCT040 17/12 Q1021 NOSIG,ZUUU,2017-05-06T15:00:00Z,30.58,103.95,17.0,12.0,170,6,,6.21,30.147638,,,,,,TRUE,,,,,FEW,4000,SCT,4000,,,,,VFR,,,,,,,,,,,,METAR,508.0
ZUGY 061500Z 35003MPS 5000 -DZ BR FEW003 BKN012 OVC030 12/12 Q1022 NOSIG,ZUGY,2017-05-06T15:00:00Z,26.53,106.8,12.0,12.0,350,6,,3.11,30.177166,,,,,,TRUE,,,,-DZ BR,FEW,300,BKN,1200,OVC,3000,,,MVFR,,,,,,,,,,,,METAR,1074.0
ZSQD 061500Z 19003MPS CAVOK 18/07 Q1015 NOSIG,ZSQD,2017-05-06T15:00:00Z,36.27,120.38,18.0,7.0,190,6,,6.21,29.970472,,,,,,TRUE,,,,,CAVOK,,,,,,,,VFR,,,,,,,,,,,,METAR,77.0
ZSNB 061500Z 33001MPS 6000 NSC 18/17 Q1019 NOSIG,ZSNB,2017-05-06T15:00:00Z,29.83,121.47,18.0,17.0,330,2,,3.73,30.088583,,,,,,TRUE,,,,,CLR,,,,,,,,MVFR,,,,,,,,,,,,METAR,4.0
ZSFZ 061500Z 03005MPS 9999 SCT009 19/18 Q1018 NOSIG,ZSFZ,2017-05-06T15:00:00Z,25.93,119.67,19.0,18.0,30,10,,6.21,30.059055,,,,,,TRUE,,,,,SCT,900,,,,,,,VFR,,,,,,,,,,,,METAR,85.0
ZSAM 061500Z 07005MPS 9999 BKN060 23/17 Q1017 NOSIG,ZSAM,2017-05-06T15:00:00Z,24.53,118.13,23.0,17.0,70,10,,6.21,30.029528,,,,,,TRUE,,,,,BKN,6000,,,,,,,VFR,,,,,,,,,,,,METAR,18.0
ZPPP 061500Z 18004MPS CAVOK 17/07 Q1023 NOSIG,ZPPP,2017-05-06T15:00:00Z,25.0,102.75,17.0,7.0,180,8,,6.21,30.206694,,,,,,TRUE,,,,,CAVOK,,,,,,,,VFR,,,,,,,,,,,,METAR,1892.0
ZLXY 061500Z 00000MPS 6000 NSC 11/10 Q1018 NOSIG,ZLXY,2017-05-06T15:00:00Z,34.43,108.75,11.0,10.0,0,0,,3.73,30.059055,,,,,,TRUE,,,,,CLR,,,,,,,,MVFR,,,,,,,,,,,,METAR,479.0
ZGSZ 061500Z 14003MPS 8000 NSC 27/23 Q1015 NOSIG,ZGSZ,2017-05-06T15:00:00Z,22.63,113.8,27.0,23.0,140,6,,4.97,29.970472,,,,,,TRUE,,,,,CLR,,,,,,,,MVFR,,,,,,,,,,,,METAR,18.0
ZGOW 061500Z 13003MPS 8000 -SHRA SCT011 SCT013 FEW026TCU 24/22 Q1017 NOSIG,ZGOW,2017-05-06T15:00:00Z,23.55,116.5,24.0,22.0,130,6,,4.97,30.029528,,,,,,TRUE,,,,-SHRA,SCT,1100,SCT,1300,FEW,2600,,,MVFR,,,,,,,,,,,,METAR,3.0
ZGNN 061500Z 06004MPS 9999 SCT020 24/22 Q1015 NOSIG,ZGNN,2017-05-06T15:00:00Z,22.62,108.17,24.0,22.0,60,8,,6.21,29.970472,,,,,,TRUE,,,,,SCT,2000,,,,,,,VFR,,,,,,,,,,,,METAR,73.0
ZGKL 061500Z VRB02MPS 9999 BKN053 24/18 Q1017 NOSIG,ZGKL,2017-05-06T15:00:00Z,25.22,110.03,24.0,18.0,0,4,,6.21,30.029528,,,,,,TRUE,,,,,BKN,5300,,,,,,,VFR,,,,,,,,,,,,METAR,166.0
ZYTX 061500Z 22003MPS 7000 NSC 09/M06 Q1013 NOSIG,ZYTX,2017-05-06T15:00:00Z,41.63,123.48,9.0,-6.0,220,6,,4.35,29.911417,,,,,,TRUE,,,,,CLR,,,,,,,,MVFR,,,,,,,,,,,,METAR,35.0
ZYTL 061500Z VRB01MPS CAVOK 14/02 Q1014 NOSIG,ZYTL,2017-05-06T15:00:00Z,38.97,121.53,14.0,2.0,0,2,,6.21,29.940945,,,,,,TRUE,,,,,CAVOK,,,,,,,,VFR,,,,,,,,,,,,METAR,97.0
ZWWW 061500Z 13002MPS CAVOK 22/03 Q1011 NOSIG,ZWWW,2017-05-06T15:00:00Z,43.88,87.47,22.0,3.0,130,4,,6.21,29.852362,,,,,,TRUE,,,,,CAVOK,,,,,,,,VFR,,,,,,,,,,,,METAR,654.0
ZWSH 061500Z 00000MPS CAVOK 22/M03 Q1016 NOSIG,ZWSH,2017-05-06T15:00:00Z,39.55,76.02,22.0,-3.0,0,0,,6.21,30.0,,,,,,TRUE,,,,,CAVOK,,,,,,,,VFR,,,,,,,,,,,,METAR,1380.0
ZSSS 061500Z 15003MPS CAVOK 19/11 Q1019 NOSIG,ZSSS,2017-05-06T15:00:00Z,31.2,121.33,19.0,11.0,150,6,,6.21,30.088583,,,,,,TRUE,,,,,CAVOK,,,,,,,,VFR,,,,,,,,,,,,METAR,7.0
ZSPD 061500Z 14002MPS CAVOK 17/12 Q1019 NOSIG,ZSPD,2017-05-06T15:00:00Z,31.15,121.8,17.0,12.0,140,4,,6.21,30.088583,,,,,,TRUE,,,,,CAVOK,,,,,,,,VFR,,,,,,,,,,,,METAR,4.0
ZSHC 061500Z 07002MPS 6000 NSC 19/17 Q1019 NOSIG,ZSHC,2017-05-06T15:00:00Z,30.22,120.43,19.0,17.0,70,4,,3.73,30.088583,,,,,,TRUE,,,,,CLR,,,,,,,,MVFR,,,,,,,,,,,,METAR,43.0
ZGGG 061500Z 17003MPS 4500 HZ SCT050 29/23 Q1015 NOSIG,ZGGG,2017-05-06T15:00:00Z,23.4,113.3,29.0,23.0,170,6,,2.8,29.970472,,,,,,TRUE,,,,HZ,SCT,5000,,,,,,,IFR,,,,,,,,,,,,METAR,15.0
ZBYN 061500Z 19002MPS 130V280 CAVOK 16/M06 Q1018 NOSIG,ZBYN,2017-05-06T15:00:00Z,37.77,112.63,16.0,-6.0,190,4,,6.21,30.059055,,,,,,TRUE,,,,,CAVOK,,,,,,,,VFR,,,,,,,,,,,,METAR,779.0
ZBTJ 061500Z 26003MPS 230V290 CAVOK 22/02 Q1013 NOSIG,ZBTJ,2017-05-06T15:00:00Z,39.12,117.35,22.0,2.0,260,6,,6.21,29.911417,,,,,,TRUE,,,,,CAVOK,,,,,,,,VFR,,,,,,,,,,,,METAR,3.0
ZBSJ 061500Z 20002MPS CAVOK 17/06 Q1013 NOSIG,ZBSJ,2017-05-06T15:00:00Z,38.28,114.7,17.0,6.0,200,4,,6.21,29.911417,,,,,,TRUE,,,,,CAVOK,,,,,,,,VFR,,,,,,,,,,,,METAR,71.0
ZBAA 061500Z 06002MPS CAVOK 14/04 Q1013 NOSIG,ZBAA,2017-05-06T15:00:00Z,40.07,116.58,14.0,4.0,60,4,,6.21,29.911417,,,,,,TRUE,,,,,CAVOK,,,,,,,,VFR,,,,,,,,,,,,METAR,30.0
UTAM 061500Z 02006KT CAVOK 20/14 Q1015 NOSIG,UTAM,2017-05-06T15:00:00Z,37.62,61.9,20.0,14.0,20,6,,6.21,29.970472,,,,,,TRUE,,,,,CAVOK,,,,,,,,VFR,,,,,,,,,,,,METAR,222.0
MPBO 061500Z VRB02KT 9999 FEW018 BKN090 Q1014,MPBO,2017-05-06T15:00:00Z,9.35,-82.25,,,0,2,,6.21,29.940945,,,,,,,,,,,FEW,1800,BKN,9000,,,,,VFR,,,,,,,,,,,,METAR,3.0
MPSM 061500Z 00000KT 1000 TSRA OVC040CB 25/24 Q1013 RWY WATER PACHES,MPSM,2017-05-06T15:00:00Z,8.35,-80.13,25.0,24.0,0,0,,0.62,29.911417,,,,,,,,,,TSRA,OVC,4000,,,,,,,LIFR,,,,,,,,,,,,METAR,0.0
MPDA 061500Z 06004KT 9999 FEW015CB BKN110 24/24 Q1012,MPDA,2017-05-06T15:00:00Z,8.4,-82.43,24.0,24.0,60,4,,6.21,29.88189,,,,,,,,,,,FEW,1500,BKN,11000,,,,,VFR,,,,,,,,,,,,METAR,27.0
MPPA 061500Z 21005KT 9000 FEW008 SCT016TCU 29/// Q1014,MPPA,2017-05-06T15:00:00Z,8.92,-79.6,,,210,5,,5.59,29.940945,,,,,,,,,,,FEW,800,SCT,1600,,,,,VFR,,,,,,,,,,,,METAR,13.0
UDYZ 061500Z 04011KT 9999 BKN040CB 16/08 Q1014 R09/000070 NOSIG,UDYZ,2017-05-06T15:00:00Z,40.15,44.4,16.0,8.0,40,11,,6.21,29.940945,,,,,,TRUE,,,,,BKN,4000,,,,,,,VFR,,,,,,,,,,,,METAR,865.0
LKPD 061500Z 11005KT 060V130 9999 FEW041 20/10 Q1010 NOSIG RMK BLU BLU,LKPD,2017-05-06T15:00:00Z,50.02,15.73,20.0,10.0,110,5,,6.21,29.822834,,,,,,TRUE,,,,,FEW,4100,,,,,,,VFR,,,,,,,,,,,,METAR,226.0
LKNA 061500Z 14008KT 9999 SCT040 17/09 Q1011 NOSIG RMK BLU BLU,LKNA,2017-05-06T15:00:00Z,49.17,16.12,17.0,9.0,140,8,,6.21,29.852362,,,,,,TRUE,,,,,SCT,4000,,,,,,,VFR,,,,,,,,,,,,METAR,472.0
LKLN 061500Z AUTO 10006KT 050V160 9999 SCT047 19/08 Q1010,LKLN,2017-05-06T15:00:00Z,49.68,13.27,19.0,8.0,100,6,,6.21,29.822834,,,TRUE,,,,,,,,SCT,4700,,,,,,,VFR,,,,,,,,,,,,METAR,362.0
LKKB 061500Z VRB06KT 9999 SCT030 18/11 Q1011 NOSIG,LKKB,2017-05-06T15:00:00Z,50.12,14.53,18.0,11.0,0,6,,6.21,29.852362,,,,,,TRUE,,,,,SCT,3000,,,,,,,VFR,,,,,,,,,,,,METAR,286.0
LKCV 061500Z 08006KT 9999 SCT036 20/10 Q1010 NOSIG RMK BLU+ BLU,LKCV,2017-05-06T15:00:00Z,49.93,15.38,20.0,10.0,80,6,,6.21,29.822834,,,,,,TRUE,,,,,SCT,3600,,,,,,,VFR,,,,,,,,,,,,METAR,242.0
OIYY 061500Z 30025G37KT 7000 TS FEW030CB SCT035 BKN190 28/01 Q1017,OIYY,2017-05-06T15:00:00Z,31.9,54.28,28.0,1.0,300,25,37,4.35,30.029528,,,,,,,,,,TS,FEW,3000,SCT,3500,BKN,19000,,,MVFR,,,,,,,,,,,,METAR,1236.0
OITR 061500Z 27008KT 9999 FEW035CB SKT040 BKN090 22/07 Q1014,OITR,2017-05-06T15:00:00Z,37.67,45.07,22.0,7.0,270,8,,6.21,29.940945,,,,,,,,,,,FEW,3500,BKN,9000,,,,,VFR,,,,,,,,,,,,SPECI,1312.0
OINZ 061500Z 04008KT CAVOK 20/17 Q1013,OINZ,2017-05-06T15:00:00Z,36.63,53.2,20.0,17.0,40,8,,6.21,29.911417,,,,,,,,,,,CAVOK,,,,,,,,VFR,,,,,,,,,,,,METAR,11.0
OIIE 061500Z 03004KT 9999 FEW040 SCT100 BKN200 21/11 Q1015,OIIE,2017-05-06T15:00:00Z,35.42,51.15,21.0,11.0,30,4,,6.21,29.970472,,,,,,,,,,,FEW,4000,SCT,10000,BKN,20000,,,VFR,,,,,,,,,,,,METAR,1008.0
OIGG 061500Z 06004KT 9999 FEW030 SCT170 19/13 Q1013,OIGG,2017-05-06T15:00:00Z,37.33,49.6,19.0,13.0,60,4,,6.21,29.911417,,,,,,,,,,,FEW,3000,SCT,17000,,,,,VFR,,,,,,,,,,,,METAR,-13.0
OICC 061500Z 06006KT 9999 FEW035CB SCT040 BKN160 18/08 Q1017 A3003 RETS NOSIG,OICC,2017-05-06T15:00:00Z,34.35,47.17,18.0,8.0,60,6,,6.21,30.029528,,,,,,TRUE,,,,,FEW,3500,SCT,4000,BKN,16000,,,VFR,,,,,,,,,,,,METAR,1322.0
OIBK 061500Z 01004KT CAVOK 35/16 Q1008,OIBK,2017-05-06T15:00:00Z,26.53,53.98,35.0,16.0,10,4,,6.21,29.763779,,,,,,,,,,,CAVOK,,,,,,,,VFR,,,,,,,,,,,,METAR,30.0
OIAA 061500Z 01008KT 9999 FEW035CB SCT040 BKN100 35/15 Q1006,OIAA,2017-05-06T15:00:00Z,30.37,48.25,35.0,15.0,10,8,,6.21,29.704725,,,,,,,,,,,FEW,3500,SCT,4000,BKN,10000,,,VFR,,,,,,,,,,,,METAR,11.0
OISR 061500Z 17008KT CAVOK 33/17 Q1012,OISR,2017-05-06T15:00:00Z,27.37,53.2,33.0,17.0,170,8,,6.21,29.88189,,,,,,,,,,,CAVOK,,,,,,,,VFR,,,,,,,,,,,,METAR,408.0
OISF 061500Z 21006KT 9999 FEW035CB SCT040 27/09 Q1015,OISF,2017-05-06T15:00:00Z,28.9,53.72,27.0,9.0,210,6,,6.21,29.970472,,,,,,,,,,,FEW,3500,SCT,4000,,,,,VFR,,,,,,,,,,,,METAR,1383.0
OIAH 061500Z 00000KT 9999 SCT040 32/07 Q1013,OIAH,2017-05-06T15:00:00Z,30.33,50.83,32.0,7.0,0,0,,6.21,29.911417,,,,,,,,,,,SCT,4000,,,,,,,VFR,,,,,,,,,,,,METAR,738.0
OIZJ 061500Z 28008KT 8000 NSC 32/26 Q1006,OIZJ,2017-05-06T15:00:00Z,25.65,57.8,32.0,26.0,280,8,,4.97,29.704725,,,,,,,,,,,CLR,,,,,,,,MVFR,,,,,,,,,,,,METAR,4.0
OIMS 061500Z 33008KT 9999 FEW035 BKN200 24/10 Q1016,OIMS,2017-05-06T15:00:00Z,36.17,57.6,24.0,10.0,330,8,,6.21,30.0,,,,,,,,,,,FEW,3500,BKN,20000,,,,,VFR,,,,,,,,,,,,METAR,941.0
OIMN 061500Z 27002KT 9999 FEW040 SCT080 BKN180 20/13 Q1017,OIMN,2017-05-06T15:00:00Z,37.48,57.3,20.0,13.0,270,2,,6.21,30.029528,,,,,,,,,,,FEW,4000,SCT,8000,BKN,18000,,,VFR,,,,,,,,,,,,METAR,1074.0
OIMB 061500Z 30012KT CAVOK 25/03 Q1019,OIMB,2017-05-06T15:00:00Z,32.9,59.28,25.0,3.0,300,12,,6.21,30.088583,,,,,,,,,,,CAVOK,,,,,,,,VFR,,,,,,,,,,,,METAR,1491.0
OIIP 061500Z 00000KT 5000 HZ FEW035 BKN100 19/06 Q1016,OIIP,2017-05-06T15:00:00Z,35.78,50.83,19.0,6.0,0,0,,3.11,30.0,,,,,,,,,,HZ,FEW,3500,BKN,10000,,,,,MVFR,,,,,,,,,,,,METAR,1271.0
OIFS 061500Z 17008KT 7000 TSRA SCT035CB SCT040 BKN090 13/09 Q1024,OIFS,2017-05-06T15:00:00Z,32.32,50.85,13.0,9.0,170,8,,4.35,30.236221,,,,,,,,,,TSRA,SCT,3500,SCT,4000,BKN,9000,,,MVFR,,,,,,,,,,,,METAR,2078.0
OIBA 061500Z 30008KT CAVOK 31/24 Q1007,OIBA,2017-05-06T15:00:00Z,25.88,55.03,31.0,24.0,300,8,,6.21,29.734253,,,,,,,,,,,CAVOK,,,,,,,,VFR,,,,,,,,,,,,METAR,7.0
OITM 061500Z 24008KT 9999 FEW036TCU BKN190 20/06 Q1014,OITM,2017-05-06T15:00:00Z,37.35,46.15,20.0,6.0,240,8,,6.21,29.940945,,,,,,,,,,,FEW,3600,BKN,19000,,,,,VFR,,,,,,,,,,,,METAR,1340.0
OINE 061500Z 12004KT 9999 FEW035 BKN200 21/18 Q1013,OINE,2017-05-06T15:00:00Z,37.38,55.45,21.0,18.0,120,4,,6.21,29.911417,,,,,,,,,,,FEW,3500,BKN,20000,,,,,VFR,,,,,,,,,,,,METAR,130.0
OIMQ 061500Z AUTO 25008KT //// // ////// 26/09 Q1017,OIMQ,2017-05-06T15:00:00Z,35.23,58.47,26.0,9.0,250,8,,,30.029528,,,TRUE,,,,,,,,,,,,,,,,,,,,,,,,,,,,METAR,1140.0
OIMD 061500Z AUTO 29006KT //// // ////// 28/08 Q1012,OIMD,2017-05-06T15:00:00Z,34.38,58.63,28.0,8.0,290,6,,,29.88189,,,TRUE,,,,,,,,,,,,,,,,,,,,,,,,,,,,METAR,1100.0
OIMC 061500Z AUTO 07004KT //// // ////// 23/13 Q1015,OIMC,2017-05-06T15:00:00Z,36.5,61.07,23.0,13.0,70,4,,,29.970472,,,TRUE,,,,,,,,,,,,,,,,,,,,,,,,,,,,METAR,288.0
OIIK 061500Z 12006KT 9999 FEW040 SCT200 18/13 Q1016,OIIK,2017-05-06T15:00:00Z,36.25,50.05,18.0,13.0,120,6,,6.21,30.0,,,,,,,,,,,FEW,4000,SCT,20000,,,,,VFR,,,,,,,,,,,,METAR,1278.0
OIBQ 061500Z 15008KT CAVOK 31/21 Q1006,OIBQ,2017-05-06T15:00:00Z,29.27,50.32,31.0,21.0,150,8,,6.21,29.704725,,,,,,,,,,,CAVOK,,,,,,,,VFR,,,,,,,,,,,,METAR,6.0
OIBL 061500Z 27006KT 8000 NSC 36/10 Q1008,OIBL,2017-05-06T15:00:00Z,26.53,54.82,36.0,10.0,270,6,,4.97,29.763779,,,,,,,,,,,CLR,,,,,,,,MVFR,,,,,,,,,,,,METAR,14.0
OITL 061500Z 07014KT 9000 -SHRA FEW035 BKN040CB SCT080 BKN180 12/09 Q1015,OITL,2017-05-06T15:00:00Z,38.33,48.42,12.0,9.0,70,14,,5.59,29.970472,,,,,,,,,,-SHRA,FEW,3500,BKN,4000,SCT,8000,BKN,18000,VFR,,,,,,,,,,,,METAR,1316.0
OIBP 061500Z 00000KT CAVOK 35/15 Q1007 A2974,OIBP,2017-05-06T15:00:00Z,27.38,52.73,35.0,15.0,0,0,,6.21,29.734253,,,,,,,,,,,CAVOK,,,,,,,,VFR,,,,,,,,,,,,METAR,9.0
OIBB 061500Z 18014KT 9999 FEW040 BKN180 32/15 Q1007 A2974,OIBB,2017-05-06T15:00:00Z,28.97,50.82,32.0,15.0,180,14,,6.21,29.734253,,,,,,,,,,,FEW,4000,BKN,18000,,,,,VFR,,,,,,,,,,,,METAR,19.0
OIZH 061500Z 10006KT 9999 SCT040 30/05 Q1018 A3008 NOSIG,OIZH,2017-05-06T15:00:00Z,29.47,60.92,30.0,5.0,100,6,,6.21,30.059055,,,,,,TRUE,,,,,SCT,4000,,,,,,,VFR,,,,,,,,,,,,METAR,1370.0
OITT 061500Z 22014KT 9999 FEW030TCU FEW035CB SCT190 21/04 Q1014 A2996 NOSIG,OITT,2017-05-06T15:00:00Z,38.13,46.23,21.0,4.0,220,14,,6.21,29.940945,,,,,,TRUE,,,,,FEW,3000,FEW,3500,SCT,19000,,,VFR,,,,,,,,,,,,METAR,1361.0
OISS 061500Z 09004KT 9999 FEW035 SCT040 24/13 Q1019 A3011,OISS,2017-05-06T15:00:00Z,29.52,52.57,24.0,13.0,90,4,,6.21,30.088583,,,,,,,,,,,FEW,3500,SCT,4000,,,,,VFR,,,,,,,,,,,,METAR,1491.0
OIMM 061500Z 15012KT 9999 FEW035CB SCT040 21/10 Q1017 A3004,OIMM,2017-05-06T15:00:00Z,36.23,59.62,21.0,10.0,150,12,,6.21,30.029528,,,,,,,,,,,FEW,3500,SCT,4000,,,,,VFR,,,,,,,,,,,,METAR,980.0
OIKK 061500Z 14006KT 9999 TS FEW035CB SCT040 BKN200 24/04 Q1022 A3019,OIKK,2017-05-06T15:00:00Z,30.25,56.97,24.0,4.0,140,6,,6.21,30.177166,,,,,,,,,,TS,FEW,3500,SCT,4000,BKN,20000,,,VFR,,,,,,,,,,,,METAR,1754.0
OIKB 061500Z 23012KT 7000 FEW030 BKN200 37/17 Q1007 A2975 NOSIG,OIKB,2017-05-06T15:00:00Z,27.22,56.37,37.0,17.0,230,12,,4.35,29.734253,,,,,,TRUE,,,,,FEW,3000,BKN,20000,,,,,MVFR,,,,,,,,,,,,METAR,10.0
OIII 061500Z 11004KT 8000 FEW035 FEW040CB BKN100 BKN180 21/08 Q1016 A3002 NOSIG,OIII,2017-05-06T15:00:00Z,35.68,51.3,21.0,8.0,110,4,,4.97,30.0,,,,,,TRUE,,,,,FEW,3500,FEW,4000,BKN,10000,BKN,18000,MVFR,,,,,,,,,,,,METAR,1191.0
OIFM 061500Z 23019KT 9999 FEW035CB SCT040 OVC100 23/02 Q1019 A3009,OIFM,2017-05-06T15:00:00Z,32.75,51.87,23.0,2.0,230,19,,6.21,30.088583,,,,,,,,,,,FEW,3500,SCT,4000,OVC,10000,,,VFR,,,,,,,,,,,,METAR,1542.0
OIAW 061500Z 01004KT 8000 FEW035CB SCT040 OVC100 35/13 Q1007,OIAW,2017-05-06T15:00:00Z,31.32,48.77,35.0,13.0,10,4,,4.97,29.734253,,,,,,,,,,,FEW,3500,SCT,4000,OVC,10000,,,MVFR,,,,,,,,,,,,METAR,22.0
OITZ 061500Z 24010KT 9999 SCT035 SCT190 20/M03 Q1015,OITZ,2017-05-06T15:00:00Z,36.77,48.37,20.0,-3.0,240,10,,6.21,29.970472,,,,,,,,,,,SCT,3500,SCT,19000,,,,,VFR,,,,,,,,,,,,METAR,1663.0
OISY 061500Z 21004KT 9999 FEW035CB SCT040 SCT080 17/12 Q1023,OISY,2017-05-06T15:00:00Z,30.7,51.55,17.0,12.0,210,4,,6.21,30.206694,,,,,,,,,,,FEW,3500,SCT,4000,SCT,8000,,,VFR,,,,,,,,,,,,METAR,1811.0
OISL 061500Z 27012KT CAVOK 32/13 Q1012,OISL,2017-05-06T15:00:00Z,27.67,54.37,32.0,13.0,270,12,,6.21,29.88189,,,,,,,,,,,CAVOK,,,,,,,,VFR,,,,,,,,,,,,METAR,805.0
OINR 061500Z 08006KT 9999 FEW035 BKN200 19/16 Q1012,OINR,2017-05-06T15:00:00Z,36.88,50.67,19.0,16.0,80,6,,6.21,29.88189,,,,,,,,,,,FEW,3500,BKN,20000,,,,,VFR,,,,,,,,,,,,METAR,-20.0
OINN 061500Z 10004KT 9999 FEW030 BKN170 19/17 Q1013,OINN,2017-05-06T15:00:00Z,36.67,51.47,19.0,17.0,100,4,,6.21,29.911417,,,,,,,,,,,FEW,3000,BKN,17000,,,,,VFR,,,,,,,,,,,,METAR,-19.0
OIKQ 061500Z 24010KT CAVOK 33/21 Q1007,OIKQ,2017-05-06T15:00:00Z,26.75,55.9,33.0,21.0,240,10,,6.21,29.734253,,,,,,,,,,,CAVOK,,,,,,,,VFR,,,,,,,,,,,,METAR,12.0
OICI 061500Z 19004KT 9999 SCT040 BKN080 22/04 Q1018 A3007,OICI,2017-05-06T15:00:00Z,33.58,46.4,22.0,4.0,190,4,,6.21,30.059055,,,,,,,,,,,SCT,4000,BKN,8000,,,,,VFR,,,,,,,,,,,,METAR,1343.0
OIAM 061500Z 15006KT 9999 FEW035CB SCT040 33/18 Q1007,OIAM,2017-05-06T15:00:00Z,30.55,49.15,33.0,18.0,150,6,,6.21,29.734253,,,,,,,,,,,FEW,3500,SCT,4000,,,,,VFR,,,,,,,,,,,,METAR,4.0
OIZI 061500Z 29006KT 9999 FEW040TCU 38/06 Q1010,OIZI,2017-05-06T15:00:00Z,27.23,60.72,38.0,6.0,290,6,,6.21,29.822834,,,,,,,,,,,FEW,4000,,,,,,,VFR,,,,,,,,,,,,METAR,591.0
OIZB 061500Z 07006KT 9999 FEW035TCU 35/12 Q1009,OIZB,2017-05-06T15:00:00Z,31.1,61.55,35.0,12.0,70,6,,6.21,29.793306,,,,,,,,,,,FEW,3500,,,,,,,VFR,,,,,,,,,,,,METAR,489.0
OING 061500Z 24008KT 9999 FEW030 BKN180 21/17 Q1015,OING,2017-05-06T15:00:00Z,36.9,54.4,21.0,17.0,240,8,,6.21,29.970472,,,,,,,,,,,FEW,3000,BKN,18000,,,,,VFR,,,,,,,,,,,,METAR,155.0
OIBS 061500Z 33010KT CAVOK 32/24 Q1008,OIBS,2017-05-06T15:00:00Z,25.9,54.55,32.0,24.0,330,10,,6.21,29.763779,,,,,,,,,,,CAVOK,,,,,,,,VFR,,,,,,,,,,,,METAR,14.0
OIBJ 061500Z 21016KT CAVOK 31/13 Q1013,OIBJ,2017-05-06T15:00:00Z,27.82,52.35,31.0,13.0,210,16,,6.21,29.911417,,,,,,,,,,,CAVOK,,,,,,,,VFR,,,,,,,,,,,,METAR,663.0
RKNY 061500Z AUTO 31005KT 270V010 9999 NCD 14/M04 Q1012,RKNY,2017-05-06T15:00:00Z,38.07,128.67,14.0,-4.0,310,5,,6.21,29.88189,,,TRUE,,,,,,,,CLR,,,,,,,,VFR,,,,,,,,,,,,METAR,74.0
RKJB 061500Z AUTO 22003KT 190V250 9999 NCD 13/10 Q1018,RKJB,2017-05-06T15:00:00Z,34.98,126.38,13.0,10.0,220,3,,6.21,30.059055,,,TRUE,,,,,,,,CLR,,,,,,,,VFR,,,,,,,,,,,,METAR,2.0
RKTN 061500Z 31008KT 9000 NSC 15/M01 Q1015 NOSIG,RKTN,2017-05-06T15:00:00Z,35.88,128.65,15.0,-1.0,310,8,,5.59,29.970472,,,,,,TRUE,,,,,CLR,,,,,,,,VFR,,,,,,,,,,,,METAR,35.0
RKTU 061500Z 23006KT 9000 NSC 10/05 Q1016 NOSIG,RKTU,2017-05-06T15:00:00Z,36.7,127.5,10.0,5.0,230,6,,5.59,30.0,,,,,,TRUE,,,,,CLR,,,,,,,,VFR,,,,,,,,,,,,METAR,66.0
RKPK 061500Z 31009KT 9000 NSC 17/04 Q1015 NOSIG,RKPK,2017-05-06T15:00:00Z,35.17,128.92,17.0,4.0,310,9,,5.59,29.970472,,,,,,TRUE,,,,,CLR,,,,,,,,VFR,,,,,,,,,,,,METAR,15.0
RKPC 061500Z 22004KT CAVOK 14/M02 Q1019 NOSIG,RKPC,2017-05-06T15:00:00Z,33.5,126.48,14.0,-2.0,220,4,,6.21,30.088583,,,,,,TRUE,,,,,CAVOK,,,,,,,,VFR,,,,,,,,,,,,METAR,27.0
RKSS 061500Z 22005KT CAVOK 13/01 Q1016 NOSIG,RKSS,2017-05-06T15:00:00Z,37.53,126.78,13.0,1.0,220,5,,6.21,30.0,,,,,,TRUE,,,,,CAVOK,,,,,,,,VFR,,,,,,,,,,,,METAR,19.0
RKSI 061500Z 18004KT 140V220 CAVOK 12/03 Q1016 NOSIG,RKSI,2017-05-06T15:00:00Z,37.47,126.45,12.0,3.0,180,4,,6.21,30.0,,,,,,TRUE,,,,,CAVOK,,,,,,,,VFR,,,,,,,,,,,,METAR,7.0
LEXJ 061500Z 36005KT 320V050 9999 FEW040 18/09 Q1019,LEXJ,2017-05-06T15:00:00Z,43.42,-3.82,18.0,9.0,360,5,,6.21,30.088583,,,,,,,,,,,FEW,4000,,,,,,,VFR,,,,,,,,,,,,METAR,6.0
LEPP 061500Z 29004KT 260V330 9999 FEW055 19/04 Q1018,LEPP,2017-05-06T15:00:00Z,42.77,-1.65,19.0,4.0,290,4,,6.21,30.059055,,,,,,,,,,,FEW,5500,,,,,,,VFR,,,,,,,,,,,,METAR,459.0
LELL 061500Z 23012G22KT 190V280 9999 FEW030 26/06 Q1014,LELL,2017-05-06T15:00:00Z,41.52,2.1,26.0,6.0,230,12,22,6.21,29.940945,,,,,,,,,,,FEW,3000,,,,,,,VFR,,,,,,,,,,,,METAR,250.0
LEJR 061500Z 35005G16KT 300V060 9999 FEW055 26/08 Q1018,LEJR,2017-05-06T15:00:00Z,36.75,-6.07,26.0,8.0,350,5,16,6.21,30.059055,,,,,,,,,,,FEW,5500,,,,,,,VFR,,,,,,,,,,,,METAR,30.0
LETL 061500Z AUTO 29006KT 200V350 9999 NCD 19/M01 Q1018,LETL,2017-05-06T15:00:00Z,40.42,-1.22,19.0,-1.0,290,6,,6.21,30.059055,,,TRUE,,,,,,,,CLR,,,,,,,,VFR,,,,,,,,,,,,METAR,1013.0
LEAG 061500Z AUTO 15012KT 120V190 CAVOK 22/08 Q1018,LEAG,2017-05-06T15:00:00Z,,,22.0,8.0,150,12,,6.21,30.059055,,,TRUE,,,,,,,,CAVOK,,,,,,,,VFR,,,,,,,,,,,,METAR,
LETO 061500Z 24008KT 160V300 9999 FEW050 20/04 Q1019 NOSIG,LETO,2017-05-06T15:00:00Z,40.47,-3.47,20.0,4.0,240,8,,6.21,30.088583,,,,,,TRUE,,,,,FEW,5000,,,,,,,VFR,,,,,,,,,,,,METAR,608.0
LELN 061500Z 24002KT 9999 SCT035TCU SCT050 14/04 Q1018,LELN,2017-05-06T15:00:00Z,42.57,-5.65,14.0,4.0,240,2,,6.21,30.059055,,,,,,,,,,,SCT,3500,SCT,5000,,,,,VFR,,,,,,,,,,,,METAR,914.0
LELC 061500Z 15013KT 110V190 CAVOK 23/14 Q1017 NOSIG,LELC,2017-05-06T15:00:00Z,37.77,-0.8,23.0,14.0,150,13,,6.21,30.029528,,,,,,TRUE,,,,,CAVOK,,,,,,,,VFR,,,,,,,,,,,,METAR,3.0
LEBZ 061500Z 10004KT 020V180 9999 SCT048 23/09 Q1019,LEBZ,2017-05-06T15:00:00Z,38.87,-6.82,23.0,9.0,100,4,,6.21,30.088583,,,,,,,,,,,SCT,4800,,,,,,,VFR,,,,,,,,,,,,METAR,192.0
LEAB 061500Z 30008KT CAVOK 20/03 Q1019 NOSIG,LEAB,2017-05-06T15:00:00Z,38.95,-1.85,20.0,3.0,300,8,,6.21,30.088583,,,,,,TRUE,,,,,CAVOK,,,,,,,,VFR,,,,,,,,,,,,METAR,704.0
TGPY 061500Z 11020KT 9999 FEW018 31/25 Q1014 NOSIG,TGPY,2017-05-06T15:00:00Z,12.0,-61.78,31.0,25.0,110,20,,6.21,29.940945,,,,,,TRUE,,,,,FEW,1800,,,,,,,VFR,,,,,,,,,,,,METAR,7.0
GCHI 061500Z VRB02KT 9999 SCT060 23/15 Q1017,GCHI,2017-05-06T15:00:00Z,27.82,-17.87,23.0,15.0,0,2,,6.21,30.029528,,,,,,,,,,,SCT,6000,,,,,,,VFR,,,,,,,,,,,,METAR,30.0
GCGM 061500Z 20004KT 150V270 9999 FEW020 BKN057 21/15 Q1017 RMK R09/VRB03KT ARP/18003KT 130V250,GCGM,2017-05-06T15:00:00Z,28.03,-17.22,21.0,15.0,200,4,,6.21,30.029528,,,,,,,,,,,FEW,2000,BKN,5700,,,,,VFR,,,,,,,,,,,,METAR,219.0
LEVS 061500Z 23009KT 170V280 9999 FEW030 21/04 Q1019,LEVS,2017-05-06T15:00:00Z,40.37,-3.77,21.0,4.0,230,9,,6.21,30.088583,,,,,,,,,,,FEW,3000,,,,,,,VFR,,,,,,,,,,,,METAR,687.0
LEVD 061500Z 25011KT 220V280 CAVOK 17/03 Q1019,LEVD,2017-05-06T15:00:00Z,41.72,-4.83,17.0,3.0,250,11,,6.21,30.088583,,,,,,,,,,,CAVOK,,,,,,,,VFR,,,,,,,,,,,,METAR,854.0
LESA 061500Z 26008G18KT 200V300 9999 FEW032 SCT045 16/05 Q1020,LESA,2017-05-06T15:00:00Z,40.95,-5.5,16.0,5.0,260,8,18,6.21,30.11811,,,,,,,,,,,FEW,3200,SCT,4500,,,,,VFR,,,,,,,,,,,,METAR,795.0
LEZL 061500Z 08003KT 020V140 CAVOK 24/08 Q1018 NOSIG,LEZL,2017-05-06T15:00:00Z,37.42,-5.9,24.0,8.0,80,3,,6.21,30.059055,,,,,,TRUE,,,,,CAVOK,,,,,,,,VFR,,,,,,,,,,,,METAR,31.0
LEVX 061500Z 20011KT 160V230 9999 FEW032TCU SCT044 19/11 Q1018 NOSIG,LEVX,2017-05-06T15:00:00Z,42.22,-8.62,19.0,11.0,200,11,,6.21,30.059055,,,,,,TRUE,,,,,FEW,3200,SCT,4400,,,,,VFR,,,,,,,,,,,,METAR,256.0
LEVC 061500Z 24014KT 180V280 CAVOK 28/02 Q1015 NOSIG,LEVC,2017-05-06T15:00:00Z,39.5,-0.47,28.0,2.0,240,14,,6.21,29.970472,,,,,,TRUE,,,,,CAVOK,,,,,,,,VFR,,,,,,,,,,,,METAR,62.0
LEPA 061500Z 27009KT CAVOK 25/03 Q1017 NOSIG,LEPA,2017-05-06T15:00:00Z,39.53,2.72,25.0,3.0,270,9,,6.21,30.029528,,,,,,TRUE,,,,,CAVOK,,,,,,,,VFR,,,,,,,,,,,,METAR,8.0
LEMG 061500Z 19010KT 140V230 9999 FEW040 25/12 Q1016 NOSIG,LEMG,2017-05-06T15:00:00Z,36.67,-4.5,25.0,12.0,190,10,,6.21,30.0,,,,,,TRUE,,,,,FEW,4000,,,,,,,VFR,,,,,,,,,,,,METAR,7.0
LEMD 061500Z 19009G22KT 090V220 9999 FEW050 20/04 Q1018 NOSIG,LEMD,2017-05-06T15:00:00Z,40.48,-3.57,20.0,4.0,190,9,22,6.21,30.059055,,,,,,TRUE,,,,,FEW,5000,,,,,,,VFR,,,,,,,,,,,,METAR,582.0
LEIB 061500Z 21009KT 180V240 CAVOK 21/12 Q1017 NOSIG,LEIB,2017-05-06T15:00:00Z,38.87,1.37,21.0,12.0,210,9,,6.21,30.029528,,,,,,TRUE,,,,,CAVOK,,,,,,,,VFR,,,,,,,,,,,,METAR,12.0
LEBL 061500Z 24021KT CAVOK 23/08 Q1014 NOSIG,LEBL,2017-05-06T15:00:00Z,41.27,2.07,23.0,8.0,240,21,,6.21,29.940945,,,,,,TRUE,,,,,CAVOK,,,,,,,,VFR,,,,,,,,,,,,METAR,6.0
LEAL 061500Z 19014KT 150V240 CAVOK 24/09 Q1016 WS R28 NOSIG,LEAL,2017-05-06T15:00:00Z,38.27,-0.55,24.0,9.0,190,14,,6.21,30.0,,,,,,TRUE,,,,,CAVOK,,,,,,,,VFR,,,,,,,,,,,,SPECI,31.0
LEAS 061500Z VRB02KT 9999 BKN066 FEW072TCU 15/10 Q1018 NOSIG,LEAS,2017-05-06T15:00:00Z,43.53,-6.02,15.0,10.0,0,2,,6.21,30.059055,,,,,,TRUE,,,,,BKN,6600,FEW,7200,,,,,VFR,,,,,,,,,,,,METAR,134.0
LEZG 061500Z 33009KT 260V020 9999 FEW050 23/04 Q1017,LEZG,2017-05-06T15:00:00Z,41.67,-1.02,23.0,4.0,330,9,,6.21,30.029528,,,,,,,,,,,FEW,5000,,,,,,,VFR,,,,,,,,,,,,METAR,258.0
LEVT 061500Z 24010KT 200V280 9999 SCT060 19/03 Q1018,LEVT,2017-05-06T15:00:00Z,42.87,-2.72,19.0,3.0,240,10,,6.21,30.059055,,,,,,,,,,,SCT,6000,,,,,,,VFR,,,,,,,,,,,,METAR,509.0
LEST 061500Z 25009KT 170V330 9999 FEW024 SCT036 18/10 Q1018 TEMPO SCT020TCU,LEST,2017-05-06T15:00:00Z,42.88,-8.42,18.0,10.0,250,9,,6.21,30.059055,,,,,,,,,,,FEW,2400,SCT,3600,,,,,VFR,,,,,,,,,,,,SPECI,367.0
LESO 061500Z 36004KT 270V060 9999 FEW050 19/09 Q1019,LESO,2017-05-06T15:00:00Z,43.35,-1.8,19.0,9.0,360,4,,6.21,30.088583,,,,,,,,,,,FEW,5000,,,,,,,VFR,,,,,,,,,,,,METAR,8.0
LERS 061500Z 27013G23KT 220V310 9999 FEW030 27/00 Q1015,LERS,2017-05-06T15:00:00Z,41.13,1.17,27.0,0.0,270,13,23,6.21,29.970472,,,,,,,,,,,FEW,3000,,,,,,,VFR,,,,,,,,,,,,METAR,76.0
LEMH 061500Z 30012KT 240V350 CAVOK 22/07 Q1017,LEMH,2017-05-06T15:00:00Z,39.87,4.22,22.0,7.0,300,12,,6.21,30.029528,,,,,,,,,,,CAVOK,,,,,,,,VFR,,,,,,,,,,,,METAR,82.0
LEGR 061500Z VRB01KT 9999 FEW040 26/04 Q1017,LEGR,2017-05-06T15:00:00Z,37.17,-3.77,26.0,4.0,0,1,,6.21,30.029528,,,,,,,,,,,FEW,4000,,,,,,,VFR,,,,,,,,,,,,METAR,559.0
LEGE 061500Z 14012KT 090V180 9999 FEW035TCU BKN045 19/11 Q1015,LEGE,2017-05-06T15:00:00Z,41.88,2.77,19.0,11.0,140,12,,6.21,29.970472,,,,,,,,,,,FEW,3500,BKN,4500,,,,,VFR,,,,,,,,,,,,METAR,129.0
LECO 061500Z 24011KT 200V300 9999 SCT045 21/09 Q1017 TEMPO SCT040TCU,LECO,2017-05-06T15:00:00Z,43.28,-8.37,21.0,9.0,240,11,,6.21,30.029528,,,,,,,,,,,SCT,4500,,,,,,,VFR,,,,,,,,,,,,SPECI,103.0
LEBB 061500Z 34011KT 300V010 9999 SCT060 19/08 Q1019 NOSIG,LEBB,2017-05-06T15:00:00Z,43.28,-2.92,19.0,8.0,340,11,,6.21,30.088583,,,,,,TRUE,,,,,SCT,6000,,,,,,,VFR,,,,,,,,,,,,METAR,34.0
LEAM 061500Z 23010KT CAVOK 20/15 Q1018,LEAM,2017-05-06T15:00:00Z,36.85,-2.37,20.0,15.0,230,10,,6.21,30.059055,,,,,,,,,,,CAVOK,,,,,,,,VFR,,,,,,,,,,,,METAR,21.0
FMEE 061500Z AUTO 13011KT 9999 BKN056 24/20 Q1018 TEMPO 14015G25KT 4500 SHRA SCT020TCU,FMEE,2017-05-06T15:00:00Z,-20.87,55.52,24.0,20.0,130,11,,6.21,30.059055,,,TRUE,,,,,,,,BKN,5600,,,,,,,VFR,,,,,,,,,,,,METAR,25.0
FKKD 061500Z 23006KT 9999 SCT014 FEW016CB 30/25 Q1009 BECMG TS FEW006 BKN010 SCT010CB,FKKD,2017-05-06T15:00:00Z,4.0,9.72,30.0,25.0,230,6,,6.21,29.793306,,,,,,,,,,,SCT,1400,FEW,1600,,,,,VFR,,,,,,,,,,,,METAR,9.0
SVMI 061500Z 36003KT 9999 SCT016 30/21 Q1012,SVMI,2017-05-06T15:00:00Z,10.58,-67.0,30.0,21.0,360,3,,6.21,29.88189,,,,,,,,,,,SCT,1600,,,,,,,VFR,,,,,,,,,,,,METAR,48.0
GCXO 061500Z 12004KT 080V170 9999 FEW018 SCT020 BKN023 17/12 Q1018 NOSIG,GCXO,2017-05-06T15:00:00Z,28.48,-16.35,17.0,12.0,120,4,,6.21,30.059055,,,,,,TRUE,,,,,FEW,1800,SCT,2000,BKN,2300,,,MVFR,,,,,,,,,,,,METAR,632.0
GCTS 061500Z 11006KT 070V170 9999 SCT030 BKN060 23/15 Q1016 NOSIG,GCTS,2017-05-06T15:00:00Z,28.05,-16.57,23.0,15.0,110,6,,6.21,30.0,,,,,,TRUE,,,,,SCT,3000,BKN,6000,,,,,VFR,,,,,,,,,,,,METAR,72.0
GCRR 061500Z 10008KT 9999 SCT040 22/17 Q1017,GCRR,2017-05-06T15:00:00Z,28.93,-13.58,22.0,17.0,100,8,,6.21,30.029528,,,,,,,,,,,SCT,4000,,,,,,,VFR,,,,,,,,,,,,METAR,40.0
GCLP 061500Z 06004KT 020V120 9999 FEW020 BKN045 23/15 Q1017 NOSIG,GCLP,2017-05-06T15:00:00Z,27.92,-15.37,23.0,15.0,60,4,,6.21,30.029528,,,,,,TRUE,,,,,FEW,2000,BKN,4500,,,,,VFR,,,,,,,,,,,,METAR,25.0
GCLA 061500Z 13003KT 100V160 9999 BKN030 22/14 Q1017,GCLA,2017-05-06T15:00:00Z,28.62,-17.75,22.0,14.0,130,3,,6.21,30.029528,,,,,,,,,,,BKN,3000,,,,,,,MVFR,,,,,,,,,,,,METAR,31.0
GCFV 061500Z 08007KT 060V120 9999 SCT040 23/15 Q1016,GCFV,2017-05-06T15:00:00Z,28.43,-13.87,23.0,15.0,80,7,,6.21,30.0,,,,,,,,,,,SCT,4000,,,,,,,VFR,,,,,,,,,,,,METAR,23.0
TLPL 061500Z 09015KT 9999 FEW026 29/23 Q1015 NOSIG,TLPL,2017-05-06T15:00:00Z,13.75,-60.95,29.0,23.0,90,15,,6.21,29.970472,,,,,,TRUE,,,,,FEW,2600,,,,,,,VFR,,,,,,,,,,,,METAR,3.0
UMMS 061500Z 30005MPS 260V320 CAVOK 23/07 Q1010 R31/CLRD// NOSIG,UMMS,2017-05-06T15:00:00Z,53.88,28.03,23.0,7.0,300,10,,6.21,29.822834,,,,,,TRUE,,,,,CAVOK,,,,,,,,VFR,,,,,,,,,,,,SPECI,205.0
UMMG 061500Z 32003MPS CAVOK 24/07 Q1010 NOSIG,UMMG,2017-05-06T15:00:00Z,53.6,24.05,24.0,7.0,320,6,,6.21,29.822834,,,,,,TRUE,,,,,CAVOK,,,,,,,,VFR,,,,,,,,,,,,METAR,135.0
UMII 061500Z 29007G11MPS 250V330 9999 FEW030 20/M04 Q1009 NOSIG,UMII,2017-05-06T15:00:00Z,55.13,30.35,20.0,-4.0,290,14,21,6.21,29.793306,,,,,,TRUE,,,,,FEW,3000,,,,,,,VFR,,,,,,,,,,,,METAR,208.0
UMGG 061500Z 29006MPS CAVOK 23/03 Q1011 R28/CLRD// NOSIG,UMGG,2017-05-06T15:00:00Z,52.53,31.02,23.0,3.0,290,12,,6.21,29.852362,,,,,,TRUE,,,,,CAVOK,,,,,,,,VFR,,,,,,,,,,,,SPECI,144.0
TRPG 061500Z 12015KT 9999 FEW021 28/22 Q1016,TRPG,2017-05-06T15:00:00Z,16.78,-62.2,28.0,22.0,120,15,,6.21,30.0,,,,,,,,,,,FEW,2100,,,,,,,VFR,,,,,,,,,,,,METAR,168.0
RPMZ 061500Z 00000KT 9999 FEW017CB SCT100 BKN300 26/25 Q1014 RMK A2994,RPMZ,2017-05-06T15:00:00Z,6.92,122.07,26.0,25.0,0,0,,6.21,29.940945,,,,,,,,,,,FEW,1700,SCT,10000,BKN,30000,,,VFR,,,,,,,,,,,,METAR,6.0
RPLI 061500Z 09002KT 9999 FEW019 BKN290 27/23 Q1013 NOSIG RMK A2991,RPLI,2017-05-06T15:00:00Z,18.17,120.52,27.0,23.0,90,2,,6.21,29.911417,,,,,,TRUE,,,,,FEW,1900,BKN,29000,,,,,VFR,,,,,,,,,,,,METAR,5.0
RPLB 061500Z VRB03KT 9999 FEW020 28/22 Q1012 NOSIG RMK A2988,RPLB,2017-05-06T15:00:00Z,14.8,120.27,28.0,22.0,0,3,,6.21,29.88189,,,,,,TRUE,,,,,FEW,2000,,,,,,,VFR,,,,,,,,,,,,METAR,17.0
RPMD 061500Z 00000KT 9999 FEW016 SCT090 BKN290 26/25 Q1012 RMK A2988,RPMD,2017-05-06T15:00:00Z,7.12,125.65,26.0,25.0,0,0,,6.21,29.88189,,,,,,,,,,,FEW,1600,SCT,9000,BKN,29000,,,VFR,,,,,,,,,,,,METAR,18.0
RPVM 061500Z 07006KT 040V100 9999 SCT020 BKN100 30/24 Q1013 NOSIG RMK A2991,RPVM,2017-05-06T15:00:00Z,10.32,123.98,30.0,24.0,70,6,,6.21,29.911417,,,,,,TRUE,,,,,SCT,2000,BKN,10000,,,,,VFR,,,,,,,,,,,,METAR,10.0
RPLL 061500Z 11006KT 070V140 9999 FEW025 30/23 Q1013 NOSIG RMK A2991,RPLL,2017-05-06T15:00:00Z,14.52,121.0,30.0,23.0,110,6,,6.21,29.911417,,,,,,TRUE,,,,,FEW,2500,,,,,,,VFR,,,,,,,,,,,,METAR,21.0
OLBA 061500Z 24008KT 8000 SCT026 22/15 Q1015,OLBA,2017-05-06T15:00:00Z,33.82,35.47,22.0,15.0,240,8,,4.97,29.970472,,,,,,,,,,,SCT,2600,,,,,,,MVFR,,,,,,,,,,,,METAR,19.0
LRTC 061500Z 12006KT 9999 FEW015 18/14 Q1011,LRTC,2017-05-06T15:00:00Z,45.07,28.72,18.0,14.0,120,6,,6.21,29.852362,,,,,,,,,,,FEW,1500,,,,,,,VFR,,,,,,,,,,,,METAR,6.0
LRSV 061500Z 12007KT 080V150 9999 FEW048 21/08 Q1012,LRSV,2017-05-06T15:00:00Z,47.68,26.35,21.0,8.0,120,7,,6.21,29.88189,,,,,,,,,,,FEW,4800,,,,,,,VFR,,,,,,,,,,,,METAR,351.0
LRIA 061500Z 07007KT 040V100 9999 FEW050TCU 24/07 Q1011,LRIA,2017-05-06T15:00:00Z,47.17,27.62,24.0,7.0,70,7,,6.21,29.852362,,,,,,,,,,,FEW,5000,,,,,,,VFR,,,,,,,,,,,,METAR,104.0
LRCV 061500Z 02007KT 350V050 9999 FEW050CB 21/08 Q1011,LRCV,2017-05-06T15:00:00Z,44.32,23.88,21.0,8.0,20,7,,6.21,29.852362,,,,,,,,,,,FEW,5000,,,,,,,VFR,,,,,,,,,,,,METAR,191.0
LRBC 061500Z 27003KT 9999 FEW035CB 24/13 Q1011,LRBC,2017-05-06T15:00:00Z,46.52,26.92,24.0,13.0,270,3,,6.21,29.852362,,,,,,,,,,,FEW,3500,,,,,,,VFR,,,,,,,,,,,,METAR,185.0
LFSN 061500Z AUTO 16008KT 9999 -DZ SCT017 SCT028 OVC062 14/11 Q1009,LFSN,2017-05-06T15:00:00Z,48.67,6.22,14.0,11.0,160,8,,6.21,29.793306,,,TRUE,,,,,,,-DZ,SCT,1700,SCT,2800,OVC,6200,,,VFR,,,,,,,,,,,,METAR,217.0
LFQB 061500Z AUTO 22009KT 9999 -RA FEW010 BKN015 BKN038 14/12 Q1008,LFQB,2017-05-06T15:00:00Z,48.32,4.02,14.0,12.0,220,9,,6.21,29.763779,,,TRUE,,,,,,,-RA,FEW,1000,BKN,1500,BKN,3800,,,MVFR,,,,,,,,,,,,METAR,118.0
LFQA 061500Z AUTO 10004KT 9999 -RA BKN020 OVC025 15/12 Q1008,LFQA,2017-05-06T15:00:00Z,49.2,4.15,15.0,12.0,100,4,,6.21,29.763779,,,TRUE,,,,,,,-RA,BKN,2000,OVC,2500,,,,,MVFR,,,,,,,,,,,,METAR,95.0
LFPB 061500Z AUTO 28007KT 7000 BKN010 OVC016 12/11 Q1008 TEMPO 2000 -DZRA,LFPB,2017-05-06T15:00:00Z,48.97,2.45,12.0,11.0,280,7,,4.35,29.763779,,,TRUE,,,,,,,,BKN,1000,OVC,1600,,,,,MVFR,,,,,,,,,,,,METAR,65.0
LFOP 061500Z AUTO 29005KT 1600 1100 R22/P2000 RA BR FEW004 SCT009 OVC043 11/10 Q1009 TEMPO TSRA BKN003 BKN030CB,LFOP,2017-05-06T15:00:00Z,49.37,1.17,11.0,10.0,290,5,,0.99,29.793306,,,TRUE,,,,,,,RA BR,FEW,400,SCT,900,OVC,4300,,,LIFR,,,,,,,,,,,,SPECI,157.0
LFOK 061500Z AUTO 16010KT 9999 4600 SCT006 BKN011 BKN018 13/12 Q1008 TEMPO 4000 RA BKN005 BKN030CB,LFOK,2017-05-06T15:00:00Z,48.78,4.18,13.0,12.0,160,10,,6.21,29.763779,,,TRUE,,,,,,,,SCT,600,BKN,1100,BKN,1800,,,MVFR,,,,,,,,,,,,METAR,162.0
LFOH 061500Z AUTO 03005KT 360V070 4700 -DZ BR BKN010 BKN029 BKN036 12/11 Q1010 TEMPO 2000 TSRA BKN003 BKN030CB,LFOH,2017-05-06T15:00:00Z,49.52,0.07,12.0,11.0,30,5,,2.92,29.822834,,,TRUE,,,,,,,-DZ BR,BKN,1000,BKN,2900,BKN,3600,,,IFR,,,,,,,,,,,,METAR,103.0
LFOB 061500Z AUTO 29002KT 1900 -RA BR FEW006 BKN010 OVC015 11/10 Q1009 TEMPO TSRA BKN005 BKN030CB,LFOB,2017-05-06T15:00:00Z,49.47,2.12,11.0,10.0,290,2,,1.18,29.793306,,,TRUE,,,,,,,-RA BR,FEW,600,BKN,1000,OVC,1500,,,IFR,,,,,,,,,,,,METAR,111.0
LFMU 061500Z AUTO 30018KT CAVOK 22/07 Q1014 NOSIG,LFMU,2017-05-06T15:00:00Z,43.32,3.35,22.0,7.0,300,18,,6.21,29.940945,,,TRUE,,,TRUE,,,,,CAVOK,,,,,,,,VFR,,,,,,,,,,,,METAR,17.0
LFMT 061500Z AUTO 31014KT CAVOK 20/07 Q1014 NOSIG,LFMT,2017-05-06T15:00:00Z,43.57,3.97,20.0,7.0,310,14,,6.21,29.940945,,,TRUE,,,TRUE,,,,,CAVOK,,,,,,,,VFR,,,,,,,,,,,,METAR,6.0
LFLY 061500Z AUTO VRB02KT 9999 -RA FEW043 OVC064 14/10 Q1014 TEMPO 4000 SHRA SCT035TCU BKN040,LFLY,2017-05-06T15:00:00Z,45.72,4.95,14.0,10.0,0,2,,6.21,29.940945,,,TRUE,,,,,,,-RA,FEW,4300,OVC,6400,,,,,VFR,,,,,,,,,,,,SPECI,201.0
LFLU 061500Z AUTO 10007KT 9999 -RA OVC070 13/11 Q1014,LFLU,2017-05-06T15:00:00Z,44.92,4.98,13.0,11.0,100,7,,6.21,29.940945,,,TRUE,,,,,,,-RA,OVC,7000,,,,,,,VFR,,,,,,,,,,,,METAR,160.0
LFLS 061500Z AUTO VRB02KT 9999 -RA BKN017 BKN024 BKN031 12/10 Q1015 TEMPO 3000 RA BR SCT007 BKN013,LFLS,2017-05-06T15:00:00Z,45.37,5.32,12.0,10.0,0,2,,6.21,29.970472,,,TRUE,,,,,,,-RA,BKN,1700,BKN,2400,BKN,3100,,,MVFR,,,,,,,,,,,,SPECI,386.0
LFLP 061500Z AUTO VRB03KT 9999 -RA BKN011 BKN019 BKN030 11/09 Q1014 TEMPO 3000 RA BR BKN009,LFLP,2017-05-06T15:00:00Z,45.92,6.08,11.0,9.0,0,3,,6.21,29.940945,,,TRUE,,,,,,,-RA,BKN,1100,BKN,1900,BKN,3000,,,MVFR,,,,,,,,,,,,METAR,463.0
LFJL 061500Z AUTO 16010KT 9999 BKN047 OVC058 14/10 Q1009 TEMPO 4000 RA BKN013 SCT020TCU,LFJL,2017-05-06T15:00:00Z,48.97,6.25,14.0,10.0,160,10,,6.21,29.793306,,,TRUE,,,,,,,,BKN,4700,OVC,5800,,,,,VFR,,,,,,,,,,,,METAR,264.0
LFCR 061500Z AUTO 32009KT 290V350 9999 -RA FEW012/// SCT017/// BKN029/// ///TCU 11/10 Q1017 TEMPO 28020G30KT 3000 SHRA BKN015 SCT030CB,LFCR,2017-05-06T15:00:00Z,44.38,2.47,11.0,10.0,320,9,,6.21,30.029528,,,TRUE,,,,,,,-RA,FEW,1200,SCT,1700,BKN,2900,,,MVFR,,,,,,,,,,,,METAR,580.0
LRTM 061500Z 26006KT 230V290 9999 SCT036 FEW048CB 22/12 Q1011,LRTM,2017-05-06T15:00:00Z,46.47,24.42,22.0,12.0,260,6,,6.21,29.852362,,,,,,,,,,,SCT,3600,FEW,4800,,,,,VFR,,,,,,,,,,,,METAR,309.0
LRSM 061500Z AUTO 26012KT 9999 NCD 20/14 Q1011,LRSM,2017-05-06T15:00:00Z,47.7,22.88,20.0,14.0,260,12,,6.21,29.852362,,,TRUE,,,,,,,,CLR,,,,,,,,VFR,,,,,,,,,,,,METAR,124.0
LROD 061500Z 21009KT 9999 FEW027 19/12 Q1013,LROD,2017-05-06T15:00:00Z,47.03,21.92,19.0,12.0,210,9,,6.21,29.911417,,,,,,,,,,,FEW,2700,,,,,,,VFR,,,,,,,,,,,,METAR,140.0
LRCL 061500Z 16003KT 060V230 9999 FEW050TCU 23/09 Q1011,LRCL,2017-05-06T15:00:00Z,46.78,23.68,23.0,9.0,160,3,,6.21,29.852362,,,,,,,,,,,FEW,5000,,,,,,,VFR,,,,,,,,,,,,METAR,413.0
LRBM 061500Z AUTO 29008KT 260V320 9999 FEW010/// SCT090/// BKN230/// 22/14 Q1011,LRBM,2017-05-06T15:00:00Z,47.67,23.47,22.0,14.0,290,8,,6.21,29.852362,,,TRUE,,,,,,,,FEW,1000,SCT,9000,BKN,23000,,,VFR,,,,,,,,,,,,METAR,185.0
LRAR 061500Z 18006KT 150V220 9999 SCT046 18/14 Q1012,LRAR,2017-05-06T15:00:00Z,46.18,21.27,18.0,14.0,180,6,,6.21,29.88189,,,,,,,,,,,SCT,4600,,,,,,,VFR,,,,,,,,,,,,METAR,118.0
LFTH 061500Z AUTO 29007KT 270V340 9999 FEW035 SCT041 18/13 Q1012 TEMPO 3000 SHRA FEW009TCU BKN010 BKN030,LFTH,2017-05-06T15:00:00Z,43.1,6.15,18.0,13.0,290,7,,6.21,29.88189,,,TRUE,,,,,,,,FEW,3500,SCT,4100,,,,,VFR,,,,,,,,,,,,SPECI,4.0
LFST 061500Z AUTO 16004KT 120V200 5000 -RA BR FEW013/// SCT049/// BKN062/// ///TCU 13/11 Q1010 TEMPO RA,LFST,2017-05-06T15:00:00Z,48.53,7.62,13.0,11.0,160,4,,3.11,29.822834,,,TRUE,,,,,,,-RA BR,FEW,1300,SCT,4900,BKN,6200,,,MVFR,,,,,,,,,,,,METAR,154.0
LFSG 061500Z AUTO 20010KT 9999 -RA SCT015 BKN031 BKN042 12/10 Q1009,LFSG,2017-05-06T15:00:00Z,48.33,6.07,12.0,10.0,200,10,,6.21,29.793306,,,TRUE,,,,,,,-RA,SCT,1500,BKN,3100,BKN,4200,,,VFR,,,,,,,,,,,,METAR,330.0
LFSB 061500Z 08003KT 8000 -RA FEW016 OVC063 13/11 Q1011 NOSIG,LFSB,2017-05-06T15:00:00Z,47.6,7.52,13.0,11.0,80,3,,4.97,29.852362,,,,,,TRUE,,,,-RA,FEW,1600,OVC,6300,,,,,MVFR,,,,,,,,,,,,METAR,271.0
LFRZ 061500Z AUTO 25013KT 230V290 9999 SCT020 SCT025 BKN049 17/12 Q1013 NOSIG,LFRZ,2017-05-06T15:00:00Z,47.32,-2.17,17.0,12.0,250,13,,6.21,29.911417,,,TRUE,,,TRUE,,,,,SCT,2000,SCT,2500,BKN,4900,,,VFR,,,,,,,,,,,,METAR,4.0
LFRV 061500Z AUTO 24012KT 210V280 9999 FEW027 16/09 Q1012,LFRV,2017-05-06T15:00:00Z,47.72,-2.72,16.0,9.0,240,12,,6.21,29.88189,,,TRUE,,,,,,,,FEW,2700,,,,,,,VFR,,,,,,,,,,,,METAR,133.0
LFRO 061500Z AUTO 28013KT 9999 BKN011/// ///CB 14/11 Q1012 TEMPO 4000 SHRA SCT012TCU BKN020,LFRO,2017-05-06T15:00:00Z,48.75,-3.47,14.0,11.0,280,13,,6.21,29.88189,,,TRUE,,,,,,,,BKN,1100,,,,,,,MVFR,,,,,,,,,,,,METAR,89.0
LFRN 061500Z AUTO 36006KT 9999 BKN044 BKN056 BKN076 16/13 Q1011 TEMPO 4000 TSRA BKN015CB BECMG 27010KT,LFRN,2017-05-06T15:00:00Z,48.07,-1.72,16.0,13.0,360,6,,6.21,29.852362,,,TRUE,,,,,,,,BKN,4400,BKN,5600,BKN,7600,,,VFR,,,,,,,,,,,,METAR,37.0
LFRM 061500Z AUTO 29004KT 230V350 9999 SCT048 OVC062 15/12 Q1011 TEMPO SCT012 BKN020TCU,LFRM,2017-05-06T15:00:00Z,47.95,0.2,15.0,12.0,290,4,,6.21,29.852362,,,TRUE,,,,,,,,SCT,4800,OVC,6200,,,,,VFR,,,,,,,,,,,,SPECI,52.0
LFRI 061500Z AUTO 26013KT 9999 FEW017 BKN022 BKN028 15/11 Q1014 TEMPO 26015G25KT SCT020TCU,LFRI,2017-05-06T15:00:00Z,46.7,-1.37,15.0,11.0,260,13,,6.21,29.940945,,,TRUE,,,,,,,,FEW,1700,BKN,2200,BKN,2800,,,MVFR,,,,,,,,,,,,METAR,91.0
LFRD 061500Z AUTO 33008KT 290V010 9000 BKN010 OVC015 14/11 Q1011 TEMPO SHRA BKN020TCU,LFRD,2017-05-06T15:00:00Z,48.58,-2.07,14.0,11.0,330,8,,5.59,29.852362,,,TRUE,,,,,,,,BKN,1000,OVC,1500,,,,,MVFR,,,,,,,,,,,,METAR,59.0
LFOV 061500Z AUTO 31006KT 9999 OVC044 14/12 Q1011,LFOV,2017-05-06T15:00:00Z,48.03,-0.75,14.0,12.0,310,6,,6.21,29.852362,,,TRUE,,,,,,,,OVC,4400,,,,,,,VFR,,,,,,,,,,,,METAR,101.0
LFMK 061500Z AUTO 30014KT 270V330 9999 ///CB 21/10 Q1015 BECMG FEW050,LFMK,2017-05-06T15:00:00Z,43.22,2.32,21.0,10.0,300,14,,6.21,29.970472,,,TRUE,,,,,,,,,,,,,,,,,,,,,,,,,,,,METAR,130.0
LFMI 061500Z AUTO 32014KT 9999 SCT032 BKN056 BKN180 18/11 Q1014 NOSIG,LFMI,2017-05-06T15:00:00Z,43.52,4.92,18.0,11.0,320,14,,6.21,29.940945,,,TRUE,,,TRUE,,,,,SCT,3200,BKN,5600,BKN,18000,,,VFR,,,,,,,,,,,,METAR,24.0
LRTR 061500Z 18006KT 140V230 9999 FEW032 20/11 Q1013 NOSIG,LRTR,2017-05-06T15:00:00Z,45.82,21.33,20.0,11.0,180,6,,6.21,29.911417,,,,,,TRUE,,,,,FEW,3200,,,,,,,VFR,,,,,,,,,,,,METAR,88.0
LRSB 061500Z 32006KT 9999 FEW033 19/11 Q1012,LRSB,2017-05-06T15:00:00Z,45.78,24.08,19.0,11.0,320,6,,6.21,29.88189,,,,,,,,,,,FEW,3300,,,,,,,VFR,,,,,,,,,,,,METAR,444.0
LROP 061500Z 25007KT 220V290 CAVOK 21/13 Q1011 NOSIG,LROP,2017-05-06T15:00:00Z,44.57,26.1,21.0,13.0,250,7,,6.21,29.852362,,,,,,TRUE,,,,,CAVOK,,,,,,,,VFR,,,,,,,,,,,,METAR,95.0
LRCK 061500Z 09004KT 040V120 9999 OVC011 15/13 Q1011 NOSIG,LRCK,2017-05-06T15:00:00Z,44.37,28.48,15.0,13.0,90,4,,6.21,29.852362,,,,,,TRUE,,,,,OVC,1100,,,,,,,MVFR,,,,,,,,,,,,METAR,108.0
LRBS 061500Z 24006KT 190V300 9999 FEW043 21/12 Q1011 NOSIG,LRBS,2017-05-06T15:00:00Z,44.5,26.08,21.0,12.0,240,6,,6.21,29.852362,,,,,,TRUE,,,,,FEW,4300,,,,,,,VFR,,,,,,,,,,,,METAR,91.0
LFRU 061500Z AUTO 27013KT 9999 SCT018 BKN026 BKN054 16/12 Q1012,LFRU,2017-05-06T15:00:00Z,48.6,-3.82,16.0,12.0,270,13,,6.21,29.88189,,,TRUE,,,,,,,,SCT,1800,BKN,2600,BKN,5400,,,MVFR,,,,,,,,,,,,METAR,86.0
LFRK 061500Z AUTO 34005KT 3500 -RA BR BKN009 OVC014 12/10 Q1011 TEMPO RA,LFRK,2017-05-06T15:00:00Z,49.17,-0.45,12.0,10.0,340,5,,2.17,29.852362,,,TRUE,,,,,,,-RA BR,BKN,900,OVC,1400,,,,,IFR,,,,,,,,,,,,METAR,67.0
LFRG 061500Z AUTO VRB03KT 2700 -RA BR BKN007 OVC012 12/10 Q1010 TEMPO 3000 RA,LFRG,2017-05-06T15:00:00Z,49.37,0.15,12.0,10.0,0,3,,1.68,29.822834,,,TRUE,,,,,,,-RA BR,BKN,700,OVC,1200,,,,,IFR,,,,,,,,,,,,METAR,146.0
LFRC 061500Z AUTO 06007KT 040V100 2800 -RA BR SCT006 SCT010 BKN038 11/10 Q1011 TEMPO 6000 -RA BECMG OVC005,LFRC,2017-05-06T15:00:00Z,49.63,-1.47,11.0,10.0,60,7,,1.74,29.852362,,,TRUE,,,,,,,-RA BR,SCT,600,SCT,1000,BKN,3800,,,IFR,,,,,,,,,,,,METAR,138.0
LFPN 061500Z AUTO 30008KT 9999 BKN011 OVC017 12/10 Q1009 TEMPO 4000 RA BKN008 SCT020CB,LFPN,2017-05-06T15:00:00Z,48.75,2.12,12.0,10.0,300,8,,6.21,29.793306,,,TRUE,,,,,,,,BKN,1100,OVC,1700,,,,,MVFR,,,,,,,,,,,,METAR,164.0
LFOT 061500Z AUTO 22013KT 200V270 9999 SCT040 BKN056 OVC170 18/10 Q1011 TEMPO 25015G27KT 2500 SHRA SCT030CB,LFOT,2017-05-06T15:00:00Z,47.43,0.72,18.0,10.0,220,13,,6.21,29.852362,,,TRUE,,,,,,,,SCT,4000,BKN,5600,OVC,17000,,,VFR,,,,,,,,,,,,METAR,108.0
LFMH 061500Z AUTO VRB02KT 9999 FEW021 SCT066 13/08 Q1014 TEMPO RA,LFMH,2017-05-06T15:00:00Z,45.52,4.28,13.0,8.0,0,2,,6.21,29.940945,,,TRUE,,,,,,,,FEW,2100,SCT,6600,,,,,VFR,,,,,,,,,,,,METAR,402.0
LFMD 061500Z AUTO 25010KT 210V290 6000 -RA FEW034/// BKN042/// OVC049/// ///CB 16/14 Q1010 TEMPO 4000 SHRA,LFMD,2017-05-06T15:00:00Z,43.53,6.95,16.0,14.0,250,10,,3.73,29.822834,,,TRUE,,,,,,,-RA,FEW,3400,BKN,4200,OVC,4900,,,MVFR,,,,,,,,,,,,METAR,9.0
LFJR 061500Z AUTO 24015KT 9999 SCT041 BKN070 OVC180 18/09 Q1011 TEMPO 26015G25KT TSRA BKN020CB,LFJR,2017-05-06T15:00:00Z,47.57,-0.3,18.0,9.0,240,15,,6.21,29.852362,,,TRUE,,,,,,,,SCT,4100,BKN,7000,OVC,18000,,,VFR,,,,,,,,,,,,METAR,60.0
LFGJ 061500Z AUTO 20012KT 6000 -RA BKN008 OVC013 12/12 Q1011 TEMPO 20015G25KT 3000 SHRA BKN008 SCT015TCU,LFGJ,2017-05-06T15:00:00Z,47.05,5.43,12.0,12.0,200,12,,3.73,29.852362,,,TRUE,,,,,,,-RA,BKN,800,OVC,1300,,,,,IFR,,,1.5,,,,,,,,,METAR,196.0
LFBE 061500Z AUTO 26017KT 9999 FEW049 SCT078 20/09 Q1016 TEMPO 28018G28KT 3000 SHRA BKN015TCU SCT020CB,LFBE,2017-05-06T15:00:00Z,44.82,0.52,20.0,9.0,260,17,,6.21,30.0,,,TRUE,,,,,,,,FEW,4900,SCT,7800,,,,,VFR,,,,,,,,,,,,METAR,52.0
LFBA 061500Z AUTO 29015KT 9999 FEW001/// SCT082/// ///TCU 20/09 Q1017 BECMG NSC,LFBA,2017-05-06T15:00:00Z,44.17,0.6,20.0,9.0,290,15,,6.21,30.029528,,,TRUE,,,,,,,,FEW,100,SCT,8200,,,,,VFR,,,,,,,,,,,,METAR,60.0
LFTW 061500Z AUTO 32010KT 290V350 CAVOK 19/08 Q1014 NOSIG,LFTW,2017-05-06T15:00:00Z,43.75,4.42,19.0,8.0,320,10,,6.21,29.940945,,,TRUE,,,TRUE,,,,,CAVOK,,,,,,,,VFR,,,,,,,,,,,,METAR,96.0
LFSD 061500Z AUTO 19010KT 9999 -RA BKN006 BKN027 BKN040 13/12 Q1010,LFSD,2017-05-06T15:00:00Z,47.27,5.07,13.0,12.0,190,10,,6.21,29.822834,,,TRUE,,,,,,,-RA,BKN,600,BKN,2700,BKN,4000,,,IFR,,,,,,,,,,,,METAR,227.0
LFRT 061500Z AUTO 29005KT 9999 -RA FEW015/// SCT020/// BKN026/// ///TCU 13/12 Q1011,LFRT,2017-05-06T15:00:00Z,48.52,-2.85,13.0,12.0,290,5,,6.21,29.852362,,,TRUE,,,,,,,-RA,FEW,1500,SCT,2000,BKN,2600,,,MVFR,,,,,,,,,,,,METAR,136.0
LFRQ 061500Z AUTO 26013KT 230V290 9999 BKN022 BKN030 BKN037 16/10 Q1013 NOSIG,LFRQ,2017-05-06T15:00:00Z,47.97,-4.17,16.0,10.0,260,13,,6.21,29.911417,,,TRUE,,,TRUE,,,,,BKN,2200,BKN,3000,BKN,3700,,,MVFR,,,,,,,,,,,,METAR,94.0
LFRH 061500Z AUTO 26016KT 9999 FEW013 16/12 Q1013 TEMPO 26015G25KT SHRA SCT020TCU BKN060,LFRH,2017-05-06T15:00:00Z,47.77,-3.45,16.0,12.0,260,16,,6.21,29.911417,,,TRUE,,,,,,,,FEW,1300,,,,,,,VFR,,,,,,,,,,,,METAR,44.0
LFPT 061500Z AUTO 28007KT 4000 -DZ BR BKN007 BKN011 OVC019 11/10 Q1009,LFPT,2017-05-06T15:00:00Z,49.1,2.03,11.0,10.0,280,7,,2.49,29.793306,,,TRUE,,,,,,,-DZ BR,BKN,700,BKN,1100,OVC,1900,,,IFR,,,,,,,,,,,,METAR,99.0
LFPM 061500Z AUTO 29011KT 4900 BR BKN010 OVC014 12/11 Q1009,LFPM,2017-05-06T15:00:00Z,48.62,2.67,12.0,11.0,290,11,,3.04,29.793306,,,TRUE,,,,,,,BR,BKN,1000,OVC,1400,,,,,MVFR,,,,,,,,,,,,METAR,92.0
LFLN 061500Z AUTO 23006KT 200V290 CAVOK 13/10 Q1013 NOSIG,LFLN,2017-05-06T15:00:00Z,46.42,4.02,13.0,10.0,230,6,,6.21,29.911417,,,TRUE,,,TRUE,,,,,CAVOK,,,,,,,,VFR,,,,,,,,,,,,METAR,244.0
LFGA 061500Z AUTO VRB02KT 9999 BKN009/// OVC068/// 13/12 Q1010,LFGA,2017-05-06T15:00:00Z,48.1,7.35,13.0,12.0,0,2,,6.21,29.822834,,,TRUE,,,,,,,,BKN,900,OVC,6800,,,,,IFR,,,,,,,,,,,,METAR,191.0
LFBU 061500Z AUTO 26015G26KT 230V290 9999 BKN030/// BKN037/// BKN056/// ///TCU 16/09 Q1015 TEMPO 3000 SHRA BKN020TCU SCT025CB,LFBU,2017-05-06T15:00:00Z,45.72,0.22,16.0,9.0,260,15,26,6.21,29.970472,,,TRUE,,,,,,,,BKN,3000,BKN,3700,BKN,5600,,,MVFR,,,,,,,,,,,,METAR,133.0
LFAT 061500Z AUTO 02012KT 350V050 6000 FEW031 SCT072 OVC084 14/10 Q1009 TEMPO 2000 TSRA BKN030CB,LFAT,2017-05-06T15:00:00Z,50.52,1.62,14.0,10.0,20,12,,3.73,29.793306,,,TRUE,,,,,,,,FEW,3100,SCT,7200,OVC,8400,,,MVFR,,,,,,,,,,,,METAR,14.0
LFAQ 061500Z AUTO VRB02KT 7000 -RA FEW044 OVC056 13/11 Q1008 TEMPO 2000 TSRA BKN030CB,LFAQ,2017-05-06T15:00:00Z,49.97,2.7,13.0,11.0,0,2,,4.35,29.763779,,,TRUE,,,,,,,-RA,FEW,4400,OVC,5600,,,,,MVFR,,,,,,,,,,,,METAR,111.0
LFML 061500Z AUTO 29019KT 9999 FEW014 SCT033 BKN041 19/11 Q1013 TEMPO 30013G23KT,LFML,2017-05-06T15:00:00Z,43.45,5.22,19.0,11.0,290,19,,6.21,29.911417,,,TRUE,,,,,,,,FEW,1400,SCT,3300,BKN,4100,,,VFR,,,,,,,,,,,,METAR,36.0
LFLX 061500Z AUTO 26012KT CAVOK 16/10 Q1012 TEMPO 25015G30KT 2500 SHRA SCT020CB,LFLX,2017-05-06T15:00:00Z,46.85,1.72,16.0,10.0,260,12,,6.21,29.88189,,,TRUE,,,,,,,,CAVOK,,,,,,,,VFR,,,,,,,,,,,,METAR,157.0
LFLB 061500Z AUTO 10005KT 040V160 7000 -RA FEW025/// BKN038/// BKN046/// ///TCU 13/10 Q1014 TEMPO VRB15KT 2000 RA BKN009 SCT020CB,LFLB,2017-05-06T15:00:00Z,45.63,5.87,13.0,10.0,100,5,,4.35,29.940945,,,TRUE,,,,,,,-RA,FEW,2500,BKN,3800,BKN,4600,,,MVFR,,,,,,,,,,,,SPECI,239.0
LFCK 061500Z AUTO 31025G42KT 6000 RA FEW029/// SCT042/// BKN052/// ///CB 13/10 Q1018 TEMPO 3000 TSRA,LFCK,2017-05-06T15:00:00Z,43.55,2.28,13.0,10.0,310,25,42,3.73,30.059055,,,TRUE,,,,,,,RA,FEW,2900,SCT,4200,BKN,5200,,,MVFR,,,,,,,,,,,,METAR,240.0
LFBZ 061500Z AUTO 33010KT 280V010 CAVOK 17/09 Q1019 NOSIG,LFBZ,2017-05-06T15:00:00Z,43.47,-1.52,17.0,9.0,330,10,,6.21,30.088583,,,TRUE,,,TRUE,,,,,CAVOK,,,,,,,,VFR,,,,,,,,,,,,METAR,71.0
LFBT 061500Z AUTO 31014KT 280V340 9999 FEW050 19/08 Q1018 NOSIG,LFBT,2017-05-06T15:00:00Z,43.17,0.0,19.0,8.0,310,14,,6.21,30.059055,,,TRUE,,,TRUE,,,,,FEW,5000,,,,,,,VFR,,,,,,,,,,,,METAR,363.0
LFBP 061500Z AUTO VRB10KT CAVOK 19/11 Q1018 TEMPO 27015G25KT,LFBP,2017-05-06T15:00:00Z,43.37,-0.42,19.0,11.0,0,10,,6.21,30.059055,,,TRUE,,,,,,,,CAVOK,,,,,,,,VFR,,,,,,,,,,,,METAR,185.0
LFBO 061500Z AUTO 33012KT 9999 4600 NSC 18/08 Q1017 TEMPO 28015G25KT SCT025 FEW030CB,LFBO,2017-05-06T15:00:00Z,43.62,1.37,18.0,8.0,330,12,,6.21,30.029528,,,TRUE,,,,,,,,CLR,,,,,,,,VFR,,,,,,,,,,,,SPECI,153.0
LFBL 061500Z AUTO 25015KT 210V280 9999 BKN037/// BKN066/// ///TCU 15/07 Q1014 TEMPO 4000 SHRA BKN010TCU FEW025CB,LFBL,2017-05-06T15:00:00Z,45.87,1.17,15.0,7.0,250,15,,6.21,29.940945,,,TRUE,,,,,,,,BKN,3700,BKN,6600,,,,,VFR,,,,,,,,,,,,SPECI,402.0
LFBI 061500Z AUTO 25017KT 220V280 9999 BKN028/// BKN039/// BKN047/// ///CB 15/11 Q1013 TEMPO 25018G28KT 3000 SHRA BKN013TCU,LFBI,2017-05-06T15:00:00Z,46.57,0.32,15.0,11.0,250,17,,6.21,29.911417,,,TRUE,,,,,,,,BKN,2800,BKN,3900,BKN,4700,,,MVFR,,,,,,,,,,,,SPECI,120.0
LFBH 061500Z AUTO 26017KT 9999 OVC016 16/12 Q1015 TEMPO 25018G28KT BKN013TCU,LFBH,2017-05-06T15:00:00Z,46.18,-1.2,16.0,12.0,260,17,,6.21,29.970472,,,TRUE,,,,,,,,OVC,1600,,,,,,,MVFR,,,,,,,,,,,,SPECI,10.0
LFBD 061500Z AUTO 30019KT 9999 SCT036 BKN043 17/08 Q1017 TEMPO 27018G28KT BKN025TCU,LFBD,2017-05-06T15:00:00Z,44.82,-0.7,17.0,8.0,300,19,,6.21,30.029528,,,TRUE,,,,,,,,SCT,3600,BKN,4300,,,,,VFR,,,,,,,,,,,,METAR,61.0
LFRS 061500Z AUTO 27012KT 240V300 9999 BKN028 BKN034 OVC060 17/10 Q1013 NOSIG,LFRS,2017-05-06T15:00:00Z,47.17,-1.6,17.0,10.0,270,12,,6.21,29.911417,,,TRUE,,,TRUE,,,,,BKN,2800,BKN,3400,OVC,6000,,,MVFR,,,,,,,,,,,,METAR,27.0
LFRB 061500Z AUTO 27009KT 240V310 9999 BKN016 BKN025 BKN036 15/12 Q1012 TEMPO 4000 SHRA SCT013TCU BKN016,LFRB,2017-05-06T15:00:00Z,48.45,-4.42,15.0,12.0,270,9,,6.21,29.88189,,,TRUE,,,,,,,,BKN,1600,BKN,2500,BKN,3600,,,MVFR,,,,,,,,,,,,METAR,103.0
LFQQ 061500Z AUTO 03011KT CAVOK 19/09 Q1008 TEMPO 2000 TSRA BKN005 BKN030CB,LFQQ,2017-05-06T15:00:00Z,50.57,3.1,19.0,9.0,30,11,,6.21,29.763779,,,TRUE,,,,,,,,CAVOK,,,,,,,,VFR,,,,,,,,,,,,METAR,52.0
LFPO 061500Z 30007KT 270V340 9000 BKN011 BKN018 12/10 Q1009 NOSIG,LFPO,2017-05-06T15:00:00Z,48.72,2.38,12.0,10.0,300,7,,5.59,29.793306,,,,,,TRUE,,,,,BKN,1100,BKN,1800,,,,,MVFR,,,,,,,,,,,,METAR,96.0
LFPG 061500Z 28007KT 4500 -DZ FEW004 BKN005 12/11 Q1008 NOSIG,LFPG,2017-05-06T15:00:00Z,49.02,2.52,12.0,11.0,280,7,,2.8,29.763779,,,,,,TRUE,,,,-DZ,FEW,400,BKN,500,,,,,IFR,,,,,,,,,,,,METAR,109.0
LFMN 061500Z 07003KT 9999 FEW016CB BKN033 16/13 Q1009 TEMPO RA,LFMN,2017-05-06T15:00:00Z,43.63,7.2,16.0,13.0,70,3,,6.21,29.793306,,,,,,,,,,,FEW,1600,BKN,3300,,,,,VFR,,,,,,,,,,,,METAR,10.0
LFLL 061500Z 27005KT 240V300 9999 -RA FEW022 SCT030 OVC053 13/11 Q1014 NOSIG,LFLL,2017-05-06T15:00:00Z,45.72,5.07,13.0,11.0,270,5,,6.21,29.940945,,,,,,TRUE,,,,-RA,FEW,2200,SCT,3000,OVC,5300,,,VFR,,,,,,,,,,,,METAR,240.0
LFSL 061500Z AUTO 25005KT 190V310 9999 FEW033/// SCT039/// BKN120/// ///CB 16/10 Q1016 TEMPO 27015G25KT 3000 SHRA BKN009 BKN020TCU SCT030CB,LFSL,2017-05-06T15:00:00Z,45.03,1.48,16.0,10.0,250,5,,6.21,30.0,,,TRUE,,,,,,,,FEW,3300,SCT,3900,BKN,12000,,,VFR,,,,,,,,,,,,SPECI,310.0
LFMV 061500Z AUTO 33010KT 9999 FEW018 SCT056 BKN220 17/12 Q1014 NOSIG,LFMV,2017-05-06T15:00:00Z,43.9,4.9,17.0,12.0,330,10,,6.21,29.940945,,,TRUE,,,TRUE,,,,,FEW,1800,SCT,5600,BKN,22000,,,VFR,,,,,,,,,,,,METAR,38.0
LFMP 061500Z AUTO 33014KT 300V010 CAVOK 23/07 Q1014 NOSIG,LFMP,2017-05-06T15:00:00Z,42.72,2.87,23.0,7.0,330,14,,6.21,29.940945,,,TRUE,,,TRUE,,,,,CAVOK,,,,,,,,VFR,,,,,,,,,,,,METAR,48.0
LFLC 061500Z AUTO 28008KT 230V330 9999 SCT043 BKN050 BKN120 15/07 Q1014 NOSIG,LFLC,2017-05-06T15:00:00Z,45.77,3.17,15.0,7.0,280,8,,6.21,29.940945,,,TRUE,,,TRUE,,,,,SCT,4300,BKN,5000,BKN,12000,,,VFR,,,,,,,,,,,,METAR,330.0
LFKJ 061500Z 20014KT 9999 FEW007 SCT013 BKN160 18/16 Q1012 NOSIG,LFKJ,2017-05-06T15:00:00Z,41.92,8.8,18.0,16.0,200,14,,6.21,29.88189,,,,,,TRUE,,,,,FEW,700,SCT,1300,BKN,16000,,,VFR,,,,,,,,,,,,METAR,9.0
LFKF 061500Z AUTO 23019KT 8000 OVC005 17/16 Q1012 TEMPO RA OVC010,LFKF,2017-05-06T15:00:00Z,41.5,9.08,17.0,16.0,230,19,,4.97,29.88189,,,TRUE,,,,,,,,OVC,500,,,,,,,IFR,,,,,,,,,,,,SPECI,23.0
LFKB 061500Z 16014KT 9999 SCT030 SCT140 19/15 Q1008 RESH NOSIG,LFKB,2017-05-06T15:00:00Z,42.53,9.47,19.0,15.0,160,14,,6.21,29.763779,,,,,,TRUE,,,,,SCT,3000,SCT,14000,,,,,VFR,,,,,,,,,,,,METAR,12.0
ORBI 061500Z 36013KT 9999 FEW025CB BKN030 26/13 Q1011,ORBI,2017-05-06T15:00:00Z,33.27,44.23,26.0,13.0,360,13,,6.21,29.852362,,,,,,,,,,,FEW,2500,BKN,3000,,,,,MVFR,,,,,,,,,,,,METAR,35.0
SBSN 061500Z 09006KT 9999 SCT017 BKN100 30/26 Q1012,SBSN,2017-05-06T15:00:00Z,-2.42,-54.78,30.0,26.0,90,6,,6.21,29.88189,,,,,,,,,,,SCT,1700,BKN,10000,,,,,VFR,,,,,,,,,,,,METAR,72.0
OKBK 061500Z 04006KT 8000 SCT040 BKN080 31/21 Q1006 NOSIG,OKBK,2017-05-06T15:00:00Z,29.22,47.97,31.0,21.0,40,6,,4.97,29.704725,,,,,,TRUE,,,,,SCT,4000,BKN,8000,,,,,MVFR,,,,,,,,,,,,METAR,55.0
LEMO 061500Z 35007KT 270V030 9999 FEW055 24/08 Q1018 NOSIG,LEMO,2017-05-06T15:00:00Z,37.17,-5.62,24.0,8.0,350,7,,6.21,30.059055,,,,,,TRUE,,,,,FEW,5500,,,,,,,VFR,,,,,,,,,,,,METAR,88.0
NFNA 061500Z 14008KT 9999 SCT018 BKN045 25/24 Q1011,NFNA,2017-05-06T15:00:00Z,-18.05,178.57,25.0,24.0,140,8,,6.21,29.852362,,,,,,,,,,,SCT,1800,BKN,4500,,,,,VFR,,,,,,,,,,,,METAR,5.0
FYWW 061500Z 00000KT 9999 FEW045CB FEW050TCU SCT090 23/06 Q1024,FYWW,2017-05-06T15:00:00Z,-22.57,17.1,23.0,6.0,0,0,,6.21,30.236221,,,,,,,,,,,FEW,4500,FEW,5000,SCT,9000,,,VFR,,,,,,,,,,,,METAR,1725.0
LFVP 061500Z 09010KT CAVOK 08/02 Q1032 NOSIG,LFVP,2017-05-06T15:00:00Z,46.77,-56.18,8.0,2.0,90,10,,6.21,30.47244,,,,,,TRUE,,,,,CAVOK,,,,,,,,VFR,,,,,,,,,,,,METAR,8.0
SBBR 061500Z 09006KT 050V130 9999 SCT030 27/14 Q1020,SBBR,2017-05-06T15:00:00Z,-15.87,-47.92,27.0,14.0,90,6,,6.21,30.11811,,,,,,,,,,,SCT,3000,,,,,,,VFR,,,,,,,,,,,,METAR,1061.0
SBBV 061500Z 15005KT 9999 VCSH BKN020 FEW025TCU OVC070 30/24 Q1 013,SBBV,2017-05-06T15:00:00Z,2.85,-60.7,30.0,24.0,150,5,,6.21,,,,,,,,,,,VCSH,BKN,2000,FEW,2500,OVC,7000,,,MVFR,,,,,,,,,,,,SPECI,140.0
SBSJ 061500Z 21005KT 9999 SCT026 23/16 Q1020,SBSJ,2017-05-06T15:00:00Z,-23.22,-45.87,23.0,16.0,210,5,,6.21,30.11811,,,,,,,,,,,SCT,2600,,,,,,,VFR,,,,,,,,,,,,METAR,646.0
FMMI 061500Z 10008KT 9999 FEW017 SCT020 20/18 Q1023 NOSIG,FMMI,2017-05-06T15:00:00Z,-18.8,47.47,20.0,18.0,100,8,,6.21,30.206694,,,,,,TRUE,,,,,FEW,1700,SCT,2000,,,,,VFR,,,,,,,,,,,,METAR,1276.0
MGGT 061500Z 36014KT 9999 FEW018 BKN200 20/15 Q1026 A3030 FEW080,MGGT,2017-05-06T15:00:00Z,14.57,-90.53,20.0,15.0,360,14,,6.21,30.295275,,,,,,,,,,,FEW,1800,BKN,20000,FEW,8000,,,VFR,,,,,,,,,,,,METAR,1509.0
MWCB 061500Z 20003KT 9999 SCT016CB 29/25 Q1014,MWCB,2017-05-06T15:00:00Z,19.68,-79.88,29.0,25.0,200,3,,6.21,29.940945,,,,,,,,,,,SCT,1600,,,,,,,VFR,,,,,,,,,,,,METAR,2.0
SBAR 061500Z 14011KT 9999 SCT020 28/22 Q1014,SBAR,2017-05-06T15:00:00Z,-10.97,-37.07,28.0,22.0,140,11,,6.21,29.940945,,,,,,,,,,,SCT,2000,,,,,,,VFR,,,,,,,,,,,,METAR,9.0
GVAC 061500Z 04014KT 9999 SCT013 27/19 Q1014 NOSIG,GVAC,2017-05-06T15:00:00Z,16.72,-22.93,27.0,19.0,40,14,,6.21,29.940945,,,,,,TRUE,,,,,SCT,1300,,,,,,,VFR,,,,,,,,,,,,METAR,55.0
SBCB 061500Z 24008KT 9999 FEW008 BKN080 27/21 Q1016,SBCB,2017-05-06T15:00:00Z,-22.92,-42.08,27.0,21.0,240,8,,6.21,30.0,,,,,,,,,,,FEW,800,BKN,8000,,,,,VFR,,,,,,,,,,,,METAR,4.0
OSKL 061500Z 26007KT 8000 FEW020 CB SCT026 21/13 Q1012,OSKL,2017-05-06T15:00:00Z,37.03,41.2,21.0,13.0,260,7,,4.97,29.88189,,,,,,,,,,,FEW,2000,SCT,2600,,,,,MVFR,,,,,,,,,,,,METAR,455.0
OSLK 061500Z 20007KT 8000 SCT030 21/15 Q1014,OSLK,2017-05-06T15:00:00Z,35.4,35.95,21.0,15.0,200,7,,4.97,29.940945,,,,,,,,,,,SCT,3000,,,,,,,MVFR,,,,,,,,,,,,SPECI,48.0
OSDI 061500Z 23018KT CAVOK 27/M02 Q1013,OSDI,2017-05-06T15:00:00Z,33.42,36.52,27.0,-2.0,230,18,,6.21,29.911417,,,,,,,,,,,CAVOK,,,,,,,,VFR,,,,,,,,,,,,SPECI,605.0
MDAB 061500Z 09006KT 9999 SCT020 29/24 Q1015,MDAB,2017-05-06T15:00:00Z,19.2,-69.43,29.0,24.0,90,6,,6.21,29.970472,,,,,,,,,,,SCT,2000,,,,,,,VFR,,,,,,,,,,,,METAR,35.0
MDCY 061500Z 16008KT 9999 SCT020 SCT070 28/24 Q1014,MDCY,2017-05-06T15:00:00Z,19.27,-69.73,28.0,24.0,160,8,,6.21,29.940945,,,,,,,,,,,SCT,2000,SCT,7000,,,,,VFR,,,,,,,,,,,,METAR,10.0
MDLR 061500Z 12010KT 9999 SCT020 31/25 Q1016,MDLR,2017-05-06T15:00:00Z,18.45,-68.92,31.0,25.0,120,10,,6.21,30.0,,,,,,,,,,,SCT,2000,,,,,,,VFR,,,,,,,,,,,,METAR,8.0
MDSD 061500Z 14007KT 9999 BKN020 30/24 Q1015,MDSD,2017-05-06T15:00:00Z,18.42,-69.67,30.0,24.0,140,7,,6.21,29.970472,,,,,,,,,,,BKN,2000,,,,,,,MVFR,,,,,,,,,,,,METAR,18.0
MDJB 061500Z 18009KT 9999 SCT020 31/24 Q1015,MDJB,2017-05-06T15:00:00Z,18.57,-69.98,31.0,24.0,180,9,,6.21,29.970472,,,,,,,,,,,SCT,2000,,,,,,,VFR,,,,,,,,,,,,METAR,30.0
MDBH 061500Z 13008KT 5000 RA FEW012CB BKN012 OVC070 24/24 Q1016 CB/NE/E/SE/S/SW/W,MDBH,2017-05-06T15:00:00Z,18.25,-71.12,24.0,24.0,130,8,,3.11,30.0,,,,,,,,,,RA,FEW,1200,BKN,1200,OVC,7000,,,MVFR,,,,,,,,,,,,METAR,3.0
MDPC 061500Z 11010KT 9999 FEW025 28/23 Q1015 NOSIG,MDPC,2017-05-06T15:00:00Z,18.57,-68.37,28.0,23.0,110,10,,6.21,29.970472,,,,,,TRUE,,,,,FEW,2500,,,,,,,VFR,,,,,,,,,,,,METAR,12.0
MDST 061500Z 13012KT 9999 BKN022 SCT070 28/23 Q1014,MDST,2017-05-06T15:00:00Z,19.4,-70.6,28.0,23.0,130,12,,6.21,29.940945,,,,,,,,,,,BKN,2200,SCT,7000,,,,,MVFR,,,,,,,,,,,,METAR,184.0
MDPP 061500Z 14006KT 9999 SCT020 BKN080 31/23 Q1014,MDPP,2017-05-06T15:00:00Z,19.75,-70.57,31.0,23.0,140,6,,6.21,29.940945,,,,,,,,,,,SCT,2000,BKN,8000,,,,,VFR,,,,,,,,,,,,METAR,5.0
GVBA 061500Z 02013KT 9999 SCT015 27/19 Q1015 NOSIG,GVBA,2017-05-06T15:00:00Z,16.13,-22.88,27.0,19.0,20,13,,6.21,29.970472,,,,,,TRUE,,,,,SCT,1500,,,,,,,VFR,,,,,,,,,,,,METAR,22.0
SPZO 061500Z VRB05KT 9999 SCT040 BKN080 14/05 Q1035 NOSIG RMK BIRD HAZARD RWY 28 PP000,SPZO,2017-05-06T15:00:00Z,-13.55,-71.97,14.0,5.0,0,5,,6.21,30.561024,,,,,,TRUE,,,,,SCT,4000,BKN,8000,,,,,VFR,,,,,,,,,,,,SPECI,3249.0
SPTN 061500Z 23006KT CAVOK 21/14 Q1018 RMK PP000,SPTN,2017-05-06T15:00:00Z,-18.07,-70.28,21.0,14.0,230,6,,6.21,30.059055,,,,,,,,,,,CAVOK,,,,,,,,VFR,,,,,,,,,,,,SPECI,458.0
SPSO 061500Z 22011KT 8000 OVC033 22/18 Q1015 RMK BR BIRD HAZARD RWY 22/04 PP000,SPSO,2017-05-06T15:00:00Z,-13.73,-76.22,22.0,18.0,220,11,,4.97,29.970472,,,,,,,,,,,OVC,3300,,,,,,,MVFR,,,,,,,,,,,,SPECI,10.0
SPRU 061500Z 15009KT CAVOK 21/18 Q1014 RMK PP000,SPRU,2017-05-06T15:00:00Z,-8.08,-79.12,21.0,18.0,150,9,,6.21,29.940945,,,,,,,,,,,CAVOK,,,,,,,,VFR,,,,,,,,,,,,METAR,30.0
SPQU 061500Z 18003KT 110V250 CAVOK 20/02 Q1027 NOSIG RMK PP000,SPQU,2017-05-06T15:00:00Z,-16.33,-71.57,20.0,2.0,180,3,,6.21,30.324802,,,,,,TRUE,,,,,CAVOK,,,,,,,,VFR,,,,,,,,,,,,SPECI,2554.0
SPHI 061500Z 18009KT CAVOK 26/19 Q1013 RMK BKN140 BIRD HAZARD RWY 19/01 PP000,SPHI,2017-05-06T15:00:00Z,-6.77,-79.82,26.0,19.0,180,9,,6.21,29.911417,,,,,,,,,,,CAVOK,,,,,,,,VFR,,,,,,,,,,,,METAR,34.0
LRCT 061500Z 20003KT 9999 FEW060 20/11 Q1012 BLU BLU,LRCT,2017-05-06T15:00:00Z,46.5,23.88,20.0,11.0,200,3,,6.21,29.88189,,,,,,,,,,,FEW,6000,,,,,,,VFR,,,,,,,,,,,,METAR,331.0
SYCJ 061500Z 16004KT 9999 SCT017 SCT100 29/25 Q1013 NOSIG,SYCJ,2017-05-06T15:00:00Z,6.5,-58.25,29.0,25.0,160,4,,6.21,29.911417,,,,,,TRUE,,,,,SCT,1700,SCT,10000,,,,,VFR,,,,,,,,,,,,METAR,30.0
OERK 061500Z 15006KT 4000 TS FEW030CB SCT040 BKN080 38/05 Q1008 TEMPO 2000 TSRA,OERK,2017-05-06T15:00:00Z,24.95,46.72,38.0,5.0,150,6,,2.49,29.763779,,,,,,,,,,TS,FEW,3000,SCT,4000,BKN,8000,,,IFR,,,,,,,,,,,,SPECI,612.0
OEMA 061500Z 30010KT CAVOK 35/M14 Q1011 NOSIG,OEMA,2017-05-06T15:00:00Z,24.55,39.7,35.0,-14.0,300,10,,6.21,29.852362,,,,,,TRUE,,,,,CAVOK,,,,,,,,VFR,,,,,,,,,,,,METAR,631.0
OEJN 061500Z 32012KT CAVOK 31/16 Q1008 NOSIG,OEJN,2017-05-06T15:00:00Z,21.68,39.15,31.0,16.0,320,12,,6.21,29.763779,,,,,,TRUE,,,,,CAVOK,,,,,,,,VFR,,,,,,,,,,,,METAR,15.0
OEDF 061500Z 11017KT CAVOK 37/12 Q1004 NOSIG,OEDF,2017-05-06T15:00:00Z,26.47,49.8,37.0,12.0,110,17,,6.21,29.64567,,,,,,TRUE,,,,,CAVOK,,,,,,,,VFR,,,,,,,,,,,,METAR,22.0
SBFL 061500Z 19011KT 150V220 9999 SCT033 25/18 Q1018,SBFL,2017-05-06T15:00:00Z,-27.67,-48.53,25.0,18.0,190,11,,6.21,30.059055,,,,,,,,,,,SCT,3300,,,,,,,VFR,,,,,,,,,,,,METAR,5.0
MRPV 061500Z 13004KT CAVOK 24/16 A3006 NOSIG,MRPV,2017-05-06T15:00:00Z,9.95,-84.15,24.0,16.0,130,4,,6.21,30.059055,,,,,,TRUE,,,,,CAVOK,,,,,,,,VFR,,,,,,,,,,,,METAR,994.0
SUMU 061500Z 01007KT 9999 FEW020 OVC200 22/16 Q1018 NOSIG,SUMU,2017-05-06T15:00:00Z,-34.82,-56.0,22.0,16.0,10,7,,6.21,30.059055,,,,,,TRUE,,,,,FEW,2000,OVC,20000,,,,,VFR,,,,,,,,,,,,METAR,32.0
SKPE 061500Z 19004KT 5000 -DZ BCFG BKN007 BKN070 19/19 A3018 RMK AD OPER IMC,SKPE,2017-05-06T15:00:00Z,4.82,-75.73,19.0,19.0,190,4,,3.11,30.180119,,,,,,,,,,-DZ BCFG,BKN,700,BKN,7000,,,,,IFR,,,,,,,,,,,,METAR,1346.0
SKBG 061500Z 07003KT 9999 SCT010 SCT080 22/20 A3006,SKBG,2017-05-06T15:00:00Z,7.13,-73.18,22.0,20.0,70,3,,6.21,30.059055,,,,,,,,,,,SCT,1000,SCT,8000,,,,,VFR,,,,,,,,,,,,METAR,1189.0
SKSP 061500Z 05005KT 9999 FEW018 SCT200 30/25 A2989,SKSP,2017-05-06T15:00:00Z,12.57,-81.72,30.0,25.0,50,5,,6.21,29.890747,,,,,,,,,,,FEW,1800,SCT,20000,,,,,VFR,,,,,,,,,,,,METAR,-2.0
SKRG 061500Z 25006KT 9999 FEW012 BKN090 18/14 A3035,SKRG,2017-05-06T15:00:00Z,6.17,-75.42,18.0,14.0,250,6,,6.21,30.351377,,,,,,,,,,,FEW,1200,BKN,9000,,,,,VFR,,,,,,,,,,,,METAR,2137.0
SKLT 061500Z 04003KT 6000 -RA FEW010 SCT015 BKN080 27/26 A2995,SKLT,2017-05-06T15:00:00Z,-4.2,-69.93,27.0,26.0,40,3,,3.73,29.949802,,,,,,,,,,-RA,FEW,1000,SCT,1500,BKN,8000,,,MVFR,,,,,,,,,,,,METAR,84.0
SKCC 061500Z 02006KT 9999 SCT022 SCT090 29/20 A2994,SKCC,2017-05-06T15:00:00Z,7.92,-72.52,29.0,20.0,20,6,,6.21,29.940945,,,,,,,,,,,SCT,2200,SCT,9000,,,,,VFR,,,,,,,,,,,,METAR,317.0
SKCG 061500Z 21003KT 9999 -DZ FEW009 OVC070 26/26 A2991,SKCG,2017-05-06T15:00:00Z,10.43,-75.52,26.0,26.0,210,3,,6.21,29.911417,,,,,,,,,,-DZ,FEW,900,OVC,7000,,,,,VFR,,,,,,,,,,,,METAR,1.0
SKCL 061500Z 00000KT 5000 -DZ BR BKN007 OVC080 22/21A3012,SKCL,2017-05-06T15:00:00Z,3.53,-76.37,,,0,0,,3.11,30.121063,,,,,,,,,,-DZ BR,BKN,700,OVC,8000,,,,,IFR,,,,,,,,,,,,METAR,969.0
SKBO 061500Z VRB02KT 9999 SCT023 SCT080 17/10 A3038,SKBO,2017-05-06T15:00:00Z,4.7,-74.12,17.0,10.0,0,2,,6.21,30.380905,,,,,,,,,,,SCT,2300,SCT,8000,,,,,VFR,,,,,,,,,,,,METAR,2548.0
FWCL 061500Z 00000KT 9999 BKN030 25/18 Q1019 NOSIG,FWCL,2017-05-06T15:00:00Z,-15.67,34.97,25.0,18.0,0,0,,6.21,30.088583,,,,,,TRUE,,,,,BKN,3000,,,,,,,MVFR,,,,,,,,,,,,METAR,767.0
PLCH 061500Z 11008KT 9999 SCT019 BKN043 26/24 Q1009,PLCH,2017-05-06T15:00:00Z,1.98,-157.35,26.0,24.0,110,8,,6.21,29.793306,,,,,,,,,,,SCT,1900,BKN,4300,,,,,VFR,,,,,,,,,,,,METAR,3.0
SBUG 061500Z 07011KT CAVOK 24/18 Q1016,SBUG,2017-05-06T15:00:00Z,-29.77,-57.02,24.0,18.0,70,11,,6.21,30.0,,,,,,,,,,,CAVOK,,,,,,,,VFR,,,,,,,,,,,,METAR,74.0
SBKP 061500Z 06002KT 9999 SCT023 22/// Q1020,SBKP,2017-05-06T15:00:00Z,-23.0,-47.12,,,60,2,,6.21,30.11811,,,,,,,,,,,SCT,2300,,,,,,,VFR,,,,,,,,,,,,METAR,661.0
SBGR 061500Z 21003KT 9999 BKN030 21/15 Q1021,SBGR,2017-05-06T15:00:00Z,-23.42,-46.47,21.0,15.0,210,3,,6.21,30.147638,,,,,,,,,,,BKN,3000,,,,,,,MVFR,,,,,,,,,,,,METAR,750.0
MBPV 061500Z 16009KT 9999 SCT015 27/26 Q1013,MBPV,2017-05-06T15:00:00Z,21.77,-72.27,27.0,26.0,160,9,,6.21,29.911417,,,,,,,,,,,SCT,1500,,,,,,,VFR,,,,,,,,,,,,METAR,5.0
SKBQ 061500Z 17007KT 9999 BKN010 SCT080 27/25 A2992 RMK AD OPER IMC,SKBQ,2017-05-06T15:00:00Z,10.9,-74.77,27.0,25.0,170,7,,6.21,29.920275,,,,,,,,,,,BKN,1000,SCT,8000,,,,,MVFR,,,,,,,,,,,,METAR,10.0
SBGO 061500Z VRB01KT 9999 FEW030 29/16 Q1018,SBGO,2017-05-06T15:00:00Z,-16.62,-49.22,29.0,16.0,0,1,,6.21,30.059055,,,,,,,,,,,FEW,3000,,,,,,,VFR,,,,,,,,,,,,METAR,747.0
SESM 061500Z 07002KT 9999 SCT026 BKN120 24/19 Q1019 RMK A3011,SESM,2017-05-06T15:00:00Z,-1.5,-78.07,24.0,19.0,70,2,,6.21,30.088583,,,,,,,,,,,SCT,2600,BKN,12000,,,,,VFR,,,,,,,,,,,,METAR,1056.0
SEMT 061500Z 24006KT 9999 BKN020 29/22 Q1014 RMK A2995,SEMT,2017-05-06T15:00:00Z,-0.95,-80.67,29.0,22.0,240,6,,6.21,29.940945,,,,,,,,,,,BKN,2000,,,,,,,MVFR,,,,,,,,,,,,SPECI,14.0
SELT 061500Z 14001KT 9999 FEW013 BKN030 OVC100 13/11 Q1032,SELT,2017-05-06T15:00:00Z,-0.92,-78.62,13.0,11.0,140,1,,6.21,30.47244,,,,,,,,,,,FEW,1300,BKN,3000,OVC,10000,,,MVFR,,,,,,,,,,,,METAR,2785.0
SEGU 061500Z 36006KT 9999 FEW020 SCT100 28/23 Q1013 NOSIG RMK A2992,SEGU,2017-05-06T15:00:00Z,-2.13,-79.87,28.0,23.0,360,6,,6.21,29.911417,,,,,,TRUE,,,,,FEW,2000,SCT,10000,,,,,VFR,,,,,,,,,,,,SPECI,9.0
FQQL 061500Z 12005KT 9999 SCT020 27/21 Q1016,FQQL,2017-05-06T15:00:00Z,-17.87,36.87,27.0,21.0,120,5,,6.21,30.0,,,,,,,,,,,SCT,2000,,,,,,,VFR,,,,,,,,,,,,METAR,16.0
SBPV 061500Z 31003KT 9999 SCT025 30/24 Q1013,SBPV,2017-05-06T15:00:00Z,-8.72,-63.9,30.0,24.0,310,3,,6.21,29.911417,,,,,,,,,,,SCT,2500,,,,,,,VFR,,,,,,,,,,,,METAR,88.0
MRLB 061500Z 06003KT 9999 FEW040 SCT250 30/23 A2987 NOSIG,MRLB,2017-05-06T15:00:00Z,10.6,-85.55,30.0,23.0,60,3,,6.21,29.870079,,,,,,TRUE,,,,,FEW,4000,SCT,25000,,,,,VFR,,,,,,,,,,,,METAR,82.0
SBSP 061500Z 20003KT 9999 FEW019 BKN023 21/15 Q1021,SBSP,2017-05-06T15:00:00Z,-23.62,-46.63,21.0,15.0,200,3,,6.21,30.147638,,,,,,,,,,,FEW,1900,BKN,2300,,,,,MVFR,,,,,,,,,,,,METAR,803.0
SBRB 061500Z 17003KT 9999 SCT020 28/23 Q1015,SBRB,2017-05-06T15:00:00Z,-10.0,-67.78,28.0,23.0,170,3,,6.21,29.970472,,,,,,,,,,,SCT,2000,,,,,,,VFR,,,,,,,,,,,,METAR,143.0
SBPS 061500Z 10008KT 9999 FEW020 28/24 Q1016,SBPS,2017-05-06T15:00:00Z,-16.43,-39.07,28.0,24.0,100,8,,6.21,30.0,,,,,,,,,,,FEW,2000,,,,,,,VFR,,,,,,,,,,,,METAR,51.0
SBSL 061500Z 08009KT 9999 SCT017 32/23 Q1011,SBSL,2017-05-06T15:00:00Z,-2.6,-44.22,32.0,23.0,80,9,,6.21,29.852362,,,,,,,,,,,SCT,1700,,,,,,,VFR,,,,,,,,,,,,METAR,53.0
UBEE 061500Z 24007KT 9999 FEW033CB OVC100 23/12 Q1013 R30/CLRD// NOSIG,UBEE,2017-05-06T15:00:00Z,40.63,47.15,23.0,12.0,240,7,,6.21,29.911417,,,,,,TRUE,,,,,FEW,3300,OVC,10000,,,,,VFR,,,,,,,,,,,,SPECI,15.0
MHTG 061500Z 36010KT 9999 SCT028 BKN200 24/19 Q1020 A3012 NOSIG,MHTG,2017-05-06T15:00:00Z,14.07,-87.22,24.0,19.0,360,10,,6.21,30.11811,,,,,,TRUE,,,,,SCT,2800,BKN,20000,,,,,VFR,,,,,,,,,,,,METAR,1004.0
MHLM 061500Z 05006KT 9999 FEW024 BKN080 24/24 Q1016 A3000 NOSIG,MHLM,2017-05-06T15:00:00Z,15.45,-87.93,24.0,24.0,50,6,,6.21,30.0,,,,,,TRUE,,,,,FEW,2400,BKN,8000,,,,,VFR,,,,,,,,,,,,METAR,26.0
MHLC 061500Z 22008KT 5000 -TSRA FEW004 BKN020CB OVC070 24/22 Q1016 A3000 BECMG 8000 TSVCSH,MHLC,2017-05-06T15:00:00Z,15.75,-86.85,24.0,22.0,220,8,,3.11,30.0,,,,,,,,,,-TSRA,FEW,400,BKN,2000,OVC,7000,,,MVFR,,,,,,,,,,,,SPECI,15.0
MHRO 061500Z 00000KT 9999 SCT020CB BKN080 29/23 Q1015 A2997 RETS NOSIG,MHRO,2017-05-06T15:00:00Z,16.32,-86.53,29.0,23.0,0,0,,6.21,29.970472,,,,,,TRUE,,,,,SCT,2000,BKN,8000,,,,,VFR,,,,,,,,,,,,METAR,5.0
SVMG 061500Z /////KT 9999 FEW010 30/25 Q1013 NOSIG,SVMG,2017-05-06T15:00:00Z,10.92,-63.97,30.0,25.0,,,,6.21,29.911417,,,,,,TRUE,,,,,FEW,1000,,,,,,,VFR,,,,,,,,,,,,SPECI,23.0
TUPJ 061500Z 13012KT 9999 SCT022 30/21 Q1016 RMK A3002,TUPJ,2017-05-06T15:00:00Z,18.43,-64.52,30.0,21.0,130,12,,6.21,30.0,,,,,,,,,,,SCT,2200,,,,,,,VFR,,,,,,,,,,,,SPECI,4.0
FNLU 061500Z 28005KT CAVOK 28/23 Q1008 NOSIG,FNLU,2017-05-06T15:00:00Z,-8.83,13.22,28.0,23.0,280,5,,6.21,29.763779,,,,,,TRUE,,,,,CAVOK,,,,,,,,VFR,,,,,,,,,,,,METAR,70.0
GBYD 1500Z 28009KT CAVOK 33/19 Q1008,GBYD,2017-05-06T15:00:00Z,13.33,-16.65,33.0,19.0,280,9,,6.21,29.763779,,,,,,,,,,,CAVOK,,,,,,,,VFR,,,,,,,,,,,,METAR,36.0
FQCH 061500Z 13006KT 9999 FEW020 23/16 Q1022,FQCH,2017-05-06T15:00:00Z,-19.15,33.43,23.0,16.0,130,6,,6.21,30.177166,,,,,,,,,,,FEW,2000,,,,,,,VFR,,,,,,,,,,,,METAR,732.0
FQMA 061500Z 05010KT 9999 FEW025 SCT/// 27/20 Q1016 NOSIG,FQMA,2017-05-06T15:00:00Z,-25.92,32.57,27.0,20.0,50,10,,6.21,30.0,,,,,,TRUE,,,,,FEW,2500,,,,,,,VFR,,,,,,,,,,,,METAR,44.0
MRLM 061500Z 05005KT CAVOK 29/25 A2989,MRLM,2017-05-06T15:00:00Z,9.97,-83.03,29.0,25.0,50,5,,6.21,29.890747,,,,,,,,,,,CAVOK,,,,,,,,VFR,,,,,,,,,,,,METAR,2.0
CYVC 061500Z 08013G20KT 15SM FEW045 BKN150 BKN250 06/03 A2990 RMK SC1AC4CI2 SLP137,CYVC,2017-05-06T15:00:00Z,55.15,-105.27,6.0,3.0,80,13,20,15.0,29.899607,1013.7,,,,,,,,,,FEW,4500,BKN,15000,BKN,25000,,,VFR,,,,,,,,,,,,METAR,379.0
SBFZ 061500Z 08012KT 9999 BKN023 31/23 Q1011,SBFZ,2017-05-06T15:00:00Z,-3.77,-38.52,31.0,23.0,80,12,,6.21,29.852362,,,,,,,,,,,BKN,2300,,,,,,,MVFR,,,,,,,,,,,,METAR,25.0
SBEG 061500Z 10010KT 9999 SCT020 30/22 Q1013,SBEG,2017-05-06T15:00:00Z,-3.02,-60.03,30.0,22.0,100,10,,6.21,29.911417,,,,,,,,,,,SCT,2000,,,,,,,VFR,,,,,,,,,,,,METAR,2.0
SBSV 061500Z 11009KT 9999 SCT020 FEW023TCU BKN070 29/22 Q1015,SBSV,2017-05-06T15:00:00Z,-12.9,-38.32,29.0,22.0,110,9,,6.21,29.970472,,,,,,,,,,,SCT,2000,FEW,2300,BKN,7000,,,VFR,,,,,,,,,,,,METAR,6.0
SBRF 061500Z 14007KT 6000 -RA FEW012 SCT020 OVC050 26/24 Q1012 RERA,SBRF,2017-05-06T15:00:00Z,-8.13,-34.92,26.0,24.0,140,7,,3.73,29.88189,,,,,,,,,,-RA,FEW,1200,SCT,2000,OVC,5000,,,MVFR,,,,,,,,,,,,METAR,19.0
SBMO 061500Z 13013KT 9999 FEW026 BKN040 BKN070 29/23 Q1014,SBMO,2017-05-06T15:00:00Z,-9.52,-35.77,29.0,23.0,130,13,,6.21,29.940945,,,,,,,,,,,FEW,2600,BKN,4000,BKN,7000,,,VFR,,,,,,,,,,,,METAR,115.0
UBBL 061500Z 14006KT 9999 SCT100 18/14 Q1013 R33/CLRD// RMK MT OP,UBBL,2017-05-06T15:00:00Z,38.75,48.82,18.0,14.0,140,6,,6.21,29.911417,,,,,,,,,,,SCT,10000,,,,,,,VFR,,,,,,,,,,,,METAR,10.0
SBCR 061500Z 09006KT 9999 FEW020 30/23 Q1014,SBCR,2017-05-06T15:00:00Z,-19.0,-57.67,30.0,23.0,90,6,,6.21,29.940945,,,,,,,,,,,FEW,2000,,,,,,,VFR,,,,,,,,,,,,METAR,141.0
SBFN 061500Z 14015KT 9999 SCT012 BKN015 27/26 Q1012,SBFN,2017-05-06T15:00:00Z,-3.85,-32.42,27.0,26.0,140,15,,6.21,29.88189,,,,,,,,,,,SCT,1200,BKN,1500,,,,,MVFR,,,,,,,,,,,,METAR,56.0
NFFN 061500Z VRB02KT 9999 FEW030 SCT300 23/22 Q1011 NOSIG,NFFN,2017-05-06T15:00:00Z,-17.75,177.45,23.0,22.0,0,2,,6.21,29.852362,,,,,,TRUE,,,,,FEW,3000,SCT,30000,,,,,VFR,,,,,,,,,,,,METAR,18.0
SBCT 061500Z 14006KT 9999 BKN017 18/14 Q1022,SBCT,2017-05-06T15:00:00Z,-25.52,-49.17,18.0,14.0,140,6,,6.21,30.177166,,,,,,,,,,,BKN,1700,,,,,,,MVFR,,,,,,,,,,,,METAR,908.0
SBPK 061500Z 09008KT 9999 SCT030 25/18 Q1020,SBPK,2017-05-06T15:00:00Z,-31.72,-52.33,25.0,18.0,90,8,,6.21,30.11811,,,,,,,,,,,SCT,3000,,,,,,,VFR,,,,,,,,,,,,METAR,13.0
SBNT 061500Z 14015KT 9999 SCT027 31/23 Q1012,SBNT,2017-05-06T15:00:00Z,-5.92,-35.25,31.0,23.0,140,15,,6.21,29.88189,,,,,,,,,,,SCT,2700,,,,,,,VFR,,,,,,,,,,,,METAR,49.0
SBCF 061500Z 34004KT 9999 SCT035 SCT070 26/16 Q1020,SBCF,2017-05-06T15:00:00Z,-19.63,-43.97,26.0,16.0,340,4,,6.21,30.11811,,,,,,,,,,,SCT,3500,SCT,7000,,,,,VFR,,,,,,,,,,,,METAR,828.0
ORSU 061500Z 02008KT 9999 BKN040 17/14 Q1017,ORSU,2017-05-06T15:00:00Z,35.57,45.32,17.0,14.0,20,8,,6.21,30.029528,,,,,,,,,,,BKN,4000,,,,,,,VFR,,,,,,,,,,,,METAR,761.0
HECA 061500Z 31007KT CAVOK 30/11 Q1013 NOSIG,HECA,2017-05-06T15:00:00Z,30.12,31.38,30.0,11.0,310,7,,6.21,29.911417,,,,,,TRUE,,,,,CAVOK,,,,,,,,VFR,,,,,,,,,,,,METAR,74.0
SCVM 061500Z 33009KT 9999 BKN026 BKN040 15/10 Q1016,SCVM,2017-05-06T15:00:00Z,-32.95,-71.48,15.0,10.0,330,9,,6.21,30.0,,,,,,,,,,,BKN,2600,BKN,4000,,,,,MVFR,,,,,,,,,,,,METAR,141.0
SBCJ 061500Z 14004KT 9999 SCT021 29/21 Q1016,SBCJ,2017-05-06T15:00:00Z,-6.12,-50.0,29.0,21.0,140,4,,6.21,30.0,,,,,,,,,,,SCT,2100,,,,,,,VFR,,,,,,,,,,,,METAR,621.0
GOOY 061500Z 36016KT CAVOK 25/19 Q1010 NOSIG,GOOY,2017-05-06T15:00:00Z,14.72,-17.5,25.0,19.0,360,16,,6.21,29.822834,,,,,,TRUE,,,,,CAVOK,,,,,,,,VFR,,,,,,,,,,,,METAR,24.0
SBNF 061500Z 06003KT 330V130 9999 SCT030 SCT040 25/19 Q1018,SBNF,2017-05-06T15:00:00Z,-26.88,-48.65,25.0,19.0,60,3,,6.21,30.059055,,,,,,,,,,,SCT,3000,SCT,4000,,,,,VFR,,,,,,,,,,,,METAR,5.0
MPTO 061500Z 09006KT 8000 TSVCSH FEW008 SCT016CB BKN080 27/27 Q1014 RWY DAMP TEMPO 5000 TSRA,MPTO,2017-05-06T15:00:00Z,9.05,-79.37,27.0,27.0,90,6,,4.97,29.940945,,,,,,,,,,VCSH TS,FEW,800,SCT,1600,BKN,8000,,,MVFR,,,,,,,,,,,,SPECI,45.0
OJAM 061500Z 33009KT 4000 HZ FEW030 SCT200 23/10 Q1016 NOSIG,OJAM,2017-05-06T15:00:00Z,31.97,35.97,23.0,10.0,330,9,,2.49,30.0,,,,,,TRUE,,,,HZ,FEW,3000,SCT,20000,,,,,IFR,,,,,,,,,,,,METAR,773.0
RJAW 061500Z 13005KT 9999 FEW005 BKN008 24/22 Q1017 RMK 1ST005 6ST008 A3006,RJAW,2017-05-06T15:00:00Z,24.77,141.32,24.0,22.0,130,5,,6.21,30.029528,,,,,,,,,,,FEW,500,BKN,800,,,,,IFR,,,,,,,,,,,,METAR,116.0
SPJC 061500Z 17006KT 140V200 8000 OVC040 23/18 Q1015 NOSIG RMK PP000,SPJC,2017-05-06T15:00:00Z,-12.02,-77.12,23.0,18.0,170,6,,4.97,29.970472,,,,,,TRUE,,,,,OVC,4000,,,,,,,MVFR,,,,,,,,,,,,SPECI,13.0
SBFI 061500Z 05006KT 9999 BKN013 24/21 Q1017,SBFI,2017-05-06T15:00:00Z,-25.6,-54.48,24.0,21.0,50,6,,6.21,30.029528,,,,,,,,,,,BKN,1300,,,,,,,MVFR,,,,,,,,,,,,METAR,243.0
GVSV 061500Z 06019KT 9999 FEW018 28/17 Q1014 NOSIG,GVSV,2017-05-06T15:00:00Z,16.83,-25.07,28.0,17.0,60,19,,6.21,29.940945,,,,,,TRUE,,,,,FEW,1800,,,,,,,VFR,,,,,,,,,,,,METAR,20.0
VOHS 061500Z 23007KT 6000 SCT020 BKN100 32/20 Q1012 NOSIG,VOHS,2017-05-06T15:00:00Z,17.23,78.43,32.0,20.0,230,7,,3.73,29.88189,,,,,,TRUE,,,,,SCT,2000,BKN,10000,,,,,MVFR,,,,,,,,,,,,METAR,1.0
GVNP 061500Z 03018KT 9999 FEW016 28/20 Q1014 NOSIG,GVNP,2017-05-06T15:00:00Z,14.95,-23.48,28.0,20.0,30,18,,6.21,29.940945,,,,,,TRUE,,,,,FEW,1600,,,,,,,VFR,,,,,,,,,,,,METAR,70.0
OPSK 061500Z 00000KT 4000 HZ FEW100 40/23 Q1002 NOSIG,OPSK,2017-05-06T15:00:00Z,27.72,68.8,40.0,23.0,0,0,,2.49,29.586615,,,,,,TRUE,,,,HZ,FEW,10000,,,,,,,IFR,,,,,,,,,,,,METAR,58.0
HSSS 061500Z 36014KT CAVOK 40/00 Q1008 NOSIG,HSSS,2017-05-06T15:00:00Z,15.58,32.53,40.0,0.0,360,14,,6.21,29.763779,,,,,,TRUE,,,,,CAVOK,,,,,,,,VFR,,,,,,,,,,,,METAR,380.0
SMZO 061500Z 05006KT 9999 VCSH FEW018CB SCT020 30/25 Q1013 NOSIG,SMZO,2017-05-06T15:00:00Z,5.82,-55.18,30.0,25.0,50,6,,6.21,29.911417,,,,,,TRUE,,,,VCSH,FEW,1800,SCT,2000,,,,,VFR,,,,,,,,,,,,METAR,10.0
SMJP 061500Z 08006KT 9999 FEW020TCU SCT020 31/25 Q1013 NOSIG,SMJP,2017-05-06T15:00:00Z,5.45,-55.17,31.0,25.0,80,6,,6.21,29.911417,,,,,,TRUE,,,,,FEW,2000,SCT,2000,,,,,VFR,,,,,,,,,,,,METAR,16.0
BIEG 061500Z 36010KT CAVOK 10/05 Q1035,BIEG,2017-05-06T15:00:00Z,65.27,-14.4,10.0,5.0,360,10,,6.21,30.561024,,,,,,,,,,,CAVOK,,,,,,,,VFR,,,,,,,,,,,,METAR,38.0
BIAR 061500Z 36009KT 9999 FEW016 09/06 Q1036,BIAR,2017-05-06T15:00:00Z,65.67,-18.07,9.0,6.0,360,9,,6.21,30.590551,,,,,,,,,,,FEW,1600,,,,,,,VFR,,,,,,,,,,,,METAR,27.0
LQTZ 061500Z 30003KT 250V340 9999 FEW045 22/09 Q1013,LQTZ,2017-05-06T15:00:00Z,44.47,18.73,22.0,9.0,300,3,,6.21,29.911417,,,,,,,,,,,FEW,4500,,,,,,,VFR,,,,,,,,,,,,METAR,306.0
LQSA 061500Z 22003KT 170V270 9999 FEW060 20/08 Q1013 NOSIG,LQSA,2017-05-06T15:00:00Z,43.82,18.32,20.0,8.0,220,3,,6.21,29.911417,,,,,,TRUE,,,,,FEW,6000,,,,,,,VFR,,,,,,,,,,,,METAR,511.0
LQMO 061500Z 16008KT 9999 FEW045 21/09 Q1014,LQMO,2017-05-06T15:00:00Z,43.28,17.83,21.0,9.0,160,8,,6.21,29.940945,,,,,,,,,,,FEW,4500,,,,,,,VFR,,,,,,,,,,,,METAR,48.0
LQBK 061500Z 06004KT CAVOK 22/09 Q1012 NOSIG,LQBK,2017-05-06T15:00:00Z,44.93,17.3,22.0,9.0,60,4,,6.21,29.88189,,,,,,TRUE,,,,,CAVOK,,,,,,,,VFR,,,,,,,,,,,,METAR,122.0
LZZI 061500Z 05007KT 9999 SCT050 BKN080 19/12 Q1010,LZZI,2017-05-06T15:00:00Z,49.23,18.62,19.0,12.0,50,7,,6.21,29.822834,,,,,,,,,,,SCT,5000,BKN,8000,,,,,VFR,,,,,,,,,,,,METAR,311.0
LZSL 061500Z 22011KT 9999 FEW053 22/08 Q1010,LZSL,2017-05-06T15:00:00Z,48.63,19.13,22.0,8.0,220,11,,6.21,29.822834,,,,,,,,,,,FEW,5300,,,,,,,VFR,,,,,,,,,,,,METAR,313.0
LZPP 061500Z 18006KT CAVOK 20/11 Q1010,LZPP,2017-05-06T15:00:00Z,48.62,17.83,20.0,11.0,180,6,,6.21,29.822834,,,,,,,,,,,CAVOK,,,,,,,,VFR,,,,,,,,,,,,METAR,161.0
MKJS 061500Z 04006KT 9999 FEW022 BKN034 29/26 Q1013,MKJS,2017-05-06T15:00:00Z,18.5,-77.92,29.0,26.0,40,6,,6.21,29.911417,,,,,,,,,,,FEW,2200,BKN,3400,,,,,VFR,,,,,,,,,,,,METAR,1.0
UBBB 061500Z 10005KT CAVOK 20/11 Q1013 R88/CLRD// NOSIG,UBBB,2017-05-06T15:00:00Z,40.45,50.07,20.0,11.0,100,5,,6.21,29.911417,,,,,,TRUE,,,,,CAVOK,,,,,,,,VFR,,,,,,,,,,,,SPECI,-6.0
MHCH 061500Z 04006KT 9999 FEW032 BKN080 FU,MHCH,2017-05-06T15:00:00Z,13.32,-87.15,,,40,6,,6.21,,,,,,,,,,,FU,FEW,3200,BKN,8000,,,,,VFR,,,,,,,,,,,,METAR,48.0
MHLE 061500Z 02006KT 9999 SCT022 SCT200 19/14,MHLE,2017-05-06T15:00:00Z,14.32,-88.15,19.0,14.0,20,6,,6.21,,,,,,,,,,,,SCT,2200,SCT,20000,,,,,VFR,,,,,,,,,,,,METAR,1100.0
MHNO 061500Z 33010KT 9999 FEW040 SCT250 23/18,MHNO,2017-05-06T15:00:00Z,14.43,-89.18,23.0,18.0,330,10,,6.21,,,,,,,,,,,,FEW,4000,SCT,25000,,,,,VFR,,,,,,,,,,,,METAR,2.0
MHSR 061500Z 00000KT 2000 VCSH SCT006 OVC020 17/17 REDZ 2KM ALL VCSG CL HZ,MHSR,2017-05-06T15:00:00Z,14.78,-88.78,17.0,17.0,0,0,,1.24,,,,,,,,,,,VCSH SG HZ,SCT,600,OVC,2000,,,,,IFR,,,,,,,,,,,,SPECI,1079.0
MHCA 061500Z 09002KT 9999 SCT027 SCT200 26/21,MHCA,2017-05-06T15:00:00Z,14.9,-85.78,26.0,21.0,90,2,,6.21,,,,,,,,,,,,SCT,2700,SCT,20000,,,,,VFR,,,,,,,,,,,,METAR,442.0
MHPL 061500Z 35008KT 9999 BKN028TCU 29/25 Q1012 VCSH NE E,MHPL,2017-05-06T15:00:00Z,15.27,-83.78,29.0,25.0,350,8,,6.21,29.88189,,,,,,,,,,VCSH,BKN,2800,,,,,,,MVFR,,,,,,,,,,,,SPECI,13.0
MHYR 061500Z 27006KT 9999 SCT020 BKN080 24/21 HZ,MHYR,2017-05-06T15:00:00Z,15.13,-87.12,24.0,21.0,270,6,,6.21,,,,,,,,,,,HZ,SCT,2000,BKN,8000,,,,,VFR,,,,,,,,,,,,METAR,670.0
MHTE 061500Z 21004KT 8000 VCSH BKN028CB OVC080 22/22 Q1014 REDZ CB SE 8KM ALL VCSH,MHTE,2017-05-06T15:00:00Z,15.78,-87.48,22.0,22.0,210,4,,4.97,29.940945,,,,,,,,,,VCSH VCSH,BKN,2800,OVC,8000,,,,,MVFR,,,,,,,,,,,,SPECI,3.0
MHTR 061500Z 3203KT 9999 SCT025TCU BKN080 2/22 TCU ALL HZ,MHTR,2017-05-06T15:00:00Z,15.93,-85.93,,,,,,6.21,,,,,,,,,,,HZ,SCT,2500,BKN,8000,,,,,VFR,,,,,,,,,,,,METAR,3.0
MHAM 061500Z 00000KT VAVOK 29/25 BKN080,MHAM,2017-05-06T15:00:00Z,13.27,-87.65,29.0,25.0,0,0,,,,,,,,,,,,,VA,BKN,8000,,,,,,,,,,,,,,,,,,,SPECI,5.0
LCPH 061500Z 25007KT 9999 FEW015 21/17 Q1013,LCPH,2017-05-06T15:00:00Z,34.72,32.47,21.0,17.0,250,7,,6.21,29.911417,,,,,,,,,,,FEW,1500,,,,,,,VFR,,,,,,,,,,,,METAR,8.0
LCLK 061500Z 22021KT 9999 FEW025TCU 22/17 Q1012 NOSIG,LCLK,2017-05-06T15:00:00Z,34.87,33.62,22.0,17.0,220,21,,6.21,29.88189,,,,,,TRUE,,,,,FEW,2500,,,,,,,VFR,,,,,,,,,,,,METAR,2.0
LKTB 061500Z 12006KT 070V150 9999 SCT046 20/11 Q1010 NOSIG,LKTB,2017-05-06T15:00:00Z,49.13,16.68,20.0,11.0,120,6,,6.21,29.822834,,,,,,TRUE,,,,,SCT,4600,,,,,,,VFR,,,,,,,,,,,,METAR,246.0
LKPR 061500Z 06006KT 020V090 9999 SCT036 18/10 Q1010 NOSIG,LKPR,2017-05-06T15:00:00Z,50.1,14.27,18.0,10.0,60,6,,6.21,29.822834,,,,,,TRUE,,,,,SCT,3600,,,,,,,VFR,,,,,,,,,,,,METAR,365.0
LKMT 061500Z 03008KT 9999 FEW030 18/11 Q1012 NOSIG,LKMT,2017-05-06T15:00:00Z,49.67,18.12,18.0,11.0,30,8,,6.21,29.88189,,,,,,TRUE,,,,,FEW,3000,,,,,,,VFR,,,,,,,,,,,,METAR,256.0
LKKV 061500Z 09009KT 040V120 9999 SCT035 15/07 Q1010,LKKV,2017-05-06T15:00:00Z,50.2,12.92,15.0,7.0,90,9,,6.21,29.822834,,,,,,,,,,,SCT,3500,,,,,,,VFR,,,,,,,,,,,,METAR,604.0
UTAV 061500Z 00000KT 7000 FEW100 17/15 Q1015 NOSIG,UTAV,2017-05-06T15:00:00Z,39.08,63.62,17.0,15.0,0,0,,4.35,29.970472,,,,,,TRUE,,,,,FEW,10000,,,,,,,MVFR,,,,,,,,,,,,METAR,192.0
UTAT 061500Z 01010KT CAVOK 25/05 Q1012 NOSIG,UTAT,2017-05-06T15:00:00Z,41.77,59.83,25.0,5.0,10,10,,6.21,29.88189,,,,,,TRUE,,,,,CAVOK,,,,,,,,VFR,,,,,,,,,,,,METAR,83.0
UTAK 061500Z 31006KT CAVOK 21/04 Q1013 NOSIG,UTAK,2017-05-06T15:00:00Z,40.05,53.0,21.0,4.0,310,6,,6.21,29.911417,,,,,,TRUE,,,,,CAVOK,,,,,,,,VFR,,,,,,,,,,,,METAR,85.0
UTAA 061500Z 13006KT 9999 FEW050 BKN100 BKN230 25/11 Q1014 NOSIG,UTAA,2017-05-06T15:00:00Z,37.98,58.37,25.0,11.0,130,6,,6.21,29.940945,,,,,,TRUE,,,,,FEW,5000,BKN,10000,BKN,23000,,,VFR,,,,,,,,,,,,METAR,210.0
OPPS 061500Z 31012KT 4000 TS FEW030CB SCT040 BKN100 34/12 Q1008,OPPS,2017-05-06T15:00:00Z,34.02,71.52,34.0,12.0,310,12,,2.49,29.763779,,,,,,,,,,TS,FEW,3000,SCT,4000,BKN,10000,,,IFR,,,,,,,,,,,,METAR,360.0
SESA 061500Z 03007KT CAVOK 29/23 Q1013,SESA,2017-05-06T15:00:00Z,-2.2,-80.97,29.0,23.0,30,7,,6.21,29.911417,,,,,,,,,,,CAVOK,,,,,,,,VFR,,,,,,,,,,,,METAR,8.0
SBRJ 061500Z 35005KT 5000 HZ FEW020 SCT050 26/22 Q1016,SBRJ,2017-05-06T15:00:00Z,-22.88,-43.17,26.0,22.0,350,5,,3.11,30.0,,,,,,,,,,HZ,FEW,2000,SCT,5000,,,,,MVFR,,,,,,,,,,,,METAR,3.0
SBVT 061500Z 06011KT 9999 FEW040 SCT100 30/21 Q1015,SBVT,2017-05-06T15:00:00Z,-20.27,-40.27,30.0,21.0,60,11,,6.21,29.970472,,,,,,,,,,,FEW,4000,SCT,10000,,,,,VFR,,,,,,,,,,,,METAR,4.0
SADF 061500Z VRB09KT 9999 FEW010 OVC200 21/16 Q1016,SADF,2017-05-06T15:00:00Z,-34.45,-58.58,21.0,16.0,0,9,,6.21,30.0,,,,,,,,,,,FEW,1000,OVC,20000,,,,,VFR,,,,,,,,,,,,METAR,4.0
SBCP 061500Z 00000KT CAVOK 30/21 Q1015,SBCP,2017-05-06T15:00:00Z,-21.7,-41.3,30.0,21.0,0,0,,6.21,29.970472,,,,,,,,,,,CAVOK,,,,,,,,VFR,,,,,,,,,,,,METAR,11.0
KUUU 061500Z AUTO 18010G16KT 1 3/4SM -RA BR SCT005 BKN009 OVC014 14/14 A2956 RMK AO2 P0003 T01390139,KUUU,2017-05-06T15:00:00Z,41.53,-71.28,13.9,13.9,180,10,16,1.75,29.56004,,,TRUE,TRUE,,,,,,-RA BR,SCT,500,BKN,900,OVC,1400,,,IFR,,,,,,0.03,,,,,,METAR,51.0
KHVN 061500Z 14009KT 10SM BKN047 BKN065 14/12 A2948 RMK AO2 T01440122,KHVN,2017-05-06T15:00:00Z,41.27,-72.87,14.4,12.2,140,9,,10.0,29.480314,,,,TRUE,,,,,,,BKN,4700,BKN,6500,,,,,VFR,,,,,,,,,,,,METAR,4.0
KHFD 061500Z 16013G21KT 10SM BKN016 BKN041 OVC049 17/14 A2946 RMK AO2 T01720144,KHFD,2017-05-06T15:00:00Z,41.73,-72.65,17.2,14.4,160,13,21,10.0,29.459646,,,,TRUE,,,,,,,BKN,1600,BKN,4100,OVC,4900,,,MVFR,,,,,,,,,,,,METAR,4.0
GMTT 061500Z 34009KT 310V010 9999 SCT020 BKN200 23/10 Q1018 NOSIG,GMTT,2017-05-06T15:00:00Z,35.72,-5.9,23.0,10.0,340,9,,6.21,30.059055,,,,,,TRUE,,,,,SCT,2000,BKN,20000,,,,,VFR,,,,,,,,,,,,METAR,21.0
GMMX 061500Z VRB04G15KT CAVOK 28/04 Q1015,GMMX,2017-05-06T15:00:00Z,31.62,-8.02,28.0,4.0,0,4,15,6.21,29.970472,,,,,,,,,,,CAVOK,,,,,,,,VFR,,,,,,,,,,,,METAR,466.0
GMMN 061500Z 36016KT 340V050 9999 FEW020 SCT200 24/13 Q1016 NOSIG,GMMN,2017-05-06T15:00:00Z,33.37,-7.57,24.0,13.0,360,16,,6.21,30.0,,,,,,TRUE,,,,,FEW,2000,SCT,20000,,,,,VFR,,,,,,,,,,,,METAR,206.0
GMAD 061500Z 26011KT 210V300 CAVOK 26/10 Q1014 NOSIG,GMAD,2017-05-06T15:00:00Z,30.32,-9.42,26.0,10.0,260,11,,6.21,29.940945,,,,,,TRUE,,,,,CAVOK,,,,,,,,VFR,,,,,,,,,,,,METAR,74.0
GMTN 061500Z 09008KT 9999 FEW023 SCT200 22/15 Q1018 NOSIG,GMTN,2017-05-06T15:00:00Z,35.57,-5.32,22.0,15.0,90,8,,6.21,30.059055,,,,,,TRUE,,,,,FEW,2300,SCT,20000,,,,,VFR,,,,,,,,,,,,METAR,10.0
GMTA 061500Z 34008KT 9999 FEW020 SCT233 22/15 Q1018 NOSIG,GMTA,2017-05-06T15:00:00Z,35.17,-3.85,22.0,15.0,340,8,,6.21,30.059055,,,,,,TRUE,,,,,FEW,2000,SCT,23300,,,,,VFR,,,,,,,,,,,,METAR,14.0
GMMZ 061500Z 21010KT CAVOK 32/M06 Q1015 NOSIG,GMMZ,2017-05-06T15:00:00Z,30.92,-6.9,32.0,-6.0,210,10,,6.21,29.970472,,,,,,TRUE,,,,,CAVOK,,,,,,,,VFR,,,,,,,,,,,,METAR,1140.0
GMMW 061500Z 05012KT 010V070 9999 FEW026 SCT200 25/07 Q1017 NOSIG,GMMW,2017-05-06T15:00:00Z,34.98,-3.02,25.0,7.0,50,12,,6.21,30.029528,,,,,,TRUE,,,,,FEW,2600,SCT,20000,,,,,VFR,,,,,,,,,,,,METAR,175.0
GMML 061500Z 33017KT CAVOK 27/13 Q1015 NOSIG,GMML,2017-05-06T15:00:00Z,27.13,-13.23,27.0,13.0,330,17,,6.21,29.970472,,,,,,TRUE,,,,,CAVOK,,,,,,,,VFR,,,,,,,,,,,,METAR,6.0
GMMI 061500Z 36014KT 320V040 8000 NSC 24/13 Q1015 NOSIG,GMMI,2017-05-06T15:00:00Z,31.4,-9.68,24.0,13.0,360,14,,4.97,29.970472,,,,,,TRUE,,,,,CLR,,,,,,,,MVFR,,,,,,,,,,,,METAR,8.0
GMMH 061500Z 36016KT 6000 NSC 22/17 Q1015 NOSIG,GMMH,2017-05-06T15:00:00Z,23.72,-15.93,22.0,17.0,360,16,,3.73,29.970472,,,,,,TRUE,,,,,CLR,,,,,,,,MVFR,,,,,,,,,,,,METAR,11.0
GMMD 061500Z 14002KT CAVOK 28/10 Q1015 NOSIG,GMMD,2017-05-06T15:00:00Z,32.4,-6.32,28.0,10.0,140,2,,6.21,29.970472,,,,,,TRUE,,,,,CAVOK,,,,,,,,VFR,,,,,,,,,,,,METAR,509.0
GMMC 061500Z 04010KT CAVOK 22/14 Q1017,GMMC,2017-05-06T15:00:00Z,33.57,-7.67,22.0,14.0,40,10,,6.21,30.029528,,,,,,,,,,,CAVOK,,,,,,,,VFR,,,,,,,,,,,,METAR,62.0
GMMB 061500Z 34015KT 310V020 CAVOK 24/14 Q1017 NOSIG,GMMB,2017-05-06T15:00:00Z,33.65,-7.22,24.0,14.0,340,15,,6.21,30.029528,,,,,,TRUE,,,,,CAVOK,,,,,,,,VFR,,,,,,,,,,,,METAR,191.0
GMFO 061500Z 33015KT 9999 FEW030 SCT230 24/10 Q1018 NOSIG,GMFO,2017-05-06T15:00:00Z,34.77,-1.92,24.0,10.0,330,15,,6.21,30.059055,,,,,,TRUE,,,,,FEW,3000,SCT,23000,,,,,VFR,,,,,,,,,,,,METAR,470.0
GMFM 061500Z 01004KT CAVOK 27/10 Q1017 NOSIG,GMFM,2017-05-06T15:00:00Z,33.87,-5.52,27.0,10.0,10,4,,6.21,30.029528,,,,,,TRUE,,,,,CAVOK,,,,,,,,VFR,,,,,,,,,,,,METAR,549.0
GMFK 061500Z 15007KT 100V190 CAVOK 30/M00 Q1017 NOSIG,GMFK,2017-05-06T15:00:00Z,31.95,-4.4,30.0,0.0,150,7,,6.21,30.029528,,,,,,TRUE,,,,,CAVOK,,,,,,,,VFR,,,,,,,,,,,,METAR,1045.0
GMFF 061500Z 35009KT 320V030 9999 FEW026 BKN200 27/10 Q1017 NOSIG,GMFF,2017-05-06T15:00:00Z,33.92,-4.97,27.0,10.0,350,9,,6.21,30.029528,,,,,,TRUE,,,,,FEW,2600,BKN,20000,,,,,VFR,,,,,,,,,,,,METAR,579.0
GMAT 061500Z 02010KT CAVOK 24/10 Q1015 NOSIG,GMAT,2017-05-06T15:00:00Z,28.43,-11.15,24.0,10.0,20,10,,6.21,29.970472,,,,,,TRUE,,,,,CAVOK,,,,,,,,VFR,,,,,,,,,,,,METAR,200.0
GMAG 061500Z 28010KT CAVOK 27/09 Q1013 NOSIG,GMAG,2017-05-06T15:00:00Z,29.03,-10.05,27.0,9.0,280,10,,6.21,29.911417,,,,,,TRUE,,,,,CAVOK,,,,,,,,VFR,,,,,,,,,,,,METAR,333.0
UGSB 061500Z 36006KT 9999 FEW020 15/13 Q1011 R13/70D NOSIG,UGSB,2017-05-06T15:00:00Z,41.62,41.6,15.0,13.0,360,6,,6.21,29.852362,,,,,,TRUE,,,,,FEW,2000,,,,,,,VFR,,,,,,,,,,,,METAR,32.0
UGKO 061500Z 25011KT 9999 SCT049 21/15 Q1009 R25/09//70 NOSIG,UGKO,2017-05-06T15:00:00Z,42.18,42.48,21.0,15.0,250,11,,6.21,29.793306,,,,,,TRUE,,,,,SCT,4900,,,,,,,VFR,,,,,,,,,,,,METAR,68.0
UGTB 061500Z 07007KT 9999 FEW035 BKN070CB 18/13 Q1016 R13R/CLRD70 TEMPO -TSRA BKN020CB,UGTB,2017-05-06T15:00:00Z,41.67,44.95,18.0,13.0,70,7,,6.21,30.0,,,,,,,,,,,FEW,3500,BKN,7000,,,,,VFR,,,,,,,,,,,,METAR,495.0
TVSA 061500Z 07010KT 9999 BKN018 29/24 Q1015 NOSIG ,TVSA,2017-05-06T15:00:00Z,13.15,-61.15,29.0,24.0,70,10,,6.21,29.970472,,,,,,TRUE,,,,,BKN,1800,,,,,,,MVFR,,,,,,,,,,,,METAR,17.0
UKWW 061500Z 00000MPS CAVOK 23/06 Q1012 R13/0///65 NOSIG,UKWW,2017-05-06T15:00:00Z,49.25,28.6,23.0,6.0,0,0,,6.21,29.88189,,,,,,TRUE,,,,,CAVOK,,,,,,,,VFR,,,,,,,,,,,,METAR,293.0
UKOH 061500Z 16005MPS 9999 SCT040 24/10 Q1011 R03/CLRD// NOSIG,UKOH,2017-05-06T15:00:00Z,46.67,32.5,24.0,10.0,160,10,,6.21,29.852362,,,,,,TRUE,,,,,SCT,4000,,,,,,,VFR,,,,,,,,,,,,METAR,45.0
UKLN 061500Z 14003MPS 100V200 CAVOK 23/07 Q1011 R15/09//70 NOSIG,UKLN,2017-05-06T15:00:00Z,48.27,25.98,23.0,7.0,140,6,,6.21,29.852362,,,,,,TRUE,,,,,CAVOK,,,,,,,,VFR,,,,,,,,,,,,METAR,252.0
UKKM 061500Z AUTO 29002MPS 220V340 9999 NCD 25/04 Q1011,UKKM,2017-05-06T15:00:00Z,50.6,30.2,25.0,4.0,290,4,,6.21,29.852362,,,TRUE,,,,,,,,CLR,,,,,,,,VFR,,,,,,,,,,,,METAR,157.0
UKKK 061500Z VRB01MPS CAVOK 23/02 Q1011 R08/CLRD70 NOSIG,UKKK,2017-05-06T15:00:00Z,50.4,30.45,23.0,2.0,0,2,,6.21,29.852362,,,,,,TRUE,,,,,CAVOK,,,,,,,,VFR,,,,,,,,,,,,METAR,179.0
UKLU 061500Z 22003MPS 150V280 9999 SCT040 23/11 Q1010 R10/090070 NOSIG,UKLU,2017-05-06T15:00:00Z,48.63,22.27,23.0,11.0,220,6,,6.21,29.822834,,,,,,TRUE,,,,,SCT,4000,,,,,,,VFR,,,,,,,,,,,,METAR,117.0
UKON 061500Z VRB02MPS 9999 FEW033 24/08 Q1011 NOSIG,UKON,2017-05-06T15:00:00Z,47.05,31.92,24.0,8.0,0,4,,6.21,29.852362,,,,,,TRUE,,,,,FEW,3300,,,,,,,VFR,,,,,,,,,,,,METAR,56.0
UKLI 061500Z 13006MPS 100V170 CAVOK 23/08 Q1010 R10/090070 NOSIG,UKLI,2017-05-06T15:00:00Z,48.88,24.68,23.0,8.0,130,12,,6.21,29.822834,,,,,,TRUE,,,,,CAVOK,,,,,,,,VFR,,,,,,,,,,,,METAR,280.0
UKLR 061500Z 25002MPS 220V300 9999 FEW033 24/02 Q1011 NOSIG,UKLR,2017-05-06T15:00:00Z,50.6,26.13,24.0,2.0,250,4,,6.21,29.852362,,,,,,TRUE,,,,,FEW,3300,,,,,,,VFR,,,,,,,,,,,,METAR,230.0
EPWA 061500Z 14006KT 9999 TS SCT053CB 22/08 Q1010 NOSIG,EPWA,2017-05-06T15:00:00Z,52.17,20.97,22.0,8.0,140,6,,6.21,29.822834,,,,,,TRUE,,,,TS,SCT,5300,,,,,,,VFR,,,,,,,,,,,,METAR,107.0
EPRZ 061500Z 13003KT 100V160 9999 FEW030CB 19/15 Q1011,EPRZ,2017-05-06T15:00:00Z,50.1,22.05,19.0,15.0,130,3,,6.21,29.852362,,,,,,,,,,,FEW,3000,,,,,,,VFR,,,,,,,,,,,,METAR,202.0
EPPO 061500Z 34006KT 9999 SCT008 OVC033 13/11 Q1013,EPPO,2017-05-06T15:00:00Z,52.42,16.82,13.0,11.0,340,6,,6.21,29.911417,,,,,,,,,,,SCT,800,OVC,3300,,,,,VFR,,,,,,,,,,,,METAR,92.0
EPLL 061500Z 23007KT 190V260 9999 FEW021 SCT036 18/13 Q1011,EPLL,2017-05-06T15:00:00Z,51.72,19.4,18.0,13.0,230,7,,6.21,29.852362,,,,,,,,,,,FEW,2100,SCT,3600,,,,,VFR,,,,,,,,,,,,METAR,184.0
EPKK 061500Z 26005KT 9999 -SHRA FEW017TCU 15/12 Q1012,EPKK,2017-05-06T15:00:00Z,50.07,19.8,15.0,12.0,260,5,,6.21,29.88189,,,,,,,,,,-SHRA,FEW,1700,,,,,,,VFR,,,,,,,,,,,,METAR,237.0
EPGD 061500Z 04005KT CAVOK 12/06 Q1013,EPGD,2017-05-06T15:00:00Z,54.37,18.47,12.0,6.0,40,5,,6.21,29.911417,,,,,,,,,,,CAVOK,,,,,,,,VFR,,,,,,,,,,,,METAR,138.0
EPWR 061500Z 04008KT 350V070 9999 FEW026 15/10 Q1012,EPWR,2017-05-06T15:00:00Z,51.1,16.87,15.0,10.0,40,8,,6.21,29.88189,,,,,,,,,,,FEW,2600,,,,,,,VFR,,,,,,,,,,,,METAR,121.0
EPSY 061500Z 05006KT 020V110 CAVOK 22/08 Q1011,EPSY,2017-05-06T15:00:00Z,53.47,20.93,22.0,8.0,50,6,,6.21,29.852362,,,,,,,,,,,CAVOK,,,,,,,,VFR,,,,,,,,,,,,METAR,141.0
EPSC 061500Z 01008KT 340V040 9999 FEW015 BKN021 BKN024 12/09 Q1014,EPSC,2017-05-06T15:00:00Z,53.58,14.9,12.0,9.0,10,8,,6.21,29.940945,,,,,,,,,,,FEW,1500,BKN,2100,BKN,2400,,,MVFR,,,,,,,,,,,,METAR,47.0
EPRA 061500Z 22007KT CAVOK 22/12 Q1010,EPRA,2017-05-06T15:00:00Z,51.38,21.22,22.0,12.0,220,7,,6.21,29.822834,,,,,,,,,,,CAVOK,,,,,,,,VFR,,,,,,,,,,,,METAR,178.0
EPMO 061500Z VRB01KT 9999 FEW066CB 23/10 Q1009,EPMO,2017-05-06T15:00:00Z,52.45,20.65,23.0,10.0,0,1,,6.21,29.793306,,,,,,,,,,,FEW,6600,,,,,,,VFR,,,,,,,,,,,,METAR,104.0
EPLB 061500Z 07007KT CAVOK 23/14 Q1011 RETS,EPLB,2017-05-06T15:00:00Z,51.23,22.72,23.0,14.0,70,7,,6.21,29.852362,,,,,,,,,,,CAVOK,,,,,,,,VFR,,,,,,,,,,,,METAR,206.0
EPKT 061500Z 22007KT 9999 SCT007 BKN010 13/11 Q1012,EPKT,2017-05-06T15:00:00Z,50.47,19.08,13.0,11.0,220,7,,6.21,29.88189,,,,,,,,,,,SCT,700,BKN,1000,,,,,MVFR,,,,,,,,,,,,METAR,284.0
EPBY 061500Z 05009KT 9999 BKN024 BKN033 17/12 Q1012,EPBY,2017-05-06T15:00:00Z,53.1,18.0,17.0,12.0,50,9,,6.21,29.88189,,,,,,,,,,,BKN,2400,BKN,3300,,,,,MVFR,,,,,,,,,,,,METAR,71.0
VHHH 061500Z 12009KT 080V180 9000 FEW020 27/23 Q1015 NOSIG,VHHH,2017-05-06T15:00:00Z,22.32,113.92,27.0,23.0,120,9,,5.59,29.970472,,,,,,TRUE,,,,,FEW,2000,,,,,,,VFR,,,,,,,,,,,,METAR,9.0
SERO 061500Z VRB03KT 9999 FEW020 29/27 Q1013,SERO,2017-05-06T15:00:00Z,-3.43,-79.98,29.0,27.0,0,3,,6.21,29.911417,,,,,,,,,,,FEW,2000,,,,,,,VFR,,,,,,,,,,,,METAR,51.0
TBPB 061500Z 10020KT 9999 FEW020 30/24 Q1014 NOSIG,TBPB,2017-05-06T15:00:00Z,13.07,-59.48,30.0,24.0,100,20,,6.21,29.940945,,,,,,TRUE,,,,,FEW,2000,,,,,,,VFR,,,,,,,,,,,,METAR,52.0
KALW 061500Z COR 17013KT 10SM -RA OVC037 07/04 A3002,KALW,2017-05-06T15:00:00Z,46.1,-118.28,7.0,4.0,170,13,,10.0,30.02067,,TRUE,,,,,,,,-RA,OVC,3700,,,,,,,VFR,,,,,,,,,,,,METAR,363.0
WSSS 061500Z VRB01KT 8000 FEW012 FEW018TCU SCT140 BKN250 26/25 Q1013 RESHRA NOSIG,WSSS,2017-05-06T15:00:00Z,1.37,103.97,26.0,25.0,0,1,,4.97,29.911417,,,,,,TRUE,,,,,FEW,1200,FEW,1800,SCT,14000,BKN,25000,MVFR,,,,,,,,,,,,METAR,16.0
LDZD 061500Z 17005KT 9999 FEW040 OVC075 17/10 Q1015 BECMG 15007KT,LDZD,2017-05-06T15:00:00Z,44.1,15.37,17.0,10.0,170,5,,6.21,29.970472,,,,,,,,,,,FEW,4000,OVC,7500,,,,,VFR,,,,,,,,,,,,SPECI,84.0
LDZA 061500Z 21007KT 170V240 CAVOK 22/09 Q1011 NOSIG,LDZA,2017-05-06T15:00:00Z,45.72,16.07,22.0,9.0,210,7,,6.21,29.852362,,,,,,TRUE,,,,,CAVOK,,,,,,,,VFR,,,,,,,,,,,,METAR,107.0
LDSP 061500Z 21006KT CAVOK 18/11 Q1015 NOSIG,LDSP,2017-05-06T15:00:00Z,43.52,16.3,18.0,11.0,210,6,,6.21,29.970472,,,,,,TRUE,,,,,CAVOK,,,,,,,,VFR,,,,,,,,,,,,METAR,21.0
LDRI 061500Z 21004KT 130V270 9999 FEW043 SCT060 17/10 Q1013,LDRI,2017-05-06T15:00:00Z,45.22,14.57,17.0,10.0,210,4,,6.21,29.911417,,,,,,,,,,,FEW,4300,SCT,6000,,,,,VFR,,,,,,,,,,,,METAR,85.0
LDPL 061500Z 10009KT 9999 FEW057 16/11 Q1012 NOSIG,LDPL,2017-05-06T15:00:00Z,44.88,13.92,16.0,11.0,100,9,,6.21,29.88189,,,,,,TRUE,,,,,FEW,5700,,,,,,,VFR,,,,,,,,,,,,METAR,63.0
LDOS 061500Z VRB05KT CAVOK 21/11 Q1012,LDOS,2017-05-06T15:00:00Z,45.47,18.82,21.0,11.0,0,5,,6.21,29.88189,,,,,,,,,,,CAVOK,,,,,,,,VFR,,,,,,,,,,,,METAR,89.0
LDDU 061500Z 25006KT 220V280 CAVOK 17/08 Q1017 NOSIG,LDDU,2017-05-06T15:00:00Z,42.57,18.27,17.0,8.0,250,6,,6.21,30.029528,,,,,,TRUE,,,,,CAVOK,,,,,,,,VFR,,,,,,,,,,,,METAR,165.0
TAPA 061500Z 10010KT 9999 SCT019 29/21 Q1016 NOSIG,TAPA,2017-05-06T15:00:00Z,17.12,-61.78,29.0,21.0,100,10,,6.21,30.0,,,,,,TRUE,,,,,SCT,1900,,,,,,,VFR,,,,,,,,,,,,METAR,14.0
SBGL 061500Z 01004KT 7000 SCT019 BKN100 24/20 Q1016,SBGL,2017-05-06T15:00:00Z,-22.82,-43.25,24.0,20.0,10,4,,4.35,30.0,,,,,,,,,,,SCT,1900,BKN,10000,,,,,MVFR,,,,,,,,,,,,METAR,6.0
UBBQ 061500Z 21005KT 9999 FEW050 BKN200 19/12 Q1014 R34/CLRD// NOSIG RMK MT PT OBSC,UBBQ,2017-05-06T15:00:00Z,40.82,47.72,19.0,12.0,210,5,,6.21,29.940945,,,,,,TRUE,,,,,FEW,5000,BKN,20000,,,,,VFR,,,,,,,,,,,,METAR,338.0
TQPF 061500Z 10016KT 9999 FEW025 29/20 Q1016,TQPF,2017-05-06T15:00:00Z,18.18,-63.03,29.0,20.0,100,16,,6.21,30.0,,,,,,,,,,,FEW,2500,,,,,,,VFR,,,,,,,,,,,,METAR,31.0
SEST 061500Z 36003KT 9999 FEW010 SCT016 BKN090 27/24 Q1012 A2990,SEST,2017-05-06T15:00:00Z,-0.9,-89.58,27.0,24.0,360,3,,6.21,29.88189,,,,,,,,,,,FEW,1000,SCT,1600,BKN,9000,,,VFR,,,,,,,,,,,,METAR,6.0
UKDR 061500Z VRB01MPS CAVOK 23/06 Q1011 R36/09//70 NOSIG,UKDR,2017-05-06T15:00:00Z,48.05,33.22,23.0,6.0,0,2,,6.21,29.852362,,,,,,TRUE,,,,,CAVOK,,,,,,,,VFR,,,,,,,,,,,,METAR,124.0
UKLL 061500Z 14005MPS 110V180 9999 FEW046 SCT200 23/07 Q1011 R13/CLRD// TEMPO -TSRA BKN020CB,UKLL,2017-05-06T15:00:00Z,49.82,23.93,23.0,7.0,140,10,,6.21,29.852362,,,,,,,,,,,FEW,4600,SCT,20000,,,,,VFR,,,,,,,,,,,,METAR,325.0
UKDD 061500Z 07002MPS CAVOK 22/01 Q1011 R08/090070 NOSIG,UKDD,2017-05-06T15:00:00Z,48.37,35.1,22.0,1.0,70,4,,6.21,29.852362,,,,,,TRUE,,,,,CAVOK,,,,,,,,VFR,,,,,,,,,,,,METAR,149.0
UKDE 061500Z 27003MPS 230V300 CAVOK 23/03 Q1012 R20/////// NOSIG,UKDE,2017-05-06T15:00:00Z,47.87,35.32,23.0,3.0,270,6,,6.21,29.88189,,,,,,TRUE,,,,,CAVOK,,,,,,,,VFR,,,,,,,,,,,,METAR,113.0
UKOO 061500Z 14003MPS CAVOK 21/11 Q1011 R16/090060 NOSIG,UKOO,2017-05-06T15:00:00Z,46.42,30.68,21.0,11.0,140,6,,6.21,29.852362,,,,,,TRUE,,,,,CAVOK,,,,,,,,VFR,,,,,,,,,,,,METAR,35.0
UKHH 061500Z 30004MPS 270V340 CAVOK 21/M08 Q1011 R25/0///67 NOSIG,UKHH,2017-05-06T15:00:00Z,49.92,36.28,21.0,-8.0,300,8,,6.21,29.852362,,,,,,TRUE,,,,,CAVOK,,,,,,,,VFR,,,,,,,,,,,,METAR,155.0
UKBB 061500Z VRB01MPS CAVOK 23/M01 Q1012 R88/CLRD// NOSIG,UKBB,2017-05-06T15:00:00Z,50.33,30.9,23.0,-1.0,0,2,,6.21,29.88189,,,,,,TRUE,,,,,CAVOK,,,,,,,,VFR,,,,,,,,,,,,METAR,119.0
SBPB 061500Z 07008KT 9999 SCT020 33/25 Q1011,SBPB,2017-05-06T15:00:00Z,-2.92,-41.75,33.0,25.0,70,8,,6.21,29.852362,,,,,,,,,,,SCT,2000,,,,,,,VFR,,,,,,,,,,,,METAR,5.0
OPRN 061500Z 05008KT 9999 FEW040 SCT120 32/12 1008.8/29.79,OPRN,2017-05-06T15:00:00Z,33.62,73.08,32.0,12.0,50,8,,6.21,,,,,,,,,,,,FEW,4000,SCT,12000,,,,,VFR,,,,,,,,,,,,METAR,508.0
OPNH 061500Z 18008KT 4000M HZ FEW035 SCT100 37/22 Q1005 NOSIG,OPNH,2017-05-06T15:00:00Z,26.22,68.37,37.0,22.0,180,8,,2.49,29.675198,,,,,,TRUE,,,,HZ,FEW,3500,SCT,10000,,,,,IFR,,,,,,,,,,,,METAR,38.0
OPKC 061500Z 22005KT 7000 NSC 30/23 Q1008 NOSIG,OPKC,2017-05-06T15:00:00Z,24.88,67.17,30.0,23.0,220,5,,4.35,29.763779,,,,,,TRUE,,,,,CLR,,,,,,,,MVFR,,,,,,,,,,,,METAR,22.0
NWWW 061500Z AUTO VRB03KT 9999 FEW045 22/20 Q1013 NOSIG,NWWW,2017-05-06T15:00:00Z,-22.02,166.22,22.0,20.0,0,3,,6.21,29.911417,,,TRUE,,,TRUE,,,,,FEW,4500,,,,,,,VFR,,,,,,,,,,,,METAR,16.0
SBRP 061500Z VRB03KT 9999 FEW035 25/13 Q1018,SBRP,2017-05-06T15:00:00Z,-21.12,-47.77,25.0,13.0,0,3,,6.21,30.059055,,,,,,,,,,,FEW,3500,,,,,,,VFR,,,,,,,,,,,,METAR,549.0
SBPL 061500Z 14007KT 9999 FEW035 32/15 Q1015,SBPL,2017-05-06T15:00:00Z,-9.37,-40.57,32.0,15.0,140,7,,6.21,29.970472,,,,,,,,,,,FEW,3500,,,,,,,VFR,,,,,,,,,,,,METAR,375.0
LHBP 061500Z 21009KT 170V230 9999 VCSH FEW046TCU SCT048 22/12 Q1011 TEMPO -TSRA,LHBP,2017-05-06T15:00:00Z,47.42,19.27,22.0,12.0,210,9,,6.21,29.852362,,,,,,,,,,VCSH,FEW,4600,SCT,4800,,,,,VFR,,,,,,,,,,,,METAR,185.0
LUBM 061500Z VRB02KT 9999 SCT033 25/06 Q1011 R25/CLRD65,LUBM,2017-05-06T15:00:00Z,47.87,28.22,25.0,6.0,0,2,,6.21,29.852362,,,,,,,,,,,SCT,3300,,,,,,,VFR,,,,,,,,,,,,METAR,95.0
LZTT 061500Z 20011KT 9999 SCT040CB SCT040 16/07 Q1012 NOSIG,LZTT,2017-05-06T15:00:00Z,49.07,20.25,16.0,7.0,200,11,,6.21,29.88189,,,,,,TRUE,,,,,SCT,4000,SCT,4000,,,,,VFR,,,,,,,,,,,,METAR,707.0
LZKZ 061500Z 21010KT 9999 FEW046 22/12 Q1011 NOSIG,LZKZ,2017-05-06T15:00:00Z,48.67,21.23,22.0,12.0,210,10,,6.21,29.852362,,,,,,TRUE,,,,,FEW,4600,,,,,,,VFR,,,,,,,,,,,,METAR,232.0
LZIB 061500Z 15011KT 130V190 CAVOK 21/10 Q1010 NOSIG,LZIB,2017-05-06T15:00:00Z,48.17,17.22,21.0,10.0,150,11,,6.21,29.822834,,,,,,TRUE,,,,,CAVOK,,,,,,,,VFR,,,,,,,,,,,,METAR,134.0
LBGO 061500Z AUTO 29009KT 9999 BKN027/// 18/13 Q1012 NOSIG,LBGO,2017-05-06T15:00:00Z,43.15,25.72,18.0,13.0,290,9,,6.21,29.88189,,,TRUE,,,TRUE,,,,,BKN,2700,,,,,,,MVFR,,,,,,,,,,,,METAR,86.0
LBPD 061500Z AUTO 29011KT 9999 FEW067/// OVC076/// 18/09 Q1012 NOSIG,LBPD,2017-05-06T15:00:00Z,42.13,24.8,18.0,9.0,290,11,,6.21,29.88189,,,TRUE,,,TRUE,,,,,FEW,6700,OVC,7600,,,,,VFR,,,,,,,,,,,,METAR,185.0
LBBG 061500Z 10005KT 9999 FEW020 FEW030TCU BKN042 14/13 Q1011 TEMPO 5000 SHRA,LBBG,2017-05-06T15:00:00Z,42.57,27.52,14.0,13.0,100,5,,6.21,29.852362,,,,,,,,,,,FEW,2000,FEW,3000,BKN,4200,,,VFR,,,,,,,,,,,,METAR,28.0
LBWN 061500Z 21003KT 170V240 9000 SHRA SCT004 SCT027TCU OVC033 14/13 Q1011 NOSIG,LBWN,2017-05-06T15:00:00Z,43.22,27.82,14.0,13.0,210,3,,5.59,29.852362,,,,,,TRUE,,,,SHRA,SCT,400,SCT,2700,OVC,3300,,,VFR,,,,,,,,,,,,METAR,43.0
LBSF 061500Z 28012KT 9999 FEW029 SCT049 OVC058 16/11 Q1014 NOSIG,LBSF,2017-05-06T15:00:00Z,42.7,23.42,16.0,11.0,280,12,,6.21,29.940945,,,,,,TRUE,,,,,FEW,2900,SCT,4900,OVC,5800,,,VFR,,,,,,,,,,,,METAR,530.0
TFFR 061500Z AUTO 12013KT 9999 BKN039 BKN045 29/20 Q1016 NOSIG,TFFR,2017-05-06T15:00:00Z,16.27,-61.53,29.0,20.0,120,13,,6.21,30.0,,,TRUE,,,TRUE,,,,,BKN,3900,BKN,4500,,,,,VFR,,,,,,,,,,,,METAR,11.0
UBBG 061500Z 17007KT 9999 OVC050 18/13 Q1014 R12/CLRD// NOSIG,UBBG,2017-05-06T15:00:00Z,40.73,46.32,18.0,13.0,170,7,,6.21,29.940945,,,,,,TRUE,,,,,OVC,5000,,,,,,,VFR,,,,,,,,,,,,SPECI,330.0
SOCA 061500Z AUTO 08008KT 050V110 9999 FEW025 31/24 Q1012 TEMPO 4000 SHRA SCT018TCU,SOCA,2017-05-06T15:00:00Z,4.82,-52.37,31.0,24.0,80,8,,6.21,29.88189,,,TRUE,,,,,,,,FEW,2500,,,,,,,VFR,,,,,,,,,,,,SPECI,9.0
TKPK 061500Z 10010KT 9999 SCT023 29/22 Q1016,TKPK,2017-05-06T15:00:00Z,17.3,-62.72,29.0,22.0,100,10,,6.21,30.0,,,,,,,,,,,SCT,2300,,,,,,,VFR,,,,,,,,,,,,METAR,48.0
NTAA 061500Z AUTO 10006KT 9999 NCD 24/20 Q1011,NTAA,2017-05-06T15:00:00Z,-17.55,-149.62,24.0,20.0,100,6,,6.21,29.852362,,,TRUE,,,,,,,,CLR,,,,,,,,VFR,,,,,,,,,,,,METAR,2.0
YCCY 061500Z AUTO 14009KT //// // ////// 26/05 Q1018,YCCY,2017-05-06T15:00:00Z,-20.67,140.5,26.0,5.0,140,9,,,30.059055,,,TRUE,,,,,,,,,,,,,,,,,,,,,,,,,,,,METAR,570.0
YCBP 061500Z AUTO 16009KT 9999 // NCD 16/06 Q1026 PRESENT WEATHER SENSOR US,YCBP,2017-05-06T15:00:00Z,-29.03,134.72,16.0,6.0,160,9,,6.21,30.295275,,,TRUE,,,,,,,,CLR,,,,,,,,VFR,,,,,,,,,,,,METAR,226.0
YCBB 061500Z AUTO 35009KT //// // ////// 14/07 Q1024,YCBB,2017-05-06T15:00:00Z,-31.33,149.27,14.0,7.0,350,9,,,30.236221,,,TRUE,,,,,,,,,,,,,,,,,,,,,,,,,,,,METAR,645.0
YCBA 061500Z AUTO 00000KT 9999 // NCD 09/03 Q1024,YCBA,2017-05-06T15:00:00Z,-31.53,145.8,9.0,3.0,0,0,,6.21,30.236221,,,TRUE,,,,,,,,CLR,,,,,,,,VFR,,,,,,,,,,,,METAR,221.0
YCAS 061500Z AUTO 29003KT //// // ////// 11/10 Q1024,YCAS,2017-05-06T15:00:00Z,-28.88,153.07,11.0,10.0,290,3,,,30.236221,,,TRUE,,,,,,,,,,,,,,,,,,,,,,,,,,,,METAR,26.0
YCAR 061500Z AUTO 15010KT 9999 // NCD 22/17 Q1020,YCAR,2017-05-06T15:00:00Z,-24.88,113.67,22.0,17.0,150,10,,6.21,30.11811,,,TRUE,,,,,,,,CLR,,,,,,,,VFR,,,,,,,,,,,,METAR,8.0
YBWX 061500Z AUTO 24004KT //// // ////// 22/14 Q1019,YBWX,2017-05-06T15:00:00Z,-20.88,115.4,22.0,14.0,240,4,,,30.088583,,,TRUE,,,,,,,,,,,,,,,,,,,,,,,,,,,,METAR,6.0
YBWP 061500Z AUTO 12005KT 9999 // NCD 24/21 Q1013,YBWP,2017-05-06T15:00:00Z,-12.68,141.92,24.0,21.0,120,5,,6.21,29.911417,,,TRUE,,,,,,,,CLR,,,,,,,,VFR,,,,,,,,,,,,METAR,12.0
YBUD 061500Z AUTO 18006KT 9999 // NCD 16/14 Q1021,YBUD,2017-05-06T15:00:00Z,-24.9,152.32,16.0,14.0,180,6,,6.21,30.147638,,,TRUE,,,,,,,,CLR,,,,,,,,VFR,,,,,,,,,,,,METAR,82.0
YBTL 061500Z AUTO 13009KT 9999 // SCT055 23/16 Q1018,YBTL,2017-05-06T15:00:00Z,-19.25,146.75,23.0,16.0,130,9,,6.21,30.059055,,,TRUE,,,,,,,,SCT,5500,,,,,,,VFR,,,,,,,,,,,,METAR,6.0
YWLM 061500Z AUTO 33003KT 9999 // NCD 14/12 Q1021,YWLM,2017-05-06T15:00:00Z,-32.8,151.83,14.0,12.0,330,3,,6.21,30.147638,,,TRUE,,,,,,,,CLR,,,,,,,,VFR,,,,,,,,,,,,METAR,9.0
YWHA 061500Z AUTO 14011KT 9999 // OVC048 15/10 Q1029,YWHA,2017-05-06T15:00:00Z,-33.07,137.52,15.0,10.0,140,11,,6.21,30.383858,,,TRUE,,,,,,,,OVC,4800,,,,,,,VFR,,,,,,,,,,,,METAR,13.0
YWGT 061500Z AUTO 23009KT 9999 // NCD 08/03 Q1024,YWGT,2017-05-06T15:00:00Z,-36.42,146.3,8.0,3.0,230,9,,6.21,30.236221,,,TRUE,,,,,,,,CLR,,,,,,,,VFR,,,,,,,,,,,,METAR,153.0
YTRE 061500Z AUTO 00000KT 9999 // NCD 11/10 Q1022,YTRE,2017-05-06T15:00:00Z,-31.88,152.52,11.0,10.0,0,0,,6.21,30.177166,,,TRUE,,,,,,,,CLR,,,,,,,,VFR,,,,,,,,,,,,METAR,12.0
YTNK 061500Z AUTO 09006KT 9999 // OVC100 25/25 Q1019,YTNK,2017-05-06T15:00:00Z,-19.63,134.18,25.0,25.0,90,6,,6.21,30.088583,,,TRUE,,,,,,,,OVC,10000,,,,,,,VFR,,,,,,,,,,,,METAR,377.0
YTEF 061500Z AUTO 15009KT 9999 // NCD 21/03 Q1021,YTEF,2017-05-06T15:00:00Z,-21.72,122.23,21.0,3.0,150,9,,6.21,30.147638,,,TRUE,,,,,,,,CLR,,,,,,,,VFR,,,,,,,,,,,,METAR,296.0
YSWG 061500Z AUTO 25012KT 9999 // BKN068 12/08 Q1023,YSWG,2017-05-06T15:00:00Z,-35.13,147.47,12.0,8.0,250,12,,6.21,30.206694,,,TRUE,,,,,,,,BKN,6800,,,,,,,VFR,,,,,,,,,,,,METAR,213.0
YSTW 061500Z AUTO 16004KT 9999 // NCD 07/05 Q1024 RF00.0/000.0,YSTW,2017-05-06T15:00:00Z,-31.07,150.85,7.0,5.0,160,4,,6.21,30.236221,,,TRUE,,,,,,,,CLR,,,,,,,,VFR,,,,,,,,,,,,METAR,410.0
SBMQ 061500Z 05007KT 9999 BKN020 FEW023TCU 33/26 Q1011,SBMQ,2017-05-06T15:00:00Z,0.05,-51.07,33.0,26.0,50,7,,6.21,29.852362,,,,,,,,,,,BKN,2000,FEW,2300,,,,,MVFR,,,,,,,,,,,,METAR,15.0
VGHS 061500Z 18010KT 4000 HZ FEW100 30/23 Q1007 NOSIG,VGHS,2017-05-06T15:00:00Z,23.85,90.4,30.0,23.0,180,10,,2.49,29.734253,,,,,,TRUE,,,,HZ,FEW,10000,,,,,,,IFR,,,,,,,,,,,,METAR,10.0
MROC 061500Z 26003KT 9999 FEW025 BKN100 23/20 A3004 NOSIG,MROC,2017-05-06T15:00:00Z,10.0,-84.22,23.0,20.0,260,3,,6.21,30.041338,,,,,,TRUE,,,,,FEW,2500,BKN,10000,,,,,VFR,,,,,,,,,,,,METAR,920.0
VOML 061500Z 32003KT 8000 FEW015 FEW025CB 30/25 Q1012 NOSIG,VOML,2017-05-06T15:00:00Z,12.97,74.88,30.0,25.0,320,3,,4.97,29.88189,,,,,,TRUE,,,,,FEW,1500,FEW,2500,,,,,MVFR,,,,,,,,,,,,METAR,103.0
SBPA 061500Z 12009KT 9999 BKN025 24/18 Q1020,SBPA,2017-05-06T15:00:00Z,-30.0,-51.17,24.0,18.0,120,9,,6.21,30.11811,,,,,,,,,,,BKN,2500,,,,,,,MVFR,,,,,,,,,,,,METAR,3.0
FQTT 061500Z 17009KT CAVOK 30/15 Q1015,FQTT,2017-05-06T15:00:00Z,-16.1,33.62,30.0,15.0,170,9,,6.21,29.970472,,,,,,,,,,,CAVOK,,,,,,,,VFR,,,,,,,,,,,,METAR,160.0
SAWH 061500Z 32004KT 9999 SCT040 05/00 Q1000,SAWH,2017-05-06T15:00:00Z,-54.85,-68.3,5.0,0.0,320,4,,6.21,29.52756,,,,,,,,,,,SCT,4000,,,,,,,VFR,,,,,,,,,,,,METAR,14.0
YLIS 061500Z AUTO 36006KT 0150 // OVC001 12/12 Q1024,YLIS,2017-05-06T15:00:00Z,-28.83,153.27,12.0,12.0,360,6,,0.09,30.236221,,,TRUE,,,,,,,,OVC,100,,,,,,,LIFR,,,,,,,,,,,,METAR,11.0
YSDU 061500Z AUTO 15006KT 6000 // NCD 11/10 Q1023,YSDU,2017-05-06T15:00:00Z,-32.22,148.57,11.0,10.0,150,6,,3.73,30.206694,,,TRUE,,,,,,,,CLR,,,,,,,,MVFR,,,,,,,,,,,,METAR,275.0
MYNN 061500Z 29012KT 9999 SCT018 BKN040 28/23 A2994 RMK PKWND 16KT,MYNN,2017-05-06T15:00:00Z,25.03,-77.47,28.0,23.0,290,12,,6.21,29.940945,,,,,,,,,,,SCT,1800,BKN,4000,,,,,VFR,,,,,,,,,,,,METAR,3.0
MZBZ 061500Z 32007KT 9999 FEW016 BKN046 22/20 A3003 Q1017 NOSIG,MZBZ,2017-05-06T15:00:00Z,17.52,-88.3,22.0,20.0,320,7,,6.21,30.029528,,,,,,TRUE,,,,,FEW,1600,BKN,4600,,,,,VFR,,,,,,,,,,,,METAR,5.0
TFFF 061500Z AUTO 09013KT 9999 FEW026 SCT170 30/23 Q1015 TEMPO 4000 SHRA SCT018TCU,TFFF,2017-05-06T15:00:00Z,14.6,-61.0,30.0,23.0,90,13,,6.21,29.970472,,,TRUE,,,,,,,,FEW,2600,SCT,17000,,,,,VFR,,,,,,,,,,,,SPECI,5.0
TLPC 061500Z 11012G24KT 9999 SCT023 30/23 Q1015 NOSIG,TLPC,2017-05-06T15:00:00Z,14.02,-61.0,30.0,23.0,110,12,24,6.21,29.970472,,,,,,TRUE,,,,,SCT,2300,,,,,,,VFR,,,,,,,,,,,,METAR,2.0
SBMA 061500Z 32003KT 9999 SCT017 FEW022TCU 32/24 Q1012,SBMA,2017-05-06T15:00:00Z,-5.37,-49.13,32.0,24.0,320,3,,6.21,29.88189,,,,,,,,,,,SCT,1700,FEW,2200,,,,,VFR,,,,,,,,,,,,METAR,102.0
SCRM 061500Z 34002KT 0250 SN OVC004 M01/M01 Q0987,SCRM,2017-05-06T15:00:00Z,-62.18,-58.98,-1.0,-1.0,340,2,,0.16,29.143702,,,,,,,,,,SN,OVC,400,,,,,,,LIFR,,,,,,,,,,,,METAR,45.0
SCCH 061500Z 03017KT 9999 SCT015 OVC070 15/11 Q1010,SCCH,2017-05-06T15:00:00Z,-36.57,-72.02,15.0,11.0,30,17,,6.21,29.822834,,,,,,,,,,,SCT,1500,OVC,7000,,,,,VFR,,,,,,,,,,,,METAR,148.0
SCTN 061500Z 01009KT 9999 SCT020 OVC060 14/11 Q1004,SCTN,2017-05-06T15:00:00Z,-42.92,-72.7,14.0,11.0,10,9,,6.21,29.64567,,,,,,,,,,,SCT,2000,OVC,6000,,,,,VFR,,,,,,,,,,,,METAR,4.0
SCPQ 061500Z 01007KT 9999 OVC004 12/12 Q1003,SCPQ,2017-05-06T15:00:00Z,-42.33,-73.72,12.0,12.0,10,7,,6.21,29.616142,,,,,,,,,,,OVC,400,,,,,,,LIFR,,,,,,,,,,,,METAR,5.0
SCIP 061500Z 10009KT 9999 FEW020 BKN040 22/12 Q1024 NOSIG,SCIP,2017-05-06T15:00:00Z,-27.17,-109.43,22.0,12.0,100,9,,6.21,30.236221,,,,,,TRUE,,,,,FEW,2000,BKN,4000,,,,,VFR,,,,,,,,,,,,METAR,69.0
SCEL 061500Z 35005KT 4000 BR OVC010 11/08 Q1015 NOSIG,SCEL,2017-05-06T15:00:00Z,-33.37,-70.77,11.0,8.0,350,5,,2.49,29.970472,,,,,,TRUE,,,,BR,OVC,1000,,,,,,,IFR,,,,,,,,,,,,METAR,476.0
SCCI 061500Z 25005KT 9999 FEW040 SCT150 03/00 Q1000,SCCI,2017-05-06T15:00:00Z,-53.0,-70.83,3.0,0.0,250,5,,6.21,29.52756,,,,,,,,,,,FEW,4000,SCT,15000,,,,,VFR,,,,,,,,,,,,METAR,37.0
SCVD 061500Z 02005KT 9000 RA FEW007 OVC023 13/13 Q1007,SCVD,2017-05-06T15:00:00Z,-39.65,-73.07,13.0,13.0,20,5,,5.59,29.734253,,,,,,,,,,RA,FEW,700,OVC,2300,,,,,MVFR,,,,,,,,,,,,METAR,14.0
SCTE 061500Z 01009KT 340V050 9999 VCSH SCT007 OVC070 13/12 Q1005 NOSIG,SCTE,2017-05-06T15:00:00Z,-41.42,-73.07,13.0,12.0,10,9,,6.21,29.675198,,,,,,TRUE,,,,VCSH,SCT,700,OVC,7000,,,,,VFR,,,,,,,,,,,,METAR,86.0
SCQP 061500Z 01005KT 4000 -RA BKN009 OVC033 13/13 Q1007,SCQP,2017-05-06T15:00:00Z,-38.92,-72.65,13.0,13.0,10,5,,2.49,29.734253,,,,,,,,,,-RA,BKN,900,OVC,3300,,,,,IFR,,,,,,,,,,,,METAR,97.0
SCJO 061500Z 01003KT 5000 RA SCT010 OVC025 13/09 Q1006,SCJO,2017-05-06T15:00:00Z,-40.6,-73.03,13.0,9.0,10,3,,3.11,29.704725,,,,,,,,,,RA,SCT,1000,OVC,2500,,,,,MVFR,,,,,,,,,,,,METAR,65.0
SCSE 061500Z 10010KT 9999 BKN035 18/10 Q1016,SCSE,2017-05-06T15:00:00Z,-29.92,-71.2,18.0,10.0,100,10,,6.21,30.0,,,,,,,,,,,BKN,3500,,,,,,,VFR,,,,,,,,,,,,METAR,146.0
SCDA 061500Z 22006KT 9999 BKN035 23/13 Q1017,SCDA,2017-05-06T15:00:00Z,-20.52,-70.17,23.0,13.0,220,6,,6.21,30.029528,,,,,,,,,,,BKN,3500,,,,,,,VFR,,,,,,,,,,,,METAR,52.0
SCAT 061500Z 36013KT 9999 BKN040 18/08 Q1019,SCAT,2017-05-06T15:00:00Z,-27.27,-70.77,18.0,8.0,360,13,,6.21,30.088583,,,,,,,,,,,BKN,4000,,,,,,,VFR,,,,,,,,,,,,METAR,204.0
SCIE 061500Z 01024KT 7000 OVC009 14/12 Q1009,SCIE,2017-05-06T15:00:00Z,-36.77,-73.07,14.0,12.0,10,24,,4.35,29.793306,,,,,,,,,,,OVC,900,,,,,,,IFR,,,,,,,,,,,,METAR,16.0
SCCF 061500Z 27010KT CAVOK 17/M07 Q1027,SCCF,2017-05-06T15:00:00Z,-22.5,-68.9,17.0,-7.0,270,10,,6.21,30.324802,,,,,,,,,,,CAVOK,,,,,,,,VFR,,,,,,,,,,,,METAR,2312.0
SCBA 061500Z 03003KT 310V110 9999 FEW003 SCT025 BKN200 09/07 Q1001,SCBA,2017-05-06T15:00:00Z,-45.92,-71.67,9.0,7.0,30,3,,6.21,29.557087,,,,,,,,,,,FEW,300,SCT,2500,BKN,20000,,,VFR,,,,,,,,,,,,METAR,524.0
SCAR 061500Z 24004KT 180V300 CAVOK 22/13 Q1017,SCAR,2017-05-06T15:00:00Z,-18.35,-70.32,22.0,13.0,240,4,,6.21,30.029528,,,,,,,,,,,CAVOK,,,,,,,,VFR,,,,,,,,,,,,METAR,59.0
SCFA 061500Z 30004KT CAVOK 21/11 Q1016 NOSIG,SCFA,2017-05-06T15:00:00Z,-23.42,-70.42,21.0,11.0,300,4,,6.21,30.0,,,,,,TRUE,,,,,CAVOK,,,,,,,,VFR,,,,,,,,,,,,METAR,120.0
SEMC 061500Z 08003KT 9999 FEW023 BKN120 24/21 Q1019,SEMC,2017-05-06T15:00:00Z,-2.3,-78.12,24.0,21.0,80,3,,6.21,30.088583,,,,,,,,,,,FEW,2300,BKN,12000,,,,,VFR,,,,,,,,,,,,METAR,1052.0
UBBN 061500Z 21006KT 9999 SCT050CB OVC090 16/12 Q1012 R14R/290050 NOSIG RMK MT OP QFE684,UBBN,2017-05-06T15:00:00Z,39.18,45.45,16.0,12.0,210,6,,6.21,29.88189,,,,,,TRUE,,,,,SCT,5000,OVC,9000,,,,,VFR,,,,,,,,,,,,METAR,873.0
VOMM 061500Z 15012KT 6000 FEW020 31/27 Q1010 NOSIG,VOMM,2017-05-06T15:00:00Z,13.0,80.17,31.0,27.0,150,12,,3.73,29.822834,,,,,,TRUE,,,,,FEW,2000,,,,,,,MVFR,,,,,,,,,,,,METAR,16.0
SBTE 061500Z 17007KT 9999 SCT040 32/25 Q1011,SBTE,2017-05-06T15:00:00Z,-5.03,-42.82,32.0,25.0,170,7,,6.21,29.852362,,,,,,,,,,,SCT,4000,,,,,,,VFR,,,,,,,,,,,,METAR,69.0
LUKK 061500Z 21006KT 9999 SCT042 22/13 Q1011 R08/D NOSIG,LUKK,2017-05-06T15:00:00Z,46.93,28.93,22.0,13.0,210,6,,6.21,29.852362,,,,,,TRUE,,,,,SCT,4200,,,,,,,VFR,,,,,,,,,,,,METAR,122.0
SPYL 061500Z 27006KT CAVOK 25/21 Q1013 RMK BIRD HAZARD RWY 17/35 PP000,SPYL,2017-05-06T15:00:00Z,-4.57,-81.25,25.0,21.0,270,6,,6.21,29.911417,,,,,,,,,,,CAVOK,,,,,,,,VFR,,,,,,,,,,,,SPECI,90.0
SPTU 061500Z /////KT 9999 SCT010 31/25 Q1013 RMK BIRD HAZARD RWY 01/19 PP000,SPTU,2017-05-06T15:00:00Z,-12.62,-69.2,31.0,25.0,,,,6.21,29.911417,,,,,,,,,,,SCT,1000,,,,,,,VFR,,,,,,,,,,,,METAR,266.0
SPMS 061500Z 32004KT 5000 -RA OVC010 25/25 Q1018 RMK BIRD HAZARD RWY 09/27 PP010,SPMS,2017-05-06T15:00:00Z,-5.9,-76.12,25.0,25.0,320,4,,3.11,30.059055,,,,,,,,,,-RA,OVC,1000,,,,,,,MVFR,,,,,,,,,,,,METAR,179.0
SPME 061500Z /////KT 9999 SCT013 28/23 Q1013 RMK BIRD HAZARD RWY 32/14 PP000,SPME,2017-05-06T15:00:00Z,-3.53,-80.4,28.0,23.0,,,,6.21,29.911417,,,,,,,,,,,SCT,1300,,,,,,,VFR,,,,,,,,,,,,METAR,27.0
SPLO 061500Z 28007KT 9999 OVC030 21/15 Q1017 RMK PP000,SPLO,2017-05-06T15:00:00Z,-17.7,-71.35,21.0,15.0,280,7,,6.21,30.029528,,,,,,,,,,,OVC,3000,,,,,,,MVFR,,,,,,,,,,,,METAR,9.0
SPJR 061500Z VRB01KT 9999 SCT027 17/10 Q1029 RMK PP000,SPJR,2017-05-06T15:00:00Z,-7.12,-78.47,17.0,10.0,0,1,,6.21,30.383858,,,,,,,,,,,SCT,2700,,,,,,,VFR,,,,,,,,,,,,METAR,2622.0
SPJL 061500Z 00000KT CAVOK 14/01 Q1037 RMK PP000,SPJL,2017-05-06T15:00:00Z,-15.47,-70.15,14.0,1.0,0,0,,6.21,30.620079,,,,,,,,,,,CAVOK,,,,,,,,VFR,,,,,,,,,,,,METAR,3827.0
SPJI 061500Z 00000KT 9999 0VC020 25/24 Q1024 RMK PP080,SPJI,2017-05-06T15:00:00Z,-7.17,-76.72,25.0,24.0,0,0,,6.21,30.236221,,,,,,,,,,,,,,,,,,,,,,,,,,,,,,,METAR,363.0
SPHY 061500Z /////KT 8000 PRFG SCT013 BKN060 08/01 Q1037 RMK BIRD HAZARD RWY03/21 PP000,SPHY,2017-05-06T15:00:00Z,-13.7,-73.35,8.0,1.0,,,,4.97,30.620079,,,,,,,,,,PRFG,SCT,1300,BKN,6000,,,,,MVFR,,,,,,,,,,,,METAR,3548.0
SPHO 061500Z VRB03KT 9999 FEW046 19/12 Q1030 RMK PP000,SPHO,2017-05-06T15:00:00Z,-13.17,-74.22,19.0,12.0,0,3,,6.21,30.413385,,,,,,,,,,,FEW,4600,,,,,,,VFR,,,,,,,,,,,,METAR,2749.0
SPGM 061500Z /////KT 8000 SCT025 OVC090 23/22 Q1018 RMK BIRD HAZARD RWY19 PPTRZ,SPGM,2017-05-06T15:00:00Z,-9.28,-76.0,23.0,22.0,,,,4.97,30.059055,,,,,,,,,,,SCT,2500,OVC,9000,,,,,MVFR,,,,,,,,,,,,METAR,665.0
SPCL 061500Z 17003KT 4000 -DZ BR BKN008 OVC070 23/23 Q1016 RMK BIRD HAZARD RWY 02/20 PP060,SPCL,2017-05-06T15:00:00Z,-8.38,-74.58,23.0,23.0,170,3,,2.49,30.0,,,,,,,,,,-DZ BR,BKN,800,OVC,7000,,,,,IFR,,,,,,,,,,,,METAR,149.0
UBBY 061500Z VRB02KT 9999 SCT070 19/13 Q1017 R33/////// NOSIG RMK MT OP,UBBY,2017-05-06T15:00:00Z,41.57,46.67,19.0,13.0,0,2,,6.21,30.029528,,,,,,TRUE,,,,,SCT,7000,,,,,,,VFR,,,,,,,,,,,,METAR,390.0
SEQM 061500Z 06003KT 9999 SCT020 BKN090 17/12 Q1028 NOSIG RMK A3038,SEQM,2017-05-06T15:00:00Z,-0.12,-78.35,17.0,12.0,60,3,,6.21,30.35433,,,,,,TRUE,,,,,SCT,2000,BKN,9000,,,,,VFR,,,,,,,,,,,,SPECI,2400.0
SEGS 061500Z 12005KT 9999 FEW016 BKN080 27/24 Q1013 A2993,SEGS,2017-05-06T15:00:00Z,-0.45,-90.27,27.0,24.0,120,5,,6.21,29.911417,,,,,,,,,,,FEW,1600,BKN,8000,,,,,VFR,,,,,,,,,,,,METAR,16.0
SENL 061500Z 07002KT 9999 BKN026 26/23 Q1016,SENL,2017-05-06T15:00:00Z,0.1,-76.87,26.0,23.0,70,2,,6.21,30.0,,,,,,,,,,,BKN,2600,,,,,,,MVFR,,,,,,,,,,,,METAR,293.0
SEJD 061500Z 34002KT 9999 SCT013 BKN100 24/24 Q1017,SEJD,2017-05-06T15:00:00Z,-1.07,-77.58,24.0,24.0,340,2,,6.21,30.029528,,,,,,,,,,,SCT,1300,BKN,10000,,,,,VFR,,,,,,,,,,,,METAR,375.0
SECA 061500Z 28002KT 9999 SCT040 BKN100 23/18 Q1020,SECA,2017-05-06T15:00:00Z,-4.0,-79.37,23.0,18.0,280,2,,6.21,30.11811,,,,,,,,,,,SCT,4000,BKN,10000,,,,,VFR,,,,,,,,,,,,METAR,1121.0
SECU 061500Z 13002KT 9999 FEW030 BKN100 17/12 Q1028,SECU,2017-05-06T15:00:00Z,-2.87,-78.97,17.0,12.0,130,2,,6.21,30.35433,,,,,,,,,,,FEW,3000,BKN,10000,,,,,VFR,,,,,,,,,,,,METAR,2531.0
SETU 061500Z 00000KT 9999 SCT023 OVC100 14/10 Q1034,SETU,2017-05-06T15:00:00Z,0.82,-77.7,14.0,10.0,0,0,,6.21,30.531496,,,,,,,,,,,SCT,2300,OVC,10000,,,,,VFR,,,,,,,,,,,,METAR,2940.0
SETN 061500Z 34003KT 250V030 9999 FEW016 BKN100 28/25 Q1014 A2995,SETN,2017-05-06T15:00:00Z,0.98,-79.63,28.0,25.0,340,3,,6.21,29.940945,,,,,,,,,,,FEW,1600,BKN,10000,,,,,VFR,,,,,,,,,,,,METAR,10.0
KJSL 061500Z AUTO 07005KT 10SM CLR 25/10 A3004 RMK A01,KJSL,2017-05-06T15:00:00Z,,,25.0,10.0,70,5,,10.0,30.041338,,,TRUE,TRUE,,,,,,,CLR,,,,,,,,VFR,,,,,,,,,,,,METAR,
K46U 061500Z AUTO 15008KT 120V180 10SM CLR 11/03 A2993 RMK A01,K46U,2017-05-06T15:00:00Z,43.18,-111.05,11.0,3.0,150,8,,10.0,29.929134,,,TRUE,TRUE,,,,,,,CLR,,,,,,,,VFR,,,,,,,,,,,,METAR,1717.0
KGZN 061500Z AUTO 18010G16KT 10SM CLR 23/06 A3003 RMK AO2,KGZN,2017-05-06T15:00:00Z,32.37,-99.02,23.0,6.0,180,10,16,10.0,30.029528,,,TRUE,TRUE,,,,,,,CLR,,,,,,,,VFR,,,,,,,,,,,,METAR,522.0
KMHV 061500Z AUTO 22017G24KT 10SM CLR 14/06 A2973 RMK A01,KMHV,2017-05-06T15:00:00Z,35.07,-118.15,14.0,6.0,220,17,24,10.0,29.731298,,,TRUE,TRUE,,,,,,,CLR,,,,,,,,VFR,,,,,,,,,,,,METAR,849.0
WBKW 061500Z 00000KT 9999 FEW017 BKN300 25/24 Q1013,WBKW,2017-05-06T15:00:00Z,4.32,118.12,25.0,24.0,0,0,,6.21,29.911417,,,,,,,,,,,FEW,1700,BKN,30000,,,,,VFR,,,,,,,,,,,,METAR,20.0
RKSM 061500Z 18002KT 9000 SA SKC 11/04 A3000 RMK SLP160,RKSM,2017-05-06T15:00:00Z,37.42,127.12,11.0,4.0,180,2,,5.59,30.0,1016.0,,,,,,,,,SA,SKC,,,,,,,,VFR,,,,,,,,,,,,METAR,20.0
AGGH 061500Z 18004KT 9999 HZ FEW015 SCT030 BKN300 25/23 Q1007,AGGH,2017-05-06T15:00:00Z,-9.42,160.05,25.0,23.0,180,4,,6.21,29.734253,,,,,,,,,,HZ,FEW,1500,SCT,3000,BKN,30000,,,VFR,,,,,,,,,,,,METAR,9.0
NGFU 061500Z VRB03KT 9999 VCSH SCT019CB OVC110 28/25 Q1010,NGFU,2017-05-06T15:00:00Z,-8.52,179.22,28.0,25.0,0,3,,6.21,29.822834,,,,,,,,,,VCSH,SCT,1900,OVC,11000,,,,,VFR,,,,,,,,,,,,METAR,1.0
SBCG 061500Z 02003KT 310V090 CAVOK 28/19 Q1017,SBCG,2017-05-06T15:00:00Z,-20.47,-54.67,28.0,19.0,20,3,,6.21,30.029528,,,,,,,,,,,CAVOK,,,,,,,,VFR,,,,,,,,,,,,METAR,567.0
SBMN 061500Z 13006KT 9999 FEW020 29/23 Q1013,SBMN,2017-05-06T15:00:00Z,-3.13,-59.97,29.0,23.0,130,6,,6.21,29.911417,,,,,,,,,,,FEW,2000,,,,,,,VFR,,,,,,,,,,,,METAR,84.0
OPST 061500Z 27004KT 4000 HZ FEW040 SCT100 32/09 Q1006 NOSIG RH24,OPST,2017-05-06T15:00:00Z,32.53,74.37,32.0,9.0,270,4,,2.49,29.704725,,,,,,TRUE,,,,HZ,FEW,4000,SCT,10000,,,,,IFR,,,,,,,,,,,,METAR,247.0
SBLO 061500Z 07007KT 9999 FEW045 24/17 Q1020,SBLO,2017-05-06T15:00:00Z,-23.32,-51.12,24.0,17.0,70,7,,6.21,30.11811,,,,,,,,,,,FEW,4500,,,,,,,VFR,,,,,,,,,,,,METAR,570.0
SBCZ 061500Z 07004KT 9999 FEW012 SCT100 30/25 Q1015,SBCZ,2017-05-06T15:00:00Z,-7.62,-72.77,30.0,25.0,70,4,,6.21,29.970472,,,,,,,,,,,FEW,1200,SCT,10000,,,,,VFR,,,,,,,,,,,,METAR,170.0
WADL 061500Z 09003KT 7000 SCT016 25/24 Q1014 NOSIG,WADL,2017-05-06T15:00:00Z,-8.75,116.28,25.0,24.0,90,3,,4.35,29.940945,,,,,,TRUE,,,,,SCT,1600,,,,,,,MVFR,,,,,,,,,,,,METAR,97.0
RKSO 061459Z 00000KT 7SM CLR 12/07 A3002 RMK AO2A SLPNO WND DATA ESTMD ALSTG ESTMD $,RKSO,2017-05-06T14:59:00Z,37.07,127.02,12.0,7.0,0,0,,7.0,30.02067,,,,TRUE,TRUE,,,,,,CLR,,,,,,,,VFR,,,,,,,,,,,,METAR,12.0
KNGU 061459Z 24008G19KT 10SM SCT045 BKN280 18/10 A2950 RMK AO2 SLP990 T01830100 56005 $,KNGU,2017-05-06T14:59:00Z,36.92,-76.27,18.3,10.0,240,8,19,10.0,29.500984,999.0,,,TRUE,TRUE,,,,,,SCT,4500,BKN,28000,,,,,VFR,-0.5,,,,,,,,,,,SPECI,5.0
KFFZ 061459Z 09006KT 40SM SKC A2976,KFFZ,2017-05-06T14:59:00Z,33.47,-111.72,,,90,6,,40.0,29.760826,,,,,,,,,,,SKC,,,,,,,,VFR,,,,,,,,,,,,METAR,424.0
KSSC 061459Z AUTO 30013G19KT 10SM FEW037 17/07 A2967 RMK AO2 WSHFT 56 SLP048 $,KSSC,2017-05-06T14:59:00Z,33.97,-80.47,17.0,7.0,300,13,19,10.0,29.66929,1004.8,,TRUE,TRUE,TRUE,,,,,,FEW,3700,,,,,,,VFR,,,,,,,,,,,,METAR,74.0
KBOW 061459Z 31012KT 10SM SKC 20/08 A2996,KBOW,2017-05-06T14:59:00Z,27.93,-81.77,20.0,8.0,310,12,,10.0,29.958662,,,,,,,,,,,SKC,,,,,,,,VFR,,,,,,,,,,,,METAR,39.0
KNRB 061459Z AUTO 28018G28KT 7SM FEW027 17/06 A2984 RMK AO2 PK WND 28028/1459 T01720056,KNRB,2017-05-06T14:59:00Z,30.38,-81.42,17.2,5.6,280,18,28,7.0,29.840551,,,TRUE,TRUE,,,,,,,FEW,2700,,,,,,,VFR,,,,,,,,,,,,METAR,5.0
KPAM 061459Z E31010 9999 CLR 20/04 A2998 RMK SLPNO RVRNO,KPAM,2017-05-06T14:59:00Z,30.07,-85.57,20.0,4.0,310,10,,6.21,29.97933,,,,,,,,,,,CLR,,,,,,,,VFR,,,,,,,,,,,,SPECI,5.0
KNOZ 061459Z AUTO 14019G25KT 10SM CLR A2968 RMK AO2 SLPNO 53017 $,KNOZ,2017-05-06T14:59:00Z,,,,,140,19,25,10.0,29.681103,,,TRUE,TRUE,TRUE,,,,,,CLR,,,,,,,,VFR,1.7,,,,,,,,,,,METAR,
MMPE 061459Z RTD 11017KT 10SM SKC 23/15 A2972,MMPE,2017-05-06T14:59:00Z,31.35,-113.52,23.0,15.0,110,17,,10.0,29.719488,,,,,,,,,,,SKC,,,,,,,,VFR,,,,,,,,,,,,METAR,9.0
PGUA 061458Z 08012KT 10SM SCT019 26/23 A2998 RMK AO2A SLPNO T02610226 ALSTG ESTMD $,PGUA,2017-05-06T14:58:00Z,13.57,144.92,26.1,22.6,80,12,,10.0,29.97933,,,,TRUE,TRUE,,,,,,SCT,1900,,,,,,,VFR,,,,,,,,,,,,SPECI,187.0
PHHI 061458Z AUTO 11004KT 10SM CLR 22/17 A3009 RMK AO2 SLP178 T02180173 55001 $,PHHI,2017-05-06T14:58:00Z,21.48,-158.05,21.8,17.3,110,4,,10.0,30.088583,1017.8,,TRUE,TRUE,TRUE,,,,,,CLR,,,,,,,,VFR,-0.1,,,,,,,,,,,METAR,255.0
EGVA 061458Z AUTO 03012G15KT 9999 OVC031 13/06 A2992 RMK AO2 SLP136 T01320062 52008 $,EGVA,2017-05-06T14:58:00Z,51.67,-1.77,13.2,6.2,30,12,15,6.21,29.920275,1013.6,,TRUE,TRUE,TRUE,,,,,,OVC,3100,,,,,,,VFR,0.8,,,,,,,,,,,METAR,87.0
EGUN 061458Z AUTO 05010KT 9999 OVC025 13/11 A2991 RMK AO2 SLP132 T01290114 55001,EGUN,2017-05-06T14:58:00Z,52.37,0.47,12.9,11.4,50,10,,6.21,29.911417,1013.2,,TRUE,TRUE,,,,,,,OVC,2500,,,,,,,MVFR,-0.1,,,,,,,,,,,METAR,10.0
ETIH 061458Z AUTO 07004KT 9999 FEW055 19/08 A2977 RMK AO2 SLP084 57018,ETIH,2017-05-06T14:58:00Z,49.22,11.82,19.0,8.0,70,4,,6.21,29.769686,1008.4,,TRUE,TRUE,,,,,,,FEW,5500,,,,,,,VFR,-1.8,,,,,,,,,,,METAR,442.0
ETIC 061458Z AUTO 07006KT 9999 FEW220 20/06 A2978 RMK AO2 SLP088 T01990060 57020 $,ETIC,2017-05-06T14:58:00Z,49.7,11.93,19.9,6.0,70,6,,6.21,29.778543,1008.8,,TRUE,TRUE,TRUE,,,,,,FEW,22000,,,,,,,VFR,-2.0,,,,,,,,,,,METAR,415.0
ETEB 061458Z AUTO 11003KT 9999 FEW170 19/07 A2977 RMK AO2 SLP092 T01910066 57012,ETEB,2017-05-06T14:58:00Z,49.32,10.62,19.1,6.6,110,3,,6.21,29.769686,1009.2,,TRUE,TRUE,,,,,,,FEW,17000,,,,,,,VFR,-1.2,,,,,,,,,,,METAR,467.0
EHLW 061458Z AUTO 06013KT 010V110 9999 FEW024 BKN028 BKN031 15/09 Q1012 BLU,EHLW,2017-05-06T14:58:00Z,53.22,5.75,15.0,9.0,60,13,,6.21,29.88189,,,TRUE,,,,,,,,FEW,2400,BKN,2800,BKN,3100,,,MVFR,,,,,,,,,,,,SPECI,2.0
KMTC 061458Z 33014G23KT 10SM BKN023 BKN032 BKN220 10/05 A2957 RMK AO2A PK WND 34026/13 SLP019 T00960054 55003,KMTC,2017-05-06T14:58:00Z,42.62,-82.82,9.6,5.4,330,14,23,10.0,29.568897,1001.9,,,TRUE,,,,,,,BKN,2300,BKN,3200,BKN,22000,,,MVFR,-0.3,,,,,,,,,,,METAR,177.0
KGXF 061458Z 15003KT 10SM CLR 28/03 A2971 RMK AO2A SLP047 T02790029 50006,KGXF,2017-05-06T14:58:00Z,32.87,-112.72,27.9,2.9,150,3,,10.0,29.71063,1004.7,,,TRUE,,,,,,,CLR,,,,,,,,VFR,0.6,,,,,,,,,,,METAR,262.0
KFHU 061458Z AUTO 14013G18KT 10SM CLR 24/M02 A2996 RMK AO2 SLP066 T02351016 53001,KFHU,2017-05-06T14:58:00Z,31.58,-110.35,23.5,-1.6,140,13,18,10.0,29.958662,1006.6,,TRUE,TRUE,,,,,,,CLR,,,,,,,,VFR,0.1,,,,,,,,,,,METAR,1438.0
KCEF 061458Z 17018G26KT 10SM BKN019 OVC036 19/15 A2944 RMK AO2A PK WND 14026/50 SLP975 T01880145 55003 $,KCEF,2017-05-06T14:58:00Z,42.2,-72.52,18.8,14.5,170,18,26,10.0,29.438976,997.5,,,TRUE,TRUE,,,,,,BKN,1900,OVC,3600,,,,,MVFR,-0.3,,,,,,,,,,,METAR,75.0
KBKF 061458Z 21008KT 10SM FEW120 FEW220 21/03 A2999 RMK AO2A SLP090 T02090033 50003,KBKF,2017-05-06T14:58:00Z,39.72,-104.75,20.9,3.3,210,8,,10.0,29.991142,1009.0,,,TRUE,,,,,,,FEW,12000,FEW,22000,,,,,VFR,0.3,,,,,,,,,,,METAR,1726.0
ETAR 061458Z 23012G16KT 9999 BKN048 BKN055 17/09 A2980 RMK AO2A RAB1358E15 SLP097 P0000 60000 T01730092 52011 $,ETAR,2017-05-06T14:58:00Z,49.42,7.58,17.3,9.2,230,12,16,6.21,29.799213,1009.7,,,TRUE,TRUE,,,,,,BKN,4800,BKN,5500,,,,,VFR,1.1,,,,,0.005,0.005,,,,,METAR,238.0
PFKT 061458Z AUTO 06012G17KT 10SM OVC012 M02/M03 A2983 RMK AO2 SLP101 T10171028 58002 FZRANO,PFKT,2017-05-06T14:58:00Z,65.33,-166.47,-1.7,-2.8,60,12,17,10.0,29.828741,1010.1,,TRUE,TRUE,,,,TRUE,,,OVC,1200,,,,,,,MVFR,-0.2,,,,,,,,,,,METAR,9.0
PAWM 061458Z AUTO 35012KT 10SM OVC070 M01/M03 A2972 RMK AO2 SLP075 T10061028 56007 FZRANO,PAWM,2017-05-06T14:58:00Z,64.68,-163.42,-0.6,-2.8,350,12,,10.0,29.719488,1007.5,,TRUE,TRUE,,,,TRUE,,,OVC,7000,,,,,,,VFR,-0.7,,,,,,,,,,,METAR,82.0
PATE 061458Z AUTO 10SM OVC009 A2980 RMK AO2 SLPNO 56003 FZRANO $,PATE,2017-05-06T14:58:00Z,65.23,-166.33,,,,,,10.0,29.799213,,,TRUE,TRUE,TRUE,,,TRUE,,,OVC,900,,,,,,,IFR,-0.3,,,,,,,,,,,METAR,90.0
KMRH 061458Z AUTO 24021G28KT 10SM CLR 18/11 A2958 RMK AO2 PK WND 25028/1450 SLP018 T01780111 58003 TSNO,KMRH,2017-05-06T14:58:00Z,34.73,-76.65,17.8,11.1,240,21,28,10.0,29.58071,1001.8,,TRUE,TRUE,,,TRUE,,,,CLR,,,,,,,,VFR,-0.3,,,,,,,,,,,METAR,3.0
KMEI 061458Z 24009KT 10SM CLR 20/08 A2998 RMK AO2 SLP150 T02000083 51004,KMEI,2017-05-06T14:58:00Z,32.33,-88.75,20.0,8.3,240,9,,10.0,29.97933,1015.0,,,TRUE,,,,,,,CLR,,,,,,,,VFR,0.4,,,,,,,,,,,METAR,89.0
KHTS 061458Z 25010G14KT 10SM BKN027 BKN037 BKN046 12/05 A2967 RMK AO2 T01170050,KHTS,2017-05-06T14:58:00Z,38.37,-82.55,11.7,5.0,250,10,14,10.0,29.66929,,,,TRUE,,,,,,,BKN,2700,BKN,3700,BKN,4600,,,MVFR,,,,,,,,,,,,METAR,254.0
PFSH 061458Z AUTO 01019KT 10SM OVC085 00/M01 A2972 RMK AO2 SLP078 T00001011 58007 FZRANO,PFSH,2017-05-06T14:58:00Z,64.37,-161.22,0.0,-1.1,10,19,,10.0,29.719488,1007.8,,TRUE,TRUE,,,,TRUE,,,OVC,8500,,,,,,,VFR,-0.7,,,,,,,,,,,METAR,7.0
PFNO 061458Z AUTO 05011KT 10SM BKN050 M01/M02 A2984 RMK AO2 SLP108 T10111022 58004 FZRANO,PFNO,2017-05-06T14:58:00Z,66.82,-161.02,-1.1,-2.2,50,11,,10.0,29.840551,1010.8,,TRUE,TRUE,,,,TRUE,,,BKN,5000,,,,,,,VFR,-0.4,,,,,,,,,,,METAR,17.0
PFEL 061458Z AUTO 33012KT 10SM SCT055 03/M01 A2974 RMK AO2 SLP076 T00331011 58006,PFEL,2017-05-06T14:58:00Z,64.62,-162.27,3.3,-1.1,330,12,,10.0,29.740158,1007.6,,TRUE,TRUE,,,,,,,SCT,5500,,,,,,,VFR,-0.6,,,,,,,,,,,METAR,49.0
ETOU 061458Z AUTO 18003KT 9999 BKN170 OVC200 21/08 A2978 RMK AO2 SLP085 T02050081 56006,ETOU,2017-05-06T14:58:00Z,50.03,8.32,20.5,8.1,180,3,,6.21,29.778543,1008.5,,TRUE,TRUE,,,,,,,BKN,17000,OVC,20000,,,,,VFR,-0.6,,,,,,,,,,,METAR,141.0
ETIK 061458Z AUTO 05006KT 9999 FEW170 20/06 A2977 RMK AO2 SLP081 T02020062 57014,ETIK,2017-05-06T14:58:00Z,49.47,10.37,20.2,6.2,50,6,,6.21,29.769686,1008.1,,TRUE,TRUE,,,,,,,FEW,17000,,,,,,,VFR,-1.4,,,,,,,,,,,METAR,325.0
RJTY 061458Z AUTO 33003KT 10SM CLR 20/15 A2975 RMK AO2 SLP072 T02020148 402850120 58005,RJTY,2017-05-06T14:58:00Z,35.75,139.33,20.2,14.8,330,3,,10.0,29.749016,1007.2,,TRUE,TRUE,,,,,,,CLR,,,,,,,,VFR,-0.5,,,28.5,12.0,,,,,,,METAR,139.0
PAEI 061458Z AUTO 00000KT 10SM CLR 01/M02 A2979 RMK AO2 SLP094 T00131018 53001 $,PAEI,2017-05-06T14:58:00Z,64.67,-147.1,1.3,-1.8,0,0,,10.0,29.790354,1009.4,,TRUE,TRUE,TRUE,,,,,,CLR,,,,,,,,VFR,0.1,,,,,,,,,,,METAR,167.0
KEUF 061458Z AUTO 31007G16KT 280V350 10SM CLR 19/05 A2993 RMK AO2 SLP132 T01890050 51013,KEUF,2017-05-06T14:58:00Z,31.95,-85.13,18.9,5.0,310,7,16,10.0,29.929134,1013.2,,TRUE,TRUE,,,,,,,CLR,,,,,,,,VFR,1.3,,,,,,,,,,,METAR,87.0
KPVU 061458Z 11007KT 10SM FEW140 BKN200 20/03 A2979,KPVU,2017-05-06T14:58:00Z,40.22,-111.72,20.0,3.0,110,7,,10.0,29.790354,,,,,,,,,,,FEW,14000,BKN,20000,,,,,VFR,,,,,,,,,,,,METAR,1369.0
ROTM 061458Z VRB05KT 9999 SCT010 BKN030 BKN050 23/21 A3002 RMK SLP153 STNPR29740 T02280206 402560222 58003,ROTM,2017-05-06T14:58:00Z,26.27,127.75,22.8,20.6,0,5,,6.21,30.02067,1015.3,,,,,,,,,,SCT,1000,BKN,3000,BKN,5000,,,MVFR,-0.3,,,25.6,22.2,,,,,,,METAR,75.0
MHSC 061458Z AUTO 36016KT 9999 FEW160 27/20 A3004 RMK AO2 SLP131 T02650199 52016 $,MHSC,2017-05-06T14:58:00Z,14.37,-87.62,26.5,19.9,360,16,,6.21,30.041338,1013.1,,TRUE,TRUE,TRUE,,,,,,FEW,16000,,,,,,,VFR,1.6,,,,,,,,,,,METAR,626.0
KTIK 061458Z AUTO 20009KT 10SM CLR 20/07 A3000 RMK AO2 SLP158 T02030073 50004,KTIK,2017-05-06T14:58:00Z,35.42,-97.37,20.3,7.3,200,9,,10.0,30.0,1015.8,,TRUE,TRUE,,,,,,,CLR,,,,,,,,VFR,0.4,,,,,,,,,,,METAR,394.0
KSUU 061458Z AUTO 24010KT 10SM OVC032 11/04 A2976 RMK AO2 SLP084 T01050041 53003 $,KSUU,2017-05-06T14:58:00Z,38.27,-121.92,10.5,4.1,240,10,,10.0,29.760826,1008.4,,TRUE,TRUE,TRUE,,,,,,OVC,3200,,,,,,,VFR,0.3,,,,,,,,,,,METAR,19.0
KSKF 061458Z AUTO 21006KT 10SM CLR 23/13 A3003 RMK AO2 SLP164 T02260131 52013 $,KSKF,2017-05-06T14:58:00Z,29.37,-98.57,22.6,13.1,210,6,,10.0,30.029528,1016.4,,TRUE,TRUE,TRUE,,,,,,CLR,,,,,,,,VFR,1.3,,,,,,,,,,,METAR,210.0
KRCA 061458Z AUTO 17011KT 10SM CLR 18/05 A2987 RMK AO2 SLP099 T01770054 50001 $,KRCA,2017-05-06T14:58:00Z,44.13,-103.08,17.7,5.4,170,11,,10.0,29.870079,1009.9,,TRUE,TRUE,TRUE,,,,,,CLR,,,,,,,,VFR,0.1,,,,,,,,,,,METAR,999.0
KMUI 061458Z AUTO 18007KT 10SM OVC019 14/12 A2932 RMK AO2 SLP930 T01350124 53002,KMUI,2017-05-06T14:58:00Z,40.42,-76.57,13.5,12.4,180,7,,10.0,29.320866,993.0,,TRUE,TRUE,,,,,,,OVC,1900,,,,,,,MVFR,0.2,,,,,,,,,,,METAR,149.0
KMIB 061458Z AUTO 14013KT 10SM CLR 17/02 A2990 RMK AO2 SLP129 T01680021 58007 $,KMIB,2017-05-06T14:58:00Z,48.42,-101.33,16.8,2.1,140,13,,10.0,29.899607,1012.9,,TRUE,TRUE,TRUE,,,,,,CLR,,,,,,,,VFR,-0.7,,,,,,,,,,,METAR,508.0
KEGI 061458Z AUTO 31005KT 10SM CLR 19/05 A2997 RMK AO2 SLP151 T01930049 52009 $,KEGI,2017-05-06T14:58:00Z,30.63,-86.52,19.3,4.9,310,5,,10.0,29.970472,1015.1,,TRUE,TRUE,TRUE,,,,,,CLR,,,,,,,,VFR,0.9,,,,,,,,,,,METAR,59.0
KCOF 061458Z AUTO 30016KT 10SM CLR 22/06 A2991 RMK AO2 PK WND 30027/43 SLP133 T02150063 50002,KCOF,2017-05-06T14:58:00Z,28.23,-80.6,21.5,6.3,300,16,,10.0,29.911417,1013.3,,TRUE,TRUE,,,,,,,CLR,,,,,,,,VFR,0.2,,,,,,,,,,,METAR,3.0
KBIX 061458Z AUTO 32004KT 10SM CLR 21/10 A3002 RMK AO2 SLP169 T02130100 52012,KBIX,2017-05-06T14:58:00Z,30.42,-88.92,21.3,10.0,320,4,,10.0,30.02067,1016.9,,TRUE,TRUE,,,,,,,CLR,,,,,,,,VFR,1.2,,,,,,,,,,,METAR,10.0
KBAD 061458Z AUTO 00000KT 10SM CLR 20/10 A3001 RMK AO2 SLP164 T02020098 50007,KBAD,2017-05-06T14:58:00Z,32.5,-93.67,20.2,9.8,0,0,,10.0,30.008858,1016.4,,TRUE,TRUE,,,,,,,CLR,,,,,,,,VFR,0.7,,,,,,,,,,,METAR,51.0
K1YT 061458Z AUTO 00000KT 10SM CLR 08/M03 A2999 RMK AO2 SLPNO T00831029 51009 $,K1YT,2017-05-06T14:58:00Z,46.67,-120.45,8.3,-2.9,0,0,,10.0,29.991142,,,TRUE,TRUE,TRUE,,,,,,CLR,,,,,,,,VFR,0.9,,,,,,,,,,,METAR,438.0
K1QW 061458Z AUTO 33023KT 10SM CLR 03/M02 A2993 RMK AO2 PK WND 33030/54 SLP153 WND DATA ESTMD T00311022 53011,K1QW,2017-05-06T14:58:00Z,46.8,-120.17,3.1,-2.2,330,23,,10.0,29.929134,1015.3,,TRUE,TRUE,,,,,,,CLR,,,,,,,,VFR,1.1,,,,,,,,,,,METAR,928.0
KSVN 061458Z AUTO 29015KT 10SM FEW036 18/09 A2977 RMK AO2 SLP084 T01770090 53016,KSVN,2017-05-06T14:58:00Z,32.02,-81.15,17.7,9.0,290,15,,10.0,29.769686,1008.4,,TRUE,TRUE,,,,,,,FEW,3600,,,,,,,VFR,1.6,,,,,,,,,,,METAR,13.0
KMXF 061458Z AUTO 23006KT 10SM CLR 17/09 A2994 RMK AO2 SLP141 T01670086 50011,KMXF,2017-05-06T14:58:00Z,32.37,-86.37,16.7,8.6,230,6,,10.0,29.940945,1014.1,,TRUE,TRUE,,,,,,,CLR,,,,,,,,VFR,1.1,,,,,,,,,,,METAR,51.0
KFEW 061458Z AUTO 18004KT 10SM CLR 20/04 A3001 RMK AO2 SLP098 T01960037 $,KFEW,2017-05-06T14:58:00Z,41.13,-104.87,19.6,3.7,180,4,,10.0,30.008858,1009.8,,TRUE,TRUE,TRUE,,,,,,CLR,,,,,,,,VFR,,,,,,,,,,,,METAR,1878.0
KEND 061458Z AUTO 24010KT 10SM CLR 20/10 A2998 RMK AO2 SLP147 T02000103 50003 $,KEND,2017-05-06T14:58:00Z,36.32,-97.92,20.0,10.3,240,10,,10.0,29.97933,1014.7,,TRUE,TRUE,TRUE,,,,,,CLR,,,,,,,,VFR,0.3,,,,,,,,,,,METAR,398.0
KCVS 061458Z AUTO 19008KT 10SM CLR 19/02 A3003 RMK AO2 SLP121 T01850021 52007 $,KCVS,2017-05-06T14:58:00Z,34.37,-103.32,18.5,2.1,190,8,,10.0,30.029528,1012.1,,TRUE,TRUE,TRUE,,,,,,CLR,,,,,,,,VFR,0.7,,,,,,,,,,,METAR,1309.0
KSHM 061458Z AUTO 14006KT 10SM CLR 16/05 A3007 RMK AO2 SLP130 T01640053 51002,KSHM,2017-05-06T14:58:00Z,38.8,-104.52,16.4,5.3,140,6,,10.0,30.070866,1013.0,,TRUE,TRUE,,,,,,,CLR,,,,,,,,VFR,0.2,,,,,,,,,,,METAR,1900.0
KRND 061458Z AUTO 21009KT 10SM CLR 23/12 A3004 RMK AO2 SLP167 T02270120 52009 $,KRND,2017-05-06T14:58:00Z,29.52,-98.27,22.7,12.0,210,9,,10.0,30.041338,1016.7,,TRUE,TRUE,TRUE,,,,,,CLR,,,,,,,,VFR,0.9,,,,,,,,,,,METAR,232.0
KMUO 061458Z AUTO 32015G20KT 10SM SCT090 10/08 A2978 RMK AO2 SLP077 T01020077 52011 $,KMUO,2017-05-06T14:58:00Z,43.03,-115.87,10.2,7.7,320,15,20,10.0,29.778543,1007.7,,TRUE,TRUE,TRUE,,,,,,SCT,9000,,,,,,,VFR,1.1,,,,,,,,,,,METAR,913.0
KLTS 061458Z AUTO 16007KT 10SM CLR 21/07 A3001 RMK AO2 SLP153 T02120066 50001,KLTS,2017-05-06T14:58:00Z,34.67,-99.27,21.2,6.6,160,7,,10.0,30.008858,1015.3,,TRUE,TRUE,,,,,,,CLR,,,,,,,,VFR,0.1,,,,,,,,,,,METAR,420.0
KLSV 061458Z AUTO 19007KT 10SM CLR 26/00 A2963 RMK AO2 SLP008 T02631004 52008 $,KLSV,2017-05-06T14:58:00Z,36.22,-115.02,26.3,-0.4,190,7,,10.0,29.630905,1000.8,,TRUE,TRUE,TRUE,,,,,,CLR,,,,,,,,VFR,0.8,,,,,,,,,,,METAR,570.0
KLRF 061458Z AUTO 26010KT 10SM CLR 20/10 A2995 RMK AO2 SLP143 T01980103 50003,KLRF,2017-05-06T14:58:00Z,34.92,-92.15,19.8,10.3,260,10,,10.0,29.949802,1014.3,,TRUE,TRUE,,,,,,,CLR,,,,,,,,VFR,0.3,,,,,,,,,,,METAR,95.0
KHLR 061458Z AUTO 20008KT 10SM CLR 23/08 A3001 RMK AO2 SLP154 T02260075 52006,KHLR,2017-05-06T14:58:00Z,31.13,-97.72,22.6,7.5,200,8,,10.0,30.008858,1015.4,,TRUE,TRUE,,,,,,,CLR,,,,,,,,VFR,0.6,,,,,,,,,,,METAR,283.0
KGFA 061458Z AUTO 00000KT 10SM FEW150 18/10 A2974 RMK AO2 SLP054 T01790098 58005 TSNO $,KGFA,2017-05-06T14:58:00Z,47.5,-111.17,17.9,9.8,0,0,,10.0,29.740158,1005.4,,TRUE,TRUE,TRUE,,TRUE,,,,FEW,15000,,,,,,,VFR,-0.5,,,,,,,,,,,METAR,1075.0
KFSI 061458Z AUTO 23008KT 10SM CLR 21/10 A3000 RMK AO2 SLP154 T02110096 50003,KFSI,2017-05-06T14:58:00Z,34.65,-98.4,21.1,9.6,230,8,,10.0,30.0,1015.4,,TRUE,TRUE,,,,,,,CLR,,,,,,,,VFR,0.3,,,,,,,,,,,METAR,362.0
KFRI 061458Z AUTO 26004KT 10SM CLR 20/11 A2993 RMK AO2 SLP130 T02040108 53000,KFRI,2017-05-06T14:58:00Z,39.03,-96.77,20.4,10.8,260,4,,10.0,29.929134,1013.0,,TRUE,TRUE,,,,,,,CLR,,,,,,,,VFR,0.0,,,,,,,,,,,METAR,325.0
KFCS 061458Z AUTO 00000KT 10SM CLR 17/04 A3005 RMK AO2 SLP135 T01670040 50002 $,KFCS,2017-05-06T14:58:00Z,38.67,-104.77,16.7,4.0,0,0,,10.0,30.050198,1013.5,,TRUE,TRUE,TRUE,,,,,,CLR,,,,,,,,VFR,0.2,,,,,,,,,,,METAR,1789.0
KDMA 061458Z AUTO 17006KT 10SM CLR 26/01 A2985 RMK AO2 SLP061 T02580008 53008 CHINO RWY30 $,KDMA,2017-05-06T14:58:00Z,32.17,-110.87,25.8,0.8,170,6,,10.0,29.84941,1006.1,,TRUE,TRUE,TRUE,,,,,,CLR,,,,,,,,VFR,0.8,,,,,,,,,,,METAR,824.0
KAFF 061458Z AUTO 13003KT 10SM CLR 18/02 A3006 RMK AO2 SLP102 T01800017 58000,KAFF,2017-05-06T14:58:00Z,38.97,-104.82,18.0,1.7,130,3,,10.0,30.059055,1010.2,,TRUE,TRUE,,,,,,,CLR,,,,,,,,VFR,0.0,,,,,,,,,,,METAR,2003.0
K4MR 061458Z AUTO 15003KT 10SM FEW150 18/03 A3004 RMK AO2 SLP126 T01790028 51008 $,K4MR,2017-05-06T14:58:00Z,34.3,-103.8,17.9,2.8,150,3,,10.0,30.041338,1012.6,,TRUE,TRUE,TRUE,,,,,,FEW,15000,,,,,,,VFR,0.8,,,,,,,,,,,METAR,1326.0
KMCF 061458Z AUTO 29010G20KT 10SM CLR 24/10 A2996 RMK AO2 SLP148 T02350096 52012 $,KMCF,2017-05-06T14:58:00Z,27.85,-82.52,23.5,9.6,290,10,20,10.0,29.958662,1014.8,,TRUE,TRUE,TRUE,,,,,,CLR,,,,,,,,VFR,1.2,,,,,,,,,,,METAR,4.0
KLSF 061458Z AUTO 31007KT 10SM CLR 17/08 A2992 RMK AO2 SLP134 T01720076 52013 CHINO RWY33 $,KLSF,2017-05-06T14:58:00Z,32.32,-84.97,17.2,7.6,310,7,,10.0,29.920275,1013.4,,TRUE,TRUE,TRUE,,,,,,CLR,,,,,,,,VFR,1.3,,,,,,,,,,,METAR,71.0
KIAB 061458Z AUTO 27009KT 10SM CLR 20/09 A2997 RMK AO2 SLP144 T02010087 50004,KIAB,2017-05-06T14:58:00Z,37.62,-97.27,20.1,8.7,270,9,,10.0,29.970472,1014.4,,TRUE,TRUE,,,,,,,CLR,,,,,,,,VFR,0.4,,,,,,,,,,,METAR,418.0
KGRK 061458Z AUTO 17007KT 10SM CLR 23/08 A3003 RMK AO2 SLP161 T02260079 51006,KGRK,2017-05-06T14:58:00Z,31.07,-97.83,22.6,7.9,170,7,,10.0,30.029528,1016.1,,TRUE,TRUE,,,,,,,CLR,,,,,,,,VFR,0.6,,,,,,,,,,,METAR,309.0
KDYS 061458Z AUTO 18012KT 10SM CLR 23/06 A3001 RMK AO2 SLP131 T02320058 50010,KDYS,2017-05-06T14:58:00Z,32.42,-99.83,23.2,5.8,180,12,,10.0,30.008858,1013.1,,TRUE,TRUE,,,,,,,CLR,,,,,,,,VFR,1.0,,,,,,,,,,,METAR,545.0
KCBM 061458Z AUTO 26011G16KT 10SM CLR 20/10 A2993 RMK AO2 SLP138 T02000104 50004 $,KCBM,2017-05-06T14:58:00Z,33.63,-88.45,20.0,10.4,260,11,16,10.0,29.929134,1013.8,,TRUE,TRUE,TRUE,,,,,,CLR,,,,,,,,VFR,0.4,,,,,,,,,,,METAR,67.0
KXMR 061458Z AUTO 30018G24KT 10SM CLR 21/06 A2989 RMK AO2 SLP125 T02090063 56003 $,KXMR,2017-05-06T14:58:00Z,28.47,-80.57,20.9,6.3,300,18,24,10.0,29.890747,1012.5,,TRUE,TRUE,TRUE,,,,,,CLR,,,,,,,,VFR,-0.3,,,,,,,,,,,METAR,3.0
KT70 061458Z AUTO 14007KT 10SM CLR 21/13 A2997 RMK AO2 SLP140 T02140126 50016 $,KT70,2017-05-06T14:58:00Z,29.12,-100.48,21.4,12.6,140,7,,10.0,29.970472,1014.0,,TRUE,TRUE,TRUE,,,,,,CLR,,,,,,,,VFR,1.6,,,,,,,,,,,METAR,298.0
KHEY 061458Z AUTO 32005KT 10SM CLR 17/07 A2996 RMK AO2 SLP147 T01730067 51017,KHEY,2017-05-06T14:58:00Z,31.35,-85.65,17.3,6.7,320,5,,10.0,29.958662,1014.7,,TRUE,TRUE,,,,,,,CLR,,,,,,,,VFR,1.7,,,,,,,,,,,METAR,97.0
KWRB 061458Z AUTO 30012G19KT 10SM CLR 17/07 A2986 RMK AO2 SLP113 T01670070 51012,KWRB,2017-05-06T14:58:00Z,32.62,-83.58,16.7,7.0,300,12,19,10.0,29.861221,1011.3,,TRUE,TRUE,,,,,,,CLR,,,,,,,,VFR,1.2,,,,,,,,,,,METAR,90.0
KTTS 061458Z AUTO 32019G25KT 10SM CLR 20/07 A2988 RMK AO2 PK WND 30026/56 SLP123 T02010069 58002,KTTS,2017-05-06T14:58:00Z,28.62,-80.72,20.1,6.9,320,19,25,10.0,29.878937,1012.3,,TRUE,TRUE,,,,,,,CLR,,,,,,,,VFR,-0.2,,,,,,,,,,,METAR,3.0
KTBN 061458Z AUTO 29012G18KT 10SM BKN100 20/08 A2987 RMK AO2 SLP113 T01960077 51010,KTBN,2017-05-06T14:58:00Z,37.72,-92.12,19.6,7.7,290,12,18,10.0,29.870079,1011.3,,TRUE,TRUE,,,,,,,BKN,10000,,,,,,,VFR,1.0,,,,,,,,,,,METAR,353.0
KPOE 061458Z AUTO 00000KT 10SM CLR 22/09 A3002 RMK AO2 SLP166 T02190090 52009,KPOE,2017-05-06T14:58:00Z,31.05,-93.2,21.9,9.0,0,0,,10.0,30.02067,1016.6,,TRUE,TRUE,,,,,,,CLR,,,,,,,,VFR,0.9,,,,,,,,,,,METAR,101.0
PAED 061458Z AUTO 00000KT 10SM FEW140 03/M02 A2982 RMK AO2 SLP094 T00301021 55003,PAED,2017-05-06T14:58:00Z,61.25,-149.8,3.0,-2.1,0,0,,10.0,29.819881,1009.4,,TRUE,TRUE,,,,,,,FEW,14000,,,,,,,VFR,-0.3,,,,,,,,,,,METAR,59.0
KVAD 061458Z AUTO 29011G19KT 10SM CLR 18/05 A2990 RMK AO2 SLP127 T01780052 52016 $,KVAD,2017-05-06T14:58:00Z,30.97,-83.2,17.8,5.2,290,11,19,10.0,29.899607,1012.7,,TRUE,TRUE,TRUE,,,,,,CLR,,,,,,,,VFR,1.6,,,,,,,,,,,METAR,71.0
KSXS 061458Z AUTO 35006KT 10SM CLR 17/05 A2996 RMK AO2 SLP147 T01730050 52015,KSXS,2017-05-06T14:58:00Z,31.37,-85.85,17.3,5.0,350,6,,10.0,29.958662,1014.7,,TRUE,TRUE,,,,,,,CLR,,,,,,,,VFR,1.5,,,,,,,,,,,METAR,122.0
KLOR 061458Z AUTO 31004KT 9SM CLR 18/07 A2996 RMK AO2 SLP128 T01790066 52015,KLOR,2017-05-06T14:58:00Z,31.35,-85.75,17.9,6.6,310,4,,9.0,29.958662,1012.8,,TRUE,TRUE,,,,,,,CLR,,,,,,,,VFR,1.5,,,,,,,,,,,METAR,74.0
RKJK 061458Z AUTO 21005KT 10SM CLR 14/09 A3003 RMK AO2 SLP173 T01430093 401850108 58005 $,RKJK,2017-05-06T14:58:00Z,35.9,126.62,14.3,9.3,210,5,,10.0,30.029528,1017.3,,TRUE,TRUE,TRUE,,,,,,CLR,,,,,,,,VFR,-0.5,,,18.5,10.8,,,,,,,METAR,9.0
KINS 061458Z AUTO 03005KT 10SM CLR 24/M05 A2965 RMK AO2 SLP992 T02361046 53001 $,KINS,2017-05-06T14:58:00Z,36.58,-115.67,23.6,-4.6,30,5,,10.0,29.648623,999.2,,TRUE,TRUE,TRUE,,,,,,CLR,,,,,,,,VFR,0.1,,,,,,,,,,,METAR,955.0
KGUS 061458Z AUTO 34012KT 10SM CLR 12/05 A2972 RMK AO2 SLP069 T01210047 53005,KGUS,2017-05-06T14:58:00Z,40.63,-86.15,12.1,4.7,340,12,,10.0,29.719488,1006.9,,TRUE,TRUE,,,,,,,CLR,,,,,,,,VFR,0.5,,,,,,,,,,,METAR,247.0
KBLV 061458Z AUTO 33015G28KT 10SM CLR 19/09 A2974 RMK AO2 PK WND 31029/54 SLP073 T01930087 50004 TSNO $,KBLV,2017-05-06T14:58:00Z,38.53,-89.83,19.3,8.7,330,15,28,10.0,29.740158,1007.3,,TRUE,TRUE,TRUE,,TRUE,,,,CLR,,,,,,,,VFR,0.4,,,,,,,,,,,METAR,138.0
K9L2 061458Z AUTO 21015G25KT 10SM CLR 14/08 A2972 RMK AO2 PK WND 24027/57 SLP047 T01390081 50003,K9L2,2017-05-06T14:58:00Z,34.97,-117.87,13.9,8.1,210,15,25,10.0,29.719488,1004.7,,TRUE,TRUE,,,,,,,CLR,,,,,,,,VFR,0.3,,,,,,,,,,,METAR,701.0
RKSG 061458Z AUTO 00000KT 10SM CLR 12/07 A3001 RMK AO2 SLP165 T01210071 58001 $,RKSG,2017-05-06T14:58:00Z,36.97,127.02,12.1,7.1,0,0,,10.0,30.008858,1016.5,,TRUE,TRUE,TRUE,,,,,,CLR,,,,,,,,VFR,-0.1,,,,,,,,,,,METAR,16.0
PAFB 061458Z AUTO 00000KT 10SM CLR 03/M01 A2981 RMK AO2 SLP099 T00271014 52003,PAFB,2017-05-06T14:58:00Z,64.83,-147.62,2.7,-1.4,0,0,,10.0,29.811024,1009.9,,TRUE,TRUE,,,,,,,CLR,,,,,,,,VFR,0.3,,,,,,,,,,,METAR,137.0
KLUF 061458Z AUTO 00000KT 10SM CLR 28/02 A2973 RMK AO2 SLP053 T02750018 52009 $,KLUF,2017-05-06T14:58:00Z,33.52,-112.37,27.5,1.8,0,0,,10.0,29.731298,1005.3,,TRUE,TRUE,TRUE,,,,,,CLR,,,,,,,,VFR,0.9,,,,,,,,,,,METAR,332.0
KLFI 061458Z AUTO 24017G25KT 10SM OVC026 17/11 A2949 RMK AO2 OVC V BKN SLP993 T01650108 50001 $,KLFI,2017-05-06T14:58:00Z,37.07,-76.37,16.5,10.8,240,17,25,10.0,29.489174,999.3,,TRUE,TRUE,TRUE,,,,,,OVC,2600,,,,,,,MVFR,0.1,,,,,,,,,,,METAR,3.0
KHRT 061458Z 31004KT 10SM CLR 21/01 A2998 RMK AO2A SLP154 60000 T02090012 52008 $,KHRT,2017-05-06T14:58:00Z,30.42,-86.67,20.9,1.2,310,4,,10.0,29.97933,1015.4,,,TRUE,TRUE,,,,,,CLR,,,,,,,,VFR,0.8,,,,,,0.005,,,,,METAR,12.0
KHOP 061458Z AUTO 24010KT 10SM CLR 14/08 A2973 RMK AO2 DZB46 SLP068 P0000 60000 T01410078 57022,KHOP,2017-05-06T14:58:00Z,36.67,-87.5,14.1,7.8,240,10,,10.0,29.731298,1006.8,,TRUE,TRUE,,,,,,,CLR,,,,,,,,VFR,-2.2,,,,,0.005,0.005,,,,,METAR,174.0
KFAF 061458Z AUTO 22010KT 10SM OVC024 16/11 A2947 RMK AO2 SLP983 T01590105 53004 $,KFAF,2017-05-06T14:58:00Z,37.12,-76.62,15.9,10.5,220,10,,10.0,29.471457,998.3,,TRUE,TRUE,TRUE,,,,,,OVC,2400,,,,,,,MVFR,0.4,,,,,,,,,,,METAR,4.0
KDLF 061458Z 15011KT 10SM CLR 22/12 A3001 RMK AO2A SLP152 T02160118 50014 $,KDLF,2017-05-06T14:58:00Z,29.37,-100.77,21.6,11.8,150,11,,10.0,30.008858,1015.2,,,TRUE,TRUE,,,,,,CLR,,,,,,,,VFR,1.4,,,,,,,,,,,METAR,330.0
KCWN 061458Z AUTO 10004KT 10SM CLR 18/03 A3005 RMK AO2 SLP007 T01760025 51002,KCWN,2017-05-06T14:58:00Z,38.75,-104.85,17.6,2.5,100,4,,10.0,30.050198,1000.7,,TRUE,TRUE,,,,,,,CLR,,,,,,,,VFR,0.2,,,,,,,,,,,METAR,2040.0
KBAB 061458Z AUTO 17011KT 10SM BKN210 11/06 A2976 RMK AO2 SLP081 T01110062 52006 $,KBAB,2017-05-06T14:58:00Z,39.12,-121.42,11.1,6.2,170,11,,10.0,29.760826,1008.1,,TRUE,TRUE,TRUE,,,,,,BKN,21000,,,,,,,VFR,0.6,,,,,,,,,,,METAR,34.0
KWRI 061458Z AUTO 21013G18KT 10SM FEW032 BKN041 OVC050 17/10 A2938 RMK AO2 SLP948 T01690102 50004,KWRI,2017-05-06T14:58:00Z,40.02,-74.58,16.9,10.2,210,13,18,10.0,29.379921,994.8,,TRUE,TRUE,,,,,,,FEW,3200,BKN,4100,OVC,5000,,,VFR,0.4,,,,,,,,,,,METAR,41.0
KVBG 061458Z AUTO 34018G28KT 4SM HZ OVC034 11/06 A2989 RMK AO2 PK WND 30031/35 SLP125 T01060064 53008,KVBG,2017-05-06T14:58:00Z,34.73,-120.58,10.6,6.4,340,18,28,4.0,29.890747,1012.5,,TRUE,TRUE,,,,,,HZ,OVC,3400,,,,,,,MVFR,0.8,,,,,,,,,,,METAR,112.0
KSZL 061458Z 31014G20KT 10SM CLR 20/08 A2988 RMK AO2A SLP118 T02000080 50014 $,KSZL,2017-05-06T14:58:00Z,38.72,-93.53,20.0,8.0,310,14,20,10.0,29.878937,1011.8,,,TRUE,TRUE,,,,,,CLR,,,,,,,,VFR,1.4,,,,,,,,,,,METAR,265.0
KRDR 061458Z AUTO 00000KT 10SM CLR 15/02 A3001 RMK AO2 SLP168 T01510020 51006,KRDR,2017-05-06T14:58:00Z,47.97,-97.4,15.1,2.0,0,0,,10.0,30.008858,1016.8,,TRUE,TRUE,,,,,,,CLR,,,,,,,,VFR,0.6,,,,,,,,,,,METAR,278.0
OTBH 061458Z 09013KT 9999 SCT200 35/14 A2974 RMK AO2A SLP072 T03540136 56005 $,OTBH,2017-05-06T14:58:00Z,25.12,51.32,35.4,13.6,90,13,,6.21,29.740158,1007.2,,,TRUE,TRUE,,,,,,SCT,20000,,,,,,,VFR,-0.5,,,,,,,,,,,SPECI,40.0
KVOK 061458Z 34008KT 10SM FEW040 12/03 A2993 RMK AO2A SLP140 52018,KVOK,2017-05-06T14:58:00Z,43.92,-90.27,12.0,3.0,340,8,,10.0,29.929134,1014.0,,,TRUE,,,,,,,FEW,4000,,,,,,,VFR,1.8,,,,,,,,,,,SPECI,277.0
KFFO 061458Z COR 32010KT 10SM SCT028 SCT060 11/06 A2967 RMK AO2A SLP053 T01140062 51003 COR 1502,KFFO,2017-05-06T14:58:00Z,39.82,-84.03,11.4,6.2,320,10,,10.0,29.66929,1005.3,TRUE,,TRUE,,,,,,,SCT,2800,SCT,6000,,,,,VFR,0.3,,,,,,,,,,,METAR,251.0
KBIF 061458Z 12007KT 10SM FEW170 23/M04 A2998 RMK AO2A SLPNO 52013 $,KBIF,2017-05-06T14:58:00Z,31.85,-106.38,23.0,-4.0,120,7,,10.0,29.97933,,,,TRUE,TRUE,,,,,,FEW,17000,,,,,,,VFR,1.3,,,,,,,,,,,METAR,1203.0
BGTL 061458Z 00000KT 9999 BKN019 M05/M10 A3065 RMK AO2A SLP367 T10511102 52008 $,BGTL,2017-05-06T14:58:00Z,76.53,-68.7,-5.1,-10.2,0,0,,6.21,30.649607,1036.7,,,TRUE,TRUE,,,,,,BKN,1900,,,,,,,MVFR,0.8,,,,,,,,,,,SPECI,77.0
PAIW 061458Z AUTO 04016KT 10SM OVC009 M04/M04 A2986 RMK AO2 UPE03SNB06E15 CIG 007V013 SLP112 P0000 60000 T10391044 58006 FZRANO,PAIW,2017-05-06T14:58:00Z,65.62,-168.1,-3.9,-4.4,40,16,,10.0,29.861221,1011.2,,TRUE,TRUE,,,,TRUE,,,OVC,900,,,,,,,IFR,-0.6,,,,,0.005,0.005,,,,,METAR,7.0
KMMT 061458Z 27010G18KT 10SM SCT037 17/06 A2970 RMK AO2A SLP059 T01710063 52015 $,KMMT,2017-05-06T14:58:00Z,33.92,-80.78,17.1,6.3,270,10,18,10.0,29.698818,1005.9,,,TRUE,TRUE,,,,,,SCT,3700,,,,,,,VFR,1.5,,,,,,,,,,,SPECI,77.0
KGRF 061458Z 00000KT 10SM SCT018 BKN023 07/04 A3018 RMK AO2A SLP222 WND DATA ESTMD ALSTG/SLP ESTMD T00690041 52009,KGRF,2017-05-06T14:58:00Z,47.07,-122.57,6.9,4.1,0,0,,10.0,30.180119,1022.2,,,TRUE,,,,,,,SCT,1800,BKN,2300,,,,,MVFR,0.9,,,,,,,,,,,SPECI,92.0
KEDW 061458Z 24023G29KT 70SM FEW035 FEW210 OVC270 14/08 A2972 RMK AO2A SLP048 T01390079 50001,KEDW,2017-05-06T14:58:00Z,34.88,-117.87,13.9,7.9,240,23,29,70.0,29.719488,1004.8,,,TRUE,,,,,,,FEW,3500,FEW,21000,OVC,27000,,,VFR,0.1,,,,,,,,,,,SPECI,702.0
KMGE 061458Z 29012G19KT 10SM FEW020 15/05 A2984 RMK AO2A SLP105 T01480054 51014 $,KMGE,2017-05-06T14:58:00Z,33.92,-84.52,14.8,5.4,290,12,19,10.0,29.840551,1010.5,,,TRUE,TRUE,,,,,,FEW,2000,,,,,,,VFR,1.4,,,,,,,,,,,METAR,326.0
K0J4 061458Z AUTO 02004KT 10SM CLR 19/06 A2999 RMK AO2 SLP153 T01940056 51011,K0J4,2017-05-06T14:58:00Z,31.05,-86.32,19.4,5.6,20,4,,10.0,29.991142,1015.3,,TRUE,TRUE,,,,,,,CLR,,,,,,,,VFR,1.1,,,,,,,,,,,METAR,96.0
KEMT 061457Z 19007KT 10SM OVC023 17/11 A2985,KEMT,2017-05-06T14:57:00Z,34.07,-118.02,17.0,11.0,190,7,,10.0,29.84941,,,,,,,,,,,OVC,2300,,,,,,,MVFR,,,,,,,,,,,,METAR,90.0
KNJM 061457Z AUTO 24017G27KT 10SM CLR 17/09 A2960 RMK AO2 PK WND 23027/1453 SLP027 T01720094 58002 $,KNJM,2017-05-06T14:57:00Z,34.67,-77.02,17.2,9.4,240,17,27,10.0,29.601377,1002.7,,TRUE,TRUE,TRUE,,,,,,CLR,,,,,,,,VFR,-0.2,,,,,,,,,,,SPECI,7.0
K36U 061457Z AUTO 00000KT 10SM CLR 17/01 A2987 RMK AO2,K36U,2017-05-06T14:57:00Z,40.48,-111.43,17.0,1.0,0,0,,10.0,29.870079,,,TRUE,TRUE,,,,,,,CLR,,,,,,,,VFR,,,,,,,,,,,,METAR,1718.0
KNYL 061457Z AUTO 15014KT 10SM CLR 23/14 A2967 RMK AO2 SLP043 T02330139 53015,KNYL,2017-05-06T14:57:00Z,32.63,-114.62,23.3,13.9,150,14,,10.0,29.66929,1004.3,,TRUE,TRUE,,,,,,,CLR,,,,,,,,VFR,1.5,,,,,,,,,,,METAR,65.0
PAGH 061457Z AUTO 00000KT 10SM OVC065 01/M01 A2985 RMK AO2 SLP138 T00061011 50001 FZRANO,PAGH,2017-05-06T14:57:00Z,66.88,-157.17,0.6,-1.1,0,0,,10.0,29.84941,1013.8,,TRUE,TRUE,,,,TRUE,,,OVC,6500,,,,,,,VFR,0.1,,,,,,,,,,,METAR,60.0
PAGA 061457Z AUTO 01004KT 10SM OVC090 02/01 A2977 RMK AO2 SLP089 T00170006 58003 FZRANO,PAGA,2017-05-06T14:57:00Z,64.73,-156.93,1.7,0.6,10,4,,10.0,29.769686,1008.9,,TRUE,TRUE,,,,TRUE,,,OVC,9000,,,,,,,VFR,-0.3,,,,,,,,,,,METAR,46.0
KFLG 061457Z 22005KT 10SM CLR 14/M01 A3004 RMK AO2 SLP086 T01391011 50002,KFLG,2017-05-06T14:57:00Z,35.13,-111.67,13.9,-1.1,220,5,,10.0,30.041338,1008.6,,,TRUE,,,,,,,CLR,,,,,,,,VFR,0.2,,,,,,,,,,,METAR,2134.0
PAPG 061456Z 23006KT 10SM FEW047 SCT055 BKN070 07/04 A2994 RMK AO2 RAB44E46 SLP144 6//// T00670039 $,PAPG,2017-05-06T14:56:00Z,56.82,-132.97,6.7,3.9,230,6,,10.0,29.940945,1014.4,,,TRUE,TRUE,,,,,,FEW,4700,SCT,5500,BKN,7000,,,VFR,,,,,,,,,,,,SPECI,15.0
KBOK 061456Z AUTO 33009KT 10SM CLR 09/00 A3008 RMK AO2 SLP204 T00940000 58002,KBOK,2017-05-06T14:56:00Z,42.07,-124.28,9.4,0.0,330,9,,10.0,30.079725,1020.4,,TRUE,TRUE,,,,,,,CLR,,,,,,,,VFR,-0.2,,,,,,,,,,,METAR,140.0
KBMI 061456Z 02015KT 10SM BKN014 12/08 A2983 RMK AO2 SLP126 T01170078 51021,KBMI,2017-05-06T14:56:00Z,40.47,-88.92,11.7,7.8,20,15,,10.0,29.828741,1012.6,,,TRUE,,,,,,,BKN,1400,,,,,,,MVFR,2.1,,,,,,,,,,,METAR,267.0
KBKX 061456Z AUTO 15003KT 10SM CLR 17/05 A2998 RMK AO2 SLP163 T01720050 51008,KBKX,2017-05-06T14:56:00Z,44.28,-96.82,17.2,5.0,150,3,,10.0,29.97933,1016.3,,TRUE,TRUE,,,,,,,CLR,,,,,,,,VFR,0.8,,,,,,,,,,,METAR,502.0
KCOE 061456Z AUTO 23011KT 5SM -RA BR OVC021 07/05 A2995 RMK AO2 RAB43 SLP163 P0000 60000 T00670050 53010,KCOE,2017-05-06T14:56:00Z,47.77,-116.82,6.7,5.0,230,11,,5.0,29.949802,1016.3,,TRUE,TRUE,,,,,,-RA BR,OVC,2100,,,,,,,MVFR,1.0,,,,,0.005,0.005,,,,,METAR,707.0
KCOD 061456Z AUTO 00000KT 10SM CLR 17/07 A2984 RMK AO2 SLP067 T01720067 58000,KCOD,2017-05-06T14:56:00Z,44.52,-109.02,17.2,6.7,0,0,,10.0,29.840551,1006.7,,TRUE,TRUE,,,,,,,CLR,,,,,,,,VFR,0.0,,,,,,,,,,,METAR,1553.0
KCIU 061456Z AUTO 32018G23KT 10SM CLR 08/M03 A2974 RMK AO2 SLP098 T00831028 58005,KCIU,2017-05-06T14:56:00Z,46.25,-84.47,8.3,-2.8,320,18,23,10.0,29.740158,1009.8,,TRUE,TRUE,,,,,,,CLR,,,,,,,,VFR,-0.5,,,,,,,,,,,METAR,244.0
KISP 061456Z 18014G21KT 10SM FEW045 SCT065 BKN080 BKN250 15/11 A2947 RMK AO2 SLP978 T01500111 50004,KISP,2017-05-06T14:56:00Z,40.8,-73.1,15.0,11.1,180,14,21,10.0,29.471457,997.8,,,TRUE,,,,,,,FEW,4500,SCT,6500,BKN,8000,BKN,25000,VFR,0.4,,,,,,,,,,,METAR,43.0
KJAX 061456Z 29017G25KT 250V320 10SM FEW019 FEW023 19/06 A2985 RMK AO2 PK WND 28030/1432 SLP109 FU FEW019 T01940056 51004,KJAX,2017-05-06T14:56:00Z,30.5,-81.68,19.4,5.6,290,17,25,10.0,29.84941,1010.9,,,TRUE,,,,,,,FEW,1900,FEW,2300,,,,,VFR,0.4,,,,,,,,,,,METAR,10.0
KJMS 061456Z AUTO 12007KT 10SM CLR 17/02 A2997 RMK AO2 SLP148 T01720022 50003,KJMS,2017-05-06T14:56:00Z,46.93,-98.67,17.2,2.2,120,7,,10.0,29.970472,1014.8,,TRUE,TRUE,,,,,,,CLR,,,,,,,,VFR,0.3,,,,,,,,,,,METAR,455.0
KNCA 061456Z AUTO 25013KT 10SM OVC035 16/09 A2960 RMK AO2 SLP025 T01610094 53002,KNCA,2017-05-06T14:56:00Z,34.72,-77.45,16.1,9.4,250,13,,10.0,29.601377,1002.5,,TRUE,TRUE,,,,,,,OVC,3500,,,,,,,VFR,0.2,,,,,,,,,,,SPECI,8.0
KMWN 061456Z 16056G70KT 1/16SM DZ FG VV001 06/06 RMK RAE25DZB25,KMWN,2017-05-06T14:56:00Z,44.27,-71.3,6.0,6.0,160,56,70,0.06,,,,,,,,,,,DZ FG,OVX,0,,,,,,,LIFR,,,,,,,,,,,100,METAR,1910.0
KTOA 061456Z 15004KT 08SM SCT011 OVC025 16/11 A2983,KTOA,2017-05-06T14:56:00Z,33.78,-118.32,16.0,11.0,150,4,,8.0,29.828741,,,,,,,,,,,SCT,1100,OVC,2500,,,,,MVFR,,,,,,,,,,,,METAR,31.0
KDIJ 061456Z AUTO 00000KT 10SM CLR 12/03 A2990 RMK AO2 SLP081 T01220033 58002,KDIJ,2017-05-06T14:56:00Z,43.75,-111.1,12.2,3.3,0,0,,10.0,29.899607,1008.1,,TRUE,TRUE,,,,,,,CLR,,,,,,,,VFR,-0.2,,,,,,,,,,,METAR,1899.0
KDYR 061456Z AUTO 26013G18KT 10SM CLR 19/11 A2984 RMK AO2 SLP118 T01940106 58005,KDYR,2017-05-06T14:56:00Z,36.0,-89.4,19.4,10.6,260,13,18,10.0,29.840551,1011.8,,TRUE,TRUE,,,,,,,CLR,,,,,,,,VFR,-0.5,,,,,,,,,,,METAR,103.0
KDVL 061456Z AUTO 13008KT 10SM CLR 16/02 A3000 RMK AO2 SLP171 T01610017 50003,KDVL,2017-05-06T14:56:00Z,48.12,-98.92,16.1,1.7,130,8,,10.0,30.0,1017.1,,TRUE,TRUE,,,,,,,CLR,,,,,,,,VFR,0.3,,,,,,,,,,,METAR,443.0
PACM 061456Z AUTO 10004KT 10SM OVC038 01/00 A2959 RMK AO2 RAE12 SLP016 P0000 60000 T00110000 56001 FZRANO,PACM,2017-05-06T14:56:00Z,61.85,-165.57,1.1,0.0,100,4,,10.0,29.589567,1001.6,,TRUE,TRUE,,,,TRUE,,,OVC,3800,,,,,,,VFR,-0.1,,,,,0.005,0.005,,,,,METAR,4.0
KY50 061456Z AUTO 10SM CLR 11/01 RMK AO2 SLPNO 6//// T01110006 $,KY50,2017-05-06T14:56:00Z,44.03,-89.3,11.1,0.6,,,,10.0,,,,TRUE,TRUE,TRUE,,,,,,CLR,,,,,,,,VFR,,,,,,,,,,,,METAR,262.0
KRDM 061456Z 05004KT 10SM FEW022 OVC027 04/M01 A3003 RMK AO2 SLP175 60000 T00391011 52008,KRDM,2017-05-06T14:56:00Z,44.25,-121.15,3.9,-1.1,50,4,,10.0,30.029528,1017.5,,,TRUE,,,,,,,FEW,2200,OVC,2700,,,,,MVFR,0.8,,,,,,0.005,,,,,METAR,938.0
TJSJ 061456Z 10012KT 10SM FEW033 SCT060 31/23 A2999 RMK AO2 PK WND 09026/1442 SLP153 T03060233 58006,TJSJ,2017-05-06T14:56:00Z,18.43,-66.02,30.6,23.3,100,12,,10.0,29.991142,1015.3,,,TRUE,,,,,,,FEW,3300,SCT,6000,,,,,VFR,-0.6,,,,,,,,,,,SPECI,21.0
KLNR 061456Z AUTO 01011KT 10SM CLR 13/03 A2991 RMK AO2 SLP124 T01330028 51020,KLNR,2017-05-06T14:56:00Z,43.22,-90.18,13.3,2.8,10,11,,10.0,29.911417,1012.4,,TRUE,TRUE,,,,,,,CLR,,,,,,,,VFR,2.0,,,,,,,,,,,SPECI,217.0
KLAS 061456Z 18011KT 10SM FEW150 FEW250 25/M02 A2963 RMK AO2 SLP007 T02501017 53008,KLAS,2017-05-06T14:56:00Z,36.07,-115.17,25.0,-1.7,180,11,,10.0,29.630905,1000.7,,,TRUE,,,,,,,FEW,15000,FEW,25000,,,,,VFR,0.8,,,,,,,,,,,METAR,636.0
KJXN 061456Z 34013G19KT 10SM 11/04 A2966 RMK AO2 SLP045 T01060039 $,KJXN,2017-05-06T14:56:00Z,42.27,-84.47,10.6,3.9,340,13,19,10.0,29.660433,1004.5,,,TRUE,TRUE,,,,,,,,,,,,,,,,,,,,,,,,,,METAR,305.0
KNJK 061456Z 26015KT 10SM FEW080 FEW250 23/07 A2967 RMK AO2 SLP061 60000 T02330067 53016,KNJK,2017-05-06T14:56:00Z,32.82,-115.67,23.3,6.7,260,15,,10.0,29.66929,1006.1,,,TRUE,,,,,,,FEW,8000,FEW,25000,,,,,VFR,1.6,,,,,,0.005,,,,,METAR,-13.0
KOZR 061456Z AUTO 32009KT 10SM CLR 18/06 A2997 RMK AO2 SLP150 T01770062 52016,KOZR,2017-05-06T14:56:00Z,31.28,-85.72,17.7,6.2,320,9,,10.0,29.970472,1015.0,,TRUE,TRUE,,,,,,,CLR,,,,,,,,VFR,1.6,,,,,,,,,,,METAR,93.0
KART 061456Z AUTO 23008KT 7SM -RA OVC004 09/09 A2929 RMK AO2 SLP919 P0004 60008 T00940094 53001,KART,2017-05-06T14:56:00Z,43.98,-76.03,9.4,9.4,230,8,,7.0,29.291338,991.9,,TRUE,TRUE,,,,,,-RA,OVC,400,,,,,,,LIFR,0.1,,,,,0.04,0.08,,,,,METAR,100.0
PABL 061456Z AUTO 35003KT 10SM CLR M06/M07 A2984 RMK AO2 SLP107 T10611072 56002 FZRANO,PABL,2017-05-06T14:56:00Z,65.98,-161.15,-6.1,-7.2,350,3,,10.0,29.840551,1010.7,,TRUE,TRUE,,,,TRUE,,,CLR,,,,,,,,VFR,-0.2,,,,,,,,,,,METAR,7.0
KQHY 061456Z AUTO 33005KT 10SM CLR 20/04 A3000 RMK AO2 SLP166 T02000035 52007 $,KQHY,2017-05-06T14:56:00Z,,,20.0,3.5,330,5,,10.0,30.0,1016.6,,TRUE,TRUE,TRUE,,,,,,CLR,,,,,,,,VFR,0.7,,,,,,,,,,,METAR,
KQBF 061456Z AUTO 00000KT 9999 FEW180 40/16 A2978 RMK AO2 SLPNO WND DATA ESTMD T04010159,KQBF,2017-05-06T14:56:00Z,,,40.1,15.9,0,0,,6.21,29.778543,,,TRUE,TRUE,,,,,,,FEW,18000,,,,,,,VFR,,,,,,,,,,,,METAR,
KWMC 061456Z AUTO 31015G23KT 10SM OVC070 11/07 A2972 RMK AO2 SLP034 T01110067 50003,KWMC,2017-05-06T14:56:00Z,40.9,-117.8,11.1,6.7,310,15,23,10.0,29.719488,1003.4,,TRUE,TRUE,,,,,,,OVC,7000,,,,,,,VFR,0.3,,,,,,,,,,,METAR,1310.0
KVIS 061456Z AUTO 32012KT 10SM OVC090 13/04 A2981 RMK AO2 SLP100 T01330039 51009,KVIS,2017-05-06T14:56:00Z,36.32,-119.4,13.3,3.9,320,12,,10.0,29.811024,1010.0,,TRUE,TRUE,,,,,,,OVC,9000,,,,,,,VFR,0.9,,,,,,,,,,,METAR,89.0
KUDG 061456Z AUTO 29012G17KT 10SM FEW037 16/08 A2966 RMK AO2 SLP050 60000 T01610083 51017,KUDG,2017-05-06T14:56:00Z,34.45,-79.88,16.1,8.3,290,12,17,10.0,29.660433,1005.0,,TRUE,TRUE,,,,,,,FEW,3700,,,,,,,VFR,1.7,,,,,,0.005,,,,,METAR,59.0
KUCP 061456Z AUTO 30011G15KT 10SM -RA BKN014 OVC019 07/05 A2949 RMK AO2 SLP006 P0001 60003 T00670050 53008,KUCP,2017-05-06T14:56:00Z,41.03,-80.42,6.7,5.0,300,11,15,10.0,29.489174,1000.6,,TRUE,TRUE,,,,,,-RA,BKN,1400,OVC,1900,,,,,MVFR,0.8,,,,,0.01,0.03,,,,,METAR,327.0
KSUE 061456Z AUTO 36013KT 10SM CLR 08/01 A2987 RMK AO2 SLP140 6//// T00830006 51010,KSUE,2017-05-06T14:56:00Z,44.85,-87.42,8.3,0.6,360,13,,10.0,29.870079,1014.0,,TRUE,TRUE,,,,,,,CLR,,,,,,,,VFR,1.0,,,,,,,,,,,METAR,221.0
KSRC 061456Z AUTO 26007KT 220V290 10SM CLR 21/10 A2995 RMK AO2 SLP148 T02060100 50002,KSRC,2017-05-06T14:56:00Z,35.22,-91.73,20.6,10.0,260,7,,10.0,29.949802,1014.8,,TRUE,TRUE,,,,,,,CLR,,,,,,,,VFR,0.2,,,,,,,,,,,METAR,80.0
KSQI 061456Z 02009KT 10SM CLR 13/06 A2987 RMK AO2 SLP139 6//// T01330061 51012 PNO $,KSQI,2017-05-06T14:56:00Z,41.75,-89.67,13.3,6.1,20,9,,10.0,29.870079,1013.9,,,TRUE,TRUE,,,,,,CLR,,,,,,,,VFR,1.2,,,,,,,,,,,METAR,197.0
KSOP 061456Z AUTO 30008KT 260V320 10SM SCT060 SCT085 13/08 A2962 RMK AO2 RAE48 SLP047 P0000 60001 T01330083 51008,KSOP,2017-05-06T14:56:00Z,35.22,-79.4,13.3,8.3,300,8,,10.0,29.619095,1004.7,,TRUE,TRUE,,,,,,,SCT,6000,SCT,8500,,,,,VFR,0.8,,,,,0.005,0.01,,,,,METAR,141.0
KSGU 061456Z AUTO 14010KT 10SM BKN120 25/00 A2972 RMK AO2 SLP025 T02500000 50009,KSGU,2017-05-06T14:56:00Z,37.07,-113.52,25.0,0.0,140,10,,10.0,29.719488,1002.5,,TRUE,TRUE,,,,,,,BKN,12000,,,,,,,VFR,0.9,,,,,,,,,,,METAR,896.0
KSGJ 061456Z 29013G25KT 10SM CLR 19/06 A2988 RMK AO2 SLP116 T01940056 51003,KSGJ,2017-05-06T14:56:00Z,29.97,-81.32,19.4,5.6,290,13,25,10.0,29.878937,1011.6,,,TRUE,,,,,,,CLR,,,,,,,,VFR,0.3,,,,,,,,,,,METAR,3.0
KSGH 061456Z AUTO 30011KT 10SM BKN023 BKN055 11/06 A2967 RMK AO2 SLP052 T01060056 53005,KSGH,2017-05-06T14:56:00Z,39.83,-83.83,10.6,5.6,300,11,,10.0,29.66929,1005.2,,TRUE,TRUE,,,,,,,BKN,2300,BKN,5500,,,,,MVFR,0.5,,,,,,,,,,,METAR,321.0
KSFZ 061456Z AUTO 16012G19KT 120V210 6SM -RA BR OVC004 14/14 A2954 RMK AO2 SLP024 P0012 60012 T01440144 55004,KSFZ,2017-05-06T14:56:00Z,41.92,-71.5,14.4,14.4,160,12,19,6.0,29.53937,1002.4,,TRUE,TRUE,,,,,,-RA BR,OVC,400,,,,,,,LIFR,-0.4,,,,,0.12,0.12,,,,,METAR,134.0
KSDY 061456Z AUTO 16020G25KT 10SM CLR 22/03 A2978 RMK AO2 SLP079 T02220033 56010,KSDY,2017-05-06T14:56:00Z,47.7,-104.2,22.2,3.3,160,20,25,10.0,29.778543,1007.9,,TRUE,TRUE,,,,,,,CLR,,,,,,,,VFR,-1.0,,,,,,,,,,,METAR,605.0
KOFF 061456Z AUTO 09006KT 10SM CLR 21/05 A2994 RMK AO2 SLP140 T02050045 52019 $,KOFF,2017-05-06T14:56:00Z,41.12,-95.92,20.5,4.5,90,6,,10.0,29.940945,1014.0,,TRUE,TRUE,TRUE,,,,,,CLR,,,,,,,,VFR,1.9,,,,,,,,,,,METAR,319.0
KQRH 061456Z AUTO VRB06KT 9999 CLR 31/26 A2979 RMK AO2 SLP075 WND DATA ESTMD T03050255 55002,KQRH,2017-05-06T14:56:00Z,,,30.5,25.5,0,6,,6.21,29.790354,1007.5,,TRUE,TRUE,,,,,,,CLR,,,,,,,,VFR,-0.2,,,,,,,,,,,METAR,
KQND 061456Z AUTO 00000KT 8000 HZ CLR 41/15 A2974 RMK AO2 SLPNO WND DATA ESTMD T04090150,KQND,2017-05-06T14:56:00Z,,,40.9,15.0,0,0,,4.97,29.740158,,,TRUE,TRUE,,,,,,HZ,CLR,,,,,,,,MVFR,,,,,,,,,,,,METAR,
KQN3 061456Z AUTO 28004KT 8000 HZ CLR 43/14 A2970 RMK AO2 SLP048 WND DATA ESTMD T04340143,KQN3,2017-05-06T14:56:00Z,,,43.4,14.3,280,4,,4.97,29.698818,1004.8,,TRUE,TRUE,,,,,,HZ,CLR,,,,,,,,MVFR,,,,,,,,,,,,METAR,
KQN2 061456Z AUTO 00000KT M /// /// CLR 30/23 A2986 RMK AO2 SLPNO WND DATA ESTMD T02950232 $,KQN2,2017-05-06T14:56:00Z,,,29.5,23.2,0,0,,,29.861221,,,TRUE,TRUE,TRUE,,,,,,CLR,,,,,,,,,,,,,,,,,,,,METAR,
KQKR 061456Z AUTO VRB04KT 9999 CLR 30/19 A2982 RMK AO2 LTG DSNT N TSB1357E13 SLPNO WND DATA ESTMD T03010185,KQKR,2017-05-06T14:56:00Z,,,30.1,18.5,0,4,,6.21,29.819881,,,TRUE,TRUE,,,,,,,CLR,,,,,,,,VFR,,,,,,,,,,,,METAR,
KWWD 061456Z AUTO 19013G20KT 10SM FEW028 SCT040 BKN050 18/12 A2942 RMK AO2 PK WND 18027/1432 SLP965 T01780122 58001,KWWD,2017-05-06T14:56:00Z,39.02,-74.92,17.8,12.2,190,13,20,10.0,29.421259,996.5,,TRUE,TRUE,,,,,,,FEW,2800,SCT,4000,BKN,5000,,,VFR,-0.1,,,,,,,,,,,METAR,7.0
KP60 061456Z AUTO 00000KT 06/01 A3001 RMK AO1 SLP129 T00610006 53000,KP60,2017-05-06T14:56:00Z,44.55,-110.42,6.1,0.6,0,0,,,30.008858,1012.9,,TRUE,TRUE,,,,,,,,,,,,,,,,0.0,,,,,,,,,,,METAR,2388.0
KNSE 061456Z AUTO 31006KT 10SM -RA CLR 19/06 A2999 RMK AO2 SLP142 P0000 60000 T01940056 51009 $,KNSE,2017-05-06T14:56:00Z,30.73,-87.02,19.4,5.6,310,6,,10.0,29.991142,1014.2,,TRUE,TRUE,TRUE,,,,,-RA,CLR,,,,,,,,VFR,0.9,,,,,0.005,0.005,,,,,METAR,61.0
KTPH 061456Z AUTO 19015G21KT 10SM CLR 17/M02 A2972 RMK AO2 SLP996 T01671022 58005,KTPH,2017-05-06T14:56:00Z,38.05,-117.08,16.7,-2.2,190,15,21,10.0,29.719488,999.6,,TRUE,TRUE,,,,,,,CLR,,,,,,,,VFR,-0.5,,,,,,,,,,,METAR,1652.0
KUKI 061456Z AUTO 33008KT 10SM BKN039 10/02 A2984 RMK AO2 SLP103 T01000022 56004,KUKI,2017-05-06T14:56:00Z,39.12,-123.2,10.0,2.2,330,8,,10.0,29.840551,1010.3,,TRUE,TRUE,,,,,,,BKN,3900,,,,,,,VFR,-0.4,,,,,,,,,,,METAR,187.0
KCXY 061456Z 19006KT 10SM OVC014 14/10 A2933 RMK AO2 SLP930 T01390100 50006,KCXY,2017-05-06T14:56:00Z,40.22,-76.85,13.9,10.0,190,6,,10.0,29.329725,993.0,,,TRUE,,,,,,,OVC,1400,,,,,,,MVFR,0.6,,,,,,,,,,,SPECI,106.0
KD07 061456Z AUTO 14023G31KT 19/02 A2989 RMK AO1 PK WND 14032/1443 SLP112 T01890017 58002,KD07,2017-05-06T14:56:00Z,45.03,-102.02,18.9,1.7,140,23,31,,29.890747,1011.2,,TRUE,TRUE,,,,,,,,,,,,,,,,-0.2,,,,,,,,,,,METAR,784.0
KDAY 061456Z 32011KT 10SM FEW023 SCT060 SCT130 11/06 A2969 RMK AO2 SLP055 T01110061 53005,KDAY,2017-05-06T14:56:00Z,39.9,-84.22,11.1,6.1,320,11,,10.0,29.68996,1005.5,,,TRUE,,,,,,,FEW,2300,SCT,6000,SCT,13000,,,VFR,0.5,,,,,,,,,,,METAR,305.0
KDIK 061456Z AUTO 15024G31KT 10SM CLR 19/01 A2986 RMK AO2 PK WND 15031/1453 SLP100 T01890006 58007,KDIK,2017-05-06T14:56:00Z,46.8,-102.8,18.9,0.6,150,24,31,10.0,29.861221,1010.0,,TRUE,TRUE,,,,,,,CLR,,,,,,,,VFR,-0.7,,,,,,,,,,,METAR,788.0
KVPZ 061456Z AUTO 33015G21KT 10SM CLR 10/03 A2978 RMK AO2 SLP088 T01000033 53013,KVPZ,2017-05-06T14:56:00Z,41.45,-87.0,10.0,3.3,330,15,21,10.0,29.778543,1008.8,,TRUE,TRUE,,,,,,,CLR,,,,,,,,VFR,1.3,,,,,,,,,,,SPECI,231.0
KWJF 061456Z 23018G27KT 10SM CLR 14/08 A2976 RMK AO2 PK WND 22027/1449 SLP067 T01390083 50002,KWJF,2017-05-06T14:56:00Z,34.72,-118.22,13.9,8.3,230,18,27,10.0,29.760826,1006.7,,,TRUE,,,,,,,CLR,,,,,,,,VFR,0.2,,,,,,,,,,,METAR,715.0
PAHX 061456Z AUTO 00000KT 10SM BKN100 03/M01 A2967 RMK AO2 SLP050 T00331011 53001,PAHX,2017-05-06T14:56:00Z,62.7,-159.57,3.3,-1.1,0,0,,10.0,29.66929,1005.0,,TRUE,TRUE,,,,,,,BKN,10000,,,,,,,VFR,0.1,,,,,,,,,,,SPECI,24.0
PANA 061456Z AUTO 07008KT 10SM FEW050 SCT065 OVC085 04/01 A2953 RMK AO2 SLP001 T00390006 56002,PANA,2017-05-06T14:56:00Z,60.68,-161.98,3.9,0.6,70,8,,10.0,29.530512,1000.1,,TRUE,TRUE,,,,,,,FEW,5000,SCT,6500,OVC,8500,,,VFR,-0.2,,,,,,,,,,,METAR,5.0
PAQH 061456Z AUTO 10017G27KT 10SM FEW095 06/01 A2950 RMK AO2 PK WND 11027/1451 SLP992 T00560011 58007 PWINO,PAQH,2017-05-06T14:56:00Z,59.75,-161.85,5.6,1.1,100,17,27,10.0,29.500984,999.2,,TRUE,TRUE,,,,,TRUE,,FEW,9500,,,,,,,VFR,-0.7,,,,,,,,,,,METAR,13.0
PFCL 061456Z AUTO 06009KT OVC032 04/03 A2955 RMK AO2 SLP008 T00390028 58009 PWINO $,PFCL,2017-05-06T14:56:00Z,58.83,-158.53,3.9,2.8,60,9,,,29.551182,1000.8,,TRUE,TRUE,TRUE,,,,TRUE,,OVC,3200,,,,,,,,-0.9,,,,,,,,,,,METAR,24.0
PPIT 061456Z AUTO 08011KT 10SM OVC070 03/02 A2953 RMK AO2 SLP000 T00330017 58003,PPIT,2017-05-06T14:56:00Z,60.9,-162.43,3.3,1.7,80,11,,10.0,29.530512,1000.0,,TRUE,TRUE,,,,,,,OVC,7000,,,,,,,VFR,-0.3,,,,,,,,,,,METAR,4.0
PFWS 061456Z AUTO 10009KT 10SM OVC045 05/02 A2956 RMK AO2 SLP014 60000 T00500017 58010,PFWS,2017-05-06T14:56:00Z,58.7,-157.0,5.0,1.7,100,9,,10.0,29.56004,1001.4,,TRUE,TRUE,,,,,,,OVC,4500,,,,,,,VFR,-1.0,,,,,,,,,,,SPECI,49.0
PFKW 061456Z AUTO 07008KT 10SM BKN100 OVC110 04/01 A2955 RMK AO2 SLP005 T00440006 55002,PFKW,2017-05-06T14:56:00Z,60.8,-161.43,4.4,0.6,70,8,,10.0,29.551182,1000.5,,TRUE,TRUE,,,,,,,BKN,10000,OVC,11000,,,,,VFR,-0.2,,,,,,,,,,,METAR,8.0
KDUG 061456Z AUTO 15015KT 10SM CLR 23/02 A2995 RMK AO2 SLP071 T02280017 50003,KDUG,2017-05-06T14:56:00Z,31.47,-109.58,22.8,1.7,150,15,,10.0,29.949802,1007.1,,TRUE,TRUE,,,,,,,CLR,,,,,,,,VFR,0.3,,,,,,,,,,,METAR,1265.0
KEAU 061456Z 04010KT 10SM CLR 12/02 A2997 RMK AO2 SLP150 T01170022 51015,KEAU,2017-05-06T14:56:00Z,44.87,-91.47,11.7,2.2,40,10,,10.0,29.970472,1015.0,,,TRUE,,,,,,,CLR,,,,,,,,VFR,1.5,,,,,,,,,,,METAR,276.0
KEED 061456Z AUTO 17016KT 10SM CLR 31/04 A2962 RMK AO2 SLP994 T03060039 51012 $,KEED,2017-05-06T14:56:00Z,34.77,-114.62,30.6,3.9,170,16,,10.0,29.619095,999.4,,TRUE,TRUE,TRUE,,,,,,CLR,,,,,,,,VFR,1.2,,,,,,,,,,,METAR,302.0
KEKO 061456Z AUTO 06007KT 10SM CLR 16/06 A2971 RMK AO2 SLP014 T01610061 58003,KEKO,2017-05-06T14:56:00Z,40.82,-115.78,16.1,6.1,60,7,,10.0,29.71063,1001.4,,TRUE,TRUE,,,,,,,CLR,,,,,,,,VFR,-0.3,,,,,,,,,,,METAR,1547.0
KELZ 061456Z AUTO 32007KT 10SM OVC006 07/05 A2935 RMK AO2 CIG 003V009 SLP939 60002 T00670050 53007,KELZ,2017-05-06T14:56:00Z,42.1,-77.98,6.7,5.0,320,7,,10.0,29.350393,993.9,,TRUE,TRUE,,,,,,,OVC,600,,,,,,,IFR,0.7,,,,,,,,,,,SPECI,646.0
KHYA 061456Z 13010G19KT 7SM -RA OVC100 14/14 A2956 RMK AO2 SLP011 P0006 60015 T01440139 56019,KHYA,2017-05-06T14:56:00Z,41.67,-70.27,14.4,13.9,130,10,19,7.0,29.56004,1001.1,,,TRUE,,,,,,-RA,OVC,10000,,,,,,,VFR,-1.9,,,,,0.06,0.15,,,,,METAR,22.0
KIGX 061456Z AUTO 28012G18KT 10SM FEW043 OVC065 15/06 A2957 RMK AO2 SLP010 T01500061 53009,KIGX,2017-05-06T14:56:00Z,35.93,-79.07,15.0,6.1,280,12,18,10.0,29.568897,1001.0,,TRUE,TRUE,,,,,,,FEW,4300,OVC,6500,,,,,VFR,0.9,,,,,,,,,,,SPECI,155.0
KFSD 061456Z 00000KT 10SM FEW250 17/07 A2998 RMK AO2 SLP147 T01720067 53008,KFSD,2017-05-06T14:56:00Z,43.58,-96.75,17.2,6.7,0,0,,10.0,29.97933,1014.7,,,TRUE,,,,,,,FEW,25000,,,,,,,VFR,0.8,,,,,,,,,,,METAR,436.0
KGRD 061456Z AUTO 29007KT 10SM FEW046 16/04 A2974 RMK AO2 SLP068 T01560039 51017,KGRD,2017-05-06T14:56:00Z,34.25,-82.15,15.6,3.9,290,7,,10.0,29.740158,1006.8,,TRUE,TRUE,,,,,,,FEW,4600,,,,,,,VFR,1.7,,,,,,,,,,,SPECI,185.0
PAOU 061456Z AUTO 12015KT 10SM OVC085 04/02 A2936 RMK AO2 PK WND 13028/1403 SLP943 T00440022 56008,PAOU,2017-05-06T14:56:00Z,56.0,-161.17,4.4,2.2,120,15,,10.0,29.359253,994.3,,TRUE,TRUE,,,,,,,OVC,8500,,,,,,,VFR,-0.8,,,,,,,,,,,METAR,4.0
PANW 061456Z AUTO 09013G21KT 10SM BKN008 BKN031 OVC065 03/02 A2960 RMK AO2 RAE53 SLP040 P0001 60001 T00330022 58007,PANW,2017-05-06T14:56:00Z,59.45,-157.37,3.3,2.2,90,13,21,10.0,29.601377,1004.0,,TRUE,TRUE,,,,,,,BKN,800,BKN,3100,OVC,6500,,,IFR,-0.7,,,,,0.01,0.01,,,,,METAR,92.0
PAPN 061456Z AUTO 08012G19KT 10SM BKN040 OVC048 05/03 A2948 RMK AO2 SLP985 T00500033 58005,PAPN,2017-05-06T14:56:00Z,57.58,-157.57,5.0,3.3,80,12,19,10.0,29.480314,998.5,,TRUE,TRUE,,,,,,,BKN,4000,OVC,4800,,,,,VFR,-0.5,,,,,,,,,,,METAR,18.0
PARS 061456Z AUTO 09006KT 10SM FEW070 OVC110 05/01 A2960 RMK AO2 SLP026 60000 T00500006 55003 $,PARS,2017-05-06T14:56:00Z,61.77,-161.32,5.0,0.6,90,6,,10.0,29.601377,1002.6,,TRUE,TRUE,TRUE,,,,,,FEW,7000,OVC,11000,,,,,VFR,-0.3,,,,,,0.005,,,,,METAR,16.0
PAPO 061456Z AUTO 00000KT 10SM CLR M07/M07 A2993 RMK AO2 SLP135 T10671072 58000 FZRANO,PAPO,2017-05-06T14:56:00Z,68.35,-166.8,-6.7,-7.2,0,0,,10.0,29.929134,1013.5,,TRUE,TRUE,,,,TRUE,,,CLR,,,,,,,,VFR,0.0,,,,,,,,,,,METAR,6.0
PASA 061456Z AUTO 05014G20KT 8SM UP OVC005 M02/M03 A2980 RMK AO2 SNB24E34B43E53 SLP094 P0000 60000 T10171028 56007 FZRANO $,PASA,2017-05-06T14:56:00Z,63.68,-170.5,-1.7,-2.8,50,14,20,8.0,29.799213,1009.4,,TRUE,TRUE,TRUE,,,TRUE,,UP,OVC,500,,,,,,,IFR,-0.7,,,,,0.005,0.005,,,,,METAR,16.0
PAWS 061456Z AUTO 07005KT 10SM CLR 04/M06 A2983 RMK AO2 SLP120 T00391056 58005 $,PAWS,2017-05-06T14:56:00Z,61.57,-149.53,3.9,-5.6,70,5,,10.0,29.828741,1012.0,,TRUE,TRUE,TRUE,,,,,,CLR,,,,,,,,VFR,-0.5,,,,,,,,,,,METAR,107.0
PFYU 061456Z AUTO 05005KT 10SM CLR 03/M01 A2989 RMK AO2 SLP148 T00281011 56000,PFYU,2017-05-06T14:56:00Z,66.57,-145.27,2.8,-1.1,50,5,,10.0,29.890747,1014.8,,TRUE,TRUE,,,,,,,CLR,,,,,,,,VFR,0.0,,,,,,,,,,,METAR,131.0
PPIZ 061456Z AUTO 05016KT 10SM OVC008 M07/M08 A2998 RMK AO2 SLP156 T10671083 58003 FZRANO TSNO,PPIZ,2017-05-06T14:56:00Z,69.73,-163.0,-6.7,-8.3,50,16,,10.0,29.97933,1015.6,,TRUE,TRUE,,,TRUE,TRUE,,,OVC,800,,,,,,,IFR,-0.3,,,,,,,,,,,METAR,8.0
PHNY 061456Z AUTO 02009KT 10SM CLR 19/17 A3011 RMK AO2 SLP178 T01940167 55004,PHNY,2017-05-06T14:56:00Z,20.77,-156.93,19.4,16.7,20,9,,10.0,30.109253,1017.8,,TRUE,TRUE,,,,,,,CLR,,,,,,,,VFR,-0.4,,,,,,,,,,,SPECI,399.0
PMDY 061456Z 33006KT 10SM SCT029 OVC039 19/13 A3015 RMK AO2 SLP208 T01890128 56007,PMDY,2017-05-06T14:56:00Z,28.22,-177.37,18.9,12.8,330,6,,10.0,30.15059,1020.8,,,TRUE,,,,,,,SCT,2900,OVC,3900,,,,,VFR,-0.7,,,,,,,,,,,METAR,4.0
KLEW 061456Z AUTO 13004KT 1 1/4SM -RA BR OVC002 12/12 A2961 RMK AO2 SLP044 P0001 60003 T01220117 58016,KLEW,2017-05-06T14:56:00Z,44.03,-70.27,12.2,11.7,130,4,,1.25,29.610237,1004.4,,TRUE,TRUE,,,,,,-RA BR,OVC,200,,,,,,,LIFR,-1.6,,,,,0.01,0.03,,,,,METAR,88.0
KLPC 061456Z AUTO 31014G19KT 10SM OVC033 12/06 A2990 RMK AO2 SLP127 T01170061 53007,KLPC,2017-05-06T14:56:00Z,34.67,-120.47,11.7,6.1,310,14,19,10.0,29.899607,1012.7,,TRUE,TRUE,,,,,,,OVC,3300,,,,,,,VFR,0.7,,,,,,,,,,,METAR,27.0
KLRD 061456Z 17015KT 10SM CLR 26/14 A3002 RMK AO2 SLP166 T02560144 51012 $,KLRD,2017-05-06T14:56:00Z,27.55,-99.47,25.6,14.4,170,15,,10.0,30.02067,1016.6,,,TRUE,TRUE,,,,,,CLR,,,,,,,,VFR,1.2,,,,,,,,,,,METAR,155.0
KM19 061456Z AUTO 25010KT 10SM CLR 19/11 A2990 RMK AO2 SLP131 T01940106 50001,KM19,2017-05-06T14:56:00Z,35.65,-91.17,19.4,10.6,250,10,,10.0,29.899607,1013.1,,TRUE,TRUE,,,,,,,CLR,,,,,,,,VFR,0.1,,,,,,,,,,,METAR,73.0
KMBL 061456Z AUTO 31011KT 10SM CLR 09/03 A2979 RMK AO2 SLP110 T00890028 50005,KMBL,2017-05-06T14:56:00Z,44.27,-86.25,8.9,2.8,310,11,,10.0,29.790354,1011.0,,TRUE,TRUE,,,,,,,CLR,,,,,,,,VFR,0.5,,,,,,,,,,,METAR,189.0
KMJX 061456Z AUTO 19012G18KT 10SM BKN028 BKN033 17/11 A2942 RMK AO2 SLP967 T01720111 50004,KMJX,2017-05-06T14:56:00Z,39.93,-74.3,17.2,11.1,190,12,18,10.0,29.421259,996.7,,TRUE,TRUE,,,,,,,BKN,2800,BKN,3300,,,,,MVFR,0.4,,,,,,,,,,,METAR,25.0
KMKT 061456Z AUTO 02004KT 10SM CLR 14/04 A2999 RMK AO2 SLP156 T01390044 51015,KMKT,2017-05-06T14:56:00Z,44.22,-93.92,13.9,4.4,20,4,,10.0,29.991142,1015.6,,TRUE,TRUE,,,,,,,CLR,,,,,,,,VFR,1.5,,,,,,,,,,,METAR,311.0
KMML 061456Z AUTO 17003KT 10SM CLR 17/05 A2999 RMK AO2 SLP155 T01670050 51010,KMML,2017-05-06T14:56:00Z,44.45,-95.82,16.7,5.0,170,3,,10.0,29.991142,1015.5,,TRUE,TRUE,,,,,,,CLR,,,,,,,,VFR,1.0,,,,,,,,,,,METAR,359.0
KMNM 061456Z AUTO 02014G19KT 10SM CLR 11/M02 A2988 RMK AO2 SLP141 T01061017 50004 $,KMNM,2017-05-06T14:56:00Z,45.12,-87.62,10.6,-1.7,20,14,19,10.0,29.878937,1014.1,,TRUE,TRUE,TRUE,,,,,,CLR,,,,,,,,VFR,0.4,,,,,,,,,,,METAR,191.0
KMQY 061456Z 21008KT 10SM OVC110 16/08 A2979 RMK AO2 SLP013 T01610078 58016,KMQY,2017-05-06T14:56:00Z,36.02,-86.52,16.1,7.8,210,8,,10.0,29.790354,1001.3,,,TRUE,,,,,,,OVC,11000,,,,,,,VFR,-1.6,,,,,,,,,,,METAR,166.0
KMRF 061456Z AUTO 16007KT 10SM CLR 22/00 A3011 RMK AO2 SLP142 6//// T02170000 51010,KMRF,2017-05-06T14:56:00Z,30.37,-104.02,21.7,0.0,160,7,,10.0,30.109253,1014.2,,TRUE,TRUE,,,,,,,CLR,,,,,,,,VFR,1.0,,,,,,,,,,,METAR,1481.0
KMVN 061456Z AUTO VRB06KT 10SM CLR 15/09 A2974 RMK AO2 SLP069 60000 T01500089 53004,KMVN,2017-05-06T14:56:00Z,38.32,-88.87,15.0,8.9,0,6,,10.0,29.740158,1006.9,,TRUE,TRUE,,,,,,,CLR,,,,,,,,VFR,0.4,,,,,,0.005,,,,,METAR,146.0
KOAJ 061456Z AUTO 22008KT 10SM OVC025 14/10 A2961 RMK AO2 SLP032 T01390100 53005,KOAJ,2017-05-06T14:56:00Z,34.82,-77.62,13.9,10.0,220,8,,10.0,29.610237,1003.2,,TRUE,TRUE,,,,,,,OVC,2500,,,,,,,MVFR,0.5,,,,,,,,,,,METAR,29.0
KOKK 061456Z AUTO 33011KT 10SM CLR 12/05 A2973 RMK AO2 SLP073 T01220050 51006,KOKK,2017-05-06T14:56:00Z,40.53,-86.07,12.2,5.0,330,11,,10.0,29.731298,1007.3,,TRUE,TRUE,,,,,,,CLR,,,,,,,,VFR,0.6,,,,,,,,,,,METAR,253.0
KOTG 061456Z AUTO VRB04KT 10SM CLR 16/02 A2999 RMK AO2 SLP157 T01610017 51013,KOTG,2017-05-06T14:56:00Z,43.63,-95.57,16.1,1.7,0,4,,10.0,29.991142,1015.7,,TRUE,TRUE,,,,,,,CLR,,,,,,,,VFR,1.3,,,,,,,,,,,METAR,480.0
KOWB 061456Z 09007KT 7SM BKN065 OVC100 09/07 A2975 RMK AO2 RAE34 SLP089 P0000 60003 T00940072 58009,KOWB,2017-05-06T14:56:00Z,37.72,-87.17,9.4,7.2,90,7,,7.0,29.749016,1008.9,,,TRUE,,,,,,,BKN,6500,OVC,10000,,,,,VFR,-0.9,,,,,0.005,0.03,,,,,METAR,124.0
KPQI 061456Z AUTO 11005KT 8SM -RA OVC007 11/10 A2974 RMK AO2 SLP113 P0004 60026 T01110100 56008,KPQI,2017-05-06T14:56:00Z,46.67,-68.03,11.1,10.0,110,5,,8.0,29.740158,1011.3,,TRUE,TRUE,,,,,,-RA,OVC,700,,,,,,,IFR,-0.8,,,,,0.04,0.26,,,,,METAR,146.0
PAVC 061456Z AUTO 07012KT 8SM -RA OVC003 A2932 RMK AO2 UPE01B20E40RAB01E20B40 SLPNO P0000 60002 58011 FZRANO,PAVC,2017-05-06T14:56:00Z,55.12,-162.27,,,70,12,,8.0,29.320866,,,TRUE,TRUE,,,,TRUE,,-RA,OVC,300,,,,,,,LIFR,-1.1,,,,,0.005,0.02,,,,,METAR,47.0
PAVA 061456Z AUTO 05005KT 10SM BKN034 OVC044 02/01 A2955 RMK AO2 SLP021 6//// T00220006 58000 FZRANO PNO $,PAVA,2017-05-06T14:56:00Z,61.53,-165.6,2.2,0.6,50,5,,10.0,29.551182,1002.1,,TRUE,TRUE,TRUE,,,TRUE,,,BKN,3400,OVC,4400,,,,,VFR,0.0,,,,,,,,,,,METAR,23.0
PAUN 061456Z AUTO 08010KT 10SM CLR 04/01 A2970 RMK AO2 SLP060 T00390006 56006,PAUN,2017-05-06T14:56:00Z,63.88,-160.8,3.9,0.6,80,10,,10.0,29.698818,1006.0,,TRUE,TRUE,,,,,,,CLR,,,,,,,,VFR,-0.6,,,,,,,,,,,METAR,6.0
PATG 061456Z AUTO 04011KT 10SM OVC018 05/03 A2954 RMK AO2 SLP096 T00500028 58004,PATG,2017-05-06T14:56:00Z,59.05,-160.38,5.0,2.8,40,11,,10.0,29.53937,1009.6,,TRUE,TRUE,,,,,,,OVC,1800,,,,,,,MVFR,-0.4,,,,,,,,,,,METAR,4.0
PASX 061456Z AUTO 00000KT 10SM FEW120 00/M02 A2982 RMK AO2 SLP107 T00001017 58005 FZRANO $,PASX,2017-05-06T14:56:00Z,60.48,-151.03,0.0,-1.7,0,0,,10.0,29.819881,1010.7,,TRUE,TRUE,TRUE,,,TRUE,,,FEW,12000,,,,,,,VFR,-0.5,,,,,,,,,,,METAR,32.0
PASM 061456Z AUTO 09010KT 10SM OVC039 05/00 A2959 RMK AO2 RAB20E45 SLP039 P0000 60000 T00500000 56003,PASM,2017-05-06T14:56:00Z,62.07,-163.3,5.0,0.0,90,10,,10.0,29.589567,1003.9,,TRUE,TRUE,,,,,,,OVC,3900,,,,,,,VFR,-0.3,,,,,0.005,0.005,,,,,METAR,92.0
PASL 061456Z AUTO 00000KT 10SM BKN065 03/M01 A2970 RMK AO1 57007,PASL,2017-05-06T14:56:00Z,61.72,-157.15,3.0,-1.0,0,0,,10.0,29.698818,,,TRUE,TRUE,,,,,,,BKN,6500,,,,,,,VFR,-0.7,,,,,,,,,,,METAR,55.0
PASK 061456Z AUTO 00000KT 10SM OVC060 M01/M02 A2985 RMK AO2 SLP107 60000 T10061022 53000 FZRANO $,PASK,2017-05-06T14:56:00Z,66.6,-160.0,-0.6,-2.2,0,0,,10.0,29.84941,1010.7,,TRUE,TRUE,TRUE,,,TRUE,,,OVC,6000,,,,,,,VFR,0.0,,,,,,0.005,,,,,METAR,8.0
PAOH 061456Z AUTO 00000KT 10SM CLR 04/02 A2996 RMK AO2 SLP146 T00390017 51014,PAOH,2017-05-06T14:56:00Z,58.1,-135.45,3.9,1.7,0,0,,10.0,29.958662,1014.6,,TRUE,TRUE,,,,,,,CLR,,,,,,,,VFR,1.4,,,,,,,,,,,METAR,9.0
PAHP 061456Z AUTO 06008KT 10SM OVC031 02/01 A2954 RMK AO2 UPE10RAB10E27 SLP042 P0000 60000 T00220006 58001 FZRANO,PAHP,2017-05-06T14:56:00Z,61.52,-166.15,2.2,0.6,60,8,,10.0,29.53937,1004.2,,TRUE,TRUE,,,,TRUE,,,OVC,3100,,,,,,,VFR,-0.1,,,,,0.005,0.005,,,,,METAR,5.0
PAGN 061456Z AUTO 00000KT 10SM SCT110 06/03 A2998 RMK AO2 SLP140 T00610033 51013,PAGN,2017-05-06T14:56:00Z,57.5,-134.58,6.1,3.3,0,0,,10.0,29.97933,1014.0,,TRUE,TRUE,,,,,,,SCT,11000,,,,,,,VFR,1.3,,,,,,,,,,,METAR,2.0
KPTN 061456Z AUTO 22003KT 10SM CLR 22/13 A3004 RMK AO2 SLP171 P0001 60002 T02220128 51010,KPTN,2017-05-06T14:56:00Z,29.72,-91.32,22.2,12.8,220,3,,10.0,30.041338,1017.1,,TRUE,TRUE,,,,,,,CLR,,,,,,,,VFR,1.0,,,,,0.01,0.02,,,,,METAR,3.0
KPTV 061456Z AUTO 34007KT 10SM 13/06 A2982 RMK AO2 SLP106 T01330061 53010 $,KPTV,2017-05-06T14:56:00Z,36.02,-119.07,13.3,6.1,340,7,,10.0,29.819881,1010.6,,TRUE,TRUE,TRUE,,,,,,,,,,,,,,,1.0,,,,,,,,,,,METAR,135.0
KRKD 061456Z AUTO 09005KT 1/2SM -RA FG OVC002 10/10 A2967 RMK AO2 SLP050 P0002 60006 T01000100 58007,KRKD,2017-05-06T14:56:00Z,44.07,-69.08,10.0,10.0,90,5,,0.5,29.66929,1005.0,,TRUE,TRUE,,,,,,-RA FG,OVC,200,,,,,,,LIFR,-0.7,,,,,0.02,0.06,,,,,METAR,17.0
KPWT 061456Z AUTO 00000KT 10SM OVC024 07/04 A3015 RMK AO2 SLP228 T00670044 53010,KPWT,2017-05-06T14:56:00Z,47.5,-122.75,6.7,4.4,0,0,,10.0,30.15059,1022.8,,TRUE,TRUE,,,,,,,OVC,2400,,,,,,,MVFR,1.0,,,,,,,,,,,METAR,147.0
KPWG 061456Z AUTO 20008KT 10SM CLR 24/08 A3004 RMK AO2 SLP181 T02390083 51006,KPWG,2017-05-06T14:56:00Z,31.47,-97.32,23.9,8.3,200,8,,10.0,30.041338,1018.1,,TRUE,TRUE,,,,,,,CLR,,,,,,,,VFR,0.6,,,,,,,,,,,METAR,180.0
KRUT 061456Z AUTO 13016KT 10SM OVC024 15/13 A2945 RMK AO2 RAB25E40 SLP992 P0000 60001 T01500128 53004 $,KRUT,2017-05-06T14:56:00Z,43.52,-72.95,15.0,12.8,130,16,,10.0,29.450787,999.2,,TRUE,TRUE,TRUE,,,,,,OVC,2400,,,,,,,MVFR,0.4,,,,,0.005,0.01,,,,,METAR,240.0
KEKQ 061456Z AUTO 25013KT 10SM -RA BKN034 OVC042 07/05 A2984 RMK AO2 WSHFT 1347 SLP133 P0006 60010 T00670050 53016,KEKQ,2017-05-06T14:56:00Z,36.85,-84.85,6.7,5.0,250,13,,10.0,29.840551,1013.3,,TRUE,TRUE,,,,,,-RA,BKN,3400,OVC,4200,,,,,VFR,1.6,,,,,0.06,0.1,,,,,METAR,294.0
KEKY 061456Z AUTO 24007KT 10SM CLR 17/08 A2994 RMK AO2 SLP157 T01670078 51004,KEKY,2017-05-06T14:56:00Z,33.32,-86.93,16.7,7.8,240,7,,10.0,29.940945,1015.7,,TRUE,TRUE,,,,,,,CLR,,,,,,,,VFR,0.4,,,,,,,,,,,METAR,213.0
KENV 061456Z AUTO 28007KT 10SM CLR 18/07 A2972 RMK AO2 SLP027 6//// T01830067 52000 PNO $,KENV,2017-05-06T14:56:00Z,40.72,-114.02,18.3,6.7,280,7,,10.0,29.719488,1002.7,,TRUE,TRUE,TRUE,,,,,,CLR,,,,,,,,VFR,0.0,,,,,,,,,,,METAR,1292.0
KESC 061456Z AUTO 35017G23KT 10SM CLR 10/M04 A2986 RMK AO2 SLP138 T01001044 51002,KESC,2017-05-06T14:56:00Z,45.75,-87.08,10.0,-4.4,350,17,23,10.0,29.861221,1013.8,,TRUE,TRUE,,,,,,,CLR,,,,,,,,VFR,0.2,,,,,,,,,,,METAR,187.0
KEUL 061456Z AUTO 28015KT 10SM OVC039 09/03 A2982 RMK AO2 SLP090 T00940033 53015,KEUL,2017-05-06T14:56:00Z,43.62,-116.62,9.4,3.3,280,15,,10.0,29.819881,1009.0,,TRUE,TRUE,,,,,,,OVC,3900,,,,,,,VFR,1.5,,,,,,,,,,,METAR,740.0
KEWK 061456Z AUTO 28008KT 10SM CLR 19/11 A2998 RMK AO2 SLP143 T01940106 51004,KEWK,2017-05-06T14:56:00Z,38.03,-97.27,19.4,10.6,280,8,,10.0,29.97933,1014.3,,TRUE,TRUE,,,,,,,CLR,,,,,,,,VFR,0.4,,,,,,,,,,,METAR,467.0
KFAM 061456Z AUTO 30014G23KT 10SM CLR 21/08 A2977 RMK AO2 PK WND 29028/1418 SLP079 T02060078 58000,KFAM,2017-05-06T14:56:00Z,37.77,-90.42,20.6,7.8,300,14,23,10.0,29.769686,1007.9,,TRUE,TRUE,,,,,,,CLR,,,,,,,,VFR,0.0,,,,,,,,,,,METAR,288.0
KFNL 061456Z AUTO 00000KT 10SM CLR 16/06 A2997 RMK AO2 SLP098 T01610056 58000,KFNL,2017-05-06T14:56:00Z,40.45,-105.02,16.1,5.6,0,0,,10.0,29.970472,1009.8,,TRUE,TRUE,,,,,,,CLR,,,,,,,,VFR,0.0,,,,,,,,,,,METAR,1529.0
KFRM 061456Z AUTO 06008KT 020V080 10SM CLR 15/04 A2999 RMK AO2 SLP157 T01500044 51017,KFRM,2017-05-06T14:56:00Z,43.63,-94.42,15.0,4.4,60,8,,10.0,29.991142,1015.7,,TRUE,TRUE,,,,,,,CLR,,,,,,,,VFR,1.7,,,,,,,,,,,METAR,354.0
KGAD 061456Z AUTO 29007KT 10SM CLR 16/08 A2990 RMK AO2 SLP146 T01610083 50005,KGAD,2017-05-06T14:56:00Z,33.97,-86.07,16.1,8.3,290,7,,10.0,29.899607,1014.6,,TRUE,TRUE,,,,,,,CLR,,,,,,,,VFR,0.5,,,,,,,,,,,METAR,173.0
KGBD 061456Z AUTO 28007KT 10SM CLR 19/12 A2998 RMK AO2 SLP142 T01890117 50004,KGBD,2017-05-06T14:56:00Z,38.35,-98.87,18.9,11.7,280,7,,10.0,29.97933,1014.2,,TRUE,TRUE,,,,,,,CLR,,,,,,,,VFR,0.4,,,,,,,,,,,METAR,575.0
KGDV 061456Z AUTO 14009KT 10SM CLR 21/05 A2978 RMK AO2 SLP068 T02060050 58002,KGDV,2017-05-06T14:56:00Z,47.12,-104.78,20.6,5.0,140,9,,10.0,29.778543,1006.8,,TRUE,TRUE,,,,,,,CLR,,,,,,,,VFR,-0.2,,,,,,,,,,,METAR,749.0
KGUC 061456Z AUTO 00000KT 10SM CLR 08/M03 A3019 RMK AO2 SLP173 T00831033 50002,KGUC,2017-05-06T14:56:00Z,38.52,-106.92,8.3,-3.3,0,0,,10.0,30.188976,1017.3,,TRUE,TRUE,,,,,,,CLR,,,,,,,,VFR,0.2,,,,,,,,,,,METAR,2339.0
KGPZ 061456Z AUTO 07003KT 10SM CLR 12/04 A3003 RMK AO2 SLP174 T01220044 51007,KGPZ,2017-05-06T14:56:00Z,47.22,-93.52,12.2,4.4,70,3,,10.0,30.029528,1017.4,,TRUE,TRUE,,,,,,,CLR,,,,,,,,VFR,0.7,,,,,,,,,,,METAR,413.0
KGXY 061456Z AUTO 00000KT 10SM CLR 14/07 A2996 RMK AO2 SLP124 T01440067 58002,KGXY,2017-05-06T14:56:00Z,40.42,-104.62,14.4,6.7,0,0,,10.0,29.958662,1012.4,,TRUE,TRUE,,,,,,,CLR,,,,,,,,VFR,-0.2,,,,,,,,,,,METAR,1420.0
KHEF 061456Z 25008KT 10SM -RA 13/11 A2943 RMK AO2 SLP977 P0001 60001 T01330111 53023 $,KHEF,2017-05-06T14:56:00Z,38.72,-77.52,13.3,11.1,250,8,,10.0,29.430119,997.7,,,TRUE,TRUE,,,,,-RA,,,,,,,,,,2.3,,,,,0.01,0.01,,,,,METAR,59.0
KHEZ 061456Z AUTO 20007KT 10SM CLR A3002 RMK AO2 SLPNO 6//// FZRANO $,KHEZ,2017-05-06T14:56:00Z,31.62,-91.3,,,200,7,,10.0,30.02067,,,TRUE,TRUE,TRUE,,,TRUE,,,CLR,,,,,,,,VFR,,,,,,,,,,,,METAR,83.0
KHND 061456Z 22009KT 10SM CLR 25/00 A2968 RMK AO2 SLP022 T02500000 51004,KHND,2017-05-06T14:56:00Z,35.98,-115.13,25.0,0.0,220,9,,10.0,29.681103,1002.2,,,TRUE,,,,,,,CLR,,,,,,,,VFR,0.4,,,,,,,,,,,METAR,749.0
KILE 061456Z AUTO 21006KT 10SM CLR 23/09 A3004 RMK AO2 SLP183 T02280089 51005,KILE,2017-05-06T14:56:00Z,31.07,-97.67,22.8,8.9,210,6,,10.0,30.041338,1018.3,,TRUE,TRUE,,,,,,,CLR,,,,,,,,VFR,0.5,,,,,,,,,,,METAR,258.0
KISM 061456Z 31019G23KT 10SM CLR 21/08 A2994 RMK AO2 SLP139 T02110078 51002,KISM,2017-05-06T14:56:00Z,28.28,-81.43,21.1,7.8,310,19,23,10.0,29.940945,1013.9,,,TRUE,,,,,,,CLR,,,,,,,,VFR,0.2,,,,,,,,,,,METAR,25.0
KITH 061456Z 34010KT 1 1/2SM -RA BR OVC005 10/09 A2931 RMK AO2 SLP926 P0007 60013 T01000094 50005,KITH,2017-05-06T14:56:00Z,42.47,-76.45,10.0,9.4,340,10,,1.5,29.309055,992.6,,,TRUE,,,,,,-RA BR,OVC,500,,,,,,,IFR,0.5,,,,,0.07,0.13,,,,,METAR,335.0
KISO 061456Z 23009KT 10SM OVC021 14/10 A2959 RMK AO2,KISO,2017-05-06T14:56:00Z,35.32,-77.62,14.0,10.0,230,9,,10.0,29.589567,,,,TRUE,,,,,,,OVC,2100,,,,,,,MVFR,,,,,,,,,,,,METAR,29.0
KIWD 061456Z AUTO 02008KT 10SM CLR 06/01 A3002 RMK AO2 SLP174 T00560006 51017,KIWD,2017-05-06T14:56:00Z,46.52,-90.12,5.6,0.6,20,8,,10.0,30.02067,1017.4,,TRUE,TRUE,,,,,,,CLR,,,,,,,,VFR,1.7,,,,,,,,,,,METAR,375.0
KKLS 061456Z AUTO 00000KT 10SM FEW009 07/05 A3018 RMK AO2 SLP224 T00670050 53006,KKLS,2017-05-06T14:56:00Z,46.12,-122.9,6.7,5.0,0,0,,10.0,30.180119,1022.4,,TRUE,TRUE,,,,,,,FEW,900,,,,,,,VFR,0.6,,,,,,,,,,,METAR,5.0
KLCI 061456Z AUTO 05009KT 5SM BR OVC004 11/10 A2956 RMK AO2 SLP027 60001 T01060100 58009,KLCI,2017-05-06T14:56:00Z,43.57,-71.42,10.6,10.0,50,9,,5.0,29.56004,1002.7,,TRUE,TRUE,,,,,,BR,OVC,400,,,,,,,LIFR,-0.9,,,,,,0.01,,,,,METAR,166.0
KLBL 061456Z AUTO 22012KT 10SM CLR 19/08 A3000 RMK AO2 SLP139 T01940078 50001,KLBL,2017-05-06T14:56:00Z,37.03,-100.97,19.4,7.8,220,12,,10.0,30.0,1013.9,,TRUE,TRUE,,,,,,,CLR,,,,,,,,VFR,0.1,,,,,,,,,,,METAR,879.0
K7N0 061456Z AUTO VRB03KT 10SM 23/07 RMK AO2 SLPNO T02280067 $,K7N0,2017-05-06T14:56:00Z,29.95,-90.07,22.8,6.7,0,3,,10.0,,,,TRUE,TRUE,TRUE,,,,,,,,,,,,,,,,,,,,,,,,,,METAR,0.0
K1M4 061456Z AUTO 27009G17KT 10SM CLR 17/07 A2993 RMK AO2 SLP153 T01720072 50003,K1M4,2017-05-06T14:56:00Z,34.28,-87.6,17.2,7.2,270,9,17,10.0,29.929134,1015.3,,TRUE,TRUE,,,,,,,CLR,,,,,,,,VFR,0.3,,,,,,,,,,,METAR,284.0
KASH 061456Z 09004KT 3/4SM BR OVC002 13/13 A2954 RMK AO2 SLPNO 60003 T01330133 58007 $,KASH,2017-05-06T14:56:00Z,42.78,-71.52,13.3,13.3,90,4,,0.75,29.53937,,,,TRUE,TRUE,,,,,BR,OVC,200,,,,,,,LIFR,-0.7,,,,,,0.03,,,,,METAR,61.0
KAUO 061456Z AUTO 30009KT 10SM CLR 16/08 A2994 RMK AO2 SLP161 T01610078 51013,KAUO,2017-05-06T14:56:00Z,32.62,-85.42,16.1,7.8,300,9,,10.0,29.940945,1016.1,,TRUE,TRUE,,,,,,,CLR,,,,,,,,VFR,1.3,,,,,,,,,,,METAR,236.0
KBHB 061456Z AUTO 12004KT 10SM -RA OVC004 12/12 A2972 RMK AO2 SLP067 P0005 60016 T01220122 58002,KBHB,2017-05-06T14:56:00Z,44.45,-68.37,12.2,12.2,120,4,,10.0,29.719488,1006.7,,TRUE,TRUE,,,,,,-RA,OVC,400,,,,,,,LIFR,-0.2,,,,,0.05,0.16,,,,,METAR,26.0
KAIZ 061456Z AUTO 29010G16KT 10SM CLR 19/09 A2989 RMK AO2 SLP907 T01940089 53010,KAIZ,2017-05-06T14:56:00Z,38.1,-92.53,19.4,8.9,290,10,16,10.0,29.890747,990.7,,TRUE,TRUE,,,,,,,CLR,,,,,,,,VFR,1.0,,,,,,,,,,,METAR,265.0
KADF 061456Z AUTO 00000KT 10SM CLR 20/12 A3000 RMK AO2 SLP163 T02000122 51008,KADF,2017-05-06T14:56:00Z,34.1,-93.07,20.0,12.2,0,0,,10.0,30.0,1016.3,,TRUE,TRUE,,,,,,,CLR,,,,,,,,VFR,0.8,,,,,,,,,,,METAR,56.0
KHPN 061456Z 16016G26KT 10SM SCT035 16/11 A2942 RMK AO2 PK WND 16026/1453 SLP961 T01610111 55000 $,KHPN,2017-05-06T14:56:00Z,41.07,-73.7,16.1,11.1,160,16,26,10.0,29.421259,996.1,,,TRUE,TRUE,,,,,,SCT,3500,,,,,,,VFR,0.0,,,,,,,,,,,METAR,121.0
KSBP 061456Z 05003KT 10SM FEW024 OVC034 12/06 A2987 RMK AO2 RAB09E22 SLP115 P0000 60000 T01220061 53004,KSBP,2017-05-06T14:56:00Z,35.23,-120.63,12.2,6.1,50,3,,10.0,29.870079,1011.5,,,TRUE,,,,,,,FEW,2400,OVC,3400,,,,,VFR,0.4,,,,,0.005,0.005,,,,,METAR,59.0
KHWV 061456Z AUTO 17012G19KT 10SM FEW080 16/11 A2949 RMK AO2 SLP984 T01560111 50004 TSNO,KHWV,2017-05-06T14:56:00Z,40.82,-72.87,15.6,11.1,170,12,19,10.0,29.489174,998.4,,TRUE,TRUE,,,TRUE,,,,FEW,8000,,,,,,,VFR,0.4,,,,,,,,,,,SPECI,21.0
KSFO 061456Z 30019G27KT 10SM FEW012 FEW040 SCT140 11/05 A2983 RMK AO2 PK WND 29028/1441 SLP101 T01110050 56004,KSFO,2017-05-06T14:56:00Z,37.62,-122.37,11.1,5.0,300,19,27,10.0,29.828741,1010.1,,,TRUE,,,,,,,FEW,1200,FEW,4000,SCT,14000,,,VFR,-0.4,,,,,,,,,,,METAR,3.0
KSDF 061456Z 26004KT 10SM SCT042 BKN049 OVC080 09/07 A2977 RMK AO2 RAE39 SLP081 P0001 60008 T00890067 51009,KSDF,2017-05-06T14:56:00Z,38.18,-85.73,8.9,6.7,260,4,,10.0,29.769686,1008.1,,,TRUE,,,,,,,SCT,4200,BKN,4900,OVC,8000,,,VFR,0.9,,,,,0.01,0.08,,,,,METAR,146.0
KLWS 061456Z 32006KT 10SM FEW032 OVC042 08/05 A2998 RMK AO2 SLP154 T00780050 51014,KLWS,2017-05-06T14:56:00Z,46.37,-117.02,7.8,5.0,320,6,,10.0,29.97933,1015.4,,,TRUE,,,,,,,FEW,3200,OVC,4200,,,,,VFR,1.4,,,,,,,,,,,METAR,438.0
KMDT 061456Z 19006G15KT 10SM -DZ OVC017 14/11 A2932 RMK AO2 DZB54 SLP929 PCPN VRY LGT P0000 60000 T01390106 53005,KMDT,2017-05-06T14:56:00Z,40.2,-76.77,13.9,10.6,190,6,15,10.0,29.320866,992.9,,,TRUE,,,,,,-DZ,OVC,1700,,,,,,,MVFR,0.5,,,,,0.005,0.005,,,,,METAR,95.0
KMOB 061456Z 26005KT 10SM CLR 20/07 A3002 RMK AO2 SLP164 T02000067 51010,KMOB,2017-05-06T14:56:00Z,30.68,-88.25,20.0,6.7,260,5,,10.0,30.02067,1016.4,,,TRUE,,,,,,,CLR,,,,,,,,VFR,1.0,,,,,,,,,,,METAR,63.0
KMTW 061456Z AUTO 35013G18KT 10SM FEW033 10/01 A2986 RMK AO2 SLP137 T01000011 51009,KMTW,2017-05-06T14:56:00Z,44.12,-87.67,10.0,1.1,350,13,18,10.0,29.861221,1013.7,,TRUE,TRUE,,,,,,,FEW,3300,,,,,,,VFR,0.9,,,,,,,,,,,METAR,198.0
KNUQ 061456Z 29007KT 10SM CLR 12/06 A2985 RMK AO2 SLP109 T01170056 56008,KNUQ,2017-05-06T14:56:00Z,37.4,-122.05,11.7,5.6,290,7,,10.0,29.84941,1010.9,,,TRUE,,,,,,,CLR,,,,,,,,VFR,-0.8,,,,,,,,,,,METAR,12.0
KOFK 061456Z AUTO VRB03KT 10SM CLR 18/06 A2997 RMK AO2 SLP143 T01830056 51009,KOFK,2017-05-06T14:56:00Z,41.98,-97.43,18.3,5.6,0,3,,10.0,29.970472,1014.3,,TRUE,TRUE,,,,,,,CLR,,,,,,,,VFR,0.9,,,,,,,,,,,METAR,470.0
KSLE 061456Z 00000KT 10SM FEW037 BKN060 08/04 A3017 RMK AO2 SLP216 T00780044 53006,KSLE,2017-05-06T14:56:00Z,44.9,-123.0,7.8,4.4,0,0,,10.0,30.171259,1021.6,,,TRUE,,,,,,,FEW,3700,BKN,6000,,,,,VFR,0.6,,,,,,,,,,,METAR,59.0
KSHV 061456Z 00000KT 10SM CLR 21/10 A3001 RMK AO2 SLP160 T02060100 51008 $,KSHV,2017-05-06T14:56:00Z,32.45,-93.83,20.6,10.0,0,0,,10.0,30.008858,1016.0,,,TRUE,TRUE,,,,,,CLR,,,,,,,,VFR,0.8,,,,,,,,,,,METAR,83.0
PAWG 061456Z 00000KT 10SM FEW015 BKN030 OVC045 07/05 A2997 RMK AWOS IS NOT RELIABLY AUTO TRANSMITTING HOURLY OBSERVATIONS (KB),PAWG,2017-05-06T14:56:00Z,56.48,-132.37,7.0,5.0,0,0,,10.0,29.970472,,,,TRUE,,,,,,,FEW,1500,BKN,3000,OVC,4500,,,MVFR,,,,,,,,,,,,METAR,11.0
KAND 061456Z AUTO 24012KT 10SM CLR 16/05 A2974 RMK AO2 SLP066 T01610050 51013,KAND,2017-05-06T14:56:00Z,34.5,-82.72,16.1,5.0,240,12,,10.0,29.740158,1006.6,,TRUE,TRUE,,,,,,,CLR,,,,,,,,VFR,1.3,,,,,,,,,,,METAR,239.0
KCAE 061456Z 33011KT 10SM FEW050 17/06 A2969 RMK AO2 PK WND 28029/1442 SLP053 T01720056 51013,KCAE,2017-05-06T14:56:00Z,33.93,-81.12,17.2,5.6,330,11,,10.0,29.68996,1005.3,,,TRUE,,,,,,,FEW,5000,,,,,,,VFR,1.3,,,,,,,,,,,METAR,70.0
KBZN 061456Z 00000KT 10SM CLR 14/07 A2983 RMK AO2 SLP066 T01440067 51003,KBZN,2017-05-06T14:56:00Z,45.78,-111.17,14.4,6.7,0,0,,10.0,29.828741,1006.6,,,TRUE,,,,,,,CLR,,,,,,,,VFR,0.3,,,,,,,,,,,METAR,1361.0
KBJJ 061456Z AUTO 33014G20KT 10SM BKN019 OVC028 07/04 A2957 RMK AO2 SLP017 60001 T00720039 53011,KBJJ,2017-05-06T14:56:00Z,40.87,-81.88,7.2,3.9,330,14,20,10.0,29.568897,1001.7,,TRUE,TRUE,,,,,,,BKN,1900,OVC,2800,,,,,MVFR,1.1,,,,,,,,,,,SPECI,343.0
KBIH 061456Z AUTO 09003KT 10SM CLR 13/03 A2965 RMK AO2 SLP998 T01330033 56001,KBIH,2017-05-06T14:56:00Z,37.37,-118.35,13.3,3.3,90,3,,10.0,29.648623,999.8,,TRUE,TRUE,,,,,,,CLR,,,,,,,,VFR,-0.1,,,,,,,,,,,METAR,1253.0
KNGP 061456Z AUTO 19010KT 10SM CLR 27/16 A3003 RMK AO2 SLP167 T02670156 51010 $,KNGP,2017-05-06T14:56:00Z,27.68,-97.27,26.7,15.6,190,10,,10.0,30.029528,1016.7,,TRUE,TRUE,TRUE,,,,,,CLR,,,,,,,,VFR,1.0,,,,,,,,,,,METAR,6.0
PHSF 061456Z AUTO 14006KT 10SM CLR 06/02 A3035 RMK AO2 SLP173 T00630021 55000 $,PHSF,2017-05-06T14:56:00Z,19.77,-155.55,6.3,2.1,140,6,,10.0,30.351377,1017.3,,TRUE,TRUE,TRUE,,,,,,CLR,,,,,,,,VFR,0.0,,,,,,,,,,,METAR,1887.0
MUGM 061456Z 35003KT 9999 FEW035 BKN140 BKN250 29/24 A2996 RMK SLP145 60000 T02890244 50008,MUGM,2017-05-06T14:56:00Z,19.9,-75.2,28.9,24.4,350,3,,6.21,29.958662,1014.5,,,,,,,,,,FEW,3500,BKN,14000,BKN,25000,,,VFR,0.8,,,,,,,,,,,SPECI,17.0
KSPD 061456Z AUTO 18007KT 17/08 A3000 RMK AO1 SLP115 T01720078 58003,KSPD,2017-05-06T14:56:00Z,37.28,-102.62,17.2,7.8,180,7,,,30.0,1011.5,,TRUE,TRUE,,,,,,,,,,,,,,,,-0.3,,,,,,,,,,,METAR,1335.0
KGNA 061456Z AUTO 07003KT 08/01 A3005 RMK AO1 SLP182 T00780011 51019,KGNA,2017-05-06T14:56:00Z,47.75,-90.35,7.8,1.1,70,3,,,30.050198,1018.2,,TRUE,TRUE,,,,,,,,,,,,,,,,1.9,,,,,,,,,,,METAR,185.0
KNXP 061456Z AUTO 32007KT 10SM CLR 22/01 A2975 RMK AO2 SLP037 T02220006 51003,KNXP,2017-05-06T14:56:00Z,34.28,-116.17,22.2,0.6,320,7,,10.0,29.749016,1003.7,,TRUE,TRUE,,,,,,,CLR,,,,,,,,VFR,0.3,,,,,,,,,,,METAR,626.0
PASY 061456Z 34016KT 7SM FEW013 02/M00 A2984 RMK AO2 SLPNO WND DATA ESTMD T00161002 53003 $,PASY,2017-05-06T14:56:00Z,52.72,174.12,1.6,-0.2,340,16,,7.0,29.840551,,,,TRUE,TRUE,,,,,,FEW,1300,,,,,,,VFR,0.3,,,,,,,,,,,METAR,31.0
K2WX 061456Z AUTO 14023G27KT 20/04 A2978 RMK AO1 PK WND 15027/1448 SLP068 T02000044 58004,K2WX,2017-05-06T14:56:00Z,45.6,-103.55,20.0,4.4,140,23,27,,29.778543,1006.8,,TRUE,TRUE,,,,,,,,,,,,,,,,-0.4,,,,,,,,,,,METAR,915.0
KP28 061456Z AUTO 25005KT A2997 RMK AO1 SLPNO 50000 $,KP28,2017-05-06T14:56:00Z,37.28,-98.55,,,250,5,,,29.970472,,,TRUE,TRUE,TRUE,,,,,,,,,,,,,,,0.0,,,,,,,,,,,METAR,469.0
KNUW 061456Z 26012KT 10SM FEW020 SCT038 BKN060 10/04 A3017 RMK AO2 SLP214 T01000039 51007 $,KNUW,2017-05-06T14:56:00Z,48.35,-122.65,10.0,3.9,260,12,,10.0,30.171259,1021.4,,,TRUE,TRUE,,,,,,FEW,2000,SCT,3800,BKN,6000,,,VFR,0.7,,,,,,,,,,,METAR,14.0
PADU 061456Z VRB03KT 10SM OVC038 05/01 RMK AO2 SLPNO ALTIMETER 2915 CS 60001 T00500011 $,PADU,2017-05-06T14:56:00Z,53.9,-166.53,5.0,1.1,0,3,,10.0,,,,,TRUE,TRUE,,,,,,OVC,3800,,,,,,,VFR,,,,,,,0.01,,,,,METAR,4.0
KCTB 061456Z AUTO 13006KT 10SM CLR 16/08 A2976 RMK AO2 SLP054 T01560083 50003,KCTB,2017-05-06T14:56:00Z,48.6,-112.37,15.6,8.3,130,6,,10.0,29.760826,1005.4,,TRUE,TRUE,,,,,,,CLR,,,,,,,,VFR,0.3,,,,,,,,,,,METAR,1175.0
KCHS 061456Z 30014G22KT 10SM SCT036 16/07 A2972 RMK AO2 SLP065 T01610072 51014,KCHS,2017-05-06T14:56:00Z,32.9,-80.03,16.1,7.2,300,14,22,10.0,29.719488,1006.5,,,TRUE,,,,,,,SCT,3600,,,,,,,VFR,1.4,,,,,,,,,,,METAR,13.0
KCEC 061456Z AUTO 35016G22KT 10SM CLR 10/04 A3007 RMK AO2 SLP182 T01000039 57003,KCEC,2017-05-06T14:56:00Z,41.77,-124.22,10.0,3.9,350,16,22,10.0,30.070866,1018.2,,TRUE,TRUE,,,,,,,CLR,,,,,,,,VFR,-0.3,,,,,,,,,,,METAR,17.0
KNQI 061456Z AUTO 19011KT 10SM CLR 26/15 A3003 RMK AO2 SLP165 T02610150 52010,KNQI,2017-05-06T14:56:00Z,27.5,-97.82,26.1,15.0,190,11,,10.0,30.029528,1016.5,,TRUE,TRUE,,,,,,,CLR,,,,,,,,VFR,1.0,,,,,,,,,,,METAR,15.0
KQDG 061456Z AUTO 00000KT 9999 CLR 07/03 A2979 RMK AO2 SLP090 T00710028 401900071 57008 PWINO $,KQDG,2017-05-06T14:56:00Z,,,7.1,2.8,0,0,,6.21,29.790354,1009.0,,TRUE,TRUE,TRUE,,,,TRUE,,CLR,,,,,,,,VFR,-0.8,,,19.0,7.1,,,,,,,METAR,
PTKK 061456Z VRB05KT 15SM FEW014 BKN280 28/25 A2985 RMK SLP110 8/101 T02780248 57014,PTKK,2017-05-06T14:56:00Z,7.47,151.85,27.8,24.8,0,5,,15.0,29.84941,1011.0,,,,,,,,,,FEW,1400,BKN,28000,,,,,VFR,-1.4,,,,,,,,,,,SPECI,2.0
KMEH 061456Z AUTO 00000KT 10SM BKN047 OVC060 02/M02 A2997 RMK AO2 SNE06 SLP162 P0000 60006 T00171017 53007,KMEH,2017-05-06T14:56:00Z,45.52,-118.42,1.7,-1.7,0,0,,10.0,29.970472,1016.2,,TRUE,TRUE,,,,,,,BKN,4700,OVC,6000,,,,,VFR,0.7,,,,,0.005,0.06,,,,,METAR,1136.0
KNUC 061456Z 29018G23KT 7SM BKN008 OVC014 14/12 A2985 RMK RAE30 SLP105 P0000 T01390117 53005,KNUC,2017-05-06T14:56:00Z,33.02,-118.57,13.9,11.7,290,18,23,7.0,29.84941,1010.5,,,,,,,,,,BKN,800,OVC,1400,,,,,IFR,0.5,,,,,0.005,,,,,,SPECI,55.0
KNFE 061456Z AUTO VRB05KT 10SM SCT029 OVC036 19/11 A2950 RMK AO2 SLP991 T01890106 58004,KNFE,2017-05-06T14:56:00Z,36.7,-76.13,18.9,10.6,0,5,,10.0,29.500984,999.1,,TRUE,TRUE,,,,,,,SCT,2900,OVC,3600,,,,,VFR,-0.4,,,,,,,,,,,SPECI,5.0
KNOG 061456Z AUTO 21013KT 10SM CLR 25/15 A3004 RMK AO2 SLP152 T02500150 51012 $,KNOG,2017-05-06T14:56:00Z,27.9,-98.05,25.0,15.0,210,13,,10.0,30.041338,1015.2,,TRUE,TRUE,TRUE,,,,,,CLR,,,,,,,,VFR,1.2,,,,,,,,,,,METAR,78.0
KNMM 061456Z AUTO 26010KT 10SM CLR 21/08 A2998 RMK AO2 SLP159 T02060078 51006 $,KNMM,2017-05-06T14:56:00Z,32.53,-88.57,20.6,7.8,260,10,,10.0,29.97933,1015.9,,TRUE,TRUE,TRUE,,,,,,CLR,,,,,,,,VFR,0.6,,,,,,,,,,,SPECI,97.0
KNLC 061456Z AUTO 34013KT 10SM FEW100 13/01 A2982 RMK AO2 SLP096 T01330006 53010,KNLC,2017-05-06T14:56:00Z,36.32,-119.95,13.3,0.6,340,13,,10.0,29.819881,1009.6,,TRUE,TRUE,,,,,,,FEW,10000,,,,,,,VFR,1.0,,,,,,,,,,,METAR,72.0
KMQE 061456Z AUTO 16018G27KT 17/16 A2953 RMK AO1 PK WND 17027/1449 SLP010 P0003 60004 T01670156 51007,KMQE,2017-05-06T14:56:00Z,42.22,-71.12,16.7,15.6,160,18,27,,29.530512,1001.0,,TRUE,TRUE,,,,,,,,,,,,,,,,0.7,,,,,0.03,0.04,,,,,METAR,199.0
KNXF 061456Z AUTO 16005KT 9SM FEW019 OVC038 17/13 A2984 RMK AO2 SLP188 T01670128 51008,KNXF,2017-05-06T14:56:00Z,33.28,-117.45,16.7,12.8,160,5,,9.0,29.840551,1018.8,,TRUE,TRUE,,,,,,,FEW,1900,OVC,3800,,,,,VFR,0.8,,,,,,,,,,,METAR,27.0
KNTU 061456Z 23014G19KT 10SM BKN029 BKN038 17/10 A2948 RMK AO2 SLP986 T01720100 56006,KNTU,2017-05-06T14:56:00Z,36.82,-76.02,17.2,10.0,230,14,19,10.0,29.480314,998.6,,,TRUE,,,,,,,BKN,2900,BKN,3800,,,,,MVFR,-0.6,,,,,,,,,,,METAR,7.0
KNBC 061456Z AUTO 30015G20KT 10SM CLR 18/08 A2976 RMK AO2 SLP078 T01830083 53010,KNBC,2017-05-06T14:56:00Z,32.47,-80.72,18.3,8.3,300,15,20,10.0,29.760826,1007.8,,TRUE,TRUE,,,,,,,CLR,,,,,,,,VFR,1.0,,,,,,,,,,,METAR,12.0
KAQV 061456Z AUTO 00000KT 10SM CLR 22/08 A3001 RMK AO2 SLP159 T02220078 51008 $,KAQV,2017-05-06T14:56:00Z,31.4,-93.3,22.2,7.8,0,0,,10.0,30.008858,1015.9,,TRUE,TRUE,TRUE,,,,,,CLR,,,,,,,,VFR,0.8,,,,,,,,,,,METAR,111.0
KNYG 061456Z AUTO 28008G17KT 10SM -RA OVC065 14/12 A2943 RMK AO2 SLP968 P0003 60003 T01390122 53017,KNYG,2017-05-06T14:56:00Z,38.5,-77.28,13.9,12.2,280,8,17,10.0,29.430119,996.8,,TRUE,TRUE,,,,,,-RA,OVC,6500,,,,,,,VFR,1.7,,,,,0.03,0.03,,,,,METAR,4.0
KNDZ 061456Z AUTO 32005KT 10SM CLR 21/06 A2999 RMK AO2 SLP142 T02110061 51008,KNDZ,2017-05-06T14:56:00Z,30.7,-87.02,21.1,6.1,320,5,,10.0,29.991142,1014.2,,TRUE,TRUE,,,,,,,CLR,,,,,,,,VFR,0.8,,,,,,,,,,,METAR,54.0
KMHS 061456Z AUTO 33008KT 9SM -SN OVC015 02/01 A2990 RMK AO2 UPE55SNB55 SLP147 P0001 60002 T00220006 51002,KMHS,2017-05-06T14:56:00Z,41.32,-122.32,2.2,0.6,330,8,,9.0,29.899607,1014.7,,TRUE,TRUE,,,,,,-SN,OVC,1500,,,,,,,MVFR,0.2,,,,,0.01,0.02,,,,,METAR,1078.0
K79J 061456Z AUTO 10SM CLR 19/07 A2997 RMK AO2 SLP147 T01940067 51014,K79J,2017-05-06T14:56:00Z,31.32,-86.4,19.4,6.7,,,,10.0,29.970472,1014.7,,TRUE,TRUE,,,,,,,CLR,,,,,,,,VFR,1.4,,,,,,,,,,,METAR,94.0
KNPA 061456Z 32007KT 10SM CLR 21/04 A3000 RMK AO2 SLP159 T02110039 51009 $,KNPA,2017-05-06T14:56:00Z,30.35,-87.32,21.1,3.9,320,7,,10.0,30.0,1015.9,,,TRUE,TRUE,,,,,,CLR,,,,,,,,VFR,0.9,,,,,,,,,,,METAR,9.0
KNID 061456Z AUTO A2964 RMK AO2 SLPNO 55000 PWINO $,KNID,2017-05-06T14:56:00Z,35.67,-117.67,,,,,,,29.639763,,,TRUE,TRUE,TRUE,,,,TRUE,,,,,,,,,,,0.0,,,,,,,,,,,METAR,696.0
KNFL 061456Z AUTO 35008KT 10SM FEW090 SCT100 16/01 A2969 RMK AO2 SLP037 T01560006 58002,KNFL,2017-05-06T14:56:00Z,39.42,-118.7,15.6,0.6,350,8,,10.0,29.68996,1003.7,,TRUE,TRUE,,,,,,,FEW,9000,SCT,10000,,,,,VFR,-0.2,,,,,,,,,,,METAR,1199.0
KGNR 061456Z AUTO 15007G16KT 110V190 10/10 A2964 RMK AO1 SLP045 P0001 60002 T01000100 58004,KGNR,2017-05-06T14:56:00Z,45.47,-69.55,10.0,10.0,150,7,16,,29.639763,1004.5,,TRUE,TRUE,,,,,,,,,,,,,,,,-0.4,,,,,0.01,0.02,,,,,METAR,427.0
KNBT 061456Z AUTO 23018G30KT 10SM CLR A2956 RMK AO2 PK WND 23030/1454 SLP016 58010 PWINO $,KNBT,2017-05-06T14:56:00Z,35.02,-76.47,,,230,18,30,10.0,29.56004,1001.6,,TRUE,TRUE,TRUE,,,,TRUE,,CLR,,,,,,,,VFR,-1.0,,,,,,,,,,,METAR,5.0
KNRS 061456Z AUTO 22008KT 10SM SCT012 BKN017 OVC023 16/12 A2987 RMK AO2 RAB24E33 SLP113 P0000 60000 T01610122 52011 $,KNRS,2017-05-06T14:56:00Z,32.57,-117.12,16.1,12.2,220,8,,10.0,29.870079,1011.3,,TRUE,TRUE,TRUE,,,,,,SCT,1200,BKN,1700,OVC,2300,,,MVFR,1.1,,,,,0.005,0.005,,,,,METAR,7.0
PHBK 061456Z AUTO 10004KT 10SM CLR A3007 RMK AO2 SLP186 55000 $,PHBK,2017-05-06T14:56:00Z,22.03,-159.78,,,100,4,,10.0,30.070866,1018.6,,TRUE,TRUE,TRUE,,,,,,CLR,,,,,,,,VFR,0.0,,,,,,,,,,,METAR,8.0
KALK 061456Z AUTO 19023G31KT 10SM CLR 23/M01 A2995 RMK AO2 PK WND 19036/1419 SLP044 T02331011 56005,KALK,2017-05-06T14:56:00Z,31.6,-110.43,23.3,-1.1,190,23,31,10.0,29.949802,1004.4,,TRUE,TRUE,,,,,,,CLR,,,,,,,,VFR,-0.5,,,,,,,,,,,METAR,1453.0
KP53 061456Z AUTO 01017KT 06/M03 A2990 RMK AO1 SLP130 T00561033 51009,KP53,2017-05-06T14:56:00Z,46.42,-86.65,5.6,-3.3,10,17,,,29.899607,1013.0,,TRUE,TRUE,,,,,,,,,,,,,,,,0.9,,,,,,,,,,,METAR,187.0
K8D3 061456Z AUTO VRB03KT 18/03 A2996 RMK AO1 SLP138 T01830028 51004,K8D3,2017-05-06T14:56:00Z,45.67,-96.98,18.3,2.8,0,3,,,29.958662,1013.8,,TRUE,TRUE,,,,,,,,,,,,,,,,0.4,,,,,,,,,,,METAR,354.0
KPRN 061456Z AUTO 34007KT 10SM CLR 18/04 A2995 RMK AO2 SLP141 T01830039 51010,KPRN,2017-05-06T14:56:00Z,31.85,-86.62,18.3,3.9,340,7,,10.0,29.949802,1014.1,,TRUE,TRUE,,,,,,,CLR,,,,,,,,VFR,1.0,,,,,,,,,,,METAR,138.0
PAMO 061456Z AUTO 08011KT SCT042 OVC050 04/M01 A2959 RMK AO2 SLP036 T00441006 55003 PWINO $,PAMO,2017-05-06T14:56:00Z,62.1,-163.68,4.4,-0.6,80,11,,,29.589567,1003.6,,TRUE,TRUE,TRUE,,,,TRUE,,SCT,4200,OVC,5000,,,,,,-0.3,,,,,,,,,,,METAR,103.0
PAMK 061456Z AUTO 05008KT 10SM CLR 00/M01 A2967 RMK AO2 SLP051 T00001006 55005 FZRANO $,PAMK,2017-05-06T14:56:00Z,63.48,-162.12,0.0,-0.6,50,8,,10.0,29.66929,1005.1,,TRUE,TRUE,TRUE,,,TRUE,,,CLR,,,,,,,,VFR,-0.5,,,,,,,,,,,METAR,28.0
PAMH 061456Z AUTO 00000KT 10SM CLR M01/M02 A2975 RMK AO2 SLP093 T10061022 50001 FZRANO,PAMH,2017-05-06T14:56:00Z,63.9,-152.32,-0.6,-2.2,0,0,,10.0,29.749016,1009.3,,TRUE,TRUE,,,,TRUE,,,CLR,,,,,,,,VFR,0.1,,,,,,,,,,,METAR,214.0
PAMB 061456Z AUTO 05012KT 10SM -RA OVC026 03/03 A2955 RMK AO2 SLP015 P0000 60001 T00330028 58008 $,PAMB,2017-05-06T14:56:00Z,58.98,-159.05,3.3,2.8,50,12,,10.0,29.551182,1001.5,,TRUE,TRUE,TRUE,,,,,-RA,OVC,2600,,,,,,,MVFR,-0.8,,,,,0.005,0.01,,,,,METAR,16.0
PALG 061456Z AUTO 08012KT 10SM FEW080 OVC120 06/01 A2960 RMK AO2 SLP296 57003 PWINO FZRANO TSNO RVRNO,PALG,2017-05-06T14:56:00Z,61.53,-160.33,6.0,1.0,80,12,,10.0,29.601377,1029.6,,TRUE,TRUE,,,TRUE,TRUE,TRUE,,FEW,8000,OVC,12000,,,,,VFR,-0.3,,,,,,,,,,,METAR,17.0
PAKH 061456Z AUTO 07014G21KT OVC015 06/04 A2954 RMK AO2 SLP005 T00610039 58021 PWINO $,PAKH,2017-05-06T14:56:00Z,56.93,-154.18,6.1,3.9,70,14,21,,29.53937,1000.5,,TRUE,TRUE,TRUE,,,,TRUE,,OVC,1500,,,,,,,,-2.1,,,,,,,,,,,METAR,14.0
PAIG 061456Z AUTO 05020G28KT 10SM OVC080 04/02 A2959 RMK AO2 PK WND 05028/1452 RAE1359 SLP033 P0000 60000 T00440017 58006 $,PAIG,2017-05-06T14:56:00Z,59.32,-155.9,4.4,1.7,50,20,28,10.0,29.589567,1003.3,,TRUE,TRUE,TRUE,,,,,,OVC,8000,,,,,,,VFR,-0.6,,,,,0.005,0.005,,,,,METAR,28.0
PAHL 061456Z AUTO 05005KT 10SM OVC100 02/01 A2979 RMK AO2 SLP099 T00170006 50000 FZRANO,PAHL,2017-05-06T14:56:00Z,65.7,-156.35,1.7,0.6,50,5,,10.0,29.790354,1009.9,,TRUE,TRUE,,,,TRUE,,,OVC,10000,,,,,,,VFR,0.0,,,,,,,,,,,METAR,65.0
PAHC 061456Z AUTO 00000KT 10SM SCT090 OVC110 07/M02 A2965 RMK AO2 SLP044 6//// T00671017 58001 PNO $,PAHC,2017-05-06T14:56:00Z,62.18,-159.78,6.7,-1.7,0,0,,10.0,29.648623,1004.4,,TRUE,TRUE,TRUE,,,,,,SCT,9000,OVC,11000,,,,,VFR,-0.1,,,,,,,,,,,METAR,21.0
PAGM 061456Z AUTO 04026KT 10SM OVC013 M02/M03 A2977 RMK AO2 PK WND 04032/1452 SNE10B39E50 SLP087 P0000 60000 T10171033 56017 FZRANO,PAGM,2017-05-06T14:56:00Z,63.77,-171.73,-1.7,-3.3,40,26,,10.0,29.769686,1008.7,,TRUE,TRUE,,,,TRUE,,,OVC,1300,,,,,,,MVFR,-1.7,,,,,0.005,0.005,,,,,METAR,8.0
PAFM 061456Z AUTO 01009KT 10SM SCT050 BKN075 01/M03 A2987 RMK AO2 SLP130 T00111028 58001 FZRANO,PAFM,2017-05-06T14:56:00Z,67.1,-157.85,1.1,-2.8,10,9,,10.0,29.870079,1013.0,,TRUE,TRUE,,,,TRUE,,,SCT,5000,BKN,7500,,,,,VFR,-0.1,,,,,,,,,,,METAR,88.0
PAEM 061456Z AUTO 06006KT 10SM 01/M01 A2962 RMK AO2 SLP087 T00061006 57003 FZRANO $,PAEM,2017-05-06T14:56:00Z,62.78,-164.48,0.6,-0.6,60,6,,10.0,29.619095,1008.7,,TRUE,TRUE,TRUE,,,TRUE,,,,,,,,,,,,-0.3,,,,,,,,,,,METAR,3.0
PADM 061456Z AUTO 10017KT 10SM FEW085 OVC120 06/00 A2961 RMK AO2 SLP037 60000 T00560000 56011,PADM,2017-05-06T14:56:00Z,61.87,-162.03,5.6,0.0,100,17,,10.0,29.610237,1003.7,,TRUE,TRUE,,,,,,,FEW,8500,OVC,12000,,,,,VFR,-1.1,,,,,,0.005,,,,,METAR,31.0
PADL 061456Z AUTO 05011KT 10SM -RA OVC030 04/03 A2957 RMK AO2 RAE00B32 SLP019 P0000 60000 T00390028 58007,PADL,2017-05-06T14:56:00Z,59.05,-158.5,3.9,2.8,50,11,,10.0,29.568897,1001.9,,TRUE,TRUE,,,,,,-RA,OVC,3000,,,,,,,MVFR,-0.7,,,,,0.005,0.005,,,,,METAR,26.0
PABV 061456Z AUTO 00000KT 10SM CLR 02/M05 A2984 RMK AO2 SLP113 T00221050 56004 FZRANO $,PABV,2017-05-06T14:56:00Z,61.42,-149.52,2.2,-5.0,0,0,,10.0,29.840551,1011.3,,TRUE,TRUE,TRUE,,,TRUE,,,CLR,,,,,,,,VFR,-0.4,,,,,,,,,,,METAR,29.0
KINW 061456Z AUTO 18010KT 10SM CLR 24/M02 A2993 RMK AO2 SLP065 T02391017 51006,KINW,2017-05-06T14:56:00Z,35.03,-110.72,23.9,-1.7,180,10,,10.0,29.929134,1006.5,,TRUE,TRUE,,,,,,,CLR,,,,,,,,VFR,0.6,,,,,,,,,,,METAR,1490.0
KCGZ 061456Z AUTO 21004KT 10SM CLR 27/M01 A2977 RMK AO2 SLP063 T02671011 50008 $,KCGZ,2017-05-06T14:56:00Z,32.95,-111.77,26.7,-1.1,210,4,,10.0,29.769686,1006.3,,TRUE,TRUE,TRUE,,,,,,CLR,,,,,,,,VFR,0.8,,,,,,,,,,,METAR,446.0
KFWB 061455Z AUTO 28015G18KT 10SM CLR 20/08 A2996 RMK AO2,KFWB,2017-05-06T14:55:00Z,36.7,-93.4,20.0,8.0,280,15,18,10.0,29.958662,,,TRUE,TRUE,,,,,,,CLR,,,,,,,,VFR,,,,,,,,,,,,SPECI,406.0
KCAO 061455Z AUTO 20011KT 10SM CLR 18/07 A3003 RMK AO2 SLP122 T01830067 50001,KCAO,2017-05-06T14:55:00Z,36.45,-103.15,18.3,6.7,200,11,,10.0,30.029528,1012.2,,TRUE,TRUE,,,,,,,CLR,,,,,,,,VFR,0.1,,,,,,,,,,,METAR,1514.0
KCNK 061455Z AUTO 35007KT 10SM CLR 19/12 A2995 RMK AO2 SLP133 T01940117 53010,KCNK,2017-05-06T14:55:00Z,39.55,-97.65,19.4,11.7,350,7,,10.0,29.949802,1013.3,,TRUE,TRUE,,,,,,,CLR,,,,,,,,VFR,1.0,,,,,,,,,,,METAR,447.0
KCWF 061455Z 00000KT 10SM SKC 21/11 A3003,KCWF,2017-05-06T14:55:00Z,30.22,-93.15,21.0,11.0,0,0,,10.0,30.029528,,,,,,,,,,,SKC,,,,,,,,VFR,,,,,,,,,,,,METAR,4.0
EBBE 061455Z AUTO 05009KT 9999 OVC160/// 19/09 Q1008 BLU,EBBE,2017-05-06T14:55:00Z,50.75,4.77,19.0,9.0,50,9,,6.21,29.763779,,,TRUE,,,,,,,,OVC,16000,,,,,,,VFR,,,,,,,,,,,,SPECI,127.0
EHSC 061455Z AUTO 04023G26KT 9000 ///////// 12/09 Q1010 W11/H12,EHSC,2017-05-06T14:55:00Z,51.93,3.67,12.0,9.0,40,23,26,5.59,29.822834,,,TRUE,,,,,,,,,,,,,,,,,,,,,,,,,,,,METAR,50.0
EHSA 061455Z AUTO 02020G22KT 7000 ///////// 11/09 Q1011 W10/H13,EHSA,2017-05-06T14:55:00Z,52.0,3.28,11.0,9.0,20,20,22,4.35,29.852362,,,TRUE,,,,,,,,,,,,,,,,,,,,,,,,,,,,METAR,50.0
EHJR 061455Z AUTO 06017G19KT //// ///////// 09/07 Q1013 W10/H11,EHJR,2017-05-06T14:55:00Z,53.22,3.22,9.0,7.0,60,17,19,,29.911417,,,TRUE,,,,,,,,,,,,,,,,,,,,,,,,,,,,METAR,50.0
KO22 061455Z AUTO 25004KT 10SM OVC011 08/04 A2981 RMK AO1,KO22,2017-05-06T14:55:00Z,38.03,-120.42,8.0,4.0,250,4,,10.0,29.811024,,,TRUE,TRUE,,,,,,,OVC,1100,,,,,,,MVFR,,,,,,,,,,,,METAR,646.0
LIRK 061455Z AUTO 21006KT //// ///// Q////,LIRK,2017-05-06T14:55:00Z,42.47,12.97,,,210,6,,,,,,TRUE,,,,,,,,,,,,,,,,,,,,,,,,,,,,METAR,1875.0
LIQC 061455Z 11009KT 9999 SCT040 21/07 Q1013 RMK OVC BKN080 QUK 2 QUL 1 SE VIS MAR 15 KM VIS MIN 9999,LIQC,2017-05-06T14:55:00Z,40.55,14.2,21.0,7.0,110,9,,6.21,29.911417,,,,,,,,,,,SCT,4000,,,,,,,VFR,,,,,,,,,,,,METAR,269.0
LIED 061455Z 31017KT 9999 SCT030 24/20 Q1014 RMK SCT VIS MIN 9999 WIND THR35 31016KT WIND THR17 31020KT BLU,LIED,2017-05-06T14:55:00Z,39.35,8.97,24.0,20.0,310,17,,6.21,29.940945,,,,,,,,,,,SCT,3000,,,,,,,VFR,,,,,,,,,,,,METAR,28.0
LIBY 061455Z 09004KT 9999 FEW018 18/13 Q1016 RMK OVC BKN080 BKN090 QUK 1 QUL 1 E VIS MAR 20 KM VIS MAX 20 KM VIS MIN 9999,LIBY,2017-05-06T14:55:00Z,39.82,18.35,18.0,13.0,90,4,,6.21,30.0,,,,,,,,,,,FEW,1800,,,,,,,VFR,,,,,,,,,,,,METAR,112.0
KFYG 061455Z AUTO 31012KT 10SM CLR 19/08 A2978 RMK AO2,KFYG,2017-05-06T14:55:00Z,38.58,-91.0,19.0,8.0,310,12,,10.0,29.778543,,,TRUE,TRUE,,,,,,,CLR,,,,,,,,VFR,,,,,,,,,,,,SPECI,149.0
LIVT 061455Z 26001KT CAVOK 18/09 Q1014 RMK BKN BKN070 QUK 0 QUL 0 VIS MAR 20 KM VIS MIN 9999,LIVT,2017-05-06T14:55:00Z,45.68,13.75,18.0,9.0,260,1,,6.21,29.940945,,,,,,,,,,,CAVOK,,,,,,,,VFR,,,,,,,,,,,,METAR,20.0
LIVR 061455Z 17008KT 0800 -RA FG VV/// 02/00 Q1015 RMK MON INVIS VIS MIN 0800,LIVR,2017-05-06T14:55:00Z,46.28,11.77,2.0,0.0,170,8,,0.5,29.970472,,,,,,,,,,-RA FG,OVX,0,,,,,,,LIFR,,,,,,,,,,,,METAR,2006.0
LIVP 061455Z 17009KT 0000 SN FZFG VV/// 00/M01 Q1013 RMK MON INVIS VAL INVIS VIS MIN 0000,LIVP,2017-05-06T14:55:00Z,46.15,11.03,0.0,-1.0,170,9,,0.0,29.911417,,,,,,,,,,SN FZFG,OVX,0,,,,,,,LIFR,,,,,,,,,,,,METAR,2129.0
LIVO 061455Z 18003KT 9999 SCT030 14/05 Q1011 RMK BKN SCT070 VIS MIN 9999,LIVO,2017-05-06T14:55:00Z,46.5,13.57,14.0,5.0,180,3,,6.21,29.852362,,,,,,,,,,,SCT,3000,,,,,,,VFR,,,,,,,,,,,,METAR,778.0
LIVF 061455Z 11004KT 9999 SCT033 15/12 Q1012 RMK BKN SCT060 MON LIB VAL NIL VIS MIN 9999,LIVF,2017-05-06T14:55:00Z,43.52,12.72,15.0,12.0,110,4,,6.21,29.88189,,,,,,,,,,,SCT,3300,,,,,,,VFR,,,,,,,,,,,,METAR,574.0
LIVE 061455Z 15005KT 7000 -RA BKN020 05/05 Q1012 RMK OVC SCT070 VIS MIN 7000,LIVE,2017-05-06T14:55:00Z,46.85,10.5,5.0,5.0,150,5,,4.35,29.88189,,,,,,,,,,-RA,BKN,2000,,,,,,,MVFR,,,,,,,,,,,,METAR,1800.0
LIVD 061455Z /////KT 9999 BKN025 11/04 Q1013 RMK OVC SCT060 VIS MIN 9999,LIVD,2017-05-06T14:55:00Z,46.72,12.22,11.0,4.0,,,,6.21,29.911417,,,,,,,,,,,BKN,2500,,,,,,,MVFR,,,,,,,,,,,,METAR,1226.0
LIVC 061455Z 21013G28KT 0000 -TSRA FG VV000 03/03 Q1013 RMK MON INVIS VAL INVIS VIS MIN 0000,LIVC,2017-05-06T14:55:00Z,44.2,10.68,3.0,3.0,210,13,28,0.0,29.911417,,,,,,,,,,-TSRA FG,OVX,0,,,,,,,LIFR,,,,,,,,,,,0,METAR,2173.0
LIRX 061455Z 18019KT 9999 SCT004 17/16 Q1008 RMK BKN BKN060 VIS MIN 9999 VIS MAR 12 KM,LIRX,2017-05-06T14:55:00Z,42.73,10.38,17.0,16.0,180,19,,6.21,29.763779,,,,,,,,,,,SCT,400,,,,,,,VFR,,,,,,,,,,,,METAR,297.0
LIRT 061455Z ///04KT CAVOK 14/12 Q1019 RMK BKN BKN060 BKN170 MON LIB VAL NIL VIS MIN 9999,LIRT,2017-05-06T14:55:00Z,41.03,15.22,14.0,12.0,,,,6.21,30.088583,,,,,,,,,,,CAVOK,,,,,,,,VFR,,,,,,,,,,,,METAR,1093.0
LIRE 061455Z 17017KT CAVOK 23/11 Q1012 RMK FEW FEW200 VIS MIN 9999 WIND THR13 18015KT WIND THR31 /////KT BLU,LIRE,2017-05-06T14:55:00Z,41.63,12.42,23.0,11.0,170,17,,6.21,29.88189,,,,,,,,,,,CAVOK,,,,,,,,VFR,,,,,,,,,,,,METAR,12.0
LIQO 061455Z 17016KT CAVOK 15/11 Q1012 RMK BKN BKN050 VAL NIL NC VIS MIN 9999,LIQO,2017-05-06T14:55:00Z,42.37,11.17,15.0,11.0,170,16,,6.21,29.88189,,,,,,,,,,,CAVOK,,,,,,,,VFR,,,,,,,,,,,,METAR,632.0
LIPS 061455Z 08005KT 9999 FEW020 BKN090 17/11 Q1013 RMK OVC VIS MIN 9999 WIND THR26 06005KT WIND THR08 06005KT BLU,LIPS,2017-05-06T14:55:00Z,45.67,12.08,17.0,11.0,80,5,,6.21,29.911417,,,,,,,,,,,FEW,2000,BKN,9000,,,,,VFR,,,,,,,,,,,,METAR,41.0
LIPL 061455Z /////KT 6000 FEW034 SCT045 15/13 Q1011 RMK OVC VIS MIN 6000 WIND THR31 09003KT WHT,LIPL,2017-05-06T14:55:00Z,45.42,10.27,15.0,13.0,,,,3.73,29.852362,,,,,,,,,,,FEW,3400,SCT,4500,,,,,MVFR,,,,,,,,,,,,METAR,92.0
LIPA 061455Z 20003KT 9999 -RA SCT050 BKN100 17/11 Q1013 RMK OVC VIS MIN 9999 WIND THR05 22003KT WIND THR23 21003KT A2992 BLU,LIPA,2017-05-06T14:55:00Z,46.02,12.58,17.0,11.0,200,3,,6.21,29.911417,,,,,,,,,,-RA,SCT,5000,BKN,10000,,,,,VFR,,,-0.3,,,,,,,,,METAR,126.0
LIMY 061455Z 23007KT 210V320 4500 -RA BR SCT023 08/07 Q1014 RERA RMK OVC BKN053 VAL FOSCHIA VIS MIN 4500,LIMY,2017-05-06T14:55:00Z,44.25,7.78,8.0,7.0,230,7,,2.8,29.940945,,,,,,,,,,-RA BR,SCT,2300,,,,,,,IFR,,,,,,,,,,,,METAR,1742.0
LIMV 061455Z /////KT 4000 RA BR BKN009 SCT012 10/09 Q1012 RMK OVC MON INVIS CUF VAL FOSCHIA VIS MIN 4000,LIMV,2017-05-06T14:55:00Z,44.55,8.92,10.0,9.0,,,,2.49,29.88189,,,,,,,,,,RA BR,BKN,900,SCT,1200,,,,,IFR,,,,,,,,,,,,METAR,475.0
LIMU 061455Z 35014KT CAVOK 11/10 Q1010 RERA RMK BKN BKN053 QUK 4 QUL 1 SE VIS MAR 30 KM VIS MIN 9999,LIMU,2017-05-06T14:55:00Z,43.95,8.17,11.0,10.0,350,14,,6.21,29.822834,,,,,,,,,,,CAVOK,,,,,,,,VFR,,,,,,,,,,,,METAR,221.0
LIMK 061455Z 35007KT 0100 RA FG VV000 08/08 Q1013 RMK VAL INVIS VIS MIN 0100,LIMK,2017-05-06T14:55:00Z,45.02,7.72,8.0,8.0,350,7,,0.06,29.911417,,,,,,,,,,RA FG,OVX,0,,,,,,,LIFR,,,,,,,,,,,0,METAR,710.0
LIMH 061455Z /////KT 0100 -SN FZFG VV/// M03/M07 Q1013 RMK MON INVIS VAL INVIS VIS MIN 0100,LIMH,2017-05-06T14:55:00Z,45.93,7.7,-3.0,-7.0,,,,0.06,29.911417,,,,,,,,,,FZFG -SN,OVX,0,,,,,,,LIFR,,,,,,,,,,,,METAR,3488.0
LIEB 061455Z 04006KT 9999 FEW030 21/19 Q1010 RMK FEW QUK 2 QUL 0 VIS MAR 30 KM MON LIB VIS MIN 9999,LIEB,2017-05-06T14:55:00Z,39.93,9.72,21.0,19.0,40,6,,6.21,29.822834,,,,,,,,,,,FEW,3000,,,,,,,VFR,,,,,,,,,,,,SPECI,156.0
LICZ 061455Z 08013KT CAVOK 24/15 Q1016 RMK SKC VIS MIN 9999 WIND THR28 /////KT WIND THR10 08015KT A3002 BLU,LICZ,2017-05-06T14:55:00Z,37.38,14.92,24.0,15.0,80,13,,6.21,30.0,,,,,,,,,,,CAVOK,,,,,,,,VFR,,,,,,,,,,,,METAR,22.0
LICF 061455Z 24012KT CAVOK 20/15 Q1016 RMK SCT SCT100 SCT200 QUK 2 QUL 1 SW VIS MAR 12 KM MON LIB NC VIS MIN 9999,LICF,2017-05-06T14:55:00Z,38.2,15.55,20.0,15.0,240,12,,6.21,30.0,,,,,,,,,,,CAVOK,,,,,,,,VFR,,,,,,,,,,,,SPECI,51.0
LIBV 061455Z 18006KT 9000 -RA NSC 17/08 Q1016 RMK OVC SCT060 BKN090 VIS MIN 9000 WIND THR32 18005KT WIND THR14 19004KT BLU,LIBV,2017-05-06T14:55:00Z,40.77,16.92,17.0,8.0,180,6,,5.59,30.0,,,,,,,,,,-RA,CLR,,,,,,,,VFR,,,,,,,,,,,,SPECI,350.0
LIBQ 061455Z 27009KT 9999 SCT006 16/02 Q1019 RMK OVC BKN060 MON LIB VAL NIL VIS MIN 9999,LIBQ,2017-05-06T14:55:00Z,39.32,16.38,16.0,2.0,270,9,,6.21,30.088583,,,,,,,,,,,SCT,600,,,,,,,VFR,,,,,,,,,,,,SPECI,1720.0
LIBN 061455Z 05007KT 9999 FEW040 20/09 Q1016 RMK OVC SCT100 BKN120 VIS MIN 9999 WIND THR14 05008KT WIND THR32 05006KT BLU,LIBN,2017-05-06T14:55:00Z,40.22,18.13,20.0,9.0,50,7,,6.21,30.0,,,,,,,,,,,FEW,4000,,,,,,,VFR,,,,,,,,,,,,SPECI,61.0
OAKN 061455Z 26011KT 9999 FEW120 SCT240 31/04 A2994 RMK SLP050 Q1014 DA5990 58007,OAKN,2017-05-06T14:55:00Z,31.5,65.83,31.0,4.0,260,11,,6.21,29.940945,1005.0,,,,,,,,,,FEW,12000,SCT,24000,,,,,VFR,-0.7,,,,,,,,,,,SPECI,1010.0
OICS 061455Z 21006KT 9999 FEW030CB SCT035 BKN190 17/05 Q1016,OICS,2017-05-06T14:55:00Z,35.25,47.02,17.0,5.0,210,6,,6.21,30.0,,,,,,,,,,,FEW,3000,SCT,3500,BKN,19000,,,VFR,,,,,,,,,,,,METAR,1373.0
EHFS 061455Z AUTO 04015KT 010V070 9999 NSC 18/09 Q1009,EHFS,2017-05-06T14:55:00Z,51.45,3.6,18.0,9.0,40,15,,6.21,29.793306,,,TRUE,,,,,,,,CLR,,,,,,,,VFR,,,,,,,,,,,,METAR,32.0
LICT 061455Z 23009KT 9999 SCT013 20/18 Q1016 RMK BKN BKN090 VIS MIN 9999 WIND THR13 23007KT WHT,LICT,2017-05-06T14:55:00Z,37.92,12.5,20.0,18.0,230,9,,6.21,30.0,,,,,,,,,,,SCT,1300,,,,,,,VFR,,,,,,,,,,,,SPECI,7.0
LICG 061455Z 30009KT 6000 FEW020 19/17 Q1016 RMK FEW VIS MIN 6000 WIND THR08 WIND THR21 30007KT WHT,LICG,2017-05-06T14:55:00Z,36.82,11.97,19.0,17.0,300,9,,3.73,30.0,,,,,,,,,,,FEW,2000,,,,,,,MVFR,,,,,,,,,,,,SPECI,191.0
LIRS 061455Z 18013G27KT 9999 FEW025 20/12 Q1010 RMK BKN BKN080 VIS MIN 9999 WIND THR03 18013G23KT WIND THR21 17013KT BLU,LIRS,2017-05-06T14:55:00Z,42.75,11.07,20.0,12.0,180,13,27,6.21,29.822834,,,,,,,,,,,FEW,2500,,,,,,,VFR,,,,,,,,,,,,METAR,7.0
LIRV 061455Z 17013KT CAVOK 22/11 Q1012 RMK FEW FEW070 MON E SE LIB NC VIS MIN 9999 BLU,LIRV,2017-05-06T14:55:00Z,42.42,12.07,22.0,11.0,170,13,,6.21,29.88189,,,,,,,,,,,CAVOK,,,,,,,,VFR,,,,,,,,,,,,METAR,300.0
LIRM 061455Z 08010KT CAVOK 23/15 Q1012 RMK BKN FEW090 SCT180 VIS MIN 9999 WIND THR06 07010KT BLU,LIRM,2017-05-06T14:55:00Z,41.03,14.07,23.0,15.0,80,10,,6.21,29.88189,,,,,,,,,,,CAVOK,,,,,,,,VFR,,,,,,,,,,,,METAR,10.0
LIPF 061455Z /////KT 2500 -RA SCT010 FEW020CB BKN030 15/13 Q1011 RETS RMK OVC VIS MIN 2500,LIPF,2017-05-06T14:55:00Z,44.82,11.62,15.0,13.0,,,,1.55,29.852362,,,,,,,,,,-RA,SCT,1000,FEW,2000,BKN,3000,,,IFR,,,,,,,,,,,,METAR,10.0
LIPC 061455Z 15003KT 9999 SCT050 16/15 Q1010 RMK OVC BKN080 VIS MIN 9999 WIND THR11 /////KT WIND THR29 13005KT BLU,LIPC,2017-05-06T14:55:00Z,44.22,12.3,16.0,15.0,150,3,,6.21,29.822834,,,,,,,,,,,SCT,5000,,,,,,,VFR,,,,,,,,,,,,METAR,10.0
KADS 061455Z 22008G14KT 13SM SKC 22/06 A3004,KADS,2017-05-06T14:55:00Z,32.97,-96.82,22.0,6.0,220,8,14,13.0,30.041338,,,,,,,,,,,SKC,,,,,,,,VFR,,,,,,,,,,,,METAR,196.0
TNCE 061455Z AUTO 08015KT 040V110 //// // ///////// 30/21 Q1016 RE//,TNCE,2017-05-06T14:55:00Z,17.47,-62.97,30.0,21.0,80,15,,,30.0,,,TRUE,,,,,,,,,,,,,,,,,,,,,,,,,,,,METAR,39.0
TNCB 061455Z 10020KT 080V140 9999 FEW016 30/24 Q1012,TNCB,2017-05-06T14:55:00Z,12.13,-68.28,30.0,24.0,100,20,,6.21,29.88189,,,,,,,,,,,FEW,1600,,,,,,,VFR,,,,,,,,,,,,METAR,6.0
KDLH 061455Z 10007KT 10SM BKN016 09/04 A3002 RMK AO2 SLP177 T00890044 51013,KDLH,2017-05-06T14:55:00Z,46.85,-92.2,8.9,4.4,100,7,,10.0,30.02067,1017.7,,,TRUE,,,,,,,BKN,1600,,,,,,,MVFR,1.3,,,,,,,,,,,METAR,435.0
KEAT 061455Z AUTO 30019G23KT 10SM CLR 10/M03 A2996 RMK AO2 SLP144 T01001033 51012,KEAT,2017-05-06T14:55:00Z,47.4,-120.2,10.0,-3.3,300,19,23,10.0,29.958662,1014.4,,TRUE,TRUE,,,,,,,CLR,,,,,,,,VFR,1.2,,,,,,,,,,,METAR,377.0
KNBG 061455Z VRB04KT 10SM FEW025 22/08 A3003 RMK AO2 SLP168 T02220078 51012 $,KNBG,2017-05-06T14:55:00Z,29.82,-90.02,22.2,7.8,0,4,,10.0,30.029528,1016.8,,,TRUE,TRUE,,,,,,FEW,2500,,,,,,,VFR,1.2,,,,,,,,,,,METAR,1.0
OPMT 061455Z 00000KT 4000 HZ FEW120 39/16 Q1003 NOSIG,OPMT,2017-05-06T14:55:00Z,30.18,71.42,39.0,16.0,0,0,,2.49,29.616142,,,,,,TRUE,,,,HZ,FEW,12000,,,,,,,IFR,,,,,,,,,,,,METAR,123.0
KBYS 061455Z AUTO VRB05KT 9SM CLR 18/06 A2972 RMK AO2 SLP035 WND DATA ESTMD T01820062 51008,KBYS,2017-05-06T14:55:00Z,35.28,-116.62,18.2,6.2,0,5,,9.0,29.719488,1003.5,,TRUE,TRUE,,,,,,,CLR,,,,,,,,VFR,0.8,,,,,,,,,,,METAR,716.0
KVPS 061455Z 31009KT 10SM CLR 21/02 A2998 RMK AO2A SLP158 T02050018 52008 $,KVPS,2017-05-06T14:55:00Z,30.47,-86.52,20.5,1.8,310,9,,10.0,29.97933,1015.8,,,TRUE,TRUE,,,,,,CLR,,,,,,,,VFR,0.8,,,,,,,,,,,METAR,26.0
HLLM 061455Z 08011KT CAVOK 29/11 Q1014,HLLM,2017-05-06T14:55:00Z,32.9,13.28,29.0,11.0,80,11,,6.21,29.940945,,,,,,,,,,,CAVOK,,,,,,,,VFR,,,,,,,,,,,,METAR,11.0
KHUM 061455Z 18006KT 7SM SKC 23/14 A3002,KHUM,2017-05-06T14:55:00Z,29.57,-90.67,23.0,14.0,180,6,,7.0,30.02067,,,,,,,,,,,SKC,,,,,,,,VFR,,,,,,,,,,,,METAR,3.0
KGPI 061455Z 02004KT 10SM FEW095 16/10 A2977 RMK AO2 SLP072 T01610100 58004 $,KGPI,2017-05-06T14:55:00Z,48.32,-114.25,16.1,10.0,20,4,,10.0,29.769686,1007.2,,,TRUE,TRUE,,,,,,FEW,9500,,,,,,,VFR,-0.4,,,,,,,,,,,METAR,908.0
KFCI 061455Z AUTO 24007G17KT 10SM OVC046 A2947 RMK AO1 52007,KFCI,2017-05-06T14:55:00Z,37.4,-77.52,,,240,7,17,10.0,29.471457,,,TRUE,TRUE,,,,,,,OVC,4600,,,,,,,VFR,0.7,,,,,,,,,,,METAR,72.0
MWCR 061455Z 02004KT 310V060 9000 VCSH SCT016 30/25 Q1014 NOSIG,MWCR,2017-05-06T14:55:00Z,19.3,-81.37,30.0,25.0,20,4,,5.59,29.940945,,,,,,TRUE,,,,VCSH,SCT,1600,,,,,,,VFR,,,,,,,,,,,,METAR,3.0
KQQY 061455Z AUTO VRB02KT 12SM FEW120 27/22 A3008 RMK AO2 SLP165 T02680219 51013 $,KQQY,2017-05-06T14:55:00Z,,,26.8,21.9,0,2,,12.0,30.079725,1016.5,,TRUE,TRUE,TRUE,,,,,,FEW,12000,,,,,,,VFR,1.3,,,,,,,,,,,METAR,
EHRD 061455Z AUTO 05012KT 010V080 9999 BKN039 BKN045 18/10 Q1010 NOSIG,EHRD,2017-05-06T14:55:00Z,51.95,4.45,18.0,10.0,50,12,,6.21,29.822834,,,TRUE,,,TRUE,,,,,BKN,3900,BKN,4500,,,,,VFR,,,,,,,,,,,,METAR,-5.0
EHGG 061455Z AUTO 05012KT 030V090 9999 FEW032 BKN037 15/09 Q1012 NOSIG,EHGG,2017-05-06T14:55:00Z,53.12,6.57,15.0,9.0,50,12,,6.21,29.88189,,,TRUE,,,TRUE,,,,,FEW,3200,BKN,3700,,,,,VFR,,,,,,,,,,,,METAR,4.0
EHBK 061455Z AUTO 06013KT 030V100 9999 NSC 21/09 Q1008 NOSIG,EHBK,2017-05-06T14:55:00Z,50.92,5.77,21.0,9.0,60,13,,6.21,29.763779,,,TRUE,,,TRUE,,,,,CLR,,,,,,,,VFR,,,,,,,,,,,,METAR,116.0
EHAM 061455Z 05013KT 020V080 9999 FEW030 17/09 Q1011 NOSIG,EHAM,2017-05-06T14:55:00Z,52.32,4.78,17.0,9.0,50,13,,6.21,29.852362,,,,,,TRUE,,,,,FEW,3000,,,,,,,VFR,,,,,,,,,,,,METAR,9.0
KNKX 061455Z 21008KT 10SM OVC015 17/12 A2985 RMK AO2 SLP102 T01720117 51009 $,KNKX,2017-05-06T14:55:00Z,32.87,-117.13,17.2,11.7,210,8,,10.0,29.84941,1010.2,,,TRUE,TRUE,,,,,,OVC,1500,,,,,,,MVFR,0.9,,,,,,,,,,,METAR,146.0
KDRA 061455Z AUTO 20014KT 10SM CLR 22/M01 A2966 RMK AO2 SLP996 T02221011 58001 $,KDRA,2017-05-06T14:55:00Z,36.62,-116.03,22.2,-1.1,200,14,,10.0,29.660433,999.6,,TRUE,TRUE,TRUE,,,,,,CLR,,,,,,,,VFR,-0.1,,,,,,,,,,,METAR,1006.0
KNFG 061455Z AUTO 15005KT 7SM OVC036 17/12 A2983 RMK AO2 SLP101 T01670117 51007,KNFG,2017-05-06T14:55:00Z,33.28,-117.33,16.7,11.7,150,5,,7.0,29.828741,1010.1,,TRUE,TRUE,,,,,,,OVC,3600,,,,,,,VFR,0.7,,,,,,,,,,,METAR,24.0
KUGN 061455Z 01011G18KT 10SM FEW085 11/02 A2983 RMK AO2 SLP102 T01060022 51015,KUGN,2017-05-06T14:55:00Z,42.42,-87.87,10.6,2.2,10,11,18,10.0,29.828741,1010.2,,,TRUE,,,,,,,FEW,8500,,,,,,,VFR,1.5,,,,,,,,,,,METAR,222.0
KTIX 061455Z 26016KT 7SM SKC 22/05 A2991,KTIX,2017-05-06T14:55:00Z,28.5,-80.8,22.0,5.0,260,16,,7.0,29.911417,,,,,,,,,,,SKC,,,,,,,,VFR,,,,,,,,,,,,METAR,11.0
OAJL 061455Z 05006KT 9999 VCTS SCT100 BKN150 BKN250 30/10 A2986 RMK AO2A SLP077 T03020098 53022,OAJL,2017-05-06T14:55:00Z,34.42,70.47,30.2,9.8,50,6,,6.21,29.861221,1007.7,,,TRUE,,,,,,VCTS,SCT,10000,BKN,15000,BKN,25000,,,VFR,2.2,,,,,,,,,,,METAR,580.0
MUHA 061455Z 35009KT 320V030 9000 SCT030 26/16 Q1015,MUHA,2017-05-06T14:55:00Z,22.97,-82.42,26.0,16.0,350,9,,5.59,29.970472,,,,,,,,,,,SCT,3000,,,,,,,VFR,,,,,,,,,,,,METAR,64.0
KSUN 061455Z 32008KT 10SM FEW040 SCT120 12/07 A2982,KSUN,2017-05-06T14:55:00Z,43.5,-114.28,12.0,7.0,320,8,,10.0,29.819881,,,,,,,,,,,FEW,4000,SCT,12000,,,,,VFR,,,,,,,,,,,,METAR,1620.0
KOXC 061455Z 17012G21KT 7SM SCT008 BKN038 14/11 A2946,KOXC,2017-05-06T14:55:00Z,41.47,-73.13,14.0,11.0,170,12,21,7.0,29.459646,,,,,,,,,,,SCT,800,BKN,3800,,,,,VFR,,,,,,,,,,,,METAR,222.0
KHSA 061455Z 00000KT 10SM CLR 21/07 A3003,KHSA,2017-05-06T14:55:00Z,30.37,-89.45,21.0,7.0,0,0,,10.0,30.029528,,,,,,,,,,,CLR,,,,,,,,VFR,,,,,,,,,,,,METAR,7.0
KLIC 061455Z AUTO 17008KT 10SM CLR 17/07 A3003 RMK AO2 SLP116 T01670072 50001,KLIC,2017-05-06T14:55:00Z,39.27,-103.67,16.7,7.2,170,8,,10.0,30.029528,1011.6,,TRUE,TRUE,,,,,,,CLR,,,,,,,,VFR,0.1,,,,,,,,,,,METAR,1630.0
KLLJ 061455Z AUTO 00000KT 10SM CLR 11/08 A2984 RMK AO2 SLP068 60001 T01110083 58009 $,KLLJ,2017-05-06T14:55:00Z,44.52,-114.22,11.1,8.3,0,0,,10.0,29.840551,1006.8,,TRUE,TRUE,TRUE,,,,,,CLR,,,,,,,,VFR,-0.9,,,,,,0.01,,,,,METAR,1536.0
KMKG 061455Z 01015G23KT 10SM FEW037 12/02 A2977 RMK AO2 SLP084 T01170017 51008,KMKG,2017-05-06T14:55:00Z,43.17,-86.23,11.7,1.7,10,15,23,10.0,29.769686,1008.4,,,TRUE,,,,,,,FEW,3700,,,,,,,VFR,0.8,,,,,,,,,,,METAR,191.0
KPHP 061455Z AUTO 13016KT 10SM CLR 21/03 A2991 RMK AO2 SLP114 T02060028 50002,KPHP,2017-05-06T14:55:00Z,44.05,-101.6,20.6,2.8,130,16,,10.0,29.911417,1011.4,,TRUE,TRUE,,,,,,,CLR,,,,,,,,VFR,0.2,,,,,,,,,,,METAR,672.0
KRNO 061455Z 36005KT 10SM FEW075 BKN170 OVC230 12/03 A2973 RMK AO2 SLP026 T01220033 56006,KRNO,2017-05-06T14:55:00Z,39.5,-119.77,12.2,3.3,360,5,,10.0,29.731298,1002.6,,,TRUE,,,,,,,FEW,7500,BKN,17000,OVC,23000,,,VFR,-0.6,,,,,,,,,,,METAR,1342.0
KSCK 061455Z 26010KT 10SM CLR 12/06 A2979 RMK AO2 SLP088 T01170056 55000,KSCK,2017-05-06T14:55:00Z,37.88,-121.22,11.7,5.6,260,10,,10.0,29.790354,1008.8,,,TRUE,,,,,,,CLR,,,,,,,,VFR,0.0,,,,,,,,,,,METAR,10.0
KHON 061455Z AUTO 00000KT 10SM CLR 18/03 A2996 RMK AO2 SLP142 T01830033 50004,KHON,2017-05-06T14:55:00Z,44.38,-98.23,18.3,3.3,0,0,,10.0,29.958662,1014.2,,TRUE,TRUE,,,,,,,CLR,,,,,,,,VFR,0.4,,,,,,,,,,,METAR,390.0
KINL 061455Z AUTO 07006KT 10SM OVC006 06/04 A3007 RMK AO2 SLP192 T00610039 51017,KINL,2017-05-06T14:55:00Z,48.57,-93.4,6.1,3.9,70,6,,10.0,30.070866,1019.2,,TRUE,TRUE,,,,,,,OVC,600,,,,,,,IFR,1.7,,,,,,,,,,,METAR,360.0
KIRK 061455Z AUTO 02012G21KT 10SM CLR 18/06 A2988 RMK AO2 SLP122 T01830061 52024,KIRK,2017-05-06T14:55:00Z,40.1,-92.55,18.3,6.1,20,12,21,10.0,29.878937,1012.2,,TRUE,TRUE,,,,,,,CLR,,,,,,,,VFR,2.4,,,,,,,,,,,METAR,293.0
KAAT 061455Z AUTO 36012KT 10SM OVC034 06/01 A2985 RMK AO2 SLP093 T00610006 58002 $,KAAT,2017-05-06T14:55:00Z,41.48,-120.57,6.1,0.6,360,12,,10.0,29.84941,1009.3,,TRUE,TRUE,TRUE,,,,,,OVC,3400,,,,,,,VFR,-0.2,,,,,,,,,,,METAR,1331.0
KANJ 061455Z AUTO 01014G20KT 10SM CLR 11/M03 A2973 RMK AO2 SLP071 T01111028 58004,KANJ,2017-05-06T14:55:00Z,46.47,-84.37,11.1,-2.8,10,14,20,10.0,29.731298,1007.1,,TRUE,TRUE,,,,,,,CLR,,,,,,,,VFR,-0.4,,,,,,,,,,,METAR,218.0
KAST 061455Z AUTO 00000KT 10SM SCT060 BKN075 08/06 A3017 RMK AO2 CIG 060 RWY 08 SLP215 60000 T00780061 53006,KAST,2017-05-06T14:55:00Z,46.15,-123.88,7.8,6.1,0,0,,10.0,30.171259,1021.5,,TRUE,TRUE,,,,,,,SCT,6000,BKN,7500,,,,,VFR,0.6,,,,,,0.005,,,,,METAR,3.0
PASV 061455Z AUTO 13011G21KT 10SM OVC060 07/M06 A2965 RMK AO2 SLP042 T00681060 57005,PASV,2017-05-06T14:55:00Z,61.1,-155.57,6.8,-6.0,130,11,21,10.0,29.648623,1004.2,,TRUE,TRUE,,,,,,,OVC,6000,,,,,,,VFR,-0.5,,,,,,,,,,,METAR,484.0
OAHR 061455Z 32004KT 9999 FEW080 28/10 Q1016 RMK BLU,OAHR,2017-05-06T14:55:00Z,34.22,62.22,28.0,10.0,320,4,,6.21,30.0,,,,,,,,,,,FEW,8000,,,,,,,VFR,,,,,,,,,,,,METAR,964.0
KADM 061455Z 20005KT 10SM SKC 21/11 A3002,KADM,2017-05-06T14:55:00Z,34.28,-97.02,21.0,11.0,200,5,,10.0,30.02067,,,,,,,,,,,SKC,,,,,,,,VFR,,,,,,,,,,,,METAR,232.0
TXKF 061455Z 16019KT 9999 FEW020 BKN300 24/19 Q1019 ,TXKF,2017-05-06T14:55:00Z,32.37,-64.68,24.0,19.0,160,19,,6.21,30.088583,,,,,,,,,,,FEW,2000,BKN,30000,,,,,VFR,,,,,,,,,,,,METAR,6.0
RJOI 061455Z 28006KT 9999 FEW025 BKN120 OVC230 19/07 A2995 RMK SLP143 T01940067 402280183 53010,RJOI,2017-05-06T14:55:00Z,34.13,132.22,19.4,6.7,280,6,,6.21,29.949802,1014.3,,,,,,,,,,FEW,2500,BKN,12000,OVC,23000,,,VFR,1.0,,,22.8,18.3,,,,,,,METAR,2.0
PATL 061455Z AUTO 00000KT 10SM SCT140 04/M05 A2972 RMK AO2 SLP069 T00431047 54001 $,PATL,2017-05-06T14:55:00Z,62.9,-155.97,4.3,-4.7,0,0,,10.0,29.719488,1006.9,,TRUE,TRUE,TRUE,,,,,,SCT,14000,,,,,,,VFR,,,,,,,,,,,,METAR,294.0
PALU 061455Z AUTO 08012KT 10SM OVC003 M06/M07 A2997 RMK AO2 SLP149 T10621066 57004,PALU,2017-05-06T14:55:00Z,68.88,-166.1,-6.2,-6.6,80,12,,10.0,29.970472,1014.9,,TRUE,TRUE,,,,,,,OVC,300,,,,,,,LIFR,-0.4,,,,,,,,,,,METAR,3.0
PAIM 061455Z AUTO 00000KT 10SM BKN060 03/01 A2980 RMK AO2 SLP098 T00290007 58004,PAIM,2017-05-06T14:55:00Z,66.0,-153.7,2.9,0.7,0,0,,10.0,29.799213,1009.8,,TRUE,TRUE,,,,,,,BKN,6000,,,,,,,VFR,-0.4,,,,,,,,,,,METAR,389.0
KGXA 061455Z AUTO 29003KT 13/08 A2976 RMK AO2 SLP056 WND DATA ESTMD T01310076 50003 TSNO $,KGXA,2017-05-06T14:55:00Z,34.57,-117.67,13.1,7.6,290,3,,,29.760826,1005.6,,TRUE,TRUE,TRUE,,TRUE,,,,,,,,,,,,,0.3,,,,,,,,,,,METAR,923.0
FJDG 061455Z 13012KT 9999 FEW020 BKN080 28/26 A2990 RMK SLP122 8/130 T02830258 52020,FJDG,2017-05-06T14:55:00Z,-7.32,72.42,28.3,25.8,130,12,,6.21,29.899607,1012.2,,,,,,,,,,FEW,2000,BKN,8000,,,,,VFR,2.0,,,,,,,,,,,METAR,3.0
KQZF 061455Z AUTO 07005KT 9999 FEW190 42/06 A2972 RMK AO2 SLP035 WND DATA ESTMD T04190061 57024,KQZF,2017-05-06T14:55:00Z,,,41.9,6.1,70,5,,6.21,29.719488,1003.5,,TRUE,TRUE,,,,,,,FEW,19000,,,,,,,VFR,-2.4,,,,,,,,,,,METAR,
KQVF 061455Z AUTO 20007KT 9999 CLR 28/24 A2987 RMK AO2 SLP115 WND DATA ESTMD T02770236 55003,KQVF,2017-05-06T14:55:00Z,,,27.7,23.6,200,7,,6.21,29.870079,1011.5,,TRUE,TRUE,,,,,,,CLR,,,,,,,,VFR,-0.3,,,,,,,,,,,METAR,
KQBL 061455Z AUTO VRB04KT 10SM CLR 20/03 A3001 RMK AO2 SLP161 WND DATA ESTMD T02030034 52008,KQBL,2017-05-06T14:55:00Z,,,20.3,3.4,0,4,,10.0,30.008858,1016.1,,TRUE,TRUE,,,,,,,CLR,,,,,,,,VFR,0.8,,,,,,,,,,,METAR,
PTRO 061455Z 00000KT 14SM SCT016 BKN300 26/25 A2985 ,PTRO,2017-05-06T14:55:00Z,7.37,134.55,26.0,25.0,0,0,,14.0,29.84941,,,,,,,,,,,SCT,1600,BKN,30000,,,,,VFR,,,,,,,,,,,,METAR,54.0
EHQE 061455Z AUTO ///18KT 6000 NSC 11/09 Q1012,EHQE,2017-05-06T14:55:00Z,52.92,4.15,11.0,9.0,,,,3.73,29.88189,,,TRUE,,,,,,,,CLR,,,,,,,,MVFR,,,,,,,,,,,,METAR,50.0
EHPG 061455Z AUTO 03021KT 7000 NSC 11/09 Q1012,EHPG,2017-05-06T14:55:00Z,52.37,3.35,11.0,9.0,30,21,,4.35,29.88189,,,TRUE,,,,,,,,CLR,,,,,,,,MVFR,,,,,,,,,,,,METAR,50.0
EHMG 061455Z AUTO 07019KT 9999 NCD 10/08 Q1013,EHMG,2017-05-06T14:55:00Z,53.62,4.97,10.0,8.0,70,19,,6.21,29.911417,,,TRUE,,,,,,,,CLR,,,,,,,,VFR,,,,,,,,,,,,METAR,50.0
EHMA 061455Z AUTO 06017KT 9000 NSC 10/08 Q1013,EHMA,2017-05-06T14:55:00Z,53.5,5.95,10.0,8.0,60,17,,5.59,29.911417,,,TRUE,,,,,,,,CLR,,,,,,,,VFR,,,,,,,,,,,,METAR,50.0
EHKV 061455Z AUTO 04018KT 9999 NSC 10/07 Q1013,EHKV,2017-05-06T14:55:00Z,53.27,3.63,10.0,7.0,40,18,,6.21,29.911417,,,TRUE,,,,,,,,CLR,,,,,,,,VFR,,,,,,,,,,,,METAR,50.0
EHJA 061455Z AUTO 05017KT 9999 BKN006/// OVC008/// 09/07 Q1015,EHJA,2017-05-06T14:55:00Z,53.82,2.95,9.0,7.0,50,17,,6.21,29.970472,,,TRUE,,,,,,,,BKN,600,OVC,800,,,,,IFR,,,,,,,,,,,,METAR,50.0
EHHW 061455Z AUTO VRB08KT 9999 OVC010/// 09/06 Q1014,EHHW,2017-05-06T14:55:00Z,,,9.0,6.0,0,8,,6.21,29.940945,,,TRUE,,,,,,,,OVC,1000,,,,,,,MVFR,,,,,,,,,,,,METAR,
EHFZ 061455Z AUTO 07018KT //// // FEW007 BKN009 OVC010 09/07 Q1015 RE//,EHFZ,2017-05-06T14:55:00Z,54.12,4.02,9.0,7.0,70,18,,,29.970472,,,TRUE,,,,,,,,FEW,700,BKN,900,OVC,1000,,,,,,,,,,,,,,,METAR,50.0
EHFD 061455Z AUTO 06009KT 8000 OVC005/// 08/07 Q1016,EHFD,2017-05-06T14:55:00Z,54.85,4.7,8.0,7.0,60,9,,4.97,30.0,,,TRUE,,,,,,,,OVC,500,,,,,,,IFR,,,,,,,,,,,,METAR,50.0
EHDV 061455Z AUTO VRB12KT 9999 FEW009/// OVC010/// 08/06 Q1015,EHDV,2017-05-06T14:55:00Z,54.32,2.93,8.0,6.0,0,12,,6.21,29.970472,,,TRUE,,,,,,,,FEW,900,OVC,1000,,,,,MVFR,,,,,,,,,,,,METAR,50.0
EHAK 061455Z AUTO 04011KT 9999 NSC 10/07 Q1016,EHAK,2017-05-06T14:55:00Z,55.42,3.82,10.0,7.0,40,11,,6.21,30.0,,,TRUE,,,,,,,,CLR,,,,,,,,VFR,,,,,,,,,,,,METAR,50.0
KCVW 061455Z AUTO 00000KT 10SM CLR 23/10 A3002 RMK A01,KCVW,2017-05-06T14:55:00Z,29.78,-93.3,23.0,10.0,0,0,,10.0,30.02067,,,TRUE,TRUE,,,,,,,CLR,,,,,,,,VFR,,,,,,,,,,,,METAR,1.0
KCQM 061455Z AUTO 08003KT 10SM OVC006 06/04 A3006 RMK AO2,KCQM,2017-05-06T14:55:00Z,47.82,-92.68,6.0,4.0,80,3,,10.0,30.059055,,,TRUE,TRUE,,,,,,,OVC,600,,,,,,,IFR,,,,,,,,,,,,METAR,404.0
EBLB 061455Z AUTO 17009KT 9999 SCT052/// BKN140/// 16/05 Q1009 BLU,EBLB,2017-05-06T14:55:00Z,50.47,6.17,16.0,5.0,170,9,,6.21,29.793306,,,TRUE,,,,,,,,SCT,5200,BKN,14000,,,,,VFR,,,,,,,,,,,,METAR,570.0
EBFS 061455Z 17010KT 9999 -RA FEW040 BKN060 12/10 Q1009 BLU,EBFS,2017-05-06T14:55:00Z,50.22,4.65,12.0,10.0,170,10,,6.21,29.793306,,,,,,,,,,-RA,FEW,4000,BKN,6000,,,,,VFR,,,,,,,,,,,,METAR,299.0
EBFN 061455Z AUTO 03018KT 9999 BKN190/// 14/10 Q1009 BLU,EBFN,2017-05-06T14:55:00Z,51.07,2.63,14.0,10.0,30,18,,6.21,29.793306,,,TRUE,,,,,,,,BKN,19000,,,,,,,VFR,,,,,,,,,,,,METAR,9.0
EBDT 061455Z AUTO 07007KT 9999 BKN200/// 20/07 Q1008 BLU,EBDT,2017-05-06T14:55:00Z,51.02,5.07,20.0,7.0,70,7,,6.21,29.763779,,,TRUE,,,,,,,,BKN,20000,,,,,,,VFR,,,,,,,,,,,,METAR,54.0
EBCV 061455Z AUTO 04010KT 9999 SCT065/// SCT088/// BKN160/// 19/08 Q1007 BLU,EBCV,2017-05-06T14:55:00Z,50.57,3.82,19.0,8.0,40,10,,6.21,29.734253,,,TRUE,,,,,,,,SCT,6500,SCT,8800,BKN,16000,,,VFR,,,,,,,,,,,,METAR,63.0
EBBL 061455Z AUTO 06010KT 9999 FEW220/// 22/06 Q1008 BLU,EBBL,2017-05-06T14:55:00Z,51.17,5.47,22.0,6.0,60,10,,6.21,29.763779,,,TRUE,,,,,,,,FEW,22000,,,,,,,VFR,,,,,,,,,,,,METAR,64.0
OPLA 061455Z 28003KT 4000 HZ NSC 36/11 Q1006 A29.73 NOSIG,OPLA,2017-05-06T14:55:00Z,31.52,74.4,36.0,11.0,280,3,,2.49,29.704725,,,,,,TRUE,,,,HZ,CLR,,,,,,,,IFR,,,,,,,,,,,,METAR,217.0
ORBD 061455Z 11008G14KT 9999 -TSRA SCT049CB BKN080 BKN120 25/15 A2991 RMK CONS LTGICCCCG OHD AND SE-SW-NW-N TS OHD AND SE-SW-NW-N MOV NE PRESRR SLP128 WND DATA/ALSTG/SLP ESTMD 60001 53039,ORBD,2017-05-06T14:55:00Z,33.93,44.37,25.0,15.0,110,8,14,6.21,29.911417,1012.8,,,,,,,,,-TSRA,SCT,4900,BKN,8000,BKN,12000,,,VFR,3.9,,,,,,0.01,,,,,METAR,49.0
EHWO 061455Z AUTO 05012KT 010V090 9999 FEW041 BKN210 20/11 Q1009 BLU,EHWO,2017-05-06T14:55:00Z,51.45,4.32,20.0,11.0,50,12,,6.21,29.793306,,,TRUE,,,,,,,,FEW,4100,BKN,21000,,,,,VFR,,,,,,,,,,,,METAR,17.0
EHVL 061455Z AUTO 06018KT 9999 NCD 14/09 Q1012 BLU,EHVL,2017-05-06T14:55:00Z,53.23,4.92,14.0,9.0,60,18,,6.21,29.88189,,,TRUE,,,,,,,,CLR,,,,,,,,VFR,,,,,,,,,,,,METAR,5.0
EHVK 061455Z AUTO 05012KT 020V090 9999 SCT044 BKN048 19/09 Q1009 BLU,EHVK,2017-05-06T14:55:00Z,51.63,5.7,19.0,9.0,50,12,,6.21,29.793306,,,TRUE,,,,,,,,SCT,4400,BKN,4800,,,,,VFR,,,,,,,,,,,,METAR,21.0
EHGR 061455Z AUTO 09011KT 040V130 9999 SCT049 OVC210 20/08 Q1009 BLU,EHGR,2017-05-06T14:55:00Z,51.57,4.92,20.0,8.0,90,11,,6.21,29.793306,,,TRUE,,,,,,,,SCT,4900,OVC,21000,,,,,VFR,,,,,,,,,,,,METAR,13.0
EHEH 061455Z AUTO 05010KT 010V110 9999 FEW049 20/09 Q1009 BLU 07012G22KT 9999 FEW045,EHEH,2017-05-06T14:55:00Z,51.45,5.38,20.0,9.0,50,10,,6.21,29.793306,,,TRUE,,,,,,,,FEW,4900,FEW,4500,,,,,VFR,,,,,,,,,,,,METAR,22.0
EHDL 061455Z AUTO 07011KT 360V140 9999 BKN044 18/08 Q1010 BLU,EHDL,2017-05-06T14:55:00Z,52.07,5.87,18.0,8.0,70,11,,6.21,29.822834,,,TRUE,,,,,,,,BKN,4400,,,,,,,VFR,,,,,,,,,,,,METAR,52.0
PALJ 061454Z 07020KT 30SM SCT060 BKN100 09/03 A2965 RMK FIRST EST PASS OPN NOSPECI,PALJ,2017-05-06T14:54:00Z,60.2,-154.3,9.0,3.0,70,20,,30.0,29.648623,,,,,,,,,,,SCT,6000,BKN,10000,,,,,VFR,,,,,,,,,,,,METAR,81.0
KWLD 061454Z AUTO 25009KT 10SM CLR 20/09 A3000 RMK AO2 SLP151 T02000094 50006,KWLD,2017-05-06T14:54:00Z,37.17,-97.03,20.0,9.4,250,9,,10.0,30.0,1015.1,,TRUE,TRUE,,,,,,,CLR,,,,,,,,VFR,0.6,,,,,,,,,,,METAR,350.0
KWAL 061454Z AUTO 21013KT 10SM FEW027 SCT033 OVC040 17/11 A2946 RMK AO2 SLP975 T01670111 50005,KWAL,2017-05-06T14:54:00Z,37.93,-75.47,16.7,11.1,210,13,,10.0,29.459646,997.5,,TRUE,TRUE,,,,,,,FEW,2700,SCT,3300,OVC,4000,,,VFR,0.5,,,,,,,,,,,METAR,14.0
KVTA 061454Z AUTO 32015G25KT 10SM FEW034 SCT042 12/04 A2960 RMK AO2 SLP024 T01220039 51006,KVTA,2017-05-06T14:54:00Z,40.02,-82.47,12.2,3.9,320,15,25,10.0,29.601377,1002.4,,TRUE,TRUE,,,,,,,FEW,3400,SCT,4200,,,,,VFR,0.6,,,,,,,,,,,METAR,268.0
KVSF 061454Z AUTO 00000KT 10SM -RA SCT010 OVC015 12/11 A2948 RMK AO2 RAB35 SLP983 P0000 60006 T01170111 56004,KVSF,2017-05-06T14:54:00Z,43.35,-72.52,11.7,11.1,0,0,,10.0,29.480314,998.3,,TRUE,TRUE,,,,,,-RA,SCT,1000,OVC,1500,,,,,MVFR,-0.4,,,,,0.005,0.06,,,,,METAR,175.0
KVAY 061454Z AUTO VRB06KT 10SM BKN035 OVC047 17/09 A2939 RMK AO2 SLP952 T01670094 50005,KVAY,2017-05-06T14:54:00Z,39.93,-74.83,16.7,9.4,0,6,,10.0,29.388779,995.2,,TRUE,TRUE,,,,,,,BKN,3500,OVC,4700,,,,,VFR,0.5,,,,,,,,,,,METAR,15.0
KUZA 061454Z AUTO 30011G17KT 10SM CLR 16/04 A2967 RMK AO2 SLP043 60000 T01610039 51015,KUZA,2017-05-06T14:54:00Z,34.98,-81.05,16.1,3.9,300,11,17,10.0,29.66929,1004.3,,TRUE,TRUE,,,,,,,CLR,,,,,,,,VFR,1.5,,,,,,0.005,,,,,METAR,202.0
KUIN 061454Z AUTO 03015KT 10SM CLR 15/09 A2983 RMK AO2 SLP101 T01500089 53035,KUIN,2017-05-06T14:54:00Z,39.95,-91.2,15.0,8.9,30,15,,10.0,29.828741,1010.1,,TRUE,TRUE,,,,,,,CLR,,,,,,,,VFR,3.5,,,,,,,,,,,METAR,234.0
KOLS 061454Z AUTO 16014G22KT 10SM CLR 24/02 A2992 RMK AO2 SLP062 T02390022 53004,KOLS,2017-05-06T14:54:00Z,31.42,-110.85,23.9,2.2,160,14,22,10.0,29.920275,1006.2,,TRUE,TRUE,,,,,,,CLR,,,,,,,,VFR,0.4,,,,,,,,,,,METAR,1184.0
KOLM 061454Z COR 18003KT 10SM BKN019 06/05 A3015 RMK AO2 SLP211 T00560050 53005 $,KOLM,2017-05-06T14:54:00Z,46.97,-122.9,5.6,5.0,180,3,,10.0,30.15059,1021.1,TRUE,,TRUE,TRUE,,,,,,BKN,1900,,,,,,,MVFR,0.5,,,,,,,,,,,METAR,58.0
KOFP 061454Z AUTO 25009KT 10SM SCT030 BKN038 OVC049 16/08 A2946 RMK AO2 SLP976 T01560083 51011,KOFP,2017-05-06T14:54:00Z,37.7,-77.43,15.6,8.3,250,9,,10.0,29.459646,997.6,,TRUE,TRUE,,,,,,,SCT,3000,BKN,3800,OVC,4900,,,VFR,1.1,,,,,,,,,,,METAR,62.0
KMVL 061454Z AUTO 35005KT 10SM OVC014 11/10 A2947 RMK AO2 SLP982 60013 T01110100 58015,KMVL,2017-05-06T14:54:00Z,44.53,-72.62,11.1,10.0,350,5,,10.0,29.471457,998.2,,TRUE,TRUE,,,,,,,OVC,1400,,,,,,,MVFR,-1.5,,,,,,0.13,,,,,METAR,234.0
KMRY 061454Z 27011G26KT 9SM SCT028 BKN041 OVC048 11/06 A2992 RMK AO2 PK WND 27026/1447 SLP144 T01060056 56003,KMRY,2017-05-06T14:54:00Z,36.58,-121.85,10.6,5.6,270,11,26,9.0,29.920275,1014.4,,,TRUE,,,,,,,SCT,2800,BKN,4100,OVC,4800,,,VFR,-0.3,,,,,,,,,,,METAR,66.0
KMOT 061454Z 12009KT 10SM CLR 18/03 A2991 RMK AO2 SLP126 T01780028 58006,KMOT,2017-05-06T14:54:00Z,48.25,-101.27,17.8,2.8,120,9,,10.0,29.911417,1012.6,,,TRUE,,,,,,,CLR,,,,,,,,VFR,-0.6,,,,,,,,,,,METAR,519.0
KMKC 061454Z 33009KT 10SM CLR 21/09 A2990 RMK AO2 SLP121 T02110094 51010,KMKC,2017-05-06T14:54:00Z,39.12,-94.6,21.1,9.4,330,9,,10.0,29.899607,1012.1,,,TRUE,,,,,,,CLR,,,,,,,,VFR,1.0,,,,,,,,,,,METAR,227.0
KMGJ 061454Z AUTO 16018G31KT 10SM FEW030 SCT043 BKN065 18/11 A2935 RMK AO2 PK WND 15031/1453 SLP938 T01830106 58003 TSNO,KMGJ,2017-05-06T14:54:00Z,41.52,-74.27,18.3,10.6,160,18,31,10.0,29.350393,993.8,,TRUE,TRUE,,,TRUE,,,,FEW,3000,SCT,4300,BKN,6500,,,VFR,-0.3,,,,,,,,,,,METAR,108.0
KMFI 061454Z AUTO 02009G19KT 10SM CLR 11/03 A2993 RMK AO2 SLP139 T01060028 51016,KMFI,2017-05-06T14:54:00Z,44.63,-90.18,10.6,2.8,20,9,19,10.0,29.929134,1013.9,,TRUE,TRUE,,,,,,,CLR,,,,,,,,VFR,1.6,,,,,,,,,,,METAR,389.0
KMEM 061454Z 26008KT 10SM CLR 21/11 A2991 RMK AO2 SLP126 T02060106 50004,KMEM,2017-05-06T14:54:00Z,35.07,-89.98,20.6,10.6,260,8,,10.0,29.911417,1012.6,,,TRUE,,,,,,,CLR,,,,,,,,VFR,0.4,,,,,,,,,,,METAR,86.0
KLYH 061454Z VRB05G17KT 10SM BKN042 OVC060 12/04 A2953 RMK AO2 RAB04E11 SLP996 P0000 60000 T01220044 51020,KLYH,2017-05-06T14:54:00Z,37.32,-79.2,12.2,4.4,0,5,17,10.0,29.530512,999.6,,,TRUE,,,,,,,BKN,4200,OVC,6000,,,,,VFR,2.0,,,,,0.005,0.005,,,,,METAR,295.0
KLWT 061454Z AUTO 00000KT 10SM CLR 17/08 A2978 RMK AO2 SLP050 T01670083 50002,KLWT,2017-05-06T14:54:00Z,47.03,-109.47,16.7,8.3,0,0,,10.0,29.778543,1005.0,,TRUE,TRUE,,,,,,,CLR,,,,,,,,VFR,0.2,,,,,,,,,,,METAR,1270.0
KLEX 061454Z 28008KT 10SM BKN060 OVC075 08/04 A2975 RMK AO2 SLP077 T00830039 53010 $,KLEX,2017-05-06T14:54:00Z,38.03,-84.6,8.3,3.9,280,8,,10.0,29.749016,1007.7,,,TRUE,TRUE,,,,,,BKN,6000,OVC,7500,,,,,VFR,1.0,,,,,,,,,,,METAR,300.0
KLBT 061454Z AUTO 28009KT 10SM SCT027 BKN037 OVC049 14/09 A2963 RMK AO2 SLP031 T01440089 51014,KLBT,2017-05-06T14:54:00Z,34.6,-79.07,14.4,8.9,280,9,,10.0,29.630905,1003.1,,TRUE,TRUE,,,,,,,SCT,2700,BKN,3700,OVC,4900,,,VFR,1.4,,,,,,,,,,,METAR,37.0
KLAF 061454Z 36010G19KT 10SM CLR 12/03 A2976 RMK AO2 SLP077 T01170033 53005,KLAF,2017-05-06T14:54:00Z,40.42,-86.93,11.7,3.3,360,10,19,10.0,29.760826,1007.7,,,TRUE,,,,,,,CLR,,,,,,,,VFR,0.5,,,,,,,,,,,METAR,182.0
KJAN 061454Z 23008KT 10SM CLR 21/10 A3000 RMK AO2 SLP157 T02110100 51007,KJAN,2017-05-06T14:54:00Z,32.32,-90.08,21.1,10.0,230,8,,10.0,30.0,1015.7,,,TRUE,,,,,,,CLR,,,,,,,,VFR,0.7,,,,,,,,,,,METAR,91.0
KISW 061454Z AUTO 35010KT 10SM CLR 12/02 A2993 RMK AO2 SLP138 T01170022 51016,KISW,2017-05-06T14:54:00Z,44.37,-89.83,11.7,2.2,350,10,,10.0,29.929134,1013.8,,TRUE,TRUE,,,,,,,CLR,,,,,,,,VFR,1.6,,,,,,,,,,,METAR,307.0
KIPT 061454Z 17007KT 10SM SCT023 OVC060 17/11 A2927 RMK AO2 SLP908 60000 T01670111 53002,KIPT,2017-05-06T14:54:00Z,41.25,-76.92,16.7,11.1,170,7,,10.0,29.27067,990.8,,,TRUE,,,,,,,SCT,2300,OVC,6000,,,,,VFR,0.2,,,,,,0.005,,,,,METAR,164.0
KINT 061454Z 28010G18KT 10SM BKN037 OVC046 12/03 A2961 RMK AO2 SLP023 60000 T01220033 51014,KINT,2017-05-06T14:54:00Z,36.13,-80.22,12.2,3.3,280,10,18,10.0,29.610237,1002.3,,,TRUE,,,,,,,BKN,3700,OVC,4600,,,,,VFR,1.4,,,,,,0.005,,,,,METAR,291.0
KIND 061454Z 32014KT 10SM FEW070 SCT110 13/02 A2974 RMK AO2 SLP070 60000 T01280022 53007,KIND,2017-05-06T14:54:00Z,39.72,-86.3,12.8,2.2,320,14,,10.0,29.740158,1007.0,,,TRUE,,,,,,,FEW,7000,SCT,11000,,,,,VFR,0.7,,,,,,0.005,,,,,METAR,241.0
KIMT 061454Z AUTO 35014G21KT 10SM BKN041 11/M01 A2989 RMK AO2 SLP131 T01061006 51008,KIMT,2017-05-06T14:54:00Z,45.82,-88.12,10.6,-0.6,350,14,21,10.0,29.890747,1013.1,,TRUE,TRUE,,,,,,,BKN,4100,,,,,,,VFR,0.8,,,,,,,,,,,METAR,349.0
KILN 061454Z AUTO 28009KT 10SM FEW023 SCT060 BKN110 11/06 A2968 RMK AO2 SLP060 T01060056 51007,KILN,2017-05-06T14:54:00Z,39.43,-83.8,10.6,5.6,280,9,,10.0,29.681103,1006.0,,TRUE,TRUE,,,,,,,FEW,2300,SCT,6000,BKN,11000,,,VFR,0.7,,,,,,,,,,,METAR,322.0
KHWD 061454Z COR 31008KT 10SM SCT030 12/03 A2983 RMK AO2 SLP109 T01220028 56002,KHWD,2017-05-06T14:54:00Z,37.67,-122.12,12.2,2.8,310,8,,10.0,29.828741,1010.9,TRUE,,TRUE,,,,,,,SCT,3000,,,,,,,VFR,-0.2,,,,,,,,,,,SPECI,21.0
KGSO 061454Z 30015G20KT 10SM FEW025 BKN045 OVC085 12/06 A2959 RMK AO2 SLP016 T01220056 51018,KGSO,2017-05-06T14:54:00Z,36.1,-79.95,12.2,5.6,300,15,20,10.0,29.589567,1001.6,,,TRUE,,,,,,,FEW,2500,BKN,4500,OVC,8500,,,VFR,1.8,,,,,,,,,,,METAR,275.0
KGED 061454Z AUTO 10SM 16/11 A2944 RMK AO2 PK WND 21026/1421 RAB24E47 SLP968 P0000 60000 T01610106 53008 PWINO $,KGED,2017-05-06T14:54:00Z,38.68,-75.37,16.1,10.6,,,,10.0,29.438976,996.8,,TRUE,TRUE,TRUE,,,,TRUE,,,,,,,,,,,0.8,,,,,0.005,0.005,,,,,METAR,19.0
KGCN 061454Z 17010KT 10SM CLR 16/M02 A3001 RMK AO2 SLP065 T01561017 51007,KGCN,2017-05-06T14:54:00Z,35.95,-112.15,15.6,-1.7,170,10,,10.0,30.008858,1006.5,,,TRUE,,,,,,,CLR,,,,,,,,VFR,0.7,,,,,,,,,,,METAR,2016.0
KGCK 061454Z 24008KT 10SM CLR 19/08 A2999 RMK AO2 SLP135 T01940078 50002,KGCK,2017-05-06T14:54:00Z,37.92,-100.72,19.4,7.8,240,8,,10.0,29.991142,1013.5,,,TRUE,,,,,,,CLR,,,,,,,,VFR,0.2,,,,,,,,,,,METAR,877.0
KFZY 061454Z AUTO 27005KT 1 3/4SM BR OVC004 09/09 A2931 RMK AO2 RAE18 SLP924 P0000 60005 T00940089 53005,KFZY,2017-05-06T14:54:00Z,43.35,-76.38,9.4,8.9,270,5,,1.75,29.309055,992.4,,TRUE,TRUE,,,,,,BR,OVC,400,,,,,,,LIFR,0.5,,,,,0.005,0.05,,,,,METAR,138.0
KFWA 061454Z 33011KT 10SM SCT050 12/06 A2969 RMK AO2 SLP056 T01220056 53003 $,KFWA,2017-05-06T14:54:00Z,40.98,-85.18,12.2,5.6,330,11,,10.0,29.68996,1005.6,,,TRUE,TRUE,,,,,,SCT,5000,,,,,,,VFR,0.3,,,,,,,,,,,METAR,248.0
KEWN 061454Z 22013G17KT 10SM BKN034 OVC041 16/10 A2959 RMK AO2 SLP021 T01610100 50000,KEWN,2017-05-06T14:54:00Z,35.07,-77.05,16.1,10.0,220,13,17,10.0,29.589567,1002.1,,,TRUE,,,,,,,BKN,3400,OVC,4100,,,,,VFR,0.0,,,,,,,,,,,METAR,3.0
KEVV 061454Z 07009KT 10SM SCT009 SCT095 12/08 A2975 RMK AO2 SLP075 60002 T01170083 51001,KEVV,2017-05-06T14:54:00Z,38.05,-87.52,11.7,8.3,70,9,,10.0,29.749016,1007.5,,,TRUE,,,,,,,SCT,900,SCT,9500,,,,,VFR,0.1,,,,,,0.02,,,,,METAR,117.0
KEUG 061454Z 34003KT 10SM FEW030 FEW055 SCT200 08/06 A3017 RMK AO2 SLP217 T00780056 53006,KEUG,2017-05-06T14:54:00Z,44.13,-123.22,7.8,5.6,340,3,,10.0,30.171259,1021.7,,,TRUE,,,,,,,FEW,3000,FEW,5500,SCT,20000,,,VFR,0.6,,,,,,,,,,,METAR,114.0
KECG 061454Z 21014G22KT 10SM SCT029 17/12 A2952 RMK AO2 SLP997 T01720117 57005,KECG,2017-05-06T14:54:00Z,36.27,-76.18,17.2,11.7,210,14,22,10.0,29.518702,999.7,,,TRUE,,,,,,,SCT,2900,,,,,,,VFR,-0.5,,,,,,,,,,,METAR,11.0
KDYL 061454Z AUTO 16008G16KT 110V190 10SM SCT034 BKN046 OVC060 16/10 A2936 RMK AO2 SLP939 T01560100 50001,KDYL,2017-05-06T14:54:00Z,40.33,-75.12,15.6,10.0,160,8,16,10.0,29.359253,993.9,,TRUE,TRUE,,,,,,,SCT,3400,BKN,4600,OVC,6000,,,VFR,0.1,,,,,,,,,,,METAR,117.0
KDSV 061454Z AUTO 28004KT 10SM SCT016 OVC025 09/06 A2935 RMK AO2 SLP946 T00940061 51008,KDSV,2017-05-06T14:54:00Z,42.57,-77.72,9.4,6.1,280,4,,10.0,29.350393,994.6,,TRUE,TRUE,,,,,,,SCT,1600,OVC,2500,,,,,MVFR,0.8,,,,,,,,,,,METAR,198.0
KDSM 061454Z 01012KT 10SM CLR 18/07 A2994 RMK AO2 SLP134 T01780067 51023,KDSM,2017-05-06T14:54:00Z,41.53,-93.67,17.8,6.7,10,12,,10.0,29.940945,1013.4,,,TRUE,,,,,,,CLR,,,,,,,,VFR,2.3,,,,,,,,,,,METAR,295.0
KDEC 061454Z 06006KT 10SM SCT050 OVC070 13/09 A2980 RMK AO2 SLP092 T01280089 51019,KDEC,2017-05-06T14:54:00Z,39.83,-88.85,12.8,8.9,60,6,,10.0,29.799213,1009.2,,,TRUE,,,,,,,SCT,5000,OVC,7000,,,,,VFR,1.9,,,,,,,,,,,METAR,207.0
KDDH 061454Z AUTO 14011G20KT 10SM FEW033 SCT045 BKN060 18/12 A2940 RMK AO2 PK WND 20030/1358 SLP953 T01830122 56009,KDDH,2017-05-06T14:54:00Z,42.9,-73.25,18.3,12.2,140,11,20,10.0,29.40059,995.3,,TRUE,TRUE,,,,,,,FEW,3300,SCT,4500,BKN,6000,,,VFR,-0.9,,,,,,,,,,,METAR,244.0
KTAD 061454Z AUTO 29006KT 10SM CLR 18/05 A3005 RMK AO2 SLP110 T01780050 50004 TSNO,KTAD,2017-05-06T14:54:00Z,37.27,-104.33,17.8,5.0,290,6,,10.0,30.050198,1011.0,,TRUE,TRUE,,,TRUE,,,,CLR,,,,,,,,VFR,0.4,,,,,,,,,,,METAR,1756.0
KSUS 061454Z 30017G20KT 10SM CLR 20/08 A2976 RMK AO2 SLP075 T02000083 51012 $,KSUS,2017-05-06T14:54:00Z,38.65,-90.65,20.0,8.3,300,17,20,10.0,29.760826,1007.5,,,TRUE,TRUE,,,,,,CLR,,,,,,,,VFR,1.2,,,,,,,,,,,METAR,141.0
KSLC 061454Z 16008KT 10SM FEW070 FEW120 BKN200 OVC250 23/03 A2975 RMK AO2 SLP014 VIRGA DSNT W-NW TCU DSNT N AND SW T02330033 50002,KSLC,2017-05-06T14:54:00Z,40.77,-111.97,23.3,3.3,160,8,,10.0,29.749016,1001.4,,,TRUE,,,,,,,FEW,7000,FEW,12000,BKN,20000,OVC,25000,VFR,0.2,,,,,,,,,,,METAR,1286.0
KSJN 061454Z AUTO 11005KT 10SM CLR 22/M01 A3000 RMK AO2 SLP060 T02171006 50002 TSNO,KSJN,2017-05-06T14:54:00Z,34.52,-109.38,21.7,-0.6,110,5,,10.0,30.0,1006.0,,TRUE,TRUE,,,TRUE,,,,CLR,,,,,,,,VFR,0.2,,,,,,,,,,,METAR,1745.0
KSET 061454Z AUTO 33013G22KT 10SM CLR 18/09 A2976 RMK AO2 SLP075 T01780089 53010,KSET,2017-05-06T14:54:00Z,38.93,-90.43,17.8,8.9,330,13,22,10.0,29.760826,1007.5,,TRUE,TRUE,,,,,,,CLR,,,,,,,,VFR,1.0,,,,,,,,,,,METAR,134.0
KSBY 061454Z 20011KT 10SM BKN022 BKN029 OVC039 15/12 A2944 RMK AO2 SLP971 T01500117 51007,KSBY,2017-05-06T14:54:00Z,38.33,-75.5,15.0,11.7,200,11,,10.0,29.438976,997.1,,,TRUE,,,,,,,BKN,2200,BKN,2900,OVC,3900,,,MVFR,0.7,,,,,,,,,,,METAR,19.0
KSBN 061454Z 32012KT 10SM FEW027 10/04 A2976 RMK AO2 SLP080 T01000039 52012,KSBN,2017-05-06T14:54:00Z,41.7,-86.32,10.0,3.9,320,12,,10.0,29.760826,1008.0,,,TRUE,,,,,,,FEW,2700,,,,,,,VFR,1.2,,,,,,,,,,,METAR,237.0
KRST 061454Z 03011KT 10SM CLR 13/04 A2998 RMK AO2 SLP151 T01280044 51018,KRST,2017-05-06T14:54:00Z,43.9,-92.5,12.8,4.4,30,11,,10.0,29.97933,1015.1,,,TRUE,,,,,,,CLR,,,,,,,,VFR,1.8,,,,,,,,,,,METAR,403.0
KROC 061454Z 29006KT 10SM -DZ OVC005 08/07 A2933 RMK AO2 SLP937 P0000 60000 T00830072 50003,KROC,2017-05-06T14:54:00Z,43.12,-77.68,8.3,7.2,290,6,,10.0,29.329725,993.7,,,TRUE,,,,,,-DZ,OVC,500,,,,,,,IFR,0.3,,,,,0.005,0.005,,,,,METAR,178.0
KROA 061454Z 29016G27KT 10SM -RA BKN039 OVC045 11/03 A2957 RMK AO2 PK WND 30031/1429 SLP009 P0000 60000 T01060028 52016,KROA,2017-05-06T14:54:00Z,37.32,-79.97,10.6,2.8,290,16,27,10.0,29.568897,1000.9,,,TRUE,,,,,,-RA,BKN,3900,OVC,4500,,,,,VFR,1.6,,,,,0.005,0.005,,,,,METAR,362.0
KRIC 061454Z 24013KT 10SM SCT028 BKN036 OVC050 16/10 A2946 RMK AO2 SLP979 60000 T01560100 53007 $,KRIC,2017-05-06T14:54:00Z,37.52,-77.32,15.6,10.0,240,13,,10.0,29.459646,997.9,,,TRUE,TRUE,,,,,,SCT,2800,BKN,3600,OVC,5000,,,VFR,0.7,,,,,,0.005,,,,,METAR,50.0
KRFD 061454Z 36013KT 10SM FEW030 13/06 A2987 RMK AO2 SLP115 T01280056 51017,KRFD,2017-05-06T14:54:00Z,42.2,-89.1,12.8,5.6,360,13,,10.0,29.870079,1011.5,,,TRUE,,,,,,,FEW,3000,,,,,,,VFR,1.7,,,,,,,,,,,METAR,221.0
KRDG 061454Z 20012KT 10SM OVC028 16/11 A2933 RMK AO2 SLP934 60000 T01560111 50000,KRDG,2017-05-06T14:54:00Z,40.37,-75.97,15.6,11.1,200,12,,10.0,29.329725,993.4,,,TRUE,,,,,,,OVC,2800,,,,,,,MVFR,0.0,,,,,,0.005,,,,,METAR,109.0
KRBL 061454Z AUTO 32010KT 10SM CLR 14/03 A2976 RMK AO2 SLP077 T01390033 56003 TSNO,KRBL,2017-05-06T14:54:00Z,40.15,-122.25,13.9,3.3,320,10,,10.0,29.760826,1007.7,,TRUE,TRUE,,,TRUE,,,,CLR,,,,,,,,VFR,-0.3,,,,,,,,,,,METAR,104.0
KPNE 061454Z 18007KT 150V210 10SM BKN034 OVC045 17/10 A2940 RMK AO2 SLP956 T01720100 50007,KPNE,2017-05-06T14:54:00Z,40.08,-75.02,17.2,10.0,180,7,,10.0,29.40059,995.6,,,TRUE,,,,,,,BKN,3400,OVC,4500,,,,,VFR,0.7,,,,,,,,,,,METAR,28.0
KPLN 061454Z AUTO 36019G24KT 10SM CLR 12/M03 A2975 RMK AO2 PK WND 34027/1439 SLP079 T01171028 58001 $,KPLN,2017-05-06T14:54:00Z,45.57,-84.8,11.7,-2.8,360,19,24,10.0,29.749016,1007.9,,TRUE,TRUE,TRUE,,,,,,CLR,,,,,,,,VFR,-0.1,,,,,,,,,,,METAR,217.0
KPIA 061454Z 05008KT 10SM SCT055 14/08 A2985 RMK AO2 SLP108 T01390083 51028,KPIA,2017-05-06T14:54:00Z,40.67,-89.68,13.9,8.3,50,8,,10.0,29.84941,1010.8,,,TRUE,,,,,,,SCT,5500,,,,,,,VFR,2.8,,,,,,,,,,,METAR,205.0
KPHL 061454Z 20009G18KT 10SM BKN030 OVC050 16/10 A2939 RMK AO2 SLP952 T01610100 51005,KPHL,2017-05-06T14:54:00Z,39.87,-75.23,16.1,10.0,200,9,18,10.0,29.388779,995.2,,,TRUE,,,,,,,BKN,3000,OVC,5000,,,,,MVFR,0.5,,,,,,,,,,,METAR,18.0
KPHF 061454Z 21014G21KT 10SM OVC027 16/11 A2949 RMK AO2 SLP986 T01610106 53004,KPHF,2017-05-06T14:54:00Z,37.13,-76.5,16.1,10.6,210,14,21,10.0,29.489174,998.6,,,TRUE,,,,,,,OVC,2700,,,,,,,MVFR,0.4,,,,,,,,,,,METAR,12.0
KORH 061454Z 14015KT 10SM OVC007 16/14 A2951 RMK AO2 RAE15 CIG 005V012 SLP995 P0002 60002 T01560144 56008,KORH,2017-05-06T14:54:00Z,42.27,-71.87,15.6,14.4,140,15,,10.0,29.509842,999.5,,,TRUE,,,,,,,OVC,700,,,,,,,IFR,-0.8,,,,,0.02,0.02,,,,,METAR,304.0
KCRW 061454Z 25006KT 10SM SCT014 BKN020 BKN080 11/06 A2964 RMK AO2 SLP037 T01060056 50012,KCRW,2017-05-06T14:54:00Z,38.38,-81.58,10.6,5.6,250,6,,10.0,29.639763,1003.7,,,TRUE,,,,,,,SCT,1400,BKN,2000,BKN,8000,,,MVFR,1.2,,,,,,,,,,,METAR,309.0
KCOU 061454Z 33015KT 10SM CLR 20/08 A2985 RMK AO2 SLP103 T02000083 51015,KCOU,2017-05-06T14:54:00Z,38.82,-92.22,20.0,8.3,330,15,,10.0,29.84941,1010.3,,,TRUE,,,,,,,CLR,,,,,,,,VFR,1.5,,,,,,,,,,,METAR,271.0
KCOS 061454Z 17004KT 10SM FEW150 17/05 A3007 RMK AO2 SLP112 T01720050 50002,KCOS,2017-05-06T14:54:00Z,38.82,-104.68,17.2,5.0,170,4,,10.0,30.070866,1011.2,,,TRUE,,,,,,,FEW,15000,,,,,,,VFR,0.2,,,,,,,,,,,METAR,1856.0
KCIC 061454Z 16004KT 25SM BKN32 12/07 A2978,KCIC,2017-05-06T14:54:00Z,39.78,-121.83,12.0,7.0,160,4,,25.0,29.778543,,,,,,,,,,,,,,,,,,,,,,,,,,,,,,,METAR,73.0
KCEU 061454Z AUTO 26012G18KT 10SM CLR 17/02 A2973 RMK AO2 SLP062 T01720022 51011,KCEU,2017-05-06T14:54:00Z,34.67,-82.88,17.2,2.2,260,12,18,10.0,29.731298,1006.2,,TRUE,TRUE,,,,,,,CLR,,,,,,,,VFR,1.1,,,,,,,,,,,METAR,268.0
K12N 061454Z AUTO VRB05G17KT 16/09 A2937 RMK AO1 SLP942 T01560089 53003,K12N,2017-05-06T14:54:00Z,41.02,-74.73,15.6,8.9,0,5,17,,29.371063,994.2,,TRUE,TRUE,,,,,,,,,,,,,,,,0.3,,,,,,,,,,,METAR,177.0
KBKB 061454Z AUTO 00000KT 10SM CLR 23/07 A3000 RMK AO2 SLP184 T02280072 $,KBKB,2017-05-06T14:54:00Z,31.0,-92.92,22.8,7.2,0,0,,10.0,30.0,1018.4,,TRUE,TRUE,TRUE,,,,,,CLR,,,,,,,,VFR,,,,,,,,,,,,METAR,94.0
KNAK 061454Z AUTO 24009G19KT 200V270 10SM OVC029 16/12 A2939 RMK AO2 SLP953 T01610117 53009,KNAK,2017-05-06T14:54:00Z,38.98,-76.48,16.1,11.7,240,9,19,10.0,29.388779,995.3,,TRUE,TRUE,,,,,,,OVC,2900,,,,,,,MVFR,0.9,,,,,,,,,,,METAR,2.0
K1V4 061454Z AUTO 14/13 A2946 RMK AO1 SLP975 60004 T01440128 58013,K1V4,2017-05-06T14:54:00Z,44.42,-72.02,14.4,12.8,,,,,29.459646,997.5,,TRUE,TRUE,,,,,,,,,,,,,,,,-1.3,,,,,,0.04,,,,,METAR,210.0
PGUM 061454Z 08009KT 10SM CLR 27/23 A2995 RMK AO2 SLP133 T02720228 58007 $,PGUM,2017-05-06T14:54:00Z,13.48,144.8,27.2,22.8,80,9,,10.0,29.949802,1013.3,,,TRUE,TRUE,,,,,,CLR,,,,,,,,VFR,-0.7,,,,,,,,,,,SPECI,91.0
KTQE 061454Z AUTO 09003KT 10SM CLR 19/05 A2996 RMK AO2 SLP137 T01890050 51018,KTQE,2017-05-06T14:54:00Z,41.77,-96.18,18.9,5.0,90,3,,10.0,29.958662,1013.7,,TRUE,TRUE,,,,,,,CLR,,,,,,,,VFR,1.8,,,,,,,,,,,METAR,312.0
KRKS 061454Z AUTO 07004KT 10SM CLR 14/02 A2999 RMK AO2 SLP085 T01390017 53003,KRKS,2017-05-06T14:54:00Z,41.6,-109.07,13.9,1.7,70,4,,10.0,29.991142,1008.5,,TRUE,TRUE,,,,,,,CLR,,,,,,,,VFR,0.3,,,,,,,,,,,METAR,2060.0
KLNK 061454Z 06010KT 10SM CLR 21/07 A2995 RMK AO2 SLP136 T02110072 51014,KLNK,2017-05-06T14:54:00Z,40.85,-96.77,21.1,7.2,60,10,,10.0,29.949802,1013.6,,,TRUE,,,,,,,CLR,,,,,,,,VFR,1.4,,,,,,,,,,,METAR,364.0
KBWI 061454Z 25010KT 6SM -RA BR SCT016 BKN021 OVC036 13/12 A2938 RMK AO2 RAB34 SLP949 P0000 60000 T01330117 53013,KBWI,2017-05-06T14:54:00Z,39.17,-76.68,13.3,11.7,250,10,,6.0,29.379921,994.9,,,TRUE,,,,,,-RA BR,SCT,1600,BKN,2100,OVC,3600,,,MVFR,1.3,,,,,0.005,0.005,,,,,METAR,59.0
KBUY 061454Z AUTO 29013G27KT 10SM SCT043 OVC070 15/05 A2958 RMK AO2 PK WND 29027/1450 SLP014 60000 T01500050 51019 TSNO,KBUY,2017-05-06T14:54:00Z,36.05,-79.47,15.0,5.0,290,13,27,10.0,29.58071,1001.4,,TRUE,TRUE,,,TRUE,,,,SCT,4300,OVC,7000,,,,,VFR,1.9,,,,,,0.005,,,,,METAR,180.0
KBUF 061454Z 31010KT 8SM -DZ OVC006 06/04 A2937 RMK AO2 SLP950 P0000 60000 T00610044 56002,KBUF,2017-05-06T14:54:00Z,42.93,-78.73,6.1,4.4,310,10,,8.0,29.371063,995.0,,,TRUE,,,,,,-DZ,OVC,600,,,,,,,IFR,-0.2,,,,,0.005,0.005,,,,,METAR,211.0
KBTV 061454Z 22005KT 10SM FEW038 SCT060 BKN100 16/13 A2940 RMK AO2 RAB07E26 SLP955 P0001 60009 T01560133 58011,KBTV,2017-05-06T14:54:00Z,44.47,-73.15,15.6,13.3,220,5,,10.0,29.40059,995.5,,,TRUE,,,,,,,FEW,3800,SCT,6000,BKN,10000,,,VFR,-1.1,,,,,0.01,0.09,,,,,METAR,105.0
KBFL 061454Z 33012KT 10SM SCT090 14/06 A2980 RMK AO2 SLP087 T01440056 53010,KBFL,2017-05-06T14:54:00Z,35.43,-119.05,14.4,5.6,330,12,,10.0,29.799213,1008.7,,,TRUE,,,,,,,SCT,9000,,,,,,,VFR,1.0,,,,,,,,,,,METAR,151.0
KAVP 061454Z 20009KT 10SM BKN036 OVC043 14/09 A2932 RMK AO2 RAE1356B34E44 SLP924 P0000 60000 T01440094 53006,KAVP,2017-05-06T14:54:00Z,41.33,-75.72,14.4,9.4,200,9,,10.0,29.320866,992.4,,,TRUE,,,,,,,BKN,3600,OVC,4300,,,,,VFR,0.6,,,,,0.005,0.005,,,,,METAR,291.0
KAVL 061454Z 33023G32KT 10SM CLR 13/01 A2968 RMK AO2 PK WND 33037/1429 SLP038 T01280011 50003,KAVL,2017-05-06T14:54:00Z,35.43,-82.53,12.8,1.1,330,23,32,10.0,29.681103,1003.8,,,TRUE,,,,,,,CLR,,,,,,,,VFR,0.3,,,,,,,,,,,METAR,670.0
KAUW 061454Z AUTO VRB06G15KT 10SM CLR 11/01 A2991 RMK AO2 SLP135 T01060006 51009,KAUW,2017-05-06T14:54:00Z,44.93,-89.62,10.6,0.6,0,6,15,10.0,29.911417,1013.5,,TRUE,TRUE,,,,,,,CLR,,,,,,,,VFR,0.9,,,,,,,,,,,METAR,362.0
KAPN 061454Z AUTO 35020G26KT 10SM CLR 10/01 A2967 RMK AO2 PK WND 35026/1452 SLP052 T01000011 56003,KAPN,2017-05-06T14:54:00Z,45.07,-83.57,10.0,1.1,350,20,26,10.0,29.66929,1005.2,,TRUE,TRUE,,,,,,,CLR,,,,,,,,VFR,-0.3,,,,,,,,,,,METAR,210.0
KAPC 061454Z AUTO 27009KT 10SM CLR 11/06 A2980 RMK AO2 SLP082 T01110056 53000,KAPC,2017-05-06T14:54:00Z,38.2,-122.28,11.1,5.6,270,9,,10.0,29.799213,1008.2,,TRUE,TRUE,,,,,,,CLR,,,,,,,,VFR,0.0,,,,,,,,,,,METAR,13.0
KALO 061454Z 01011KT 10SM CLR 16/07 A2992 RMK AO2 SLP132 T01560067 51019,KALO,2017-05-06T14:54:00Z,42.55,-92.4,15.6,6.7,10,11,,10.0,29.920275,1013.2,,,TRUE,,,,,,,CLR,,,,,,,,VFR,1.9,,,,,,,,,,,METAR,264.0
KAKR 061454Z AUTO 32011KT 9SM -RA BKN012 OVC019 07/05 A2954 RMK AO2 SLP006 P0000 60000 T00720050 53009 TSNO,KAKR,2017-05-06T14:54:00Z,41.03,-81.47,7.2,5.0,320,11,,9.0,29.53937,1000.6,,TRUE,TRUE,,,TRUE,,,-RA,BKN,1200,OVC,1900,,,,,MVFR,0.9,,,,,0.005,0.005,,,,,METAR,363.0
KAKQ 061454Z AUTO 21008KT 10SM FEW026 OVC038 16/11 A2949 RMK AO2 SLP988 T01560106 53004,KAKQ,2017-05-06T14:54:00Z,36.98,-77.0,15.6,10.6,210,8,,10.0,29.489174,998.8,,TRUE,TRUE,,,,,,,FEW,2600,OVC,3800,,,,,VFR,0.4,,,,,,,,,,,METAR,34.0
KAKH 061454Z AUTO VRB06KT 10SM CLR 16/02 A2965 RMK AO2 SLP040 60000 T01610022 51013,KAKH,2017-05-06T14:54:00Z,35.2,-81.15,16.1,2.2,0,6,,10.0,29.648623,1004.0,,TRUE,TRUE,,,,,,,CLR,,,,,,,,VFR,1.3,,,,,,0.005,,,,,METAR,243.0
KACY 061454Z 18017G32KT 10SM SCT021 BKN036 OVC043 16/11 A2943 RMK AO2 PK WND 18032/1448 SLP964 T01610106 51004,KACY,2017-05-06T14:54:00Z,39.45,-74.57,16.1,10.6,180,17,32,10.0,29.430119,996.4,,,TRUE,,,,,,,SCT,2100,BKN,3600,OVC,4300,,,VFR,0.4,,,,,,,,,,,METAR,23.0
KAAO 061454Z AUTO 25010KT 10SM CLR 21/09 A2997 RMK AO2 SLP143 T02060089 51004 TSNO,KAAO,2017-05-06T14:54:00Z,37.75,-97.22,20.6,8.9,250,10,,10.0,29.970472,1014.3,,TRUE,TRUE,,,TRUE,,,,CLR,,,,,,,,VFR,0.4,,,,,,,,,,,METAR,434.0
PGSN 061454Z 08012KT 10SM BKN021 BKN110 26/24 A2995 RMK AO2 SLP162 60000 T02610239 58005 $,PGSN,2017-05-06T14:54:00Z,15.12,145.72,26.1,23.9,80,12,,10.0,29.949802,1016.2,,,TRUE,TRUE,,,,,,BKN,2100,BKN,11000,,,,,MVFR,-0.5,,,,,,,,,,,SPECI,65.0
PHOG 061454Z AUTO 00000KT 10SM CLR 18/16 A3006 RMK AO2 SLP184 T01830156 55002 TSNO,PHOG,2017-05-06T14:54:00Z,20.9,-156.43,18.3,15.6,0,0,,10.0,30.059055,1018.4,,TRUE,TRUE,,,TRUE,,,,CLR,,,,,,,,VFR,-0.2,,,,,,,,,,,SPECI,12.0
PHMK 061454Z AUTO 04005KT 10SM CLR 22/17 A3008 RMK AO2 SLP187 T02220172 55003 TSNO,PHMK,2017-05-06T14:54:00Z,21.15,-157.1,22.2,17.2,40,5,,10.0,30.079725,1018.7,,TRUE,TRUE,,,TRUE,,,,CLR,,,,,,,,VFR,-0.3,,,,,,,,,,,SPECI,141.0
PAKN 061454Z 11009KT 10SM BKN049 OVC055 07/02 A2952 RMK AO2 SLP996 T00670017 58009,PAKN,2017-05-06T14:54:00Z,58.68,-156.65,6.7,1.7,110,9,,10.0,29.518702,999.6,,,TRUE,,,,,,,BKN,4900,OVC,5500,,,,,VFR,-0.9,,,,,,,,,,,METAR,17.0
PAHN 061454Z AUTO 00000KT 10SM CLR 05/03 A2993 RMK AO2 SLP138 T00500033 51014 TSNO,PAHN,2017-05-06T14:54:00Z,59.25,-135.52,5.0,3.3,0,0,,10.0,29.929134,1013.8,,TRUE,TRUE,,,TRUE,,,,CLR,,,,,,,,VFR,1.4,,,,,,,,,,,METAR,5.0
KDMH 061454Z AUTO 14/09 A2938 RMK AO1 SLP948 T01440094 53007,KDMH,2017-05-06T14:54:00Z,39.28,-76.62,14.4,9.4,,,,,29.379921,994.8,,TRUE,TRUE,,,,,,,,,,,,,,,,0.7,,,,,,,,,,,METAR,5.0
KNKT 061454Z 24017G23KT 7SM SCT050 18/08 A2959 RMK PK WND 23027/1428 SLP016 T01830083 58004,KNKT,2017-05-06T14:54:00Z,34.9,-76.88,18.3,8.3,240,17,23,7.0,29.589567,1001.6,,,,,,,,,,SCT,5000,,,,,,,VFR,-0.4,,,,,,,,,,,SPECI,9.0
KMTP 061454Z AUTO 17007KT 14/13 A2954 RMK AO1 SLP002 P0002 60002 T01390133 53001,KMTP,2017-05-06T14:54:00Z,41.07,-71.92,13.9,13.3,170,7,,,29.53937,1000.2,,TRUE,TRUE,,,,,,,,,,,,,,,,0.1,,,,,0.02,0.02,,,,,METAR,2.0
KFTG 061453Z 21008KT 10SM SKC 23/04 A2999,KFTG,2017-05-06T14:53:00Z,39.78,-104.55,23.0,4.0,210,8,,10.0,29.991142,,,,,,,,,,,SKC,,,,,,,,VFR,,,,,,,,,,,,METAR,1675.0
KP92 061453Z AUTO 00000KT 22/10 A3001 RMK AO1 SLP163 T02220100 51009 $,KP92,2017-05-06T14:53:00Z,29.57,-91.53,22.2,10.0,0,0,,,30.008858,1016.3,,TRUE,TRUE,TRUE,,,,,,,,,,,,,,,0.9,,,,,,,,,,,METAR,1.0
TJNR 061453Z AUTO 10012KT 10SM FEW027 29/23 A3003 RMK AO2 SLP169 T02890228 58001 $,TJNR,2017-05-06T14:53:00Z,18.25,-65.63,28.9,22.8,100,12,,10.0,30.029528,1016.9,,TRUE,TRUE,TRUE,,,,,,FEW,2700,,,,,,,VFR,-0.1,,,,,,,,,,,SPECI,12.0
PAYA 061453Z AUTO 00000KT 5SM BR CLR 06/05 A2993 RMK AO2 SLP135 T00610050 50003 TSNO,PAYA,2017-05-06T14:53:00Z,59.52,-139.67,6.1,5.0,0,0,,5.0,29.929134,1013.5,,TRUE,TRUE,,,TRUE,,,BR,CLR,,,,,,,,MVFR,0.3,,,,,,,,,,,METAR,11.0
PAWD 061453Z AUTO 00000KT 10SM OVC017 02/01 A2988 RMK AO2 SLP119 T00220006 58003 TSNO,PAWD,2017-05-06T14:53:00Z,60.12,-149.42,2.2,0.6,0,0,,10.0,29.878937,1011.9,,TRUE,TRUE,,,TRUE,,,,OVC,1700,,,,,,,MVFR,-0.3,,,,,,,,,,,METAR,23.0
PAVL 061453Z AUTO 03008KT 10SM CLR M02/M03 A2987 RMK AO2 SLP115 T10221033 55001 TSNO $,PAVL,2017-05-06T14:53:00Z,67.73,-164.55,-2.2,-3.3,30,8,,10.0,29.870079,1011.5,,TRUE,TRUE,TRUE,,TRUE,,,,CLR,,,,,,,,VFR,-0.1,,,,,,,,,,,METAR,3.0
PATO 061453Z AUTO 14007KT 100V170 10SM CLR 07/M02 A2988 RMK AO2 SLP119 T00671022 53001 TSNO,PATO,2017-05-06T14:53:00Z,60.78,-148.85,6.7,-2.2,140,7,,10.0,29.878937,1011.9,,TRUE,TRUE,,,TRUE,,,,CLR,,,,,,,,VFR,0.1,,,,,,,,,,,METAR,31.0
PATK 061453Z AUTO 00000KT 10SM CLR 01/M03 A2984 RMK AO2 SLP108 T00111033 58002 TSNO,PATK,2017-05-06T14:53:00Z,62.3,-150.1,1.1,-3.3,0,0,,10.0,29.840551,1010.8,,TRUE,TRUE,,,TRUE,,,,CLR,,,,,,,,VFR,-0.2,,,,,,,,,,,METAR,109.0
PASO 061453Z AUTO 00000KT 10SM SCT040 SCT070 OVC110 04/01 A2978 RMK AO2 SLP084 T00440011 58011 TSNO,PASO,2017-05-06T14:53:00Z,59.45,-151.7,4.4,1.1,0,0,,10.0,29.778543,1008.4,,TRUE,TRUE,,,TRUE,,,,SCT,4000,SCT,7000,OVC,11000,,,VFR,-1.1,,,,,,,,,,,METAR,9.0
PASN 061453Z AUTO 06014KT 6SM UP BR OVC005 02/02 A2925 RMK AO2 UPB38 SLP906 P0000 60000 T00220017 53001 TSNO,PASN,2017-05-06T14:53:00Z,57.15,-170.22,2.2,1.7,60,14,,6.0,29.25,990.6,,TRUE,TRUE,,,TRUE,,,BR UP,OVC,500,,,,,,,IFR,0.1,,,,,0.005,0.005,,,,,METAR,29.0
PASI 061453Z 00000KT 10SM FEW018 SCT029 OVC037 08/04 A2999 RMK AO2 SLP156 T00780039 51008,PASI,2017-05-06T14:53:00Z,57.07,-135.35,7.8,3.9,0,0,,10.0,29.991142,1015.6,,,TRUE,,,,,,,FEW,1800,SCT,2900,OVC,3700,,,VFR,0.8,,,,,,,,,,,METAR,5.0
PASC 061453Z 07016KT 10SM OVC004 M06/M07 A3001 RMK AO2 SLP165 I3001 T10611072 58003,PASC,2017-05-06T14:53:00Z,70.2,-148.47,-6.1,-7.2,70,16,,10.0,30.008858,1016.5,,,TRUE,,,,,,,OVC,400,,,,,,,LIFR,-0.3,,,,,,,,,,,METAR,15.0
PAQT 061453Z AUTO 06009KT 10SM OVC007 M08/M08 A3005 RMK AO2 SLP175 T10781078 58002 TSNO,PAQT,2017-05-06T14:53:00Z,70.22,-151.0,-7.8,-7.8,60,9,,10.0,30.050198,1017.5,,TRUE,TRUE,,,TRUE,,,,OVC,700,,,,,,,IFR,-0.2,,,,,,,,,,,METAR,12.0
TIST 061453Z 13013KT 10SM CLR 27/22 A3001 RMK AO2 SLP161 T02720222 58000,TIST,2017-05-06T14:53:00Z,18.33,-64.98,27.2,22.2,130,13,,10.0,30.008858,1016.1,,,TRUE,,,,,,,CLR,,,,,,,,VFR,0.0,,,,,,,,,,,SPECI,7.0
TISX 061453Z 10015G20KT 10SM FEW024 29/22 A3001 RMK AO2 SLP160 T02940222 58002 $,TISX,2017-05-06T14:53:00Z,17.7,-64.8,29.4,22.2,100,15,20,10.0,30.008858,1016.0,,,TRUE,TRUE,,,,,,FEW,2400,,,,,,,VFR,-0.2,,,,,,,,,,,SPECI,19.0
PAPB 061453Z AUTO 08017KT 8SM SCT003 OVC034 03/02 A2921 RMK AO2 SLP881 60000 T00330022 51005 TSNO,PAPB,2017-05-06T14:53:00Z,56.58,-169.67,3.3,2.2,80,17,,8.0,29.208662,988.1,,TRUE,TRUE,,,TRUE,,,,SCT,300,OVC,3400,,,,,VFR,0.5,,,,,,0.005,,,,,METAR,35.0
PAOT 061453Z 36003KT 10SM FEW080 M06/M07 A2984 RMK AO2 SLP104 I3000 T10561067 58004 $,PAOT,2017-05-06T14:53:00Z,66.87,-162.58,-5.6,-6.7,360,3,,10.0,29.840551,1010.4,,,TRUE,TRUE,,,,,,FEW,8000,,,,,,,VFR,-0.4,,,,,,,,,,,METAR,3.0
PAOR 061453Z AUTO 13003KT 10SM CLR 02/M02 A2988 RMK AO2 SLP133 T00221022 51003 TSNO,PAOR,2017-05-06T14:53:00Z,62.97,-141.93,2.2,-2.2,130,3,,10.0,29.878937,1013.3,,TRUE,TRUE,,,TRUE,,,,CLR,,,,,,,,VFR,0.3,,,,,,,,,,,METAR,523.0
PAOM 061453Z 35010KT 10SM SCT030 BKN200 02/M02 A2970 RMK AO2 SLP057 T00171022 58011,PAOM,2017-05-06T14:53:00Z,64.5,-165.43,1.7,-2.2,350,10,,10.0,29.698818,1005.7,,,TRUE,,,,,,,SCT,3000,BKN,20000,,,,,VFR,-1.1,,,,,,,,,,,METAR,11.0
PANT 061453Z AUTO 00000KT 10SM BKN034 08/04 A2999 RMK AO2 SLP155 T00780039 51012 TSNO $,PANT,2017-05-06T14:53:00Z,55.03,-131.57,7.8,3.9,0,0,,10.0,29.991142,1015.5,,TRUE,TRUE,TRUE,,TRUE,,,,BKN,3400,,,,,,,VFR,1.2,,,,,,,,,,,METAR,36.0
PANC 061453Z 14004KT 10SM BKN140 03/M01 A2983 RMK AO2 SLP101 T00281006 58002 $,PANC,2017-05-06T14:53:00Z,61.17,-150.0,2.8,-0.6,140,4,,10.0,29.828741,1010.1,,,TRUE,TRUE,,,,,,BKN,14000,,,,,,,VFR,-0.2,,,,,,,,,,,METAR,38.0
PAMR 061453Z 00000KT 10SM BKN080 BKN130 BKN200 02/M02 A2983 RMK AO2 SLP101 T00221022 58003 $,PAMR,2017-05-06T14:53:00Z,61.22,-149.85,2.2,-2.2,0,0,,10.0,29.828741,1010.1,,,TRUE,TRUE,,,,,,BKN,8000,BKN,13000,BKN,20000,,,VFR,-0.3,,,,,,,,,,,METAR,41.0
PAMC 061453Z AUTO 00000KT 10SM CLR 01/M02 A2971 RMK AO2 SLP065 T00111022 51003 TSNO,PAMC,2017-05-06T14:53:00Z,62.97,-155.62,1.1,-2.2,0,0,,10.0,29.71063,1006.5,,TRUE,TRUE,,,TRUE,,,,CLR,,,,,,,,VFR,0.3,,,,,,,,,,,METAR,103.0
PALH 061453Z AUTO 00000KT 10SM CLR 03/01 A2984 RMK AO2 SLP104 T00330006 58002 TSNO,PALH,2017-05-06T14:53:00Z,61.18,-149.97,3.3,0.6,0,0,,10.0,29.840551,1010.4,,TRUE,TRUE,,,TRUE,,,,CLR,,,,,,,,VFR,-0.2,,,,,,,,,,,METAR,22.0
PAKV 061453Z AUTO 04004KT 10SM BKN085 00/M02 A2977 RMK AO2 SLP083 I3000 T00001017 58006 TSNO,PAKV,2017-05-06T14:53:00Z,64.33,-158.75,0.0,-1.7,40,4,,10.0,29.769686,1008.3,,TRUE,TRUE,,,TRUE,,,,BKN,8500,,,,,,,VFR,-0.6,,,,,,,,,,,METAR,61.0
PAKT 061453Z 00000KT 10SM SCT085 07/03 A2999 RMK AO2 SLP156 HARBOR WIND 34005KT T00720028 51010,PAKT,2017-05-06T14:53:00Z,55.35,-131.7,7.2,2.8,0,0,,10.0,29.991142,1015.6,,,TRUE,,,,,,,SCT,8500,,,,,,,VFR,1.0,,,,,,,,,,,METAR,28.0
PAJN 061453Z 00000KT 10SM FEW020 FEW110 04/03 A2995 RMK AO2 SLP140 T00440033 51018,PAJN,2017-05-06T14:53:00Z,58.35,-134.58,4.4,3.3,0,0,,10.0,29.949802,1014.0,,,TRUE,,,,,,,FEW,2000,FEW,11000,,,,,VFR,1.8,,,,,,,,,,,METAR,5.0
PAIL 061453Z 10013KT 10SM FEW060 OVC080 04/01 A2969 RMK AO2 SLP057 T00440011 58008,PAIL,2017-05-06T14:53:00Z,59.75,-154.92,4.4,1.1,100,13,,10.0,29.68996,1005.7,,,TRUE,,,,,,,FEW,6000,OVC,8000,,,,,VFR,-0.8,,,,,,,,,,,METAR,49.0
PAHO 061453Z 05003KT 10SM OVC085 07/M01 A2980 RMK AO2 SLP090 T00671006 58010,PAHO,2017-05-06T14:53:00Z,59.63,-151.47,6.7,-0.6,50,3,,10.0,29.799213,1009.0,,,TRUE,,,,,,,OVC,8500,,,,,,,VFR,-1.0,,,,,,,,,,,METAR,28.0
PAGY 061453Z AUTO 04004KT 10SM CLR 04/00 A2994 RMK AO2 SLP137 T00440000 51015 TSNO,PAGY,2017-05-06T14:53:00Z,59.47,-135.3,4.4,0.0,40,4,,10.0,29.940945,1013.7,,TRUE,TRUE,,,TRUE,,,,CLR,,,,,,,,VFR,1.5,,,,,,,,,,,METAR,5.0
PAGK 061453Z AUTO 00000KT 10SM CLR 01/M04 A2987 RMK AO2 SLP129 T00061044 50004 TSNO,PAGK,2017-05-06T14:53:00Z,62.15,-145.45,0.6,-4.4,0,0,,10.0,29.870079,1012.9,,TRUE,TRUE,,,TRUE,,,,CLR,,,,,,,,VFR,0.4,,,,,,,,,,,METAR,481.0
PAFA 061453Z 00000KT 10SM FEW090 FEW200 02/M01 A2980 RMK AO2 SLP096 T00221006 51003,PAFA,2017-05-06T14:53:00Z,64.8,-147.85,2.2,-0.6,0,0,,10.0,29.799213,1009.6,,,TRUE,,,,,,,FEW,9000,FEW,20000,,,,,VFR,0.3,,,,,,,,,,,METAR,132.0
PAEN 061453Z 35003KT 10SM BKN120 00/M01 A2982 RMK AO2 SLP101 T00001006 58003,PAEN,2017-05-06T14:53:00Z,60.57,-151.25,0.0,-0.6,350,3,,10.0,29.819881,1010.1,,,TRUE,,,,,,,BKN,12000,,,,,,,VFR,-0.3,,,,,,,,,,,METAR,27.0
PAEG 061453Z AUTO 00000KT 10SM CLR 01/M02 A2990 RMK AO2 SLP132 T00061022 51002 TSNO,PAEG,2017-05-06T14:53:00Z,64.78,-141.15,0.6,-2.2,0,0,,10.0,29.899607,1013.2,,TRUE,TRUE,,,TRUE,,,,CLR,,,,,,,,VFR,0.2,,,,,,,,,,,METAR,268.0
PADE 061453Z AUTO 24003KT M1/4SM FZFG VV003 M05/M07 A2983 RMK AO2 SLP103 I1002 I3003 T10501067 56003 TSNO,PADE,2017-05-06T14:53:00Z,66.07,-162.77,-5.0,-6.7,240,3,,0.25,29.828741,1010.3,,TRUE,TRUE,,,TRUE,,,FZFG,OVX,0,,,,,,,LIFR,-0.3,,,,,,,,,,300,METAR,5.0
PACV 061453Z 00000KT 4SM BR FEW007 BKN250 01/00 A2994 RMK AO2 SLP139 T00060000 51008,PACV,2017-05-06T14:53:00Z,60.5,-145.47,0.6,0.0,0,0,,4.0,29.940945,1013.9,,,TRUE,,,,,,BR,FEW,700,BKN,25000,,,,,MVFR,0.8,,,,,,,,,,,METAR,12.0
PABT 061453Z 02005KT 10SM -RA BKN049 OVC055 03/01 A2984 RMK AO2 SLP116 60003 T00280006 58001,PABT,2017-05-06T14:53:00Z,66.92,-151.52,2.8,0.6,20,5,,10.0,29.840551,1011.6,,,TRUE,,,,,,-RA,BKN,4900,OVC,5500,,,,,VFR,-0.1,,,,,,0.03,,,,,METAR,195.0
PABR 061453Z 07008KT 10SM OVC009 M06/M08 A3005 RMK AO2 SLP176 I3000 T10611078 58001,PABR,2017-05-06T14:53:00Z,71.28,-156.77,-6.1,-7.8,70,8,,10.0,30.050198,1017.6,,,TRUE,,,,,,,OVC,900,,,,,,,IFR,-0.1,,,,,,,,,,,METAR,7.0
PABI 061453Z 00000KT 10SM FEW100 03/M03 A2982 RMK AO2 SLP108 T00331033 55000 $,PABI,2017-05-06T14:53:00Z,64.0,-145.72,3.3,-3.3,0,0,,10.0,29.819881,1010.8,,,TRUE,TRUE,,,,,,FEW,10000,,,,,,,VFR,0.0,,,,,,,,,,,METAR,386.0
PABE 061453Z 08007KT 10SM FEW070 BKN090 04/01 A2955 RMK AO2 SLP007 T00440006 56002 $,PABE,2017-05-06T14:53:00Z,60.78,-161.83,4.4,0.6,80,7,,10.0,29.551182,1000.7,,,TRUE,TRUE,,,,,,FEW,7000,BKN,9000,,,,,VFR,-0.2,,,,,,,,,,,METAR,41.0
PAAQ 061453Z AUTO 35010KT 10SM CLR 03/M06 A2983 RMK AO2 SLP103 T00281056 58004 TSNO,PAAQ,2017-05-06T14:53:00Z,61.6,-149.08,2.8,-5.6,350,10,,10.0,29.828741,1010.3,,TRUE,TRUE,,,TRUE,,,,CLR,,,,,,,,VFR,-0.4,,,,,,,,,,,METAR,73.0
PHJR 061453Z AUTO 03004KT 10SM CLR 22/17 A3009 RMK AO2 SLP194 T02170167 55001 TSNO,PHJR,2017-05-06T14:53:00Z,21.32,-158.07,21.7,16.7,30,4,,10.0,30.088583,1019.4,,TRUE,TRUE,,,TRUE,,,,CLR,,,,,,,,VFR,-0.1,,,,,,,,,,,SPECI,15.0
PHLI 061453Z 08011KT 10SM CLR 24/18 A3010 RMK AO2 SLP190 T02440178 55002 $,PHLI,2017-05-06T14:53:00Z,21.97,-159.33,24.4,17.8,80,11,,10.0,30.100393,1019.0,,,TRUE,TRUE,,,,,,CLR,,,,,,,,VFR,-0.2,,,,,,,,,,,METAR,45.0
PHKO 061453Z AUTO 16003KT 10SM BKN070 24/18 A3003 RMK AO2 SLP168 T02440183 55002 PWINO TSNO,PHKO,2017-05-06T14:53:00Z,19.73,-156.05,24.4,18.3,160,3,,10.0,30.029528,1016.8,,TRUE,TRUE,,,TRUE,,TRUE,,BKN,7000,,,,,,,VFR,-0.2,,,,,,,,,,,METAR,27.0
PHTO 061453Z 26006KT 4SM RA BR FEW030 BKN039 OVC060 20/18 A3010 RMK AO2 RAB30 SLP192 P0007 60009 T02000183 53001,PHTO,2017-05-06T14:53:00Z,19.72,-155.05,20.0,18.3,260,6,,4.0,30.100393,1019.2,,,TRUE,,,,,,RA BR,FEW,3000,BKN,3900,OVC,6000,,,MVFR,0.1,,,,,0.07,0.09,,,,,METAR,12.0
PHNL 061453Z 05004KT 10SM FEW026 23/17 A3007 RMK AO2 SLP183 T02330172 55002,PHNL,2017-05-06T14:53:00Z,21.33,-157.92,23.3,17.2,50,4,,10.0,30.070866,1018.3,,,TRUE,,,,,,,FEW,2600,,,,,,,VFR,-0.2,,,,,,,,,,,METAR,4.0
KUTS 061453Z AUTO VRB03KT 10SM CLR 22/08 A3004 RMK AO2 SLP168 T02220083 51013,KUTS,2017-05-06T14:53:00Z,30.75,-95.58,22.2,8.3,0,3,,10.0,30.041338,1016.8,,TRUE,TRUE,,,,,,,CLR,,,,,,,,VFR,1.3,,,,,,,,,,,METAR,104.0
KUNO 061453Z AUTO 26012KT 10SM CLR 19/08 A2990 RMK AO2 SLP119 T01890083 50003,KUNO,2017-05-06T14:53:00Z,36.88,-91.9,18.9,8.3,260,12,,10.0,29.899607,1011.9,,TRUE,TRUE,,,,,,,CLR,,,,,,,,VFR,0.3,,,,,,,,,,,METAR,372.0
KUIL 061453Z AUTO 00000KT 10SM BKN002 BKN035 06/06 A3015 RMK AO2 RAE1357 SLP210 P0000 60001 T00610056 51006,KUIL,2017-05-06T14:53:00Z,47.93,-124.55,6.1,5.6,0,0,,10.0,30.15059,1021.0,,TRUE,TRUE,,,,,,,BKN,200,BKN,3500,,,,,LIFR,0.6,,,,,0.005,0.01,,,,,METAR,54.0
KUAO 061453Z 00000KT 10SM SCT038 08/04 A3018 RMK AO2 SLP219 T00830044 53006,KUAO,2017-05-06T14:53:00Z,45.25,-122.77,8.3,4.4,0,0,,10.0,30.180119,1021.9,,,TRUE,,,,,,,SCT,3800,,,,,,,VFR,0.6,,,,,,,,,,,METAR,59.0
KTYS 061453Z 22010KT 10SM -RA FEW015 SCT065 OVC095 10/07 A2981 RMK AO2 RAB43 SLP092 P0000 60000 T01000067 51011,KTYS,2017-05-06T14:53:00Z,35.82,-83.98,10.0,6.7,220,10,,10.0,29.811024,1009.2,,,TRUE,,,,,,-RA,FEW,1500,SCT,6500,OVC,9500,,,VFR,1.1,,,,,0.005,0.005,,,,,METAR,302.0
KTYR 061453Z 22004KT 10SM CLR 21/10 A3004 RMK AO2 SLP168 T02060100 51015,KTYR,2017-05-06T14:53:00Z,32.37,-95.4,20.6,10.0,220,4,,10.0,30.041338,1016.8,,,TRUE,,,,,,,CLR,,,,,,,,VFR,1.5,,,,,,,,,,,METAR,165.0
KTXK 061453Z VRB03KT 10SM CLR 20/09 A3001 RMK AO2 SLP161 T02000094 51010,KTXK,2017-05-06T14:53:00Z,33.45,-93.98,20.0,9.4,0,3,,10.0,30.008858,1016.1,,,TRUE,,,,,,,CLR,,,,,,,,VFR,1.0,,,,,,,,,,,METAR,111.0
KTVR 061453Z AUTO 00000KT 10SM CLR 20/12 A3001 RMK AO2 SLP169 T02000122 51008,KTVR,2017-05-06T14:53:00Z,32.35,-91.03,20.0,12.2,0,0,,10.0,30.008858,1016.9,,TRUE,TRUE,,,,,,,CLR,,,,,,,,VFR,0.8,,,,,,,,,,,METAR,26.0
KTVL 061453Z AUTO VRB03KT 10SM BKN050 BKN055 BKN085 09/01 A2975 RMK AO2 SLP034 T00890011 56004,KTVL,2017-05-06T14:53:00Z,38.9,-120.0,8.9,1.1,0,3,,10.0,29.749016,1003.4,,TRUE,TRUE,,,,,,,BKN,5000,BKN,5500,BKN,8500,,,VFR,-0.4,,,,,,,,,,,METAR,1924.0
KTVC 061453Z 36014G20KT 10SM FEW030 09/M01 A2976 RMK AO2 SLP082 T00891006 50001,KTVC,2017-05-06T14:53:00Z,44.73,-85.57,8.9,-0.6,360,14,20,10.0,29.760826,1008.2,,,TRUE,,,,,,,FEW,3000,,,,,,,VFR,0.1,,,,,,,,,,,METAR,190.0
KTUS 061453Z 18012KT 10SM CLR 27/02 A2986 RMK AO2 SLP060 T02720017 51007,KTUS,2017-05-06T14:53:00Z,32.13,-110.95,27.2,1.7,180,12,,10.0,29.861221,1006.0,,,TRUE,,,,,,,CLR,,,,,,,,VFR,0.7,,,,,,,,,,,METAR,776.0
KTUL 061453Z 25008KT 10SM CLR 22/09 A2997 RMK AO2 SLP145 T02170094 51008,KTUL,2017-05-06T14:53:00Z,36.2,-95.88,21.7,9.4,250,8,,10.0,29.970472,1014.5,,,TRUE,,,,,,,CLR,,,,,,,,VFR,0.8,,,,,,,,,,,METAR,207.0
KTTD 061453Z 18003KT 10SM SCT048 08/06 A3016 RMK AO2 SLP213 T00830056 50005,KTTD,2017-05-06T14:53:00Z,45.55,-122.42,8.3,5.6,180,3,,10.0,30.159449,1021.3,,,TRUE,,,,,,,SCT,4800,,,,,,,VFR,0.5,,,,,,,,,,,METAR,14.0
KTRL 061453Z AUTO 22007KT 10SM CLR 21/09 A3004 RMK AO2 SLP169 T02110089 51008,KTRL,2017-05-06T14:53:00Z,32.72,-96.27,21.1,8.9,220,7,,10.0,30.041338,1016.9,,TRUE,TRUE,,,,,,,CLR,,,,,,,,VFR,0.8,,,,,,,,,,,METAR,145.0
KTRI 061453Z 25013G18KT 10SM FEW027 SCT038 BKN055 12/06 A2973 RMK AO2 SLP054 T01220056 51010,KTRI,2017-05-06T14:53:00Z,36.48,-82.4,12.2,5.6,250,13,18,10.0,29.731298,1005.4,,,TRUE,,,,,,,FEW,2700,SCT,3800,BKN,5500,,,VFR,1.0,,,,,,,,,,,METAR,474.0
KTPA 061453Z 30012G20KT 10SM BKN050 23/08 A2996 RMK AO2 SLP144 T02330083 53008,KTPA,2017-05-06T14:53:00Z,27.97,-82.53,23.3,8.3,300,12,20,10.0,29.958662,1014.4,,,TRUE,,,,,,,BKN,5000,,,,,,,VFR,0.8,,,,,,,,,,,METAR,11.0
KTOR 061453Z AUTO 12006KT 10SM CLR 17/06 A2990 RMK AO2 SLP091 T01670061 58002,KTOR,2017-05-06T14:53:00Z,42.07,-104.15,16.7,6.1,120,6,,10.0,29.899607,1009.1,,TRUE,TRUE,,,,,,,CLR,,,,,,,,VFR,-0.2,,,,,,,,,,,METAR,1277.0
KTOP 061453Z 34009KT 10SM CLR 21/12 A2992 RMK AO2 PRESRR SLP129 T02110117 53010,KTOP,2017-05-06T14:53:00Z,39.07,-95.63,21.1,11.7,340,9,,10.0,29.920275,1012.9,,,TRUE,,,,,,,CLR,,,,,,,,VFR,1.0,,,,,,,,,,,METAR,268.0
KTOI 061453Z AUTO 27006KT 10SM CLR 17/07 A2997 RMK AO2 SLP145 T01720072 51014,KTOI,2017-05-06T14:53:00Z,31.85,-86.02,17.2,7.2,270,6,,10.0,29.970472,1014.5,,TRUE,TRUE,,,,,,,CLR,,,,,,,,VFR,1.4,,,,,,,,,,,METAR,118.0
KTMB 061453Z 36014G20KT 10SM CLR 23/09 A2998 RMK AO2 SLP152 T02330094 53013,KTMB,2017-05-06T14:53:00Z,25.65,-80.43,23.3,9.4,360,14,20,10.0,29.97933,1015.2,,,TRUE,,,,,,,CLR,,,,,,,,VFR,1.3,,,,,,,,,,,METAR,2.0
KTLH 061453Z 33014KT 10SM CLR 19/05 A2995 RMK AO2 SLP141 T01940050 51013,KTLH,2017-05-06T14:53:00Z,30.4,-84.35,19.4,5.0,330,14,,10.0,29.949802,1014.1,,,TRUE,,,,,,,CLR,,,,,,,,VFR,1.3,,,,,,,,,,,METAR,19.0
KTKI 061453Z 22006KT 10SM CLR 22/09 A3003 RMK AO2 SLP168 T02170089 51004,KTKI,2017-05-06T14:53:00Z,33.18,-96.58,21.7,8.9,220,6,,10.0,30.029528,1016.8,,,TRUE,,,,,,,CLR,,,,,,,,VFR,0.4,,,,,,,,,,,METAR,179.0
KTIW 061453Z VRB03KT 10SM SCT018 BKN028 BKN038 07/04 A3015 RMK AO2 SLP210 T00720039 51008,KTIW,2017-05-06T14:53:00Z,47.27,-122.58,7.2,3.9,0,3,,10.0,30.15059,1021.0,,,TRUE,,,,,,,SCT,1800,BKN,2800,BKN,3800,,,MVFR,0.8,,,,,,,,,,,METAR,89.0
KTDZ 061453Z AUTO 30012KT 10SM CLR 12/06 A2963 RMK AO2 SLP033 T01170061 55000,KTDZ,2017-05-06T14:53:00Z,41.57,-83.48,11.7,6.1,300,12,,10.0,29.630905,1003.3,,TRUE,TRUE,,,,,,,CLR,,,,,,,,VFR,0.0,,,,,,,,,,,METAR,189.0
KSAF 061453Z 12006KT 10SM CLR 19/M02 A3010 RMK AO2 SLP092 T01941017 51010,KSAF,2017-05-06T14:53:00Z,35.62,-106.1,19.4,-1.7,120,6,,10.0,30.100393,1009.2,,,TRUE,,,,,,,CLR,,,,,,,,VFR,1.0,,,,,,,,,,,METAR,1930.0
KSAC 061453Z 22005KT 10SM CLR 11/07 A2976 RMK AO2 SLP078 T01060067 53002,KSAC,2017-05-06T14:53:00Z,38.5,-121.5,10.6,6.7,220,5,,10.0,29.760826,1007.8,,,TRUE,,,,,,,CLR,,,,,,,,VFR,0.2,,,,,,,,,,,METAR,11.0
KRXE 061453Z AUTO 02006KT 10SM CLR 14/06 A2981 RMK AO2 SLP056 T01440061 58001,KRXE,2017-05-06T14:53:00Z,43.83,-111.8,14.4,6.1,20,6,,10.0,29.811024,1005.6,,TRUE,TRUE,,,,,,,CLR,,,,,,,,VFR,-0.1,,,,,,,,,,,METAR,1480.0
KRWL 061453Z AUTO 11003KT 10SM CLR 14/M01 A3003 RMK AO2 SLP097 T01441006 50003,KRWL,2017-05-06T14:53:00Z,41.78,-107.2,14.4,-0.6,110,3,,10.0,30.029528,1009.7,,TRUE,TRUE,,,,,,,CLR,,,,,,,,VFR,0.3,,,,,,,,,,,METAR,2077.0
KRWI 061453Z AUTO 22010KT 10SM FEW025 OVC039 16/11 A2956 RMK AO2 SLP008 60000 T01560111 53003 $,KRWI,2017-05-06T14:53:00Z,35.85,-77.9,15.6,11.1,220,10,,10.0,29.56004,1000.8,,TRUE,TRUE,TRUE,,,,,,FEW,2500,OVC,3900,,,,,VFR,0.3,,,,,,0.005,,,,,METAR,47.0
KRWF 061453Z AUTO 08006KT 10SM CLR 16/04 A2998 RMK AO2 SLP151 T01560044 51013,KRWF,2017-05-06T14:53:00Z,44.55,-95.08,15.6,4.4,80,6,,10.0,29.97933,1015.1,,TRUE,TRUE,,,,,,,CLR,,,,,,,,VFR,1.3,,,,,,,,,,,METAR,311.0
KRUE 061453Z AUTO 28005KT 10SM CLR 19/10 A2998 RMK AO2 SLP145 T01890100 50005,KRUE,2017-05-06T14:53:00Z,35.25,-93.1,18.9,10.0,280,5,,10.0,29.97933,1014.5,,TRUE,TRUE,,,,,,,CLR,,,,,,,,VFR,0.5,,,,,,,,,,,METAR,115.0
KRTN 061453Z AUTO 09003KT 10SM CLR 16/02 A3010 RMK AO2 SLP115 T01610022 50003,KRTN,2017-05-06T14:53:00Z,36.73,-104.5,16.1,2.2,90,3,,10.0,30.100393,1011.5,,TRUE,TRUE,,,,,,,CLR,,,,,,,,VFR,0.3,,,,,,,,,,,METAR,1936.0
KRSW 061453Z 32009KT 10SM CLR 23/09 A2996 RMK AO2 SLP144 T02280094 51007,KRSW,2017-05-06T14:53:00Z,26.53,-81.75,22.8,9.4,320,9,,10.0,29.958662,1014.4,,,TRUE,,,,,,,CLR,,,,,,,,VFR,0.7,,,,,,,,,,,METAR,10.0
KRSL 061453Z AUTO 25006KT 10SM CLR 20/11 A2995 RMK AO2 SLP134 T02000111 50004,KRSL,2017-05-06T14:53:00Z,38.87,-98.82,20.0,11.1,250,6,,10.0,29.949802,1013.4,,TRUE,TRUE,,,,,,,CLR,,,,,,,,VFR,0.4,,,,,,,,,,,METAR,567.0
KRQE 061453Z AUTO 00000KT 10SM CLR 14/M01 A3008 RMK AO2 SLP086 T01441006 51009 TSNO,KRQE,2017-05-06T14:53:00Z,35.65,-109.07,14.4,-0.6,0,0,,10.0,30.079725,1008.6,,TRUE,TRUE,,,TRUE,,,,CLR,,,,,,,,VFR,0.9,,,,,,,,,,,METAR,2055.0
KRNT 061453Z 00000KT 10SM BKN030 OVC038 07/06 A3015 RMK AO2 SLP213 60002 T00720061 53004,KRNT,2017-05-06T14:53:00Z,47.5,-122.22,7.2,6.1,0,0,,10.0,30.15059,1021.3,,,TRUE,,,,,,,BKN,3000,OVC,3800,,,,,MVFR,0.4,,,,,,0.02,,,,,METAR,21.0
KRNM 061453Z 18004KT 10SM OVC012 13/11 A2985 RMK AO2 SLP100 T01330111 $,KRNM,2017-05-06T14:53:00Z,33.03,-116.92,13.3,11.1,180,4,,10.0,29.84941,1010.0,,,TRUE,TRUE,,,,,,OVC,1200,,,,,,,MVFR,,,,,,,,,,,,METAR,427.0
KRMG 061453Z AUTO 28011G17KT 10SM CLR 17/04 A2986 RMK AO2 SLP105 T01670044 50007 $,KRMG,2017-05-06T14:53:00Z,34.35,-85.17,16.7,4.4,280,11,17,10.0,29.861221,1010.5,,TRUE,TRUE,TRUE,,,,,,CLR,,,,,,,,VFR,0.7,,,,,,,,,,,METAR,193.0
KRKP 061453Z AUTO 00000KT 10SM CLR 26/15 A3003 RMK AO2 SLP169 T02560150 51009,KRKP,2017-05-06T14:53:00Z,28.08,-97.05,25.6,15.0,0,0,,10.0,30.029528,1016.9,,TRUE,TRUE,,,,,,,CLR,,,,,,,,VFR,0.9,,,,,,,,,,,METAR,6.0
KRIW 061453Z AUTO 23003KT 10SM CLR 15/05 A2991 RMK AO2 SLP069 T01500050 50005,KRIW,2017-05-06T14:53:00Z,43.07,-108.47,15.0,5.0,230,3,,10.0,29.911417,1006.9,,TRUE,TRUE,,,,,,,CLR,,,,,,,,VFR,0.5,,,,,,,,,,,METAR,1697.0
KRIL 061453Z AUTO 13003KT 10SM CLR 16/M01 A3000 RMK AO2 SLP102 T01561011 50003,KRIL,2017-05-06T14:53:00Z,39.53,-107.73,15.6,-1.1,130,3,,10.0,30.0,1010.2,,TRUE,TRUE,,,,,,,CLR,,,,,,,,VFR,0.3,,,,,,,,,,,METAR,1678.0
KRDD 061453Z 34013G21KT 10SM CLR 15/02 A2976 RMK AO2 SLP075 T01500022 58001,KRDD,2017-05-06T14:53:00Z,40.52,-122.3,15.0,2.2,340,13,21,10.0,29.760826,1007.5,,,TRUE,,,,,,,CLR,,,,,,,,VFR,-0.1,,,,,,,,,,,METAR,155.0
KRBG 061453Z AUTO 03004KT 10SM CLR 08/04 A3014 RMK AO2 SLP210 T00780044 51003,KRBG,2017-05-06T14:53:00Z,43.23,-123.35,7.8,4.4,30,4,,10.0,30.138779,1021.0,,TRUE,TRUE,,,,,,,CLR,,,,,,,,VFR,0.3,,,,,,,,,,,METAR,154.0
KRBD 061453Z VRB06KT 10SM CLR 22/08 A3002 RMK AO2 SLP161 T02220078 50007,KRBD,2017-05-06T14:53:00Z,32.68,-96.87,22.2,7.8,0,6,,10.0,30.02067,1016.1,,,TRUE,,,,,,,CLR,,,,,,,,VFR,0.7,,,,,,,,,,,METAR,203.0
KRAL 061453Z 34003KT 10SM SCT014 OVC031 15/13 A2983 RMK AO2 SLP088 60000 T01500128 50005,KRAL,2017-05-06T14:53:00Z,33.95,-117.45,15.0,12.8,340,3,,10.0,29.828741,1008.8,,,TRUE,,,,,,,SCT,1400,OVC,3100,,,,,VFR,0.5,,,,,,0.005,,,,,METAR,252.0
KRAC 061453Z AUTO 01015G23KT 10SM SCT090 10/02 A2985 RMK AO2 SLP113 T01000022 51013,KRAC,2017-05-06T14:53:00Z,42.77,-87.82,10.0,2.2,10,15,23,10.0,29.84941,1011.3,,TRUE,TRUE,,,,,,,SCT,9000,,,,,,,VFR,1.3,,,,,,,,,,,METAR,203.0
KPWA 061453Z 20011KT 10SM CLR 20/09 A3001 RMK AO2 SLP152 T02000089 50004,KPWA,2017-05-06T14:53:00Z,35.53,-97.65,20.0,8.9,200,11,,10.0,30.008858,1015.2,,,TRUE,,,,,,,CLR,,,,,,,,VFR,0.4,,,,,,,,,,,METAR,397.0
KPUW 061453Z AUTO 28010KT 6SM -RA BR BKN007 OVC012 04/03 A2998 RMK AO2 RAE35B53 CIG 006V011 SLP157 P0001 60005 T00440033 50010,KPUW,2017-05-06T14:53:00Z,46.75,-117.12,4.4,3.3,280,10,,6.0,29.97933,1015.7,,TRUE,TRUE,,,,,,-RA BR,BKN,700,OVC,1200,,,,,IFR,1.0,,,,,0.01,0.05,,,,,METAR,773.0
KPUB 061453Z 00000KT 10SM CLR 15/08 A3001 RMK AO2 SLP118 T01500078 50002,KPUB,2017-05-06T14:53:00Z,38.28,-104.5,15.0,7.8,0,0,,10.0,30.008858,1011.8,,,TRUE,,,,,,,CLR,,,,,,,,VFR,0.2,,,,,,,,,,,METAR,1420.0
KPTK 061453Z 32016G24KT 10SM BKN022 BKN230 09/04 A2960 RMK AO2 SLP026 T00890039 55003,KPTK,2017-05-06T14:53:00Z,42.67,-83.42,8.9,3.9,320,16,24,10.0,29.601377,1002.6,,,TRUE,,,,,,,BKN,2200,BKN,23000,,,,,MVFR,-0.3,,,,,,,,,,,METAR,299.0
KPSX 061453Z AUTO 31004KT 10SM CLR 24/14 A3003 RMK AO2 SLP168 T02390139 51009,KPSX,2017-05-06T14:53:00Z,28.72,-96.25,23.9,13.9,310,4,,10.0,30.029528,1016.8,,TRUE,TRUE,,,,,,,CLR,,,,,,,,VFR,0.9,,,,,,,,,,,METAR,5.0
KPSP 061453Z 29008G15KT 10SM CLR 22/09 A2964 RMK AO2 SLP033 T02220094 50007,KPSP,2017-05-06T14:53:00Z,33.82,-116.5,22.2,9.4,290,8,15,10.0,29.639763,1003.3,,,TRUE,,,,,,,CLR,,,,,,,,VFR,0.7,,,,,,,,,,,METAR,135.0
KGCC 061453Z AUTO 15010KT 10SM CLR 18/08 A2984 RMK AO2 SLP072 T01780078 58004,KGCC,2017-05-06T14:53:00Z,44.33,-105.55,17.8,7.8,150,10,,10.0,29.840551,1007.2,,TRUE,TRUE,,,,,,,CLR,,,,,,,,VFR,-0.4,,,,,,,,,,,METAR,1320.0
KGAG 061453Z AUTO 21011KT 10SM CLR 21/07 A3000 RMK AO2 SLP143 T02110067 50000,KGAG,2017-05-06T14:53:00Z,36.3,-99.77,21.1,6.7,210,11,,10.0,30.0,1014.3,,TRUE,TRUE,,,,,,,CLR,,,,,,,,VFR,0.0,,,,,,,,,,,METAR,668.0
KFYV 061453Z 25010KT 10SM CLR 19/09 A3000 RMK AO2 SLP154 T01890089 50007,KFYV,2017-05-06T14:53:00Z,36.02,-94.17,18.9,8.9,250,10,,10.0,30.0,1015.4,,,TRUE,,,,,,,CLR,,,,,,,,VFR,0.7,,,,,,,,,,,METAR,379.0
KFXE 061453Z 33011G18KT 10SM CLR 23/08 A2997 RMK AO2 SLP150 T02330083 53010,KFXE,2017-05-06T14:53:00Z,26.2,-80.18,23.3,8.3,330,11,18,10.0,29.970472,1015.0,,,TRUE,,,,,,,CLR,,,,,,,,VFR,1.0,,,,,,,,,,,METAR,6.0
KFWN 061453Z AUTO 20008G20KT 10SM BKN055 17/11 A2936 RMK AO2 SLP942 T01720106 53001,KFWN,2017-05-06T14:53:00Z,41.2,-74.63,17.2,10.6,200,8,20,10.0,29.359253,994.2,,TRUE,TRUE,,,,,,,BKN,5500,,,,,,,VFR,0.1,,,,,,,,,,,METAR,133.0
KFTY 061453Z 29014KT 10SM CLR 15/06 A2986 RMK AO2 SLP109 T01500056 51016,KFTY,2017-05-06T14:53:00Z,33.78,-84.52,15.0,5.6,290,14,,10.0,29.861221,1010.9,,,TRUE,,,,,,,CLR,,,,,,,,VFR,1.6,,,,,,,,,,,METAR,263.0
KFTW 061453Z 20009KT 10SM CLR 23/08 A3002 RMK AO2 SLP157 T02280083 50006,KFTW,2017-05-06T14:53:00Z,32.83,-97.37,22.8,8.3,200,9,,10.0,30.02067,1015.7,,,TRUE,,,,,,,CLR,,,,,,,,VFR,0.6,,,,,,,,,,,METAR,214.0
KFST 061453Z AUTO 14009KT 10SM CLR 25/03 A2998 RMK AO2 SLP105 T02500028 53007,KFST,2017-05-06T14:53:00Z,30.92,-102.92,25.0,2.8,140,9,,10.0,29.97933,1010.5,,TRUE,TRUE,,,,,,,CLR,,,,,,,,VFR,0.7,,,,,,,,,,,METAR,918.0
KFSM 061453Z 25006KT 10SM CLR 19/08 A3000 RMK AO2 SLP157 T01890083 50010,KFSM,2017-05-06T14:53:00Z,35.33,-94.37,18.9,8.3,250,6,,10.0,30.0,1015.7,,,TRUE,,,,,,,CLR,,,,,,,,VFR,1.0,,,,,,,,,,,METAR,140.0
KFRG 061453Z 18018G27KT 10SM CLR 16/12 A2946 RMK AO2 PK WND 18027/1448 SLP974 T01610117 50004,KFRG,2017-05-06T14:53:00Z,40.73,-73.42,16.1,11.7,180,18,27,10.0,29.459646,997.4,,,TRUE,,,,,,,CLR,,,,,,,,VFR,0.4,,,,,,,,,,,METAR,21.0
KFPR 061453Z 29017G23KT 10SM CLR 22/08 A2993 RMK AO2 SLP136 T02220078 51006,KFPR,2017-05-06T14:53:00Z,27.5,-80.38,22.2,7.8,290,17,23,10.0,29.929134,1013.6,,,TRUE,,,,,,,CLR,,,,,,,,VFR,0.6,,,,,,,,,,,METAR,13.0
KFOK 061453Z 16009G17KT 9SM BKN070 14/11 A2951 RMK AO2 SLP991 T01440111 50001,KFOK,2017-05-06T14:53:00Z,40.85,-72.62,14.4,11.1,160,9,17,9.0,29.509842,999.1,,,TRUE,,,,,,,BKN,7000,,,,,,,VFR,0.1,,,,,,,,,,,METAR,33.0
KFOE 061453Z 30014G19KT 10SM CLR 24/10 A2990 RMK AO2 SLP120 T02390100 50002,KFOE,2017-05-06T14:53:00Z,38.93,-95.65,23.9,10.0,300,14,19,10.0,29.899607,1012.0,,,TRUE,,,,,,,CLR,,,,,,,,VFR,0.2,,,,,,,,,,,METAR,320.0
KFNT 061453Z 33012KT 10SM BKN029 11/04 A2964 RMK AO2 SLP040 T01060039 $,KFNT,2017-05-06T14:53:00Z,42.97,-83.75,10.6,3.9,330,12,,10.0,29.639763,1004.0,,,TRUE,TRUE,,,,,,BKN,2900,,,,,,,MVFR,,,,,,,,,,,,METAR,233.0
KFMY 061453Z 31011G20KT 10SM CLR 23/10 A2996 RMK AO2 SLP146 T02330100 50007,KFMY,2017-05-06T14:53:00Z,26.58,-81.87,23.3,10.0,310,11,20,10.0,29.958662,1014.6,,,TRUE,,,,,,,CLR,,,,,,,,VFR,0.7,,,,,,,,,,,METAR,4.0
KFMN 061453Z 09005KT 10SM CLR 15/M01 A2999 RMK AO2 SLP111 T01501006 50006,KFMN,2017-05-06T14:53:00Z,36.75,-108.23,15.0,-0.6,90,5,,10.0,29.991142,1011.1,,,TRUE,,,,,,,CLR,,,,,,,,VFR,0.6,,,,,,,,,,,METAR,1685.0
KFLO 061453Z 31010G18KT 10SM FEW033 BKN060 16/08 A2966 RMK AO2 SLP040 T01610078 51014,KFLO,2017-05-06T14:53:00Z,34.18,-79.73,16.1,7.8,310,10,18,10.0,29.660433,1004.0,,,TRUE,,,,,,,FEW,3300,BKN,6000,,,,,VFR,1.4,,,,,,,,,,,METAR,44.0
KFLL 061453Z 32009KT 10SM FEW045 23/11 A2996 RMK AO2 SLP145 T02280106 51011,KFLL,2017-05-06T14:53:00Z,26.07,-80.15,22.8,10.6,320,9,,10.0,29.958662,1014.5,,,TRUE,,,,,,,FEW,4500,,,,,,,VFR,1.1,,,,,,,,,,,METAR,3.0
KFLD 061453Z AUTO 36013G18KT 10SM CLR 11/02 A2988 RMK AO2 SLP121 T01110022 51014,KFLD,2017-05-06T14:53:00Z,43.77,-88.48,11.1,2.2,360,13,18,10.0,29.878937,1012.1,,TRUE,TRUE,,,,,,,CLR,,,,,,,,VFR,1.4,,,,,,,,,,,METAR,240.0
KFHR 061453Z AUTO VRB05KT 10SM CLR 09/05 A3013 RMK AO2 SLP202 T00940050 51007 $,KFHR,2017-05-06T14:53:00Z,48.52,-123.03,9.4,5.0,0,5,,10.0,30.129921,1020.2,,TRUE,TRUE,TRUE,,,,,,CLR,,,,,,,,VFR,0.7,,,,,,,,,,,METAR,32.0
KFFT 061453Z AUTO VRB06KT 10SM -RA OVC050 08/04 A2975 RMK AO2 RAB41 SLP074 P0001 60001 T00830039 53009,KFFT,2017-05-06T14:53:00Z,38.18,-84.9,8.3,3.9,0,6,,10.0,29.749016,1007.4,,TRUE,TRUE,,,,,,-RA,OVC,5000,,,,,,,VFR,0.9,,,,,0.01,0.01,,,,,METAR,236.0
KFFC 061453Z AUTO 31012G20KT 10SM CLR 16/05 A2988 RMK AO2 SLP119 T01560050 51017,KFFC,2017-05-06T14:53:00Z,33.35,-84.57,15.6,5.0,310,12,20,10.0,29.878937,1011.9,,TRUE,TRUE,,,,,,,CLR,,,,,,,,VFR,1.7,,,,,,,,,,,METAR,262.0
KFDY 061453Z AUTO 32014KT 10SM CLR 12/04 A2963 RMK AO2 SLP032 T01170044 51002 TSNO,KFDY,2017-05-06T14:53:00Z,41.02,-83.67,11.7,4.4,320,14,,10.0,29.630905,1003.2,,TRUE,TRUE,,,TRUE,,,,CLR,,,,,,,,VFR,0.2,,,,,,,,,,,METAR,247.0
KFDR 061453Z AUTO 19011KT 10SM CLR 23/07 A2998 RMK AO2 SLP140 T02280072 50001,KFDR,2017-05-06T14:53:00Z,34.35,-98.98,22.8,7.2,190,11,,10.0,29.97933,1014.0,,TRUE,TRUE,,,,,,,CLR,,,,,,,,VFR,0.1,,,,,,,,,,,METAR,386.0
KFCM 061453Z 00000KT 9SM CLR 14/04 A2999 RMK AO2 SLP153 T01390039 51013,KFCM,2017-05-06T14:53:00Z,44.83,-93.47,13.9,3.9,0,0,,9.0,29.991142,1015.3,,,TRUE,,,,,,,CLR,,,,,,,,VFR,1.3,,,,,,,,,,,METAR,280.0
KFAY 061453Z AUTO 25011G18KT 10SM SCT024 BKN034 OVC055 14/09 A2960 RMK AO2 SLP019 T01440094 51008,KFAY,2017-05-06T14:53:00Z,34.98,-78.88,14.4,9.4,250,11,18,10.0,29.601377,1001.9,,TRUE,TRUE,,,,,,,SCT,2400,BKN,3400,OVC,5500,,,VFR,0.8,,,,,,,,,,,METAR,55.0
KFAT 061453Z 33012KT 10SM BKN100 OVC200 11/04 A2982 RMK AO2 SLP094 T01110039 51012,KFAT,2017-05-06T14:53:00Z,36.78,-119.72,11.1,3.9,330,12,,10.0,29.819881,1009.4,,,TRUE,,,,,,,BKN,10000,OVC,20000,,,,,VFR,1.2,,,,,,,,,,,METAR,104.0
KFAR 061453Z 36003KT 10SM CLR 18/02 A2998 RMK AO2 SLP152 T01780017 50006,KFAR,2017-05-06T14:53:00Z,46.93,-96.82,17.8,1.7,360,3,,10.0,29.97933,1015.2,,,TRUE,,,,,,,CLR,,,,,,,,VFR,0.6,,,,,,,,,,,METAR,277.0
KEYW 061453Z 35011KT 10SM CLR 26/16 A2998 RMK AO2 SLP152 T02560156 51016,KEYW,2017-05-06T14:53:00Z,24.55,-81.75,25.6,15.6,350,11,,10.0,29.97933,1015.2,,,TRUE,,,,,,,CLR,,,,,,,,VFR,1.6,,,,,,,,,,,METAR,5.0
KEYE 061453Z AUTO 33011KT 10SM CLR 13/01 A2973 RMK AO2 SLP067 60001 T01280006 51005,KEYE,2017-05-06T14:53:00Z,39.83,-86.3,12.8,0.6,330,11,,10.0,29.731298,1006.7,,TRUE,TRUE,,,,,,,CLR,,,,,,,,VFR,0.5,,,,,,0.01,,,,,METAR,248.0
KOVS 061453Z AUTO 01008KT 10SM CLR 15/04 A2992 RMK AO2 SLP131 T01500039 51019,KOVS,2017-05-06T14:53:00Z,43.15,-90.68,15.0,3.9,10,8,,10.0,29.920275,1013.1,,TRUE,TRUE,,,,,,,CLR,,,,,,,,VFR,1.9,,,,,,,,,,,METAR,202.0
KOVE 061453Z AUTO 18005KT 10SM OVC021 12/07 A2979 RMK AO2 SLP088 T01220072 53002,KOVE,2017-05-06T14:53:00Z,39.5,-121.62,12.2,7.2,180,5,,10.0,29.790354,1008.8,,TRUE,TRUE,,,,,,,OVC,2100,,,,,,,MVFR,0.2,,,,,,,,,,,METAR,58.0
KOSU 061453Z 32012KT 10SM BKN033 BKN044 11/05 A2963 RMK AO2 SLP035 T01110050 51005,KOSU,2017-05-06T14:53:00Z,40.08,-83.08,11.1,5.0,320,12,,10.0,29.630905,1003.5,,,TRUE,,,,,,,BKN,3300,BKN,4400,,,,,VFR,0.5,,,,,,,,,,,METAR,280.0
KOSH 061453Z 02013KT 10SM CLR 11/02 A2988 RMK AO2 SLP118 T01110017 51012,KOSH,2017-05-06T14:53:00Z,43.97,-88.55,11.1,1.7,20,13,,10.0,29.878937,1011.8,,,TRUE,,,,,,,CLR,,,,,,,,VFR,1.2,,,,,,,,,,,METAR,248.0
KORL 061453Z 29017G26KT 10SM CLR 21/07 A2992 RMK AO2 PK WND 28026/1446 SLP136 T02110067 51004,KORL,2017-05-06T14:53:00Z,28.55,-81.33,21.1,6.7,290,17,26,10.0,29.920275,1013.6,,,TRUE,,,,,,,CLR,,,,,,,,VFR,0.4,,,,,,,,,,,METAR,37.0
KOPF 061453Z 34012G18KT 10SM CLR 23/09 A2998 RMK AO2 SLP153 T02330094 53011,KOPF,2017-05-06T14:53:00Z,25.92,-80.28,23.3,9.4,340,12,18,10.0,29.97933,1015.3,,,TRUE,,,,,,,CLR,,,,,,,,VFR,1.1,,,,,,,,,,,METAR,16.0
KONT 061453Z VRB03KT 10SM FEW019 BKN026 OVC038 15/11 A2982 RMK AO2 SLP093 60000 T01500106 51006,KONT,2017-05-06T14:53:00Z,34.05,-117.58,15.0,10.6,0,3,,10.0,29.819881,1009.3,,,TRUE,,,,,,,FEW,1900,BKN,2600,OVC,3800,,,MVFR,0.6,,,,,,0.005,,,,,METAR,274.0
KONO 061453Z AUTO 31019G32KT 10SM -RA BKN046 OVC055 09/03 A2983 RMK AO2 PK WND 32032/1445 SLP101 P0000 60000 T00890033 51021,KONO,2017-05-06T14:53:00Z,44.02,-117.02,8.9,3.3,310,19,32,10.0,29.828741,1010.1,,TRUE,TRUE,,,,,,-RA,BKN,4600,OVC,5500,,,,,VFR,2.1,,,,,0.005,0.005,,,,,METAR,667.0
KOMK 061453Z AUTO 36010KT 10SM BKN055 12/01 A2992 RMK AO2 SLP129 T01170011 51018,KOMK,2017-05-06T14:53:00Z,48.47,-119.52,11.7,1.1,360,10,,10.0,29.920275,1012.9,,TRUE,TRUE,,,,,,,BKN,5500,,,,,,,VFR,1.8,,,,,,,,,,,METAR,395.0
KOLF 061453Z AUTO 12011KT 10SM CLR 22/07 A2973 RMK AO2 SLP057 T02220067 58003 TSNO,KOLF,2017-05-06T14:53:00Z,48.1,-105.58,22.2,6.7,120,11,,10.0,29.731298,1005.7,,TRUE,TRUE,,,TRUE,,,,CLR,,,,,,,,VFR,-0.3,,,,,,,,,,,METAR,604.0
KOJC 061453Z 32011KT 10SM CLR 19/10 A2992 RMK AO2 SLP125 T01940100 53011,KOJC,2017-05-06T14:53:00Z,38.85,-94.73,19.4,10.0,320,11,,10.0,29.920275,1012.5,,,TRUE,,,,,,,CLR,,,,,,,,VFR,1.1,,,,,,,,,,,METAR,326.0
KOGD 061453Z 17011KT 10SM CLR 22/02 A2975 RMK AO2 SLP014 60000 T02220022 50002,KOGD,2017-05-06T14:53:00Z,41.2,-112.02,22.2,2.2,170,11,,10.0,29.749016,1001.4,,,TRUE,,,,,,,CLR,,,,,,,,VFR,0.2,,,,,,0.005,,,,,METAR,1353.0
KOGB 061453Z AUTO 32007G20KT 290V360 10SM CLR 17/07 A2972 RMK AO2 SLP063 T01670072 51017,KOGB,2017-05-06T14:53:00Z,33.47,-80.85,16.7,7.2,320,7,20,10.0,29.719488,1006.3,,TRUE,TRUE,,,,,,,CLR,,,,,,,,VFR,1.7,,,,,,,,,,,METAR,59.0
KODX 061453Z AUTO 09009KT 10SM CLR 21/05 A2995 RMK AO2 SLP138 T02110050 50002,KODX,2017-05-06T14:53:00Z,41.62,-98.95,21.1,5.0,90,9,,10.0,29.949802,1013.8,,TRUE,TRUE,,,,,,,CLR,,,,,,,,VFR,0.2,,,,,,,,,,,METAR,631.0
KODO 061453Z AUTO 17017G23KT 10SM CLR 23/02 A3000 RMK AO2 SLP118 T02280022 51011,KODO,2017-05-06T14:53:00Z,31.92,-102.4,22.8,2.2,170,17,23,10.0,30.0,1011.8,,TRUE,TRUE,,,,,,,CLR,,,,,,,,VFR,1.1,,,,,,,,,,,METAR,902.0
KOAK 061453Z 28009KT 10SM FEW020 FEW030 SCT200 13/06 A2983 RMK AO2 SLP100 T01330056 57001,KOAK,2017-05-06T14:53:00Z,37.72,-122.23,13.3,5.6,280,9,,10.0,29.828741,1010.0,,,TRUE,,,,,,,FEW,2000,FEW,3000,SCT,20000,,,VFR,-0.1,,,,,,,,,,,METAR,26.0
KNEW 061453Z 29004KT 10SM CLR 22/09 A3004 RMK AO2 SLP164 T02220094 51014,KNEW,2017-05-06T14:53:00Z,30.05,-90.03,22.2,9.4,290,4,,10.0,30.041338,1016.4,,,TRUE,,,,,,,CLR,,,,,,,,VFR,1.4,,,,,,,,,,,METAR,3.0
KMYV 061453Z AUTO 12005KT 10SM CLR 11/06 A2978 RMK AO2 SLP089 T01110061 53007,KMYV,2017-05-06T14:53:00Z,39.1,-121.57,11.1,6.1,120,5,,10.0,29.778543,1008.9,,TRUE,TRUE,,,,,,,CLR,,,,,,,,VFR,0.7,,,,,,,,,,,METAR,21.0
KMYF 061453Z 19008KT 10SM FEW013 BKN017 OVC031 14/11 A2985 RMK AO2 RAE1356 SLP106 P0000 60000 T01440111 53008,KMYF,2017-05-06T14:53:00Z,32.82,-117.13,14.4,11.1,190,8,,10.0,29.84941,1010.6,,,TRUE,,,,,,,FEW,1300,BKN,1700,OVC,3100,,,MVFR,0.8,,,,,0.005,0.005,,,,,METAR,136.0
KMWL 061453Z AUTO VRB05KT 10SM CLR 21/07 A3002 RMK AO2 SLP155 T02110072 50004,KMWL,2017-05-06T14:53:00Z,32.78,-98.07,21.1,7.2,0,5,,10.0,30.02067,1015.5,,TRUE,TRUE,,,,,,,CLR,,,,,,,,VFR,0.4,,,,,,,,,,,METAR,284.0
KMVY 061453Z 15013G21KT 8SM -RA SCT030 BKN075 OVC100 15/14 A2958 RMK AO2 SLP015 P0003 60011 T01500139 55009,KMVY,2017-05-06T14:53:00Z,41.4,-70.62,15.0,13.9,150,13,21,8.0,29.58071,1001.5,,,TRUE,,,,,,-RA,SCT,3000,BKN,7500,OVC,10000,,,VFR,-0.9,,,,,0.03,0.11,,,,,METAR,16.0
KMTO 061453Z AUTO 00000KT 10SM OVC050 11/08 A2978 RMK AO2 SLP084 T01060083 53011,KMTO,2017-05-06T14:53:00Z,39.47,-88.27,10.6,8.3,0,0,,10.0,29.778543,1008.4,,TRUE,TRUE,,,,,,,OVC,5000,,,,,,,VFR,1.1,,,,,,,,,,,METAR,214.0
KMTJ 061453Z AUTO 20005KT 10SM CLR 19/M01 A2999 RMK AO2 SLP080 T01941011 50000,KMTJ,2017-05-06T14:53:00Z,38.5,-107.9,19.4,-1.1,200,5,,10.0,29.991142,1008.0,,TRUE,TRUE,,,,,,,CLR,,,,,,,,VFR,0.0,,,,,,,,,,,METAR,1750.0
KMTH 061453Z AUTO 01010G18KT 10SM CLR 24/14 A2998 RMK AO2 SLP150 T02440144 51018,KMTH,2017-05-06T14:53:00Z,24.73,-81.05,24.4,14.4,10,10,18,10.0,29.97933,1015.0,,TRUE,TRUE,,,,,,,CLR,,,,,,,,VFR,1.8,,,,,,,,,,,METAR,2.0
KMSY 061453Z 21004KT 10SM CLR 22/09 A3003 RMK AO2 SLP173 T02220089 51014,KMSY,2017-05-06T14:53:00Z,30.0,-90.25,22.2,8.9,210,4,,10.0,30.029528,1017.3,,,TRUE,,,,,,,CLR,,,,,,,,VFR,1.4,,,,,,,,,,,METAR,5.0
KMSS 061453Z AUTO 06009KT 10SM FEW070 16/13 A2931 RMK AO2 SLP927 60000 T01560128 58021,KMSS,2017-05-06T14:53:00Z,44.93,-74.85,15.6,12.8,60,9,,10.0,29.309055,992.7,,TRUE,TRUE,,,,,,,FEW,7000,,,,,,,VFR,-2.1,,,,,,0.005,,,,,METAR,66.0
KMSP 061453Z 06005KT 10SM CLR 14/04 A3000 RMK AO2 SLP156 T01390044 51014,KMSP,2017-05-06T14:53:00Z,44.88,-93.23,13.9,4.4,60,5,,10.0,30.0,1015.6,,,TRUE,,,,,,,CLR,,,,,,,,VFR,1.4,,,,,,,,,,,METAR,265.0
KMSO 061453Z 29005KT 10SM CLR 14/09 A2980 RMK AO2 SLP081 T01390094 51005,KMSO,2017-05-06T14:53:00Z,46.92,-114.1,13.9,9.4,290,5,,10.0,29.799213,1008.1,,,TRUE,,,,,,,CLR,,,,,,,,VFR,0.5,,,,,,,,,,,METAR,975.0
KMSN 061453Z 02011KT 10SM FEW032 FEW050 11/03 A2989 RMK AO2 SLP122 T01110028 51020,KMSN,2017-05-06T14:53:00Z,43.13,-89.35,11.1,2.8,20,11,,10.0,29.890747,1012.2,,,TRUE,,,,,,,FEW,3200,FEW,5000,,,,,VFR,2.0,,,,,,,,,,,METAR,261.0
KMSL 061453Z AUTO 26011KT 10SM CLR 18/08 A2988 RMK AO2 SLP114 T01830083 58007,KMSL,2017-05-06T14:53:00Z,34.75,-87.6,18.3,8.3,260,11,,10.0,29.878937,1011.4,,TRUE,TRUE,,,,,,,CLR,,,,,,,,VFR,-0.7,,,,,,,,,,,METAR,164.0
KTCL 061453Z 20007KT 10SM CLR 18/07 A2995 RMK AO2 SLP140 T01780072 51006,KTCL,2017-05-06T14:53:00Z,33.22,-87.62,17.8,7.2,200,7,,10.0,29.949802,1014.0,,,TRUE,,,,,,,CLR,,,,,,,,VFR,0.6,,,,,,,,,,,METAR,49.0
KTCC 061453Z AUTO 00000KT 10SM CLR 18/07 A3000 RMK AO2 SLP115 T01780067 51006,KTCC,2017-05-06T14:53:00Z,35.18,-103.6,17.8,6.7,0,0,,10.0,30.0,1011.5,,TRUE,TRUE,,,,,,,CLR,,,,,,,,VFR,0.6,,,,,,,,,,,METAR,1235.0
KSWO 061453Z 24011KT 10SM CLR 21/08 A2999 RMK AO2 SLP150 T02110078 50006,KSWO,2017-05-06T14:53:00Z,36.17,-97.08,21.1,7.8,240,11,,10.0,29.991142,1015.0,,,TRUE,,,,,,,CLR,,,,,,,,VFR,0.6,,,,,,,,,,,METAR,290.0
KSTS 061453Z 31014G23KT 10SM FEW045 SCT080 12/04 A2980 RMK AO2 SLP084 T01170039 56001,KSTS,2017-05-06T14:53:00Z,38.5,-122.82,11.7,3.9,310,14,23,10.0,29.799213,1008.4,,,TRUE,,,,,,,FEW,4500,SCT,8000,,,,,VFR,-0.1,,,,,,,,,,,METAR,39.0
KSTP 061453Z 32004KT 10SM CLR 14/06 A3000 RMK AO2 SLP156 T01390056 51011,KSTP,2017-05-06T14:53:00Z,44.93,-93.05,13.9,5.6,320,4,,10.0,30.0,1015.6,,,TRUE,,,,,,,CLR,,,,,,,,VFR,1.1,,,,,,,,,,,METAR,219.0
KSTJ 061453Z 01011KT 10SM CLR 21/08 A2992 RMK AO2 SLP126 T02060083 51017,KSTJ,2017-05-06T14:53:00Z,39.77,-94.92,20.6,8.3,10,11,,10.0,29.920275,1012.6,,,TRUE,,,,,,,CLR,,,,,,,,VFR,1.7,,,,,,,,,,,METAR,247.0
KSTC 061453Z 09006KT 10SM CLR 12/05 A3001 RMK AO2 SLP171 T01220050 51010,KSTC,2017-05-06T14:53:00Z,45.55,-94.05,12.2,5.0,90,6,,10.0,30.008858,1017.1,,,TRUE,,,,,,,CLR,,,,,,,,VFR,1.0,,,,,,,,,,,METAR,314.0
KSSI 061453Z AUTO 30014G24KT 10SM CLR 18/07 A2982 RMK AO2 SLP100 T01780067 51012 $,KSSI,2017-05-06T14:53:00Z,31.15,-81.38,17.8,6.7,300,14,24,10.0,29.819881,1010.0,,TRUE,TRUE,TRUE,,,,,,CLR,,,,,,,,VFR,1.2,,,,,,,,,,,METAR,6.0
KSSF 061453Z 18007KT 10SM CLR 23/12 A3003 RMK AO2 SLP161 T02280122 53011,KSSF,2017-05-06T14:53:00Z,29.33,-98.47,22.8,12.2,180,7,,10.0,30.029528,1016.1,,,TRUE,,,,,,,CLR,,,,,,,,VFR,1.1,,,,,,,,,,,METAR,176.0
KSRQ 061453Z 32013G20KT 10SM BKN050 23/09 A2996 RMK AO2 SLP144 T02330089 51013,KSRQ,2017-05-06T14:53:00Z,27.4,-82.57,23.3,8.9,320,13,20,10.0,29.958662,1014.4,,,TRUE,,,,,,,BKN,5000,,,,,,,VFR,1.3,,,,,,,,,,,METAR,18.0
KSPG 061453Z 33008G21KT 10SM SCT055 22/09 A2995 RMK AO2 SLP140 T02170094 53010,KSPG,2017-05-06T14:53:00Z,27.77,-82.63,21.7,9.4,330,8,21,10.0,29.949802,1014.0,,,TRUE,,,,,,,SCT,5500,,,,,,,VFR,1.0,,,,,,,,,,,METAR,2.0
KSPB 061453Z AUTO 02003KT 10SM CLR 08/05 A3016 RMK AO2 SLP212 T00830050 53006,KSPB,2017-05-06T14:53:00Z,45.77,-122.87,8.3,5.0,20,3,,10.0,30.159449,1021.2,,TRUE,TRUE,,,,,,,CLR,,,,,,,,VFR,0.6,,,,,,,,,,,METAR,14.0
KSNY 061453Z AUTO 21008KT 10SM CLR 19/09 A2996 RMK AO2 SLP112 T01940094 50001,KSNY,2017-05-06T14:53:00Z,41.1,-102.98,19.4,9.4,210,8,,10.0,29.958662,1011.2,,TRUE,TRUE,,,,,,,CLR,,,,,,,,VFR,0.1,,,,,,,,,,,METAR,1307.0
KSNS 061453Z 26015G23KT 8SM OVC043 11/06 A2988 RMK AO2 SLP127 T01110056 56003,KSNS,2017-05-06T14:53:00Z,36.67,-121.6,11.1,5.6,260,15,23,8.0,29.878937,1012.7,,,TRUE,,,,,,,OVC,4300,,,,,,,VFR,-0.3,,,,,,,,,,,METAR,30.0
KSMQ 061453Z AUTO 10SM SCT042 BKN050 OVC070 16/09 A2937 RMK AO2 SLP943 T01610094 53005,KSMQ,2017-05-06T14:53:00Z,40.62,-74.67,16.1,9.4,,,,10.0,29.371063,994.3,,TRUE,TRUE,,,,,,,SCT,4200,BKN,5000,OVC,7000,,,VFR,0.5,,,,,,,,,,,METAR,30.0
KSMF 061453Z 08006KT 10SM SCT080 BKN200 11/07 A2976 RMK AO2 SLP075 T01060067 53006,KSMF,2017-05-06T14:53:00Z,38.7,-121.6,10.6,6.7,80,6,,10.0,29.760826,1007.5,,,TRUE,,,,,,,SCT,8000,BKN,20000,,,,,VFR,0.6,,,,,,,,,,,METAR,6.0
KSLN 061453Z 29005KT 10SM CLR 21/11 A2996 RMK AO2 SLP138 T02060106 50004,KSLN,2017-05-06T14:53:00Z,38.78,-97.65,20.6,10.6,290,5,,10.0,29.958662,1013.8,,,TRUE,,,,,,,CLR,,,,,,,,VFR,0.4,,,,,,,,,,,METAR,385.0
KSJC 061453Z 26011G17KT 10SM FEW014 SCT030 11/06 A2984 RMK AO2 SLP105 T01110056 57007,KSJC,2017-05-06T14:53:00Z,37.37,-121.92,11.1,5.6,260,11,17,10.0,29.840551,1010.5,,,TRUE,,,,,,,FEW,1400,SCT,3000,,,,,VFR,-0.7,,,,,,,,,,,METAR,24.0
KSIY 061453Z AUTO 01010KT 10SM FEW045 OVC065 04/01 A2998 RMK AO2 SLP170 T00390006 53004,KSIY,2017-05-06T14:53:00Z,41.77,-122.47,3.9,0.6,10,10,,10.0,29.97933,1017.0,,TRUE,TRUE,,,,,,,FEW,4500,OVC,6500,,,,,VFR,0.4,,,,,,,,,,,METAR,807.0
KSHR 061453Z AUTO 00000KT 10SM CLR 17/07 A2977 RMK AO2 SLP054 T01720072 58002,KSHR,2017-05-06T14:53:00Z,44.77,-106.97,17.2,7.2,0,0,,10.0,29.769686,1005.4,,TRUE,TRUE,,,,,,,CLR,,,,,,,,VFR,-0.2,,,,,,,,,,,METAR,1202.0
KSHN 061453Z AUTO 28004KT 10SM FEW011 BKN019 06/03 A3013 RMK AO2 SLP206 T00610033 53008,KSHN,2017-05-06T14:53:00Z,47.23,-123.13,6.1,3.3,280,4,,10.0,30.129921,1020.6,,TRUE,TRUE,,,,,,,FEW,1100,BKN,1900,,,,,MVFR,0.8,,,,,,,,,,,METAR,82.0
KSGR 061453Z 00000KT 10SM CLR 22/11 A3003 RMK AO2 SLP172 T02220106 51009,KSGR,2017-05-06T14:53:00Z,29.62,-95.65,22.2,10.6,0,0,,10.0,30.029528,1017.2,,,TRUE,,,,,,,CLR,,,,,,,,VFR,0.9,,,,,,,,,,,METAR,2.0
KSFF 061453Z 23006KT 10SM OVC015 08/05 A2996 RMK AO2 SLP146 60001 T00780050 53012,KSFF,2017-05-06T14:53:00Z,47.68,-117.32,7.8,5.0,230,6,,10.0,29.958662,1014.6,,,TRUE,,,,,,,OVC,1500,,,,,,,MVFR,1.2,,,,,,0.01,,,,,METAR,609.0
KSFB 061453Z 30016G25KT 10SM CLR 22/06 A2991 RMK AO2 PK WND 30027/1430 SLP125 T02170056 50001,KSFB,2017-05-06T14:53:00Z,28.77,-81.22,21.7,5.6,300,16,25,10.0,29.911417,1012.5,,,TRUE,,,,,,,CLR,,,,,,,,VFR,0.1,,,,,,,,,,,METAR,17.0
KSEG 061453Z AUTO 17010KT 10SM OVC020 14/11 A2931 RMK AO2 SLP923 T01390111 53008,KSEG,2017-05-06T14:53:00Z,40.82,-76.87,13.9,11.1,170,10,,10.0,29.309055,992.3,,TRUE,TRUE,,,,,,,OVC,2000,,,,,,,MVFR,0.8,,,,,,,,,,,METAR,134.0
KSEA 061453Z 17005KT 10SM BKN031 OVC040 07/04 A3014 RMK AO2 SLP214 60001 T00720044 53006 $,KSEA,2017-05-06T14:53:00Z,47.45,-122.32,7.2,4.4,170,5,,10.0,30.138779,1021.4,,,TRUE,TRUE,,,,,,BKN,3100,OVC,4000,,,,,VFR,0.6,,,,,,0.01,,,,,METAR,136.0
KSDM 061453Z 21006KT 10SM BKN018 OVC025 14/13 A2985 RMK AO2 RAB19E50 SLP108 P0000 60000 T01440128 53009,KSDM,2017-05-06T14:53:00Z,32.58,-117.0,14.4,12.8,210,6,,10.0,29.84941,1010.8,,,TRUE,,,,,,,BKN,1800,OVC,2500,,,,,MVFR,0.9,,,,,0.005,0.005,,,,,METAR,159.0
KSDL 061453Z 13005KT 10SM CLR 27/00 A2977 RMK AO2 SLP051 T02670000 51010,KSDL,2017-05-06T14:53:00Z,33.62,-111.92,26.7,0.0,130,5,,10.0,29.769686,1005.1,,,TRUE,,,,,,,CLR,,,,,,,,VFR,1.0,,,,,,,,,,,METAR,447.0
KSAV 061453Z 28014G25KT 10SM FEW035 18/06 A2979 RMK AO2 PK WND 31029/1354 SLP088 T01830061 53017 $,KSAV,2017-05-06T14:53:00Z,32.12,-81.2,18.3,6.1,280,14,25,10.0,29.790354,1008.8,,,TRUE,TRUE,,,,,,FEW,3500,,,,,,,VFR,1.7,,,,,,,,,,,METAR,14.0
KMRB 061453Z 26012KT 10SM -RA SCT030 OVC060 10/08 A2941 RMK AO2 SLP959 P0003 60008 T01000078 51019,KMRB,2017-05-06T14:53:00Z,39.4,-77.98,10.0,7.8,260,12,,10.0,29.409449,995.9,,,TRUE,,,,,,-RA,SCT,3000,OVC,6000,,,,,VFR,1.9,,,,,0.03,0.08,,,,,METAR,164.0
KMPO 061453Z AUTO 19017G22KT 10SM SCT021 BKN028 OVC050 12/09 A2934 RMK AO2 SLP936 6//// T01220089 55001 PNO $,KMPO,2017-05-06T14:53:00Z,41.13,-75.38,12.2,8.9,190,17,22,10.0,29.338583,993.6,,TRUE,TRUE,TRUE,,,,,,SCT,2100,BKN,2800,OVC,5000,,,MVFR,-0.1,,,,,,,,,,,METAR,577.0
KMOD 061453Z 26005KT 10SM CLR 13/06 A2980 RMK AO2 SLP090 T01280056 53006,KMOD,2017-05-06T14:53:00Z,37.62,-120.95,12.8,5.6,260,5,,10.0,29.799213,1009.0,,,TRUE,,,,,,,CLR,,,,,,,,VFR,0.6,,,,,,,,,,,METAR,29.0
KMNN 061453Z AUTO 33012G18KT 10SM FEW022 11/05 A2963 RMK AO2 SLP036 T01110050 51006,KMNN,2017-05-06T14:53:00Z,40.62,-83.07,11.1,5.0,330,12,18,10.0,29.630905,1003.6,,TRUE,TRUE,,,,,,,FEW,2200,,,,,,,VFR,0.6,,,,,,,,,,,METAR,301.0
KMMV 061453Z AUTO 28004KT 10SM FEW065 08/05 A3018 RMK AO2 SLP218 T00780050 53005,KMMV,2017-05-06T14:53:00Z,45.2,-123.13,7.8,5.0,280,4,,10.0,30.180119,1021.8,,TRUE,TRUE,,,,,,,FEW,6500,,,,,,,VFR,0.5,,,,,,,,,,,METAR,48.0
MUCL 061453Z 36009KT 9000 BKN018 OVC050 26/16 Q1015,MUCL,2017-05-06T14:53:00Z,21.63,-81.55,26.0,16.0,360,9,,5.59,29.970472,,,,,,,,,,,BKN,1800,OVC,5000,,,,,MVFR,,,,,,,,,,,,METAR,5.0
MUCU 061453Z VRB02KT 9000 FEW020 BKN060 27/22 Q1015,MUCU,2017-05-06T14:53:00Z,19.97,-75.83,27.0,22.0,0,2,,5.59,29.970472,,,,,,,,,,,FEW,2000,BKN,6000,,,,,VFR,,,,,,,,,,,,METAR,76.0
KUNV 061453Z 25013G16KT 8SM OVC016 08/07 A2935,KUNV,2017-05-06T14:53:00Z,40.85,-77.83,8.0,7.0,250,13,16,8.0,29.350393,,,,,,,,,,,OVC,1600,,,,,,,MVFR,,,,,,,,,,,,METAR,378.0
KMMK 061453Z AUTO 17010G18KT 10SM SCT013 BKN036 OVC060 16/13 A2946 RMK AO2 SLP974 T01560133 58001 TSNO,KMMK,2017-05-06T14:53:00Z,41.52,-72.83,15.6,13.3,170,10,18,10.0,29.459646,997.4,,TRUE,TRUE,,,TRUE,,,,SCT,1300,BKN,3600,OVC,6000,,,VFR,-0.1,,,,,,,,,,,METAR,31.0
KMLU 061453Z 22004KT 10SM CLR 21/11 A3001 RMK AO2 SLP162 T02110111 50009,KMLU,2017-05-06T14:53:00Z,32.52,-92.03,21.1,11.1,220,4,,10.0,30.008858,1016.2,,,TRUE,,,,,,,CLR,,,,,,,,VFR,0.9,,,,,,,,,,,METAR,29.0
KMLS 061453Z AUTO 16012KT 10SM CLR 21/08 A2972 RMK AO2 SLP045 T02060078 50000,KMLS,2017-05-06T14:53:00Z,46.43,-105.88,20.6,7.8,160,12,,10.0,29.719488,1004.5,,TRUE,TRUE,,,,,,,CLR,,,,,,,,VFR,0.0,,,,,,,,,,,METAR,801.0
KMLP 061453Z AUTO 33007KT 1/4SM FG VV001 00/00 A2987 RMK AO2 SLP068 T00000000 53001 TSNO,KMLP,2017-05-06T14:53:00Z,47.45,-115.67,0.0,0.0,330,7,,0.25,29.870079,1006.8,,TRUE,TRUE,,,TRUE,,,FG,OVX,0,,,,,,,LIFR,0.1,,,,,,,,,,100,METAR,1837.0
KMLC 061453Z AUTO 21007KT 10SM FEW090 FEW110 21/10 A3003 RMK AO2 SLP162 T02060100 51009,KMLC,2017-05-06T14:53:00Z,34.88,-95.78,20.6,10.0,210,7,,10.0,30.029528,1016.2,,TRUE,TRUE,,,,,,,FEW,9000,FEW,11000,,,,,VFR,0.9,,,,,,,,,,,METAR,232.0
KMLB 061453Z 30017G24KT 10SM CLR 22/06 A2991 RMK AO2 PK WND 29030/1421 SLP129 T02220061 50002,KMLB,2017-05-06T14:53:00Z,28.1,-80.65,22.2,6.1,300,17,24,10.0,29.911417,1012.9,,,TRUE,,,,,,,CLR,,,,,,,,VFR,0.2,,,,,,,,,,,METAR,11.0
KMKO 061453Z AUTO 24008KT 10SM CLR 20/11 A3002 RMK AO2 SLP162 T02000106 51011,KMKO,2017-05-06T14:53:00Z,35.65,-95.37,20.0,10.6,240,8,,10.0,30.02067,1016.2,,TRUE,TRUE,,,,,,,CLR,,,,,,,,VFR,1.1,,,,,,,,,,,METAR,185.0
KMKL 061453Z 26013G18KT 10SM CLR 21/10 A2984 RMK AO2 SLP100 T02060100 58007,KMKL,2017-05-06T14:53:00Z,35.6,-88.92,20.6,10.0,260,13,18,10.0,29.840551,1010.0,,,TRUE,,,,,,,CLR,,,,,,,,VFR,-0.7,,,,,,,,,,,METAR,128.0
KMIW 061453Z AUTO 02012KT 10SM CLR 16/08 A2992 RMK AO2 SLP131 T01610083 51021,KMIW,2017-05-06T14:53:00Z,42.12,-92.92,16.1,8.3,20,12,,10.0,29.920275,1013.1,,TRUE,TRUE,,,,,,,CLR,,,,,,,,VFR,2.1,,,,,,,,,,,METAR,296.0
KMFE 061453Z 16013KT 10SM CLR 27/17 A3002 RMK AO2 SLP164 T02670167 51009,KMFE,2017-05-06T14:53:00Z,26.18,-98.25,26.7,16.7,160,13,,10.0,30.02067,1016.4,,,TRUE,,,,,,,CLR,,,,,,,,VFR,0.9,,,,,,,,,,,METAR,38.0
KMDW 061453Z 36018G23KT 10SM FEW030 FEW070 FEW085 11/03 A2982 RMK AO2 PK WND 03028/1440 SLP099 T01110028 53014,KMDW,2017-05-06T14:53:00Z,41.78,-87.75,11.1,2.8,360,18,23,10.0,29.819881,1009.9,,,TRUE,,,,,,,FEW,3000,FEW,7000,FEW,8500,,,VFR,1.4,,,,,,,,,,,METAR,188.0
KMCW 061453Z AUTO 04009KT 10SM CLR 16/04 A2997 RMK AO2 SLP141 T01560044 51018,KMCW,2017-05-06T14:53:00Z,43.15,-93.33,15.6,4.4,40,9,,10.0,29.970472,1014.1,,TRUE,TRUE,,,,,,,CLR,,,,,,,,VFR,1.8,,,,,,,,,,,METAR,369.0
PAKW 061453Z AUTO 22005KT 10SM OVC023 07/02 A2999 RMK AO2 SLP155 T00720022 51012 TSNO,PAKW,2017-05-06T14:53:00Z,55.58,-133.07,7.2,2.2,220,5,,10.0,29.991142,1015.5,,TRUE,TRUE,,,TRUE,,,,OVC,2300,,,,,,,MVFR,1.2,,,,,,,,,,,METAR,15.0
KZZV 061453Z AUTO 31014G21KT 10SM FEW029 SCT035 OVC070 11/04 A2958 RMK AO2 SLP017 60000 T01110044 51009,KZZV,2017-05-06T14:53:00Z,39.95,-81.9,11.1,4.4,310,14,21,10.0,29.58071,1001.7,,TRUE,TRUE,,,,,,,FEW,2900,SCT,3500,OVC,7000,,,VFR,0.9,,,,,,0.005,,,,,METAR,268.0
KYKM 061453Z 33010KT 10SM CLR 11/M01 A3001 RMK AO2 SLP163 T01111011 51010,KYKM,2017-05-06T14:53:00Z,46.57,-120.53,11.1,-1.1,330,10,,10.0,30.008858,1016.3,,,TRUE,,,,,,,CLR,,,,,,,,VFR,1.0,,,,,,,,,,,METAR,324.0
KYIP 061453Z 34012G20KT 10SM SCT020 12/05 A2962 RMK AO2 SLP028 T01170050 58006,KYIP,2017-05-06T14:53:00Z,42.23,-83.53,11.7,5.0,340,12,20,10.0,29.619095,1002.8,,,TRUE,,,,,,,SCT,2000,,,,,,,VFR,-0.6,,,,,,,,,,,METAR,215.0
KELY 061453Z AUTO 20006KT 10SM CLR 17/00 A2980 RMK AO2 SLP994 T01670000 58005,KELY,2017-05-06T14:53:00Z,39.3,-114.85,16.7,0.0,200,6,,10.0,29.799213,999.4,,TRUE,TRUE,,,,,,,CLR,,,,,,,,VFR,-0.5,,,,,,,,,,,METAR,1906.0
KCPS 061453Z 32019G24KT 10SM CLR 19/07 A2974 RMK AO2 SLP069 T01940067 53008 $,KCPS,2017-05-06T14:53:00Z,38.57,-90.15,19.4,6.7,320,19,24,10.0,29.740158,1006.9,,,TRUE,TRUE,,,,,,CLR,,,,,,,,VFR,0.8,,,,,,,,,,,METAR,126.0
KBYI 061453Z AUTO 05007KT 10SM FEW120 14/09 A2972 RMK AO2 SLP033 T01390089 58008,KBYI,2017-05-06T14:53:00Z,42.55,-113.77,13.9,8.9,50,7,,10.0,29.719488,1003.3,,TRUE,TRUE,,,,,,,FEW,12000,,,,,,,VFR,-0.8,,,,,,,,,,,METAR,1264.0
KBVO 061453Z AUTO 25007G15KT 10SM CLR 21/09 A2999 RMK AO2 SLP149 T02060094 51007,KBVO,2017-05-06T14:53:00Z,36.77,-96.02,20.6,9.4,250,7,15,10.0,29.991142,1014.9,,TRUE,TRUE,,,,,,,CLR,,,,,,,,VFR,0.7,,,,,,,,,,,METAR,210.0
KPUC 061453Z AUTO 09010KT 10SM CLR 19/M03 A2993 RMK AO2 SLP059 T01891033 50003,KPUC,2017-05-06T14:53:00Z,39.62,-110.75,18.9,-3.3,90,10,,10.0,29.929134,1005.9,,TRUE,TRUE,,,,,,,CLR,,,,,,,,VFR,0.3,,,,,,,,,,,METAR,2091.0
KOTM 061453Z AUTO 36009KT 10SM CLR 15/07 A2991 RMK AO2 SLP126 T01500072 51029,KOTM,2017-05-06T14:53:00Z,41.1,-92.45,15.0,7.2,360,9,,10.0,29.911417,1012.6,,TRUE,TRUE,,,,,,,CLR,,,,,,,,VFR,2.9,,,,,,,,,,,METAR,256.0
KMIC 061453Z VRB04KT 10SM CLR 13/03 A2999 RMK AO2 SLP157 T01330033 51014,KMIC,2017-05-06T14:53:00Z,45.07,-93.35,13.3,3.3,0,4,,10.0,29.991142,1015.7,,,TRUE,,,,,,,CLR,,,,,,,,VFR,1.4,,,,,,,,,,,METAR,265.0
KLXT 061453Z AUTO 32009KT 10SM CLR 20/10 A2992 RMK AO2 SLP125 T02000100 53014,KLXT,2017-05-06T14:53:00Z,38.97,-94.37,20.0,10.0,320,9,,10.0,29.920275,1012.5,,TRUE,TRUE,,,,,,,CLR,,,,,,,,VFR,1.4,,,,,,,,,,,METAR,306.0
KJLN 061453Z 25011KT 10SM CLR 20/11 A2996 RMK AO2 SLP141 T02000106 50007,KJLN,2017-05-06T14:53:00Z,37.15,-94.5,20.0,10.6,250,11,,10.0,29.958662,1014.1,,,TRUE,,,,,,,CLR,,,,,,,,VFR,0.7,,,,,,,,,,,METAR,299.0
KFNB 061453Z AUTO 03010KT 10SM CLR 21/08 A2992 RMK AO2 SLP126 T02060078 51020 $,KFNB,2017-05-06T14:53:00Z,40.07,-95.58,20.6,7.8,30,10,,10.0,29.920275,1012.6,,TRUE,TRUE,TRUE,,,,,,CLR,,,,,,,,VFR,2.0,,,,,,,,,,,METAR,300.0
KSPW 061453Z AUTO 08005KT 10SM CLR 17/03 A2998 RMK AO2 SLP151 T01720033 51017 TSNO,KSPW,2017-05-06T14:53:00Z,43.17,-95.22,17.2,3.3,80,5,,10.0,29.97933,1015.1,,TRUE,TRUE,,,TRUE,,,,CLR,,,,,,,,VFR,1.7,,,,,,,,,,,METAR,403.0
KRVS 061453Z 24006KT 10SM CLR 21/09 A2999 RMK AO2 SLP164 T02060089 50006,KRVS,2017-05-06T14:53:00Z,36.05,-95.98,20.6,8.9,240,6,,10.0,29.991142,1016.4,,,TRUE,,,,,,,CLR,,,,,,,,VFR,0.6,,,,,,,,,,,METAR,200.0
KRHI 061453Z AUTO 04008G16KT 360V060 10SM FEW034 10/01 A2995 RMK AO2 SLP147 T01000006 51013 TSNO,KRHI,2017-05-06T14:53:00Z,45.63,-89.48,10.0,0.6,40,8,16,10.0,29.949802,1014.7,,TRUE,TRUE,,,TRUE,,,,FEW,3400,,,,,,,VFR,1.3,,,,,,,,,,,METAR,485.0
KBFI 061453Z 16003KT 10SM BKN036 07/06 A3015 RMK AO2 SLP210 60000 T00720056 53008,KBFI,2017-05-06T14:53:00Z,47.55,-122.32,7.2,5.6,160,3,,10.0,30.15059,1021.0,,,TRUE,,,,,,,BKN,3600,,,,,,,VFR,0.8,,,,,,0.005,,,,,METAR,4.0
KBFF 061453Z AUTO 12008KT 10SM CLR 17/06 A2991 RMK AO2 SLP100 T01720061 58002 $,KBFF,2017-05-06T14:53:00Z,41.87,-103.58,17.2,6.1,120,8,,10.0,29.911417,1010.0,,TRUE,TRUE,TRUE,,,,,,CLR,,,,,,,,VFR,-0.2,,,,,,,,,,,METAR,1203.0
KBEH 061453Z AUTO 32008G17KT 10SM BKN008 07/03 A2978 RMK AO2 CIG 005V010 SLP087 T00670033 53016,KBEH,2017-05-06T14:53:00Z,42.13,-86.42,6.7,3.3,320,8,17,10.0,29.778543,1008.7,,TRUE,TRUE,,,,,,,BKN,800,,,,,,,IFR,1.6,,,,,,,,,,,METAR,191.0
KBDE 061453Z AUTO VRB06KT 10SM CLR 12/04 A3005 RMK AO2 SLP182 T01170044 51014,KBDE,2017-05-06T14:53:00Z,48.73,-94.62,11.7,4.4,0,6,,10.0,30.050198,1018.2,,TRUE,TRUE,,,,,,,CLR,,,,,,,,VFR,1.4,,,,,,,,,,,METAR,329.0
KBCE 061453Z AUTO 13010KT 10SM CLR 15/M03 A3002 RMK AO2 SLP063 T01501033 52002,KBCE,2017-05-06T14:53:00Z,37.7,-112.15,15.0,-3.3,130,10,,10.0,30.02067,1006.3,,TRUE,TRUE,,,,,,,CLR,,,,,,,,VFR,0.2,,,,,,,,,,,METAR,2312.0
KBBW 061453Z AUTO 10008KT 10SM CLR 21/07 A2996 RMK AO2 SLP133 T02060072 51004,KBBW,2017-05-06T14:53:00Z,41.43,-99.63,20.6,7.2,100,8,,10.0,29.958662,1013.3,,TRUE,TRUE,,,,,,,CLR,,,,,,,,VFR,0.4,,,,,,,,,,,METAR,776.0
KBAF 061453Z 18013G21KT 10SM -RA SCT016 OVC023 17/16 A2944 RMK AO2 RAB46 SLP971 P0000 60000 T01720156 58005,KBAF,2017-05-06T14:53:00Z,42.17,-72.72,17.2,15.6,180,13,21,10.0,29.438976,997.1,,,TRUE,,,,,,-RA,SCT,1600,OVC,2300,,,,,MVFR,-0.5,,,,,0.005,0.005,,,,,METAR,83.0
KAZO 061453Z 36013KT 10SM CLR 12/03 A2972 RMK AO2 SLP066 T01170028 51007,KAZO,2017-05-06T14:53:00Z,42.23,-85.55,11.7,2.8,360,13,,10.0,29.719488,1006.6,,,TRUE,,,,,,,CLR,,,,,,,,VFR,0.7,,,,,,,,,,,METAR,272.0
KAXN 061453Z AUTO 15007KT 10SM CLR 15/04 A3000 RMK AO2 SLP158 T01500039 50008,KAXN,2017-05-06T14:53:00Z,45.87,-95.4,15.0,3.9,150,7,,10.0,30.0,1015.8,,TRUE,TRUE,,,,,,,CLR,,,,,,,,VFR,0.8,,,,,,,,,,,METAR,433.0
KAWM 061453Z AUTO 26009KT 10SM CLR 19/11 A2990 RMK AO2 SLP122 T01940106 50003,KAWM,2017-05-06T14:53:00Z,35.13,-90.23,19.4,10.6,260,9,,10.0,29.899607,1012.2,,TRUE,TRUE,,,,,,,CLR,,,,,,,,VFR,0.3,,,,,,,,,,,METAR,65.0
KAUS 061453Z 21008KT 170V250 10SM CLR 24/11 A3003 RMK AO2 SLP163 T02390111 50005,KAUS,2017-05-06T14:53:00Z,30.18,-97.68,23.9,11.1,210,8,,10.0,30.029528,1016.3,,,TRUE,,,,,,,CLR,,,,,,,,VFR,0.5,,,,,,,,,,,METAR,166.0
KATY 061453Z AUTO 17003KT 10SM CLR 17/02 A2997 RMK AO2 SLP149 T01720022 51008 $,KATY,2017-05-06T14:53:00Z,44.9,-97.15,17.2,2.2,170,3,,10.0,29.970472,1014.9,,TRUE,TRUE,TRUE,,,,,,CLR,,,,,,,,VFR,0.8,,,,,,,,,,,METAR,532.0
KASX 061453Z AUTO 05012KT 10SM FEW033 08/02 A3005 RMK AO2 SLP181 T00830017 51017,KASX,2017-05-06T14:53:00Z,46.55,-90.92,8.3,1.7,50,12,,10.0,30.050198,1018.1,,TRUE,TRUE,,,,,,,FEW,3300,,,,,,,VFR,1.7,,,,,,,,,,,METAR,251.0
KASE 061453Z 00000KT 10SM CLR 14/M03 A3011 RMK AO2 SLP084 T01441028 50001,KASE,2017-05-06T14:53:00Z,39.23,-106.87,14.4,-2.8,0,0,,10.0,30.109253,1008.4,,,TRUE,,,,,,,CLR,,,,,,,,VFR,0.1,,,,,,,,,,,METAR,2354.0
KDHN 061453Z 32010G20KT 10SM CLR 18/06 A3000 RMK AO2 SLP154 T01830056 51017,KDHN,2017-05-06T14:53:00Z,31.32,-85.45,18.3,5.6,320,10,20,10.0,30.0,1015.4,,,TRUE,,,,,,,CLR,,,,,,,,VFR,1.7,,,,,,,,,,,METAR,113.0
KDGW 061453Z AUTO 15004KT 10SM CLR 17/07 A2992 RMK AO2 SLP086 T01670067 58002,KDGW,2017-05-06T14:53:00Z,42.8,-105.38,16.7,6.7,150,4,,10.0,29.920275,1008.6,,TRUE,TRUE,,,,,,,CLR,,,,,,,,VFR,-0.2,,,,,,,,,,,METAR,1499.0
KDFW 061453Z 22010KT 10SM CLR 23/08 A3001 RMK AO2 SLP155 T02280078 51006,KDFW,2017-05-06T14:53:00Z,32.9,-97.02,22.8,7.8,220,10,,10.0,30.008858,1015.5,,,TRUE,,,,,,,CLR,,,,,,,,VFR,0.6,,,,,,,,,,,METAR,174.0
KDFI 061453Z AUTO 34013KT 10SM CLR 11/04 A2967 RMK AO2 SLP048 T01110039 51002,KDFI,2017-05-06T14:53:00Z,41.33,-84.43,11.1,3.9,340,13,,10.0,29.66929,1004.8,,TRUE,TRUE,,,,,,,CLR,,,,,,,,VFR,0.2,,,,,,,,,,,METAR,219.0
KDEW 061453Z AUTO 18006KT 10SM -RA BKN036 BKN045 OVC055 07/04 A2994 RMK AO2 RAB06E18B37 SLP143 P0002 60003 T00670044 51013,KDEW,2017-05-06T14:53:00Z,47.97,-117.43,6.7,4.4,180,6,,10.0,29.940945,1014.3,,TRUE,TRUE,,,,,,-RA,BKN,3600,BKN,4500,OVC,5500,,,VFR,1.3,,,,,0.02,0.03,,,,,METAR,674.0
KDEQ 061453Z AUTO 26003KT 10SM CLR 19/12 A3000 RMK AO2 SLP157 T01890122 50011 $,KDEQ,2017-05-06T14:53:00Z,34.05,-94.4,18.9,12.2,260,3,,10.0,30.0,1015.7,,TRUE,TRUE,TRUE,,,,,,CLR,,,,,,,,VFR,1.1,,,,,,,,,,,METAR,106.0
KDEN 061453Z 21010KT 10SM FEW120 21/04 A2998 RMK AO2 SLP088 T02060039 50003,KDEN,2017-05-06T14:53:00Z,39.85,-104.65,20.6,3.9,210,10,,10.0,29.97933,1008.8,,,TRUE,,,,,,,FEW,12000,,,,,,,VFR,0.3,,,,,,,,,,,METAR,1640.0
KDCU 061453Z AUTO VRB04KT 10SM CLR 16/09 A2988 RMK AO2 SLP114 T01610089 58003,KDCU,2017-05-06T14:53:00Z,34.65,-86.95,16.1,8.9,0,4,,10.0,29.878937,1011.4,,TRUE,TRUE,,,,,,,CLR,,,,,,,,VFR,-0.3,,,,,,,,,,,METAR,176.0
KDAN 061453Z AUTO 29015G25KT 10SM FEW041 OVC047 13/05 A2956 RMK AO2 SLP004 T01280050 51018,KDAN,2017-05-06T14:53:00Z,36.57,-79.33,12.8,5.0,290,15,25,10.0,29.56004,1000.4,,TRUE,TRUE,,,,,,,FEW,4100,OVC,4700,,,,,VFR,1.8,,,,,,,,,,,METAR,175.0
KDAL 061453Z 23008KT 10SM CLR 22/08 A3003 RMK AO2 SLP163 T02170078 51007 $,KDAL,2017-05-06T14:53:00Z,32.85,-96.85,21.7,7.8,230,8,,10.0,30.029528,1016.3,,,TRUE,TRUE,,,,,,CLR,,,,,,,,VFR,0.7,,,,,,,,,,,METAR,158.0
KDAB 061453Z 28016G24KT 10SM FEW030 20/07 A2989 RMK AO2 PK WND 26026/1432 SLP120 T02000067 50001,KDAB,2017-05-06T14:53:00Z,29.18,-81.07,20.0,6.7,280,16,24,10.0,29.890747,1012.0,,,TRUE,,,,,,,FEW,3000,,,,,,,VFR,0.1,,,,,,,,,,,METAR,9.0
KCYS 061453Z 20005KT 10SM CLR 19/02 A2999 RMK AO2 SLP076 T01940017,KCYS,2017-05-06T14:53:00Z,41.15,-104.8,19.4,1.7,200,5,,10.0,29.991142,1007.6,,,TRUE,,,,,,,CLR,,,,,,,,VFR,,,,,,,,,,,,METAR,1868.0
KCXO 061453Z 20005KT 10SM CLR 23/07 A3004 RMK AO2 SLP171 T02330072 51013,KCXO,2017-05-06T14:53:00Z,30.35,-95.42,23.3,7.2,200,5,,10.0,30.041338,1017.1,,,TRUE,,,,,,,CLR,,,,,,,,VFR,1.3,,,,,,,,,,,METAR,75.0
KCUT 061453Z AUTO VRB03KT 10SM CLR 20/03 A2998 RMK AO2 SLP088 T02000033 58001,KCUT,2017-05-06T14:53:00Z,43.73,-103.62,20.0,3.3,0,3,,10.0,29.97933,1008.8,,TRUE,TRUE,,,,,,,CLR,,,,,,,,VFR,-0.1,,,,,,,,,,,METAR,1725.0
KCUB 061453Z AUTO 30009G19KT 10SM CLR 17/04 A2971 RMK AO2 SLP059 T01720044 51015 $,KCUB,2017-05-06T14:53:00Z,33.97,-81.0,17.2,4.4,300,9,19,10.0,29.71063,1005.9,,TRUE,TRUE,TRUE,,,,,,CLR,,,,,,,,VFR,1.5,,,,,,,,,,,METAR,56.0
KCSV 061453Z AUTO 27010KT 10SM BKN095 OVC110 10/02 A2981 RMK AO2 SLP092 T01000022 51008,KCSV,2017-05-06T14:53:00Z,35.95,-85.08,10.0,2.2,270,10,,10.0,29.811024,1009.2,,TRUE,TRUE,,,,,,,BKN,9500,OVC,11000,,,,,VFR,0.8,,,,,,,,,,,METAR,570.0
KCSM 061453Z AUTO 21014KT 10SM CLR 20/07 A3001 RMK AO2 SLP148 T02000072 58001,KCSM,2017-05-06T14:53:00Z,35.35,-99.2,20.0,7.2,210,14,,10.0,30.008858,1014.8,,TRUE,TRUE,,,,,,,CLR,,,,,,,,VFR,-0.1,,,,,,,,,,,METAR,588.0
KCRS 061453Z AUTO 21007KT 10SM CLR 22/11 A3005 RMK AO2 SLP171 T02220106 50010,KCRS,2017-05-06T14:53:00Z,32.03,-96.4,22.2,10.6,210,7,,10.0,30.050198,1017.1,,TRUE,TRUE,,,,,,,CLR,,,,,,,,VFR,1.0,,,,,,,,,,,METAR,133.0
KCRQ 061453Z AUTO 14006KT 10SM SCT020 OVC028 16/12 A2983 RMK AO2 SLP100 T01560117 51005,KCRQ,2017-05-06T14:53:00Z,33.13,-117.28,15.6,11.7,140,6,,10.0,29.828741,1010.0,,TRUE,TRUE,,,,,,,SCT,2000,OVC,2800,,,,,MVFR,0.5,,,,,,,,,,,METAR,99.0
KCRG 061453Z 28017G24KT 7SM CLR 19/05 A2986 RMK AO2 PK WND 31026/1435 SLP110 T01890050 51004 $,KCRG,2017-05-06T14:53:00Z,30.33,-81.52,18.9,5.0,280,17,24,7.0,29.861221,1011.0,,,TRUE,TRUE,,,,,,CLR,,,,,,,,VFR,0.4,,,,,,,,,,,METAR,13.0
KCPR 061453Z VRB03KT 10SM CLR 17/06 A2991 RMK AO2 SLP073 T01670061 50001 $,KCPR,2017-05-06T14:53:00Z,42.9,-106.47,16.7,6.1,0,3,,10.0,29.911417,1007.3,,,TRUE,TRUE,,,,,,CLR,,,,,,,,VFR,0.1,,,,,,,,,,,METAR,1621.0
KCOT 061453Z AUTO 16010KT 10SM CLR 25/13 A3003 RMK AO2 SLP161 T02500133 51014,KCOT,2017-05-06T14:53:00Z,28.45,-99.22,25.0,13.3,160,10,,10.0,30.029528,1016.1,,TRUE,TRUE,,,,,,,CLR,,,,,,,,VFR,1.4,,,,,,,,,,,METAR,140.0
KCNY 061453Z AUTO 13009KT 10SM CLR 21/M03 A2988 RMK AO2 SLP063 T02061033 53015,KCNY,2017-05-06T14:53:00Z,38.77,-109.75,20.6,-3.3,130,9,,10.0,29.878937,1006.3,,TRUE,TRUE,,,,,,,CLR,,,,,,,,VFR,1.5,,,,,,,,,,,METAR,1390.0
KCNO 061453Z 26003KT 10SM BKN024 OVC040 16/11 A2983 RMK AO2 SLP099 T01610111 52006,KCNO,2017-05-06T14:53:00Z,33.98,-117.62,16.1,11.1,260,3,,10.0,29.828741,1009.9,,,TRUE,,,,,,,BKN,2400,OVC,4000,,,,,MVFR,0.6,,,,,,,,,,,METAR,207.0
KCNM 061453Z AUTO 14007KT 10SM CLR 19/02 A2997 RMK AO2 SLP101 T01940022 51011,KCNM,2017-05-06T14:53:00Z,32.33,-104.25,19.4,2.2,140,7,,10.0,29.970472,1010.1,,TRUE,TRUE,,,,,,,CLR,,,,,,,,VFR,1.1,,,,,,,,,,,METAR,985.0
KCMX 061453Z AUTO 02012KT 10SM CLR 08/M05 A2998 RMK AO2 SLP163 T00781050 51023,KCMX,2017-05-06T14:53:00Z,47.17,-88.48,7.8,-5.0,20,12,,10.0,29.97933,1016.3,,TRUE,TRUE,,,,,,,CLR,,,,,,,,VFR,2.3,,,,,,,,,,,METAR,326.0
KHAO 061453Z AUTO VRB03KT 10SM FEW049 SCT110 10/06 A2972 RMK AO2 SLP065 T01000061 53002,KHAO,2017-05-06T14:53:00Z,39.37,-84.52,10.0,6.1,0,3,,10.0,29.719488,1006.5,,TRUE,TRUE,,,,,,,FEW,4900,SCT,11000,,,,,VFR,0.2,,,,,,,,,,,METAR,188.0
KGZH 061453Z AUTO VRB06KT 10SM CLR 19/08 A2998 RMK AO2 SLP152 T01890078 51010,KGZH,2017-05-06T14:53:00Z,31.42,-87.05,18.9,7.8,0,6,,10.0,29.97933,1015.2,,TRUE,TRUE,,,,,,,CLR,,,,,,,,VFR,1.0,,,,,,,,,,,METAR,78.0
KGWO 061453Z AUTO VRB04KT 10SM CLR 20/12 A2997 RMK AO2 SLP147 T02000117 51007,KGWO,2017-05-06T14:53:00Z,33.5,-90.08,20.0,11.7,0,4,,10.0,29.970472,1014.7,,TRUE,TRUE,,,,,,,CLR,,,,,,,,VFR,0.7,,,,,,,,,,,METAR,44.0
KGVL 061453Z AUTO 27013G21KT 10SM CLR 14/06 A2981 RMK AO2 SLP088 T01390056 51016,KGVL,2017-05-06T14:53:00Z,34.27,-83.83,13.9,5.6,270,13,21,10.0,29.811024,1008.8,,TRUE,TRUE,,,,,,,CLR,,,,,,,,VFR,1.6,,,,,,,,,,,METAR,386.0
KGUY 061453Z AUTO 20016G20KT 10SM CLR 21/06 A2999 RMK AO2 SLP118 T02060061 58001,KGUY,2017-05-06T14:53:00Z,36.68,-101.5,20.6,6.1,200,16,20,10.0,29.991142,1011.8,,TRUE,TRUE,,,,,,,CLR,,,,,,,,VFR,-0.1,,,,,,,,,,,METAR,948.0
KGUP 061453Z AUTO 00000KT 10SM CLR 14/M01 A3008 RMK AO2 SLP066 T01391011 51010,KGUP,2017-05-06T14:53:00Z,35.52,-108.8,13.9,-1.1,0,0,,10.0,30.079725,1006.6,,TRUE,TRUE,,,,,,,CLR,,,,,,,,VFR,1.0,,,,,,,,,,,METAR,1971.0
KGTF 061453Z 22003KT 10SM CLR 17/08 A2974 RMK AO2 SLP047 T01670078 58006,KGTF,2017-05-06T14:53:00Z,47.47,-111.38,16.7,7.8,220,3,,10.0,29.740158,1004.7,,,TRUE,,,,,,,CLR,,,,,,,,VFR,-0.6,,,,,,,,,,,METAR,1119.0
KGSP 061453Z VRB06KT 10SM CLR 16/02 A2969 RMK AO2 SLP049 T01610022 51013,KGSP,2017-05-06T14:53:00Z,34.9,-82.22,16.1,2.2,0,6,,10.0,29.68996,1004.9,,,TRUE,,,,,,,CLR,,,,,,,,VFR,1.3,,,,,,,,,,,METAR,287.0
KGSH 061453Z AUTO 34012G20KT 10SM CLR 12/03 A2972 RMK AO2 SLP066 T01170033 51008 $,KGSH,2017-05-06T14:53:00Z,41.53,-85.78,11.7,3.3,340,12,20,10.0,29.719488,1006.6,,TRUE,TRUE,TRUE,,,,,,CLR,,,,,,,,VFR,0.8,,,,,,,,,,,METAR,252.0
KGRR 061453Z 32015KT 10SM FEW023 FEW200 11/03 A2972 RMK AO2 SLP065 T01060033 51003,KGRR,2017-05-06T14:53:00Z,42.88,-85.52,10.6,3.3,320,15,,10.0,29.719488,1006.5,,,TRUE,,,,,,,FEW,2300,FEW,20000,,,,,VFR,0.3,,,,,,,,,,,METAR,237.0
KGRI 061453Z 06009KT 10SM CLR 20/07 A2996 RMK AO2 SLP142 T02000072 50005,KGRI,2017-05-06T14:53:00Z,40.97,-98.32,20.0,7.2,60,9,,10.0,29.958662,1014.2,,,TRUE,,,,,,,CLR,,,,,,,,VFR,0.5,,,,,,,,,,,METAR,561.0
KGRB 061453Z 03015KT 10SM CLR 11/02 A2988 RMK AO2 SLP123 T01060022 51010,KGRB,2017-05-06T14:53:00Z,44.48,-88.13,10.6,2.2,30,15,,10.0,29.878937,1012.3,,,TRUE,,,,,,,CLR,,,,,,,,VFR,1.0,,,,,,,,,,,METAR,208.0
KGPT 061453Z VRB04KT 10SM CLR 22/08 A3002 RMK AO2 SLP164 T02170078 51013,KGPT,2017-05-06T14:53:00Z,30.42,-89.08,21.7,7.8,0,4,,10.0,30.02067,1016.4,,,TRUE,,,,,,,CLR,,,,,,,,VFR,1.3,,,,,,,,,,,METAR,14.0
KGOK 061453Z AUTO 24008KT 10SM CLR 20/09 A3000 RMK AO2 SLP155 T02000094 50004,KGOK,2017-05-06T14:53:00Z,35.85,-97.4,20.0,9.4,240,8,,10.0,30.0,1015.5,,TRUE,TRUE,,,,,,,CLR,,,,,,,,VFR,0.4,,,,,,,,,,,METAR,324.0
KGNV 061453Z 30016G24KT 10SM CLR 20/04 A2991 RMK AO2 SLP127 T02000044 51007,KGNV,2017-05-06T14:53:00Z,29.7,-82.28,20.0,4.4,300,16,24,10.0,29.911417,1012.7,,,TRUE,,,,,,,CLR,,,,,,,,VFR,0.7,,,,,,,,,,,METAR,45.0
KGMU 061453Z 30006KT 10SM CLR 16/03 A2972 RMK AO2 SLP061 T01610028 53014,KGMU,2017-05-06T14:53:00Z,34.85,-82.35,16.1,2.8,300,6,,10.0,29.719488,1006.1,,,TRUE,,,,,,,CLR,,,,,,,,VFR,1.4,,,,,,,,,,,METAR,315.0
KGLR 061453Z AUTO 01009G20KT 10SM CLR 10/M02 A2971 RMK AO2 SLP065 T01001017 58002,KGLR,2017-05-06T14:53:00Z,45.02,-84.68,10.0,-1.7,10,9,20,10.0,29.71063,1006.5,,TRUE,TRUE,,,,,,,CLR,,,,,,,,VFR,-0.2,,,,,,,,,,,METAR,407.0
KGLH 061453Z 26007KT 10SM CLR 21/11 A2998 RMK AO2 SLP158 T02060106 51010,KGLH,2017-05-06T14:53:00Z,33.5,-90.98,20.6,10.6,260,7,,10.0,29.97933,1015.8,,,TRUE,,,,,,,CLR,,,,,,,,VFR,1.0,,,,,,,,,,,METAR,45.0
KGLD 061453Z AUTO 21008KT 10SM CLR 21/08 A2997 RMK AO2 SLP119 T02110083 50000,KGLD,2017-05-06T14:53:00Z,39.37,-101.7,21.1,8.3,210,8,,10.0,29.970472,1011.9,,TRUE,TRUE,,,,,,,CLR,,,,,,,,VFR,0.0,,,,,,,,,,,METAR,1113.0
KGKY 061453Z 19008KT 10SM CLR 22/08 A3002 RMK AO2 SLP161 T02220078 50005 $,KGKY,2017-05-06T14:53:00Z,32.67,-97.1,22.2,7.8,190,8,,10.0,30.02067,1016.1,,,TRUE,TRUE,,,,,,CLR,,,,,,,,VFR,0.5,,,,,,,,,,,METAR,192.0
KGJT 061453Z 13012KT 10SM CLR 21/M03 A2992 RMK AO2 SLP067 T02061033 50006,KGJT,2017-05-06T14:53:00Z,39.12,-108.52,20.6,-3.3,130,12,,10.0,29.920275,1006.7,,,TRUE,,,,,,,CLR,,,,,,,,VFR,0.6,,,,,,,,,,,METAR,1475.0
KGIF 061453Z AUTO 29015G21KT 10SM CLR 22/07 A2996 RMK AO2 SLP142 T02170072 51006,KGIF,2017-05-06T14:53:00Z,28.07,-81.75,21.7,7.2,290,15,21,10.0,29.958662,1014.2,,TRUE,TRUE,,,,,,,CLR,,,,,,,,VFR,0.6,,,,,,,,,,,METAR,43.0
KGGW 061453Z AUTO 11015KT 10SM CLR 19/07 A2970 RMK AO2 SLP050 T01940072 58002,KGGW,2017-05-06T14:53:00Z,48.22,-106.62,19.4,7.2,110,15,,10.0,29.698818,1005.0,,TRUE,TRUE,,,,,,,CLR,,,,,,,,VFR,-0.2,,,,,,,,,,,METAR,694.0
KGGG 061453Z 30003KT 10SM CLR 21/11 A3003 RMK AO2 SLP165 T02110111 53011,KGGG,2017-05-06T14:53:00Z,32.38,-94.72,21.1,11.1,300,3,,10.0,30.029528,1016.5,,,TRUE,,,,,,,CLR,,,,,,,,VFR,1.1,,,,,,,,,,,METAR,107.0
KGFL 061453Z AUTO 34003KT 10SM OVC041 17/14 A2938 RMK AO2 SLP950 T01670139 56013,KGFL,2017-05-06T14:53:00Z,43.33,-73.62,16.7,13.9,340,3,,10.0,29.379921,995.0,,TRUE,TRUE,,,,,,,OVC,4100,,,,,,,VFR,-1.3,,,,,,,,,,,METAR,103.0
KGFK 061453Z VRB03KT 10SM FEW250 16/04 A3000 RMK AO2 SLP162 T01560039 50005,KGFK,2017-05-06T14:53:00Z,47.95,-97.18,15.6,3.9,0,3,,10.0,30.0,1016.2,,,TRUE,,,,,,,FEW,25000,,,,,,,VFR,0.5,,,,,,,,,,,METAR,258.0
KGEZ 061453Z AUTO 33012G19KT 10SM CLR 13/04 A2971 RMK AO2 SLP061 60000 T01330039 53003,KGEZ,2017-05-06T14:53:00Z,39.58,-85.8,13.3,3.9,330,12,19,10.0,29.71063,1006.1,,TRUE,TRUE,,,,,,,CLR,,,,,,,,VFR,0.3,,,,,,0.005,,,,,METAR,245.0
KGEY 061453Z AUTO 00000KT 10SM CLR 14/04 A2979 RMK AO2 SLP058 T01440039 58001,KGEY,2017-05-06T14:53:00Z,44.52,-108.08,14.4,3.9,0,0,,10.0,29.790354,1005.8,,TRUE,TRUE,,,,,,,CLR,,,,,,,,VFR,-0.1,,,,,,,,,,,METAR,1191.0
KGEG 061453Z 22011KT 10SM FEW010 BKN045 OVC070 06/04 A2995 RMK AO2 RAE49 SLP145 P0002 60004 T00610039 53014,KGEG,2017-05-06T14:53:00Z,47.62,-117.53,6.1,3.9,220,11,,10.0,29.949802,1014.5,,,TRUE,,,,,,,FEW,1000,BKN,4500,OVC,7000,,,VFR,1.4,,,,,0.02,0.04,,,,,METAR,735.0
KSDB 061453Z AUTO 18012G21KT M1/4SM -RA FG VV001 08/08 A2982 RMK AO2 RAB50 SLP059 P0000 60000 T00830083 56003 $,KSDB,2017-05-06T14:53:00Z,34.75,-118.72,8.3,8.3,180,12,21,0.25,29.819881,1005.9,,TRUE,TRUE,TRUE,,,,,-RA FG,OVX,0,,,,,,,LIFR,-0.3,,,,,0.005,0.005,,,,100,METAR,1377.0
KOQT 061453Z AUTO VRB05KT 10SM -RA FEW045 BKN075 OVC090 10/05 A2983 RMK AO2 RAB17 SLP102 P0000 60000 T01000050 52014,KOQT,2017-05-06T14:53:00Z,36.02,-84.23,10.0,5.0,0,5,,10.0,29.828741,1010.2,,TRUE,TRUE,,,,,,-RA,FEW,4500,BKN,7500,OVC,9000,,,VFR,1.4,,,,,0.005,0.005,,,,,METAR,277.0
KP68 061453Z AUTO 13007KT 110V180 17/M04 A2974 RMK AO1 SLP991 T01671044 58002,KP68,2017-05-06T14:53:00Z,39.6,-116.0,16.7,-4.4,130,7,,,29.740158,999.1,,TRUE,TRUE,,,,,,,,,,,,,,,,-0.2,,,,,,,,,,,METAR,1809.0
KTCS 061453Z AUTO 05003KT 10SM CLR 22/M06 A3000 RMK AO2 SLP072 T02221056 51010,KTCS,2017-05-06T14:53:00Z,33.23,-107.27,22.2,-5.6,50,3,,10.0,30.0,1007.2,,TRUE,TRUE,,,,,,,CLR,,,,,,,,VFR,1.0,,,,,,,,,,,METAR,1469.0
KMWT 061453Z AUTO 00000KT 10SM CLR 21/07 A2998 RMK AO2 SLP149 T02060072 51011,KMWT,2017-05-06T14:53:00Z,34.55,-93.58,20.6,7.2,0,0,,10.0,29.97933,1014.9,,TRUE,TRUE,,,,,,,CLR,,,,,,,,VFR,1.1,,,,,,,,,,,METAR,214.0
KTUP 061453Z 24007G15KT 10SM CLR 21/07 A2992 RMK AO2 SLP128 T02060067 51005,KTUP,2017-05-06T14:53:00Z,34.27,-88.77,20.6,6.7,240,7,15,10.0,29.920275,1012.8,,,TRUE,,,,,,,CLR,,,,,,,,VFR,0.5,,,,,,,,,,,METAR,105.0
KBGM 061453Z 18010G19KT 10SM FEW036 17/10 A2927 RMK AO2 SLP908 60014 T01720100 58004 $,KBGM,2017-05-06T14:53:00Z,42.22,-75.98,17.2,10.0,180,10,19,10.0,29.27067,990.8,,,TRUE,TRUE,,,,,,FEW,3600,,,,,,,VFR,-0.4,,,,,,0.14,,,,,METAR,490.0
KBGR 061453Z 14006KT 5SM -RA BR OVC007 13/12 A2969 RMK AO2 SLP055 P0006 60010 T01280122 58001,KBGR,2017-05-06T14:53:00Z,44.8,-68.82,12.8,12.2,140,6,,5.0,29.68996,1005.5,,,TRUE,,,,,,-RA BR,OVC,700,,,,,,,IFR,-0.1,,,,,0.06,0.1,,,,,METAR,57.0
KBFM 061453Z VRB04KT 10SM CLR 21/06 A3002 RMK AO2 SLP165 T02110061 51010,KBFM,2017-05-06T14:53:00Z,30.62,-88.07,21.1,6.1,0,4,,10.0,30.02067,1016.5,,,TRUE,,,,,,,CLR,,,,,,,,VFR,1.0,,,,,,,,,,,METAR,20.0
KBHM 061453Z 29007KT 10SM CLR 16/07 A2994 RMK AO2 SLP136 T01610067 50004,KBHM,2017-05-06T14:53:00Z,33.57,-86.75,16.1,6.7,290,7,,10.0,29.940945,1013.6,,,TRUE,,,,,,,CLR,,,,,,,,VFR,0.4,,,,,,,,,,,METAR,197.0
KBIL 061453Z 23004KT 10SM FEW120 FEW200 18/07 A2974 RMK AO2 SLP040 T01780072 50004,KBIL,2017-05-06T14:53:00Z,45.8,-108.55,17.8,7.2,230,4,,10.0,29.740158,1004.0,,,TRUE,,,,,,,FEW,12000,FEW,20000,,,,,VFR,0.4,,,,,,,,,,,METAR,1091.0
KBIV 061453Z AUTO 34012G20KT 10SM FEW035 11/02 A2975 RMK AO2 SLP077 T01110022 53007,KBIV,2017-05-06T14:53:00Z,42.75,-86.1,11.1,2.2,340,12,20,10.0,29.749016,1007.7,,TRUE,TRUE,,,,,,,FEW,3500,,,,,,,VFR,0.7,,,,,,,,,,,METAR,208.0
KBKE 061453Z AUTO 31013KT 10SM OVC041 04/00 A2993 RMK AO2 SLP139 T00440000 53008,KBKE,2017-05-06T14:53:00Z,44.85,-117.82,4.4,0.0,310,13,,10.0,29.929134,1013.9,,TRUE,TRUE,,,,,,,OVC,4100,,,,,,,VFR,0.8,,,,,,,,,,,METAR,1024.0
KBKV 061453Z 29016G27KT 10SM BKN049 23/10 A2995 RMK AO2 PK WND 32027/1445 SLP141 T02280100 52007,KBKV,2017-05-06T14:53:00Z,28.47,-82.45,22.8,10.0,290,16,27,10.0,29.949802,1014.1,,,TRUE,,,,,,,BKN,4900,,,,,,,VFR,0.7,,,,,,,,,,,METAR,20.0
KBLI 061453Z 16003KT 10SM SCT060 08/06 A3012 RMK AO2 SLP207 T00830056 53008,KBLI,2017-05-06T14:53:00Z,48.8,-122.53,8.3,5.6,160,3,,10.0,30.121063,1020.7,,,TRUE,,,,,,,SCT,6000,,,,,,,VFR,0.8,,,,,,,,,,,METAR,50.0
KBMG 061453Z 35008KT 10SM FEW090 11/07 A2975 RMK AO2 SLP074 60004 T01060067 53002,KBMG,2017-05-06T14:53:00Z,39.15,-86.62,10.6,6.7,350,8,,10.0,29.749016,1007.4,,,TRUE,,,,,,,FEW,9000,,,,,,,VFR,0.2,,,,,,0.04,,,,,METAR,257.0
KBMQ 061453Z AUTO 19007KT 10SM CLR 22/07 A3006 RMK AO2 SLP165 T02220067 51007,KBMQ,2017-05-06T14:53:00Z,30.73,-98.23,22.2,6.7,190,7,,10.0,30.059055,1016.5,,TRUE,TRUE,,,,,,,CLR,,,,,,,,VFR,0.7,,,,,,,,,,,METAR,389.0
KBNA 061453Z 22007KT 10SM OVC100 15/07 A2978 RMK AO2 SLP081 T01500072 58015,KBNA,2017-05-06T14:53:00Z,36.12,-86.68,15.0,7.2,220,7,,10.0,29.778543,1008.1,,,TRUE,,,,,,,OVC,10000,,,,,,,VFR,-1.5,,,,,,,,,,,METAR,210.0
KIAG 061453Z 31011KT 3SM BR OVC006 07/05 A2937 RMK AO2 CIG 005V010 SLP953 T00720050 56005,KIAG,2017-05-06T14:53:00Z,43.12,-78.93,7.2,5.0,310,11,,3.0,29.371063,995.3,,,TRUE,,,,,,BR,OVC,600,,,,,,,IFR,-0.5,,,,,,,,,,,METAR,182.0
KXNA 061453Z 26011KT 10SM CLR 19/09 A3000 RMK AO2 SLP150 T01890089 50008,KXNA,2017-05-06T14:53:00Z,36.28,-94.3,18.9,8.9,260,11,,10.0,30.0,1015.0,,,TRUE,,,,,,,CLR,,,,,,,,VFR,0.8,,,,,,,,,,,METAR,392.0
KIAH 061453Z 25004KT 10SM CLR 23/09 A3004 RMK AO2 SLP171 T02280094 51013 $,KIAH,2017-05-06T14:53:00Z,30.0,-95.37,22.8,9.4,250,4,,10.0,30.041338,1017.1,,,TRUE,TRUE,,,,,,CLR,,,,,,,,VFR,1.3,,,,,,,,,,,METAR,36.0
KICR 061453Z AUTO 13014KT 10SM CLR 22/02 A2995 RMK AO2 SLP132 T02220022 50002,KICR,2017-05-06T14:53:00Z,43.38,-99.85,22.2,2.2,130,14,,10.0,29.949802,1013.2,,TRUE,TRUE,,,,,,,CLR,,,,,,,,VFR,0.2,,,,,,,,,,,METAR,621.0
KICT 061453Z 25007KT 10SM CLR 20/10 A2997 RMK AO2 SLP144 T02000100 51005,KICT,2017-05-06T14:53:00Z,37.65,-97.43,20.0,10.0,250,7,,10.0,29.970472,1014.4,,,TRUE,,,,,,,CLR,,,,,,,,VFR,0.5,,,,,,,,,,,METAR,407.0
KIDA 061453Z 31007KT 10SM FEW090 SCT110 14/08 A2983 RMK AO2 SLP063 VIRGA SE-SW HZ ALQDS T01390083 53001,KIDA,2017-05-06T14:53:00Z,43.52,-112.07,13.9,8.3,310,7,,10.0,29.828741,1006.3,,,TRUE,,,,,,,FEW,9000,SCT,11000,,,,,VFR,0.1,,,,,,,,,,,METAR,1453.0
KINK 061453Z AUTO 13014KT 10SM CLR 23/02 A2995 RMK AO2 SLP102 T02280022 53009,KINK,2017-05-06T14:53:00Z,31.78,-103.2,22.8,2.2,130,14,,10.0,29.949802,1010.2,,TRUE,TRUE,,,,,,,CLR,,,,,,,,VFR,0.9,,,,,,,,,,,METAR,855.0
KIML 061453Z AUTO 18006KT 10SM CLR 19/09 A2995 RMK AO2 SLP125 T01890089 58002,KIML,2017-05-06T14:53:00Z,40.52,-101.62,18.9,8.9,180,6,,10.0,29.949802,1012.5,,TRUE,TRUE,,,,,,,CLR,,,,,,,,VFR,-0.2,,,,,,,,,,,METAR,998.0
KIXD 061453Z 34012KT 10SM CLR 19/10 A2993 RMK AO2 SLP128 T01940100 53012,KIXD,2017-05-06T14:53:00Z,38.82,-94.88,19.4,10.0,340,12,,10.0,29.929134,1012.8,,,TRUE,,,,,,,CLR,,,,,,,,VFR,1.2,,,,,,,,,,,METAR,342.0
KIWI 061453Z AUTO VRB04KT 10SM OVC002 15/14 A2963 RMK AO2 SLP035 60000 T01500144 58014,KIWI,2017-05-06T14:53:00Z,43.97,-69.72,15.0,14.4,0,4,,10.0,29.630905,1003.5,,TRUE,TRUE,,,,,,,OVC,200,,,,,,,LIFR,-1.4,,,,,,0.005,,,,,METAR,20.0
KITR 061453Z AUTO 20011KT 10SM CLR 21/09 A3000 RMK AO2 SLP118 T02110089 50002,KITR,2017-05-06T14:53:00Z,39.23,-102.28,21.1,8.9,200,11,,10.0,30.0,1011.8,,TRUE,TRUE,,,,,,,CLR,,,,,,,,VFR,0.2,,,,,,,,,,,METAR,1279.0
KIPL 061453Z AUTO 27013KT 10SM CLR 23/09 A2964 RMK AO2 SLP037 T02330094 53014 $,KIPL,2017-05-06T14:53:00Z,32.83,-115.58,23.3,9.4,270,13,,10.0,29.639763,1003.7,,TRUE,TRUE,TRUE,,,,,,CLR,,,,,,,,VFR,1.4,,,,,,,,,,,METAR,-17.0
KJBR 061453Z AUTO 27012G20KT 10SM CLR 20/10 A2987 RMK AO2 SLP114 T02000100 58001,KJBR,2017-05-06T14:53:00Z,35.83,-90.65,20.0,10.0,270,12,20,10.0,29.870079,1011.4,,TRUE,TRUE,,,,,,,CLR,,,,,,,,VFR,-0.1,,,,,,,,,,,METAR,79.0
KJKL 061453Z AUTO 00000KT 10SM BKN011 09/06 A2974 RMK AO2 SLP070 T00940061 53008,KJKL,2017-05-06T14:53:00Z,37.6,-83.32,9.4,6.1,0,0,,10.0,29.740158,1007.0,,TRUE,TRUE,,,,,,,BKN,1100,,,,,,,MVFR,0.8,,,,,,,,,,,METAR,416.0
KJER 061453Z AUTO 04007KT 10SM CLR 16/11 A2976 RMK AO2 SLP048 T01610106 53001,KJER,2017-05-06T14:53:00Z,42.72,-114.45,16.1,10.6,40,7,,10.0,29.760826,1004.8,,TRUE,TRUE,,,,,,,CLR,,,,,,,,VFR,0.1,,,,,,,,,,,METAR,1222.0
KJEF 061453Z 30011KT 10SM CLR 21/08 A2984 RMK AO2 SLP093 T02110083 52010,KJEF,2017-05-06T14:53:00Z,38.6,-92.15,21.1,8.3,300,11,,10.0,29.840551,1009.3,,,TRUE,,,,,,,CLR,,,,,,,,VFR,1.0,,,,,,,,,,,METAR,168.0
KLAA 061453Z AUTO 12005KT 10SM CLR 19/08 A2996 RMK AO2 SLP110 T01940083 58001,KLAA,2017-05-06T14:53:00Z,38.07,-102.68,19.4,8.3,120,5,,10.0,29.958662,1011.0,,TRUE,TRUE,,,,,,,CLR,,,,,,,,VFR,-0.1,,,,,,,,,,,METAR,1119.0
KLAN 061453Z 33014G19KT 10SM CLR 11/03 A2968 RMK AO2 SLP055 T01060033 50001,KLAN,2017-05-06T14:53:00Z,42.78,-84.58,10.6,3.3,330,14,19,10.0,29.681103,1005.5,,,TRUE,,,,,,,CLR,,,,,,,,VFR,0.1,,,,,,,,,,,METAR,264.0
KLBB 061453Z 18013KT 10SM FEW140 22/03 A3001 RMK AO2 SLP120 T02170028 51006,KLBB,2017-05-06T14:53:00Z,33.67,-101.82,21.7,2.8,180,13,,10.0,30.008858,1012.0,,,TRUE,,,,,,,FEW,14000,,,,,,,VFR,0.6,,,,,,,,,,,METAR,993.0
KLAX 061453Z 16005KT 10SM SCT025 OVC037 16/12 A2982 RMK AO2 SLP098 T01610117 53004,KLAX,2017-05-06T14:53:00Z,33.93,-118.38,16.1,11.7,160,5,,10.0,29.819881,1009.8,,,TRUE,,,,,,,SCT,2500,OVC,3700,,,,,VFR,0.4,,,,,,,,,,,METAR,46.0
KLAW 061453Z 21006KT 10SM CLR 21/09 A3001 RMK AO2 SLP157 T02060089 50004 $,KLAW,2017-05-06T14:53:00Z,34.55,-98.42,20.6,8.9,210,6,,10.0,30.008858,1015.7,,,TRUE,TRUE,,,,,,CLR,,,,,,,,VFR,0.4,,,,,,,,,,,METAR,337.0
KLAR 061453Z AUTO 18006KT 10SM CLR 16/00 A3006 RMK AO2 SLP086 T01610000 50001,KLAR,2017-05-06T14:53:00Z,41.32,-105.67,16.1,0.0,180,6,,10.0,30.059055,1008.6,,TRUE,TRUE,,,,,,,CLR,,,,,,,,VFR,0.1,,,,,,,,,,,METAR,2216.0
KLBF 061453Z AUTO 11003KT 10SM CLR 19/09 A2995 RMK AO2 SLP128 T01890089 58000,KLBF,2017-05-06T14:53:00Z,41.12,-100.67,18.9,8.9,110,3,,10.0,29.949802,1012.8,,TRUE,TRUE,,,,,,,CLR,,,,,,,,VFR,0.0,,,,,,,,,,,METAR,847.0
KLBX 061453Z AUTO VRB03KT 10SM CLR 26/11 A3003 RMK AO2 SLP168 T02560106 51010,KLBX,2017-05-06T14:53:00Z,29.12,-95.47,25.6,10.6,0,3,,10.0,30.029528,1016.8,,TRUE,TRUE,,,,,,,CLR,,,,,,,,VFR,1.0,,,,,,,,,,,METAR,6.0
KLCH 061453Z 00000KT 10SM CLR 22/11 A3003 RMK AO2 SLP175 T02220106 51013,KLCH,2017-05-06T14:53:00Z,30.13,-93.22,22.2,10.6,0,0,,10.0,30.029528,1017.5,,,TRUE,,,,,,,CLR,,,,,,,,VFR,1.3,,,,,,,,,,,METAR,4.0
KLEB 061453Z VRB04KT 10SM FEW012 SCT019 BKN055 17/13 A2948 RMK AO2 SLP979 60000 T01670133 55006,KLEB,2017-05-06T14:53:00Z,43.63,-72.3,16.7,13.3,0,4,,10.0,29.480314,997.9,,,TRUE,,,,,,,FEW,1200,SCT,1900,BKN,5500,,,VFR,-0.6,,,,,,0.005,,,,,METAR,171.0
KLEE 061453Z 29015G23KT 10SM CLR 21/08 A2994 RMK AO2 SLP135 T02110078 51005,KLEE,2017-05-06T14:53:00Z,28.82,-81.82,21.1,7.8,290,15,23,10.0,29.940945,1013.5,,,TRUE,,,,,,,CLR,,,,,,,,VFR,0.5,,,,,,,,,,,METAR,23.0
KLFK 061453Z AUTO VRB03KT 10SM CLR 21/11 A3004 RMK AO2 SLP169 T02060106 51013,KLFK,2017-05-06T14:53:00Z,31.23,-94.75,20.6,10.6,0,3,,10.0,30.041338,1016.9,,TRUE,TRUE,,,,,,,CLR,,,,,,,,VFR,1.3,,,,,,,,,,,METAR,88.0
KLFT 061453Z 00000KT 10SM CLR 22/11 A3002 RMK AO2 SLP167 T02220106 51011,KLFT,2017-05-06T14:53:00Z,30.2,-92.0,22.2,10.6,0,0,,10.0,30.02067,1016.7,,,TRUE,,,,,,,CLR,,,,,,,,VFR,1.1,,,,,,,,,,,METAR,11.0
KLGB 061453Z 20005KT 10SM -RA OVC021 16/12 A2983 RMK AO2 RAB53 SLP100 P0000 60000 T01610117 53005,KLGB,2017-05-06T14:53:00Z,33.82,-118.15,16.1,11.7,200,5,,10.0,29.828741,1010.0,,,TRUE,,,,,,-RA,OVC,2100,,,,,,,MVFR,0.5,,,,,0.005,0.005,,,,,METAR,10.0
KLHQ 061453Z AUTO 33012KT 10SM SCT038 BKN046 13/06 A2963 RMK AO2 SLP033 T01330056 51008,KLHQ,2017-05-06T14:53:00Z,39.75,-82.67,13.3,5.6,330,12,,10.0,29.630905,1003.3,,TRUE,TRUE,,,,,,,SCT,3800,BKN,4600,,,,,VFR,0.8,,,,,,,,,,,METAR,260.0
KBOI 061453Z 30012KT 10SM OVC039 09/04 A2979 RMK AO2 SLP076 T00890044 50010,KBOI,2017-05-06T14:53:00Z,43.57,-116.23,8.9,4.4,300,12,,10.0,29.790354,1007.6,,,TRUE,,,,,,,OVC,3900,,,,,,,VFR,1.0,,,,,,,,,,,METAR,875.0
KBPI 061453Z AUTO 09003KT 10SM CLR 12/00 A3001 RMK AO2 SLP094 T01170000 51004,KBPI,2017-05-06T14:53:00Z,42.58,-110.1,11.7,0.0,90,3,,10.0,30.008858,1009.4,,TRUE,TRUE,,,,,,,CLR,,,,,,,,VFR,0.4,,,,,,,,,,,METAR,2117.0
KBPK 061453Z AUTO VRB06KT 10SM CLR 19/08 A2992 RMK AO2 SLP128 T01890078 50004,KBPK,2017-05-06T14:53:00Z,36.37,-92.47,18.9,7.8,0,6,,10.0,29.920275,1012.8,,TRUE,TRUE,,,,,,,CLR,,,,,,,,VFR,0.4,,,,,,,,,,,METAR,280.0
KBPT 061453Z 27003KT 10SM CLR 23/09 A3003 RMK AO2 SLP167 T02330094 51013,KBPT,2017-05-06T14:53:00Z,29.95,-94.03,23.3,9.4,270,3,,10.0,30.029528,1016.7,,,TRUE,,,,,,,CLR,,,,,,,,VFR,1.3,,,,,,,,,,,METAR,5.0
KBNO 061453Z AUTO 31013G23KT 10SM OVC055 05/M02 A2989 RMK AO2 SLP111 T00501017 51008,KBNO,2017-05-06T14:53:00Z,43.6,-118.95,5.0,-1.7,310,13,23,10.0,29.890747,1011.1,,TRUE,TRUE,,,,,,,OVC,5500,,,,,,,VFR,0.8,,,,,,,,,,,METAR,1264.0
KBRO 061453Z 15011KT 10SM CLR 27/14 A3003 RMK AO2 SLP168 T02720139 51011 $,KBRO,2017-05-06T14:53:00Z,25.92,-97.42,27.2,13.9,150,11,,10.0,30.029528,1016.8,,,TRUE,TRUE,,,,,,CLR,,,,,,,,VFR,1.1,,,,,,,,,,,METAR,7.0
KBRL 061453Z AUTO 01009KT 10SM CLR 14/09 A2987 RMK AO2 SLP114 T01440089 51036,KBRL,2017-05-06T14:53:00Z,40.77,-91.13,14.4,8.9,10,9,,10.0,29.870079,1011.4,,TRUE,TRUE,,,,,,,CLR,,,,,,,,VFR,3.6,,,,,,,,,,,METAR,211.0
KBTL 061453Z 34012G18KT 10SM CLR 11/03 A2970 RMK AO2 SLP059 T01110028 53002,KBTL,2017-05-06T14:53:00Z,42.32,-85.23,11.1,2.8,340,12,18,10.0,29.698818,1005.9,,,TRUE,,,,,,,CLR,,,,,,,,VFR,0.2,,,,,,,,,,,METAR,290.0
KBTM 061453Z AUTO 14003KT 10SM -RA FEW070 BKN100 13/06 A2986 RMK AO2 RAB03E13B45 SLP065 P0000 60000 T01280056 58006,KBTM,2017-05-06T14:53:00Z,45.97,-112.5,12.8,5.6,140,3,,10.0,29.861221,1006.5,,TRUE,TRUE,,,,,,-RA,FEW,7000,BKN,10000,,,,,VFR,-0.6,,,,,0.005,0.005,,,,,METAR,1688.0
KCDS 061453Z AUTO 16006KT 10SM CLR 21/06 A3001 RMK AO2 SLP145 T02110061 53001,KCDS,2017-05-06T14:53:00Z,34.43,-100.28,21.1,6.1,160,6,,10.0,30.008858,1014.5,,TRUE,TRUE,,,,,,,CLR,,,,,,,,VFR,0.1,,,,,,,,,,,METAR,594.0
KCDR 061453Z AUTO VRB03KT 10SM CLR 22/10 A2987 RMK AO2 SLP097 T02170100 58006,KCDR,2017-05-06T14:53:00Z,42.83,-103.1,21.7,10.0,0,3,,10.0,29.870079,1009.7,,TRUE,TRUE,,,,,,,CLR,,,,,,,,VFR,-0.6,,,,,,,,,,,METAR,1010.0
KCDC 061453Z AUTO 21003KT 10SM CLR 18/M01 A2984 RMK AO2 SLP038 T01831011 50003,KCDC,2017-05-06T14:53:00Z,37.7,-113.1,18.3,-1.1,210,3,,10.0,29.840551,1003.8,,TRUE,TRUE,,,,,,,CLR,,,,,,,,VFR,0.3,,,,,,,,,,,METAR,1714.0
KCCR 061453Z COR 22007G14KT 10SM SCT050 12/05 A2981 RMK AO2 SLP080 T01170050 58001 $,KCCR,2017-05-06T14:53:00Z,38.0,-122.05,11.7,5.0,220,7,14,10.0,29.811024,1008.0,TRUE,,TRUE,TRUE,,,,,,SCT,5000,,,,,,,VFR,-0.1,,,,,,,,,,,SPECI,11.0
KCAG 061453Z AUTO 07012KT 10SM CLR 17/00 A3000 RMK AO2 SLP100 T01670000 58001,KCAG,2017-05-06T14:53:00Z,40.5,-107.52,16.7,0.0,70,12,,10.0,30.0,1010.0,,TRUE,TRUE,,,,,,,CLR,,,,,,,,VFR,-0.1,,,,,,,,,,,METAR,1887.0
KBYG 061453Z AUTO 11006KT 10SM CLR 22/08 A2984 RMK AO2 SLP044 T02170083 58003 $,KBYG,2017-05-06T14:53:00Z,44.38,-106.72,21.7,8.3,110,6,,10.0,29.840551,1004.4,,TRUE,TRUE,TRUE,,,,,,CLR,,,,,,,,VFR,-0.3,,,,,,,,,,,METAR,1497.0
KBWG 061453Z AUTO 11007KT 10SM -RA OVC070 10/09 A2976 RMK AO2 RAB1359E15B49 PRESFR SLP077 P0000 60000 T01000089 58013 TSNO,KBWG,2017-05-06T14:53:00Z,36.97,-86.42,10.0,8.9,110,7,,10.0,29.760826,1007.7,,TRUE,TRUE,,,TRUE,,,-RA,OVC,7000,,,,,,,VFR,-1.3,,,,,0.005,0.005,,,,,METAR,168.0
KBVY 061453Z 14011KT 10SM SCT004 BKN060 BKN100 15/15 A2954 RMK AO2 SLP998 60001 T01500150 55003,KBVY,2017-05-06T14:53:00Z,42.58,-70.92,15.0,15.0,140,11,,10.0,29.53937,999.8,,,TRUE,,,,,,,SCT,400,BKN,6000,BKN,10000,,,VFR,-0.3,,,,,,0.01,,,,,METAR,28.0
KBUR 061453Z 17006KT 10SM OVC017 15/11 A2981 RMK AO2 SLP087 T01500106 53003,KBUR,2017-05-06T14:53:00Z,34.2,-118.37,15.0,10.6,170,6,,10.0,29.811024,1008.7,,,TRUE,,,,,,,OVC,1700,,,,,,,MVFR,0.3,,,,,,,,,,,METAR,217.0
KBTR 061453Z 18008KT 10SM CLR 22/10 A3003 RMK AO2 SLP167 T02220100 51013,KBTR,2017-05-06T14:53:00Z,30.53,-91.15,22.2,10.0,180,8,,10.0,30.029528,1016.7,,,TRUE,,,,,,,CLR,,,,,,,,VFR,1.3,,,,,,,,,,,METAR,21.0
KCDW 061453Z 21008G15KT 170V240 10SM SCT033 BKN049 OVC060 17/10 A2939 RMK AO2 SLP958 T01670100 53001,KCDW,2017-05-06T14:53:00Z,40.88,-74.28,16.7,10.0,210,8,15,10.0,29.388779,995.8,,,TRUE,,,,,,,SCT,3300,BKN,4900,OVC,6000,,,VFR,0.1,,,,,,,,,,,METAR,64.0
KBRD 061453Z AUTO 00000KT 10SM CLR 12/04 A3001 RMK AO2 SLP165 T01170039 50009,KBRD,2017-05-06T14:53:00Z,46.4,-94.13,11.7,3.9,0,0,,10.0,30.008858,1016.5,,TRUE,TRUE,,,,,,,CLR,,,,,,,,VFR,0.9,,,,,,,,,,,METAR,372.0
KCHA 061453Z 23007KT 220V280 10SM SCT040 SCT065 16/05 A2985 RMK AO2 SLP104 T01560050 50006 $,KCHA,2017-05-06T14:53:00Z,35.03,-85.2,15.6,5.0,230,7,,10.0,29.84941,1010.4,,,TRUE,TRUE,,,,,,SCT,4000,SCT,6500,,,,,VFR,0.6,,,,,,,,,,,METAR,210.0
KCGI 061453Z 27011KT 10SM SCT100 19/09 A2975 RMK AO2 SLP072 T01940094 56004,KCGI,2017-05-06T14:53:00Z,37.23,-89.58,19.4,9.4,270,11,,10.0,29.749016,1007.2,,,TRUE,,,,,,,SCT,10000,,,,,,,VFR,-0.4,,,,,,,,,,,METAR,102.0
KCEZ 061453Z AUTO 00000KT 10SM CLR 17/02 A3002 RMK AO2 SLP102 T01720022 51008,KCEZ,2017-05-06T14:53:00Z,37.3,-108.63,17.2,2.2,0,0,,10.0,30.02067,1010.2,,TRUE,TRUE,,,,,,,CLR,,,,,,,,VFR,0.8,,,,,,,,,,,METAR,1797.0
KCEW 061453Z AUTO VRB05KT 10SM CLR 20/04 A2999 RMK AO2 SLP155 T02000044 51010,KCEW,2017-05-06T14:53:00Z,30.78,-86.52,20.0,4.4,0,5,,10.0,29.991142,1015.5,,TRUE,TRUE,,,,,,,CLR,,,,,,,,VFR,1.0,,,,,,,,,,,METAR,55.0
KCHO 061453Z 27004KT 8SM -RA OVC060 12/09 A2946 RMK AO2 SLP971 P0003 60014 T01170089 51024,KCHO,2017-05-06T14:53:00Z,38.13,-78.45,11.7,8.9,270,4,,8.0,29.459646,997.1,,,TRUE,,,,,,-RA,OVC,6000,,,,,,,VFR,2.4,,,,,0.03,0.14,,,,,METAR,192.0
KCLL 061453Z 18005KT 10SM CLR 22/09 A3004 RMK AO2 SLP169 T02220089 51008,KCLL,2017-05-06T14:53:00Z,30.58,-96.37,22.2,8.9,180,5,,10.0,30.041338,1016.9,,,TRUE,,,,,,,CLR,,,,,,,,VFR,0.8,,,,,,,,,,,METAR,96.0
KCKB 061453Z 27008G16KT 9SM -RA BKN009 OVC019 07/05 A2955 RMK AO2 SLP002 P0004 60014 T00720050 51020,KCKB,2017-05-06T14:53:00Z,39.3,-80.22,7.2,5.0,270,8,16,9.0,29.551182,1000.2,,,TRUE,,,,,,-RA,BKN,900,OVC,1900,,,,,IFR,2.0,,,,,0.04,0.14,,,,,METAR,360.0
KCMI 061453Z 01012KT 10SM BKN019 OVC025 12/08 A2980 RMK AO2 SLP091 60000 T01220083 51021,KCMI,2017-05-06T14:53:00Z,40.03,-88.27,12.2,8.3,10,12,,10.0,29.799213,1009.1,,,TRUE,,,,,,,BKN,1900,OVC,2500,,,,,MVFR,2.1,,,,,,0.005,,,,,METAR,228.0
KCLM 061453Z AUTO 25006KT 10SM CLR 08/03 A3014 RMK AO2 SLP207 T00780033 53008,KCLM,2017-05-06T14:53:00Z,48.12,-123.5,7.8,3.3,250,6,,10.0,30.138779,1020.7,,TRUE,TRUE,,,,,,,CLR,,,,,,,,VFR,0.8,,,,,,,,,,,METAR,85.0
KHBG 061453Z AUTO 27009KT 10SM CLR 21/07 A3002 RMK AO2 SLP165 T02060072 51009,KHBG,2017-05-06T14:53:00Z,31.27,-89.25,20.6,7.2,270,9,,10.0,30.02067,1016.5,,TRUE,TRUE,,,,,,,CLR,,,,,,,,VFR,0.9,,,,,,,,,,,METAR,44.0
KHBR 061453Z AUTO 21012KT 10SM CLR 21/09 A3002 RMK AO2 SLP154 T02060089 50001,KHBR,2017-05-06T14:53:00Z,34.98,-99.05,20.6,8.9,210,12,,10.0,30.02067,1015.4,,TRUE,TRUE,,,,,,,CLR,,,,,,,,VFR,0.1,,,,,,,,,,,METAR,473.0
KABR 061453Z AUTO 34004KT 10SM CLR 18/02 A2997 RMK AO2 SLP146 T01780017 51002,KABR,2017-05-06T14:53:00Z,45.45,-98.42,17.8,1.7,340,4,,10.0,29.970472,1014.6,,TRUE,TRUE,,,,,,,CLR,,,,,,,,VFR,0.2,,,,,,,,,,,METAR,397.0
KAAF 061453Z AUTO 31014G19KT 10SM CLR 21/06 A2997 RMK AO2 SLP148 T02060056 51008 TSNO,KAAF,2017-05-06T14:53:00Z,29.73,-85.03,20.6,5.6,310,14,19,10.0,29.970472,1014.8,,TRUE,TRUE,,,TRUE,,,,CLR,,,,,,,,VFR,0.8,,,,,,,,,,,METAR,5.0
KHZY 061453Z AUTO 32009G20KT 6SM -RA BR OVC009 06/06 A2949 RMK AO2 CIG 007V013 SLP988 P0000 60004 T00610056 51008 TSNO,KHZY,2017-05-06T14:53:00Z,41.78,-80.7,6.1,5.6,320,9,20,6.0,29.489174,998.8,,TRUE,TRUE,,,TRUE,,,-RA BR,OVC,900,,,,,,,IFR,0.8,,,,,0.005,0.04,,,,,METAR,276.0
KHYR 061453Z AUTO 04009KT 10SM CLR 09/02 A3001 RMK AO2 SLP169 T00940017 51009,KHYR,2017-05-06T14:53:00Z,46.02,-91.45,9.4,1.7,40,9,,10.0,30.008858,1016.9,,TRUE,TRUE,,,,,,,CLR,,,,,,,,VFR,0.9,,,,,,,,,,,METAR,370.0
KHWO 061453Z 31012G19KT 10SM CLR 23/10 A2999 RMK AO2 SLP154 T02330100 53010,KHWO,2017-05-06T14:53:00Z,26.0,-80.23,23.3,10.0,310,12,19,10.0,29.991142,1015.4,,,TRUE,,,,,,,CLR,,,,,,,,VFR,1.0,,,,,,,,,,,METAR,2.0
KHVR 061453Z AUTO 28006KT 10SM CLR 19/11 A2972 RMK AO2 SLP050 T01890111 50003,KHVR,2017-05-06T14:53:00Z,48.55,-109.77,18.9,11.1,280,6,,10.0,29.719488,1005.0,,TRUE,TRUE,,,,,,,CLR,,,,,,,,VFR,0.3,,,,,,,,,,,METAR,787.0
KHUL 061453Z AUTO 16004KT 8SM -RA BKN007 OVC035 13/13 A2972 RMK AO2 SLP067 P0002 60023 T01280128 50000,KHUL,2017-05-06T14:53:00Z,46.12,-67.8,12.8,12.8,160,4,,8.0,29.719488,1006.7,,TRUE,TRUE,,,,,,-RA,BKN,700,OVC,3500,,,,,IFR,0.0,,,,,0.02,0.23,,,,,METAR,150.0
KHUF 061453Z 36004KT 10SM OVC007 11/08 A2978 RMK AO2 CIG 006V010 SLP084 60004 T01060083 53008,KHUF,2017-05-06T14:53:00Z,39.45,-87.3,10.6,8.3,360,4,,10.0,29.778543,1008.4,,,TRUE,,,,,,,OVC,700,,,,,,,IFR,0.8,,,,,,0.04,,,,,METAR,179.0
KHTL 061453Z AUTO 33009KT 10SM FEW040 10/01 A2969 RMK AO2 SLP060 T01000006 58003,KHTL,2017-05-06T14:53:00Z,44.35,-84.67,10.0,0.6,330,9,,10.0,29.68996,1006.0,,TRUE,TRUE,,,,,,,FEW,4000,,,,,,,VFR,-0.3,,,,,,,,,,,METAR,351.0
KHSV 061453Z 28004KT 10SM CLR 17/08 A2987 RMK AO2 SLP112 T01670083 58002,KHSV,2017-05-06T14:53:00Z,34.65,-86.78,16.7,8.3,280,4,,10.0,29.870079,1011.2,,,TRUE,,,,,,,CLR,,,,,,,,VFR,-0.2,,,,,,,,,,,METAR,191.0
KHSI 061453Z AUTO 03009KT 10SM CLR 22/06 A2997 RMK AO2 SLP136 T02220061 50009,KHSI,2017-05-06T14:53:00Z,40.6,-98.43,22.2,6.1,30,9,,10.0,29.970472,1013.6,,TRUE,TRUE,,,,,,,CLR,,,,,,,,VFR,0.9,,,,,,,,,,,METAR,591.0
KHRO 061453Z AUTO 28008KT 240V310 10SM CLR 19/08 A2996 RMK AO2 SLP138 T01940078 50006 $,KHRO,2017-05-06T14:53:00Z,36.27,-93.15,19.4,7.8,280,8,,10.0,29.958662,1013.8,,TRUE,TRUE,TRUE,,,,,,CLR,,,,,,,,VFR,0.6,,,,,,,,,,,METAR,417.0
KHRI 061453Z AUTO 25014G19KT 10SM OVC100 09/02 A3003 RMK AO2 SLP168 T00890022 53012,KHRI,2017-05-06T14:53:00Z,45.83,-119.27,8.9,2.2,250,14,19,10.0,30.029528,1016.8,,TRUE,TRUE,,,,,,,OVC,10000,,,,,,,VFR,1.2,,,,,,,,,,,METAR,195.0
KHQM 061453Z AUTO 00000KT 7SM CLR 07/07 A3016 RMK AO2 SLP216 T00720067 53006,KHQM,2017-05-06T14:53:00Z,46.97,-123.93,7.2,6.7,0,0,,7.0,30.159449,1021.6,,TRUE,TRUE,,,,,,,CLR,,,,,,,,VFR,0.6,,,,,,,,,,,METAR,7.0
KHOU 061453Z 22003KT 10SM CLR 23/09 A3003 RMK AO2 SLP175 T02280094 51013,KHOU,2017-05-06T14:53:00Z,29.63,-95.28,22.8,9.4,220,3,,10.0,30.029528,1017.5,,,TRUE,,,,,,,CLR,,,,,,,,VFR,1.3,,,,,,,,,,,METAR,36.0
KHOT 061453Z AUTO 27005KT 10SM CLR 19/11 A3001 RMK AO2 SLP158 T01890106 51014,KHOT,2017-05-06T14:53:00Z,34.48,-93.1,18.9,10.6,270,5,,10.0,30.008858,1015.8,,TRUE,TRUE,,,,,,,CLR,,,,,,,,VFR,1.4,,,,,,,,,,,METAR,162.0
KHLN 061453Z 25005KT 10SM FEW120 18/07 A2977 RMK AO2 SLP063 T01830067 58007,KHLN,2017-05-06T14:53:00Z,46.6,-111.98,18.3,6.7,250,5,,10.0,29.769686,1006.3,,,TRUE,,,,,,,FEW,12000,,,,,,,VFR,-0.7,,,,,,,,,,,METAR,1182.0
KHLG 061453Z 29009KT 10SM -RA FEW010 BKN015 OVC021 06/05 A2953 RMK AO2 SLP004 P0001 60006 T00610050 53013,KHLG,2017-05-06T14:53:00Z,40.17,-80.65,6.1,5.0,290,9,,10.0,29.530512,1000.4,,,TRUE,,,,,,-RA,FEW,1000,BKN,1500,OVC,2100,,,MVFR,1.3,,,,,0.01,0.06,,,,,METAR,372.0
KHLC 061453Z AUTO 08003KT 9SM CLR 20/10 A2996 RMK AO2 SLP133 T02000100 50002 TSNO $,KHLC,2017-05-06T14:53:00Z,39.37,-99.83,20.0,10.0,80,3,,9.0,29.958662,1013.3,,TRUE,TRUE,TRUE,,TRUE,,,,CLR,,,,,,,,VFR,0.2,,,,,,,,,,,METAR,669.0
KHKY 061453Z 31014G22KT 10SM CLR 14/02 A2963 RMK AO2 SLP020 T01390022 50010,KHKY,2017-05-06T14:53:00Z,35.75,-81.38,13.9,2.2,310,14,22,10.0,29.630905,1002.0,,,TRUE,,,,,,,CLR,,,,,,,,VFR,1.0,,,,,,,,,,,METAR,354.0
KHKS 061453Z 27011KT 10SM CLR 21/09 A3001 RMK AO2 SLP154 T02060089 51009,KHKS,2017-05-06T14:53:00Z,32.33,-90.22,20.6,8.9,270,11,,10.0,30.008858,1015.4,,,TRUE,,,,,,,CLR,,,,,,,,VFR,0.9,,,,,,,,,,,METAR,108.0
KHKA 061453Z AUTO 28013G24KT 10SM CLR 21/12 A2984 RMK AO2 SLP104 T02060117 58006,KHKA,2017-05-06T14:53:00Z,35.93,-89.83,20.6,11.7,280,13,24,10.0,29.840551,1010.4,,TRUE,TRUE,,,,,,,CLR,,,,,,,,VFR,-0.6,,,,,,,,,,,METAR,78.0
KHJO 061453Z AUTO 35009KT 10SM BKN110 13/04 A2981 RMK AO2 SLP095 T01280039 53010,KHJO,2017-05-06T14:53:00Z,36.32,-119.62,12.8,3.9,350,9,,10.0,29.811024,1009.5,,TRUE,TRUE,,,,,,,BKN,11000,,,,,,,VFR,1.0,,,,,,,,,,,METAR,74.0
KHIO 061453Z 00000KT 10SM FEW048 06/05 A3016 RMK AO2 SLP214 T00610050 51006,KHIO,2017-05-06T14:53:00Z,45.55,-122.95,6.1,5.0,0,0,,10.0,30.159449,1021.4,,,TRUE,,,,,,,FEW,4800,,,,,,,VFR,0.6,,,,,,,,,,,METAR,68.0
KHIB 061453Z AUTO 10005KT 10SM CLR 09/05 A3002 RMK AO2 SLP176 T00890050 51010,KHIB,2017-05-06T14:53:00Z,47.38,-92.83,8.9,5.0,100,5,,10.0,30.02067,1017.6,,TRUE,TRUE,,,,,,,CLR,,,,,,,,VFR,1.0,,,,,,,,,,,METAR,412.0
KHHR 061453Z 19005KT 10SM BKN025 BKN030 OVC039 16/12 A2983 RMK AO2 SLP100 T01610117 53004,KHHR,2017-05-06T14:53:00Z,33.92,-118.33,16.1,11.7,190,5,,10.0,29.828741,1010.0,,,TRUE,,,,,,,BKN,2500,BKN,3000,OVC,3900,,,MVFR,0.4,,,,,,,,,,,METAR,18.0
KHGR 061453Z 24010KT 10SM -RA OVC026 11/08 A2939 RMK AO2 RAB47 SLP958 P0000 60000 T01060078 53029,KHGR,2017-05-06T14:53:00Z,39.7,-77.73,10.6,7.8,240,10,,10.0,29.388779,995.8,,,TRUE,,,,,,-RA,OVC,2600,,,,,,,MVFR,2.9,,,,,0.005,0.005,,,,,METAR,224.0
KHEI 061453Z AUTO 13020G25KT 10SM CLR 18/03 A2990 RMK AO2 PK WND 13027/1437 SLP113 T01780028 58005,KHEI,2017-05-06T14:53:00Z,46.02,-102.65,17.8,2.8,130,20,25,10.0,29.899607,1011.3,,TRUE,TRUE,,,,,,,CLR,,,,,,,,VFR,-0.5,,,,,,,,,,,METAR,828.0
KABY 061453Z 34013KT 10SM CLR 19/04 A2994 RMK AO2 SLP138 T01890039 51016,KABY,2017-05-06T14:53:00Z,31.53,-84.2,18.9,3.9,340,13,,10.0,29.940945,1013.8,,,TRUE,,,,,,,CLR,,,,,,,,VFR,1.6,,,,,,,,,,,METAR,58.0
KACK 061453Z 13014KT 4SM -RA BR OVC100 13/12 A2960 RMK AO2 SLP023 P0004 60011 T01330122 58008,KACK,2017-05-06T14:53:00Z,41.25,-70.07,13.3,12.2,130,14,,4.0,29.601377,1002.3,,,TRUE,,,,,,-RA BR,OVC,10000,,,,,,,MVFR,-0.8,,,,,0.04,0.11,,,,,METAR,16.0
KACV 061453Z AUTO 36013G24KT 10SM CLR 10/03 A2998 RMK AO2 SLP159 T01000033 58004,KACV,2017-05-06T14:53:00Z,40.98,-124.1,10.0,3.3,360,13,24,10.0,29.97933,1015.9,,TRUE,TRUE,,,,,,,CLR,,,,,,,,VFR,-0.4,,,,,,,,,,,METAR,67.0
KADG 061453Z AUTO 36013G20KT 10SM CLR 11/04 A2964 RMK AO2 SLP043 T01060044 58000 TSNO,KADG,2017-05-06T14:53:00Z,41.87,-84.08,10.6,4.4,360,13,20,10.0,29.639763,1004.3,,TRUE,TRUE,,,TRUE,,,,CLR,,,,,,,,VFR,0.0,,,,,,,,,,,METAR,241.0
KAFW 061453Z 21011KT 10SM CLR 23/08 A3002 RMK AO2 SLP157 T02330083 50004,KAFW,2017-05-06T14:53:00Z,32.97,-97.32,23.3,8.3,210,11,,10.0,30.02067,1015.7,,,TRUE,,,,,,,CLR,,,,,,,,VFR,0.4,,,,,,,,,,,METAR,233.0
KAEX 061453Z VRB03KT 10SM CLR 18/12 A3001 RMK AO2 SLP165 T01830117 51010,KAEX,2017-05-06T14:53:00Z,31.33,-92.57,18.3,11.7,0,3,,10.0,30.008858,1016.5,,,TRUE,,,,,,,CLR,,,,,,,,VFR,1.0,,,,,,,,,,,METAR,27.0
KALI 061453Z AUTO 21013KT 10SM CLR 25/13 A3002 RMK AO2 SLP165 T02500133 51009 TSNO,KALI,2017-05-06T14:53:00Z,27.73,-98.02,25.0,13.3,210,13,,10.0,30.02067,1016.5,,TRUE,TRUE,,,TRUE,,,,CLR,,,,,,,,VFR,0.9,,,,,,,,,,,METAR,53.0
KAKO 061453Z AUTO 16011KT 10SM CLR 22/06 A2997 RMK AO2 SLP098 T02220056 58000,KAKO,2017-05-06T14:53:00Z,40.17,-103.22,22.2,5.6,160,11,,10.0,29.970472,1009.8,,TRUE,TRUE,,,,,,,CLR,,,,,,,,VFR,0.0,,,,,,,,,,,METAR,1421.0
KAIA 061453Z AUTO 15009KT 10SM CLR 21/08 A2992 RMK AO2 SLP101 T02060083 50000,KAIA,2017-05-06T14:53:00Z,42.05,-102.8,20.6,8.3,150,9,,10.0,29.920275,1010.1,,TRUE,TRUE,,,,,,,CLR,,,,,,,,VFR,0.0,,,,,,,,,,,METAR,1196.0
KAGS 061453Z 30011G19KT 10SM CLR 19/07 A2976 RMK AO2 SLP075 T01890067 51020,KAGS,2017-05-06T14:53:00Z,33.37,-81.97,18.9,6.7,300,11,19,10.0,29.760826,1007.5,,,TRUE,,,,,,,CLR,,,,,,,,VFR,2.0,,,,,,,,,,,METAR,44.0
KAMA 061453Z 18013G20KT 10SM CLR 20/04 A3004 RMK AO2 SLP132 T02000039 53005,KAMA,2017-05-06T14:53:00Z,35.22,-101.72,20.0,3.9,180,13,20,10.0,30.041338,1013.2,,,TRUE,,,,,,,CLR,,,,,,,,VFR,0.5,,,,,,,,,,,METAR,1093.0
KAMG 061453Z AUTO 29012G24KT 10SM CLR 18/06 A2986 RMK AO2 PK WND 30026/1406 SLP109 T01780056 53016,KAMG,2017-05-06T14:53:00Z,31.53,-82.5,17.8,5.6,290,12,24,10.0,29.861221,1010.9,,TRUE,TRUE,,,,,,,CLR,,,,,,,,VFR,1.6,,,,,,,,,,,METAR,59.0
KPIL 061453Z AUTO 17008G18KT 10SM CLR 26/14 A3002 RMK AO2 SLP165 T02610139 51011,KPIL,2017-05-06T14:53:00Z,26.17,-97.33,26.1,13.9,170,8,18,10.0,30.02067,1016.5,,TRUE,TRUE,,,,,,,CLR,,,,,,,,VFR,1.1,,,,,,,,,,,METAR,5.0
KPIH 061453Z 34003KT 10SM SCT090 BKN120 12/08 A2980 RMK AO2 SLP058 T01170083 51004,KPIH,2017-05-06T14:53:00Z,42.92,-112.57,11.7,8.3,340,3,,10.0,29.799213,1005.8,,,TRUE,,,,,,,SCT,9000,BKN,12000,,,,,VFR,0.4,,,,,,,,,,,METAR,1359.0
KPIE 061453Z 30012G22KT 10SM SCT050 23/09 A2996 RMK AO2 SLP145 T02330089 51010,KPIE,2017-05-06T14:53:00Z,27.92,-82.68,23.3,8.9,300,12,22,10.0,29.958662,1014.5,,,TRUE,,,,,,,SCT,5000,,,,,,,VFR,1.0,,,,,,,,,,,METAR,4.0
KPHD 061453Z AUTO 30009KT 10SM -RA SCT015 OVC021 08/06 A2956 RMK AO2 SLP014 P0001 60002 T00780056 52012,KPHD,2017-05-06T14:53:00Z,40.47,-81.42,7.8,5.6,300,9,,10.0,29.56004,1001.4,,TRUE,TRUE,,,,,,-RA,SCT,1500,OVC,2100,,,,,MVFR,1.2,,,,,0.01,0.02,,,,,METAR,272.0
KPGD 061453Z 29014KT 10SM FEW050 23/09 A2998 RMK AO2 SLP151 T02330094 50006,KPGD,2017-05-06T14:53:00Z,26.92,-82.0,23.3,9.4,290,14,,10.0,29.97933,1015.1,,,TRUE,,,,,,,FEW,5000,,,,,,,VFR,0.6,,,,,,,,,,,METAR,7.0
KPGA 061453Z AUTO 00000KT 10SM CLR 23/01 A2983 RMK AO2 SLP035 T02280011 53008 TSNO,KPGA,2017-05-06T14:53:00Z,36.92,-111.45,22.8,1.1,0,0,,10.0,29.828741,1003.5,,TRUE,TRUE,,,TRUE,,,,CLR,,,,,,,,VFR,0.8,,,,,,,,,,,METAR,1307.0
KPDX 061453Z 30004KT 10SM FEW040 FEW200 08/04 A3017 RMK AO2 SLP214 T00830044 53005,KPDX,2017-05-06T14:53:00Z,45.6,-122.62,8.3,4.4,300,4,,10.0,30.171259,1021.4,,,TRUE,,,,,,,FEW,4000,FEW,20000,,,,,VFR,0.5,,,,,,,,,,,METAR,7.0
KPDT 061453Z 25016KT 10SM BKN085 BKN120 07/02 A3001 RMK AO2 SLP159 60000 T00670017 51008,KPDT,2017-05-06T14:53:00Z,45.7,-118.83,6.7,1.7,250,16,,10.0,30.008858,1015.9,,,TRUE,,,,,,,BKN,8500,BKN,12000,,,,,VFR,0.8,,,,,,0.005,,,,,METAR,462.0
KPDK 061453Z 28009G16KT 10SM CLR 14/06 A2985 RMK AO2 SLP107 T01440056 51017,KPDK,2017-05-06T14:53:00Z,33.88,-84.3,14.4,5.6,280,9,16,10.0,29.84941,1010.7,,,TRUE,,,,,,,CLR,,,,,,,,VFR,1.7,,,,,,,,,,,METAR,302.0
KPBI 061453Z 32013KT 10SM FEW047 22/06 A2996 RMK AO2 SLP145 T02170061 51010 $,KPBI,2017-05-06T14:53:00Z,26.68,-80.1,21.7,6.1,320,13,,10.0,29.958662,1014.5,,,TRUE,TRUE,,,,,,FEW,4700,,,,,,,VFR,1.0,,,,,,,,,,,METAR,6.0
KPBF 061453Z AUTO 25008KT 10SM CLR 21/09 A2998 RMK AO2 SLP149 T02060094 51009,KPBF,2017-05-06T14:53:00Z,34.18,-91.93,20.6,9.4,250,8,,10.0,29.97933,1014.9,,TRUE,TRUE,,,,,,,CLR,,,,,,,,VFR,0.9,,,,,,,,,,,METAR,62.0
KPAH 061453Z 26010KT 10SM BKN100 18/09 A2973 RMK AO2 SLP064 T01780089 57010 $,KPAH,2017-05-06T14:53:00Z,37.07,-88.77,17.8,8.9,260,10,,10.0,29.731298,1006.4,,,TRUE,TRUE,,,,,,BKN,10000,,,,,,,VFR,-1.0,,,,,,,,,,,METAR,119.0
KPAE 061453Z 00000KT 10SM SCT016 BKN025 OVC055 07/04 A3013 RMK AO2 SLP207 T00670044 50004,KPAE,2017-05-06T14:53:00Z,47.92,-122.28,6.7,4.4,0,0,,10.0,30.129921,1020.7,,,TRUE,,,,,,,SCT,1600,BKN,2500,OVC,5500,,,MVFR,0.4,,,,,,,,,,,METAR,180.0
KOXB 061453Z AUTO 21017G24KT 10SM SCT021 17/12 A2946 RMK AO2 PK WND 21029/1403 SLP976 T01670117 50005,KOXB,2017-05-06T14:53:00Z,38.32,-75.12,16.7,11.7,210,17,24,10.0,29.459646,997.6,,TRUE,TRUE,,,,,,,SCT,2100,,,,,,,VFR,0.5,,,,,,,,,,,METAR,3.0
KEVW 061453Z AUTO 13006KT 10SM FEW120 14/01 A2996 RMK AO2 SLP058 T01440006 50002,KEVW,2017-05-06T14:53:00Z,41.27,-111.03,14.4,0.6,130,6,,10.0,29.958662,1005.8,,TRUE,TRUE,,,,,,,FEW,12000,,,,,,,VFR,0.2,,,,,,,,,,,METAR,2177.0
KESF 061453Z AUTO VRB03KT 10SM CLR 21/12 A3001 RMK AO2 SLP162 T02060122 51009,KESF,2017-05-06T14:53:00Z,31.4,-92.28,20.6,12.2,0,3,,10.0,30.008858,1016.2,,TRUE,TRUE,,,,,,,CLR,,,,,,,,VFR,0.9,,,,,,,,,,,METAR,28.0
KEQY 061453Z AUTO 32015G21KT 10SM FEW046 16/03 A2964 RMK AO2 RAB17E27 SLP046 P0000 60000 T01560033 51016,KEQY,2017-05-06T14:53:00Z,35.02,-80.62,15.6,3.3,320,15,21,10.0,29.639763,1004.6,,TRUE,TRUE,,,,,,,FEW,4600,,,,,,,VFR,1.6,,,,,0.005,0.005,,,,,METAR,212.0
KEPH 061453Z AUTO 00000KT 10SM CLR 10/M04 A2993 RMK AO2 SLP136 T01001039 51013,KEPH,2017-05-06T14:53:00Z,47.3,-119.52,10.0,-3.9,0,0,,10.0,29.929134,1013.6,,TRUE,TRUE,,,,,,,CLR,,,,,,,,VFR,1.3,,,,,,,,,,,METAR,383.0
KENW 061453Z 01008G18KT 10SM CLR 11/02 A2984 RMK AO2 SLP106 T01060017 51014,KENW,2017-05-06T14:53:00Z,42.6,-87.93,10.6,1.7,10,8,18,10.0,29.840551,1010.6,,,TRUE,,,,,,,CLR,,,,,,,,VFR,1.4,,,,,,,,,,,METAR,219.0
KEMP 061453Z AUTO 28008G20KT 10SM CLR 22/11 A2994 RMK AO2 SLP134 T02170106 50004,KEMP,2017-05-06T14:53:00Z,38.33,-96.2,21.7,10.6,280,8,20,10.0,29.940945,1013.4,,TRUE,TRUE,,,,,,,CLR,,,,,,,,VFR,0.4,,,,,,,,,,,METAR,367.0
KELN 061453Z AUTO 31016G24KT 10SM -RA CLR 07/00 A2999 RMK AO2 SLP159 P0000 60000 T00670000 51008,KELN,2017-05-06T14:53:00Z,47.03,-120.53,6.7,0.0,310,16,24,10.0,29.991142,1015.9,,TRUE,TRUE,,,,,,-RA,CLR,,,,,,,,VFR,0.8,,,,,0.005,0.005,,,,,METAR,519.0
KELD 061453Z AUTO 23004KT 10SM CLR 21/09 A3001 RMK AO2 SLP161 T02110094 51012,KELD,2017-05-06T14:53:00Z,33.22,-92.82,21.1,9.4,230,4,,10.0,30.008858,1016.1,,TRUE,TRUE,,,,,,,CLR,,,,,,,,VFR,1.2,,,,,,,,,,,METAR,81.0
KEET 061453Z AUTO VRB03KT 10SM CLR 17/08 A2994 RMK AO2 SLP134 T01720083 51008,KEET,2017-05-06T14:53:00Z,33.18,-86.78,17.2,8.3,0,3,,10.0,29.940945,1013.4,,TRUE,TRUE,,,,,,,CLR,,,,,,,,VFR,0.8,,,,,,,,,,,METAR,173.0
KEEO 061453Z AUTO VRB03KT 10SM CLR 17/M01 A3001 RMK AO2 SLP082 T01671011 50000,KEEO,2017-05-06T14:53:00Z,40.05,-107.88,16.7,-1.1,0,3,,10.0,30.008858,1008.2,,TRUE,TRUE,,,,,,,CLR,,,,,,,,VFR,0.0,,,,,,,,,,,METAR,1930.0
KECP 061453Z 29008KT 10SM CLR 20/04 A2997 RMK AO2 SLP160 T02000039 51011,KECP,2017-05-06T14:53:00Z,30.35,-85.8,20.0,3.9,290,8,,10.0,29.970472,1016.0,,,TRUE,,,,,,,CLR,,,,,,,,VFR,1.1,,,,,,,,,,,METAR,21.0
KDXR 061453Z 16011KT 120V200 10SM FEW019 SCT041 SCT070 15/12 A2945 RMK AO2 SLP969 T01500122 52004,KDXR,2017-05-06T14:53:00Z,41.37,-73.48,15.0,12.2,160,11,,10.0,29.450787,996.9,,,TRUE,,,,,,,FEW,1900,SCT,4100,SCT,7000,,,VFR,0.4,,,,,,,,,,,METAR,139.0
KDWH 061453Z VRB03KT 10SM CLR 22/10 A3004 RMK AO2 SLP171 T02220100 51011,KDWH,2017-05-06T14:53:00Z,30.07,-95.55,22.2,10.0,0,3,,10.0,30.041338,1017.1,,,TRUE,,,,,,,CLR,,,,,,,,VFR,1.1,,,,,,,,,,,METAR,46.0
KDVT 061453Z AUTO 16008KT 10SM CLR 28/00 A2974 RMK AO2 SLP043 T02830000 51008,KDVT,2017-05-06T14:53:00Z,33.68,-112.07,28.3,0.0,160,8,,10.0,29.740158,1004.3,,TRUE,TRUE,,,,,,,CLR,,,,,,,,VFR,0.8,,,,,,,,,,,METAR,443.0
KDTW 061453Z 30017KT 10SM FEW023 SCT200 11/05 A2961 RMK AO2 SLP029 T01060050 55003,KDTW,2017-05-06T14:53:00Z,42.23,-83.33,10.6,5.0,300,17,,10.0,29.610237,1002.9,,,TRUE,,,,,,,FEW,2300,SCT,20000,,,,,VFR,-0.3,,,,,,,,,,,METAR,195.0
KDTS 061453Z AUTO 32007KT 10SM CLR 22/06 A2999 RMK AO2 SLP154 T02170061 53010 TSNO,KDTS,2017-05-06T14:53:00Z,30.4,-86.47,21.7,6.1,320,7,,10.0,29.991142,1015.4,,TRUE,TRUE,,,TRUE,,,,CLR,,,,,,,,VFR,1.0,,,,,,,,,,,METAR,5.0
KDTO 061453Z 20009KT 10SM CLR 22/09 A3002 RMK AO2 SLP160 T02170094 51004,KDTO,2017-05-06T14:53:00Z,33.2,-97.2,21.7,9.4,200,9,,10.0,30.02067,1016.0,,,TRUE,,,,,,,CLR,,,,,,,,VFR,0.4,,,,,,,,,,,METAR,196.0
KDTN 061453Z VRB03KT 10SM CLR 21/11 A3001 RMK AO2 SLP162 T02060111 50007 $,KDTN,2017-05-06T14:53:00Z,32.55,-93.75,20.6,11.1,0,3,,10.0,30.008858,1016.2,,,TRUE,TRUE,,,,,,CLR,,,,,,,,VFR,0.7,,,,,,,,,,,METAR,53.0
KDRT 061453Z AUTO 13010KT 10SM CLR 21/11 A3000 RMK AO2 SLP145 T02110111 51013,KDRT,2017-05-06T14:53:00Z,29.37,-100.92,21.1,11.1,130,10,,10.0,30.0,1014.5,,TRUE,TRUE,,,,,,,CLR,,,,,,,,VFR,1.3,,,,,,,,,,,METAR,313.0
KDRO 061453Z AUTO 00000KT 10SM CLR 14/M03 A3008 RMK AO2 SLP114 T01441028 51007,KDRO,2017-05-06T14:53:00Z,37.15,-107.77,14.4,-2.8,0,0,,10.0,30.079725,1011.4,,TRUE,TRUE,,,,,,,CLR,,,,,,,,VFR,0.7,,,,,,,,,,,METAR,2035.0
KDNL 061453Z AUTO 29010G18KT 10SM CLR 17/04 A2977 RMK AO2 SLP078 T01670044 53022,KDNL,2017-05-06T14:53:00Z,33.47,-82.03,16.7,4.4,290,10,18,10.0,29.769686,1007.8,,TRUE,TRUE,,,,,,,CLR,,,,,,,,VFR,2.2,,,,,,,,,,,METAR,130.0
KDMO 061453Z AUTO 32012G19KT 10SM CLR 20/09 A2989 RMK AO2 SLP119 T02000094 51012,KDMO,2017-05-06T14:53:00Z,38.72,-93.17,20.0,9.4,320,12,19,10.0,29.890747,1011.9,,TRUE,TRUE,,,,,,,CLR,,,,,,,,VFR,1.2,,,,,,,,,,,METAR,274.0
KDMN 061453Z AUTO 20003KT 10SM CLR 21/M03 A2999 RMK AO2 SLP085 T02061033 51014,KDMN,2017-05-06T14:53:00Z,32.27,-107.72,20.6,-3.3,200,3,,10.0,29.991142,1008.5,,TRUE,TRUE,,,,,,,CLR,,,,,,,,VFR,1.4,,,,,,,,,,,METAR,1311.0
KDLS 061453Z AUTO 28014KT 10SM CLR 11/01 A3007 RMK AO2 SLP184 T01060006 51009,KDLS,2017-05-06T14:53:00Z,45.62,-121.17,10.6,0.6,280,14,,10.0,30.070866,1018.4,,TRUE,TRUE,,,,,,,CLR,,,,,,,,VFR,0.9,,,,,,,,,,,METAR,71.0
KDLN 061453Z AUTO 21007KT 10SM CLR 13/05 A2984 RMK AO2 SLP059 T01280050 50002,KDLN,2017-05-06T14:53:00Z,45.25,-112.55,12.8,5.0,210,7,,10.0,29.840551,1005.9,,TRUE,TRUE,,,,,,,CLR,,,,,,,,VFR,0.2,,,,,,,,,,,METAR,1591.0
KDHT 061453Z AUTO 19008KT 10SM CLR 18/06 A3004 RMK AO2 SLP128 T01830056 51004,KDHT,2017-05-06T14:53:00Z,36.02,-102.55,18.3,5.6,190,8,,10.0,30.041338,1012.8,,TRUE,TRUE,,,,,,,CLR,,,,,,,,VFR,0.4,,,,,,,,,,,METAR,1217.0
KASD 061453Z AUTO 24004KT 10SM CLR 22/08 A3003 RMK AO2 SLP167 T02170078 51012,KASD,2017-05-06T14:53:00Z,30.35,-89.82,21.7,7.8,240,4,,10.0,30.029528,1016.7,,TRUE,TRUE,,,,,,,CLR,,,,,,,,VFR,1.2,,,,,,,,,,,METAR,9.0
KARB 061453Z 30010KT 10SM FEW028 11/06 A2962 RMK AO2 SLP031 T01110056 58004,KARB,2017-05-06T14:53:00Z,42.22,-83.73,11.1,5.6,300,10,,10.0,29.619095,1003.1,,,TRUE,,,,,,,FEW,2800,,,,,,,VFR,-0.4,,,,,,,,,,,METAR,251.0
KARA 061453Z 00000KT 10SM CLR 22/11 A3003 RMK AO2 SLP169 60000 T02170111 51012,KARA,2017-05-06T14:53:00Z,30.03,-91.88,21.7,11.1,0,0,,10.0,30.029528,1016.9,,,TRUE,,,,,,,CLR,,,,,,,,VFR,1.2,,,,,,0.005,,,,,METAR,18.0
KAPF 061453Z 34010G16KT 10SM CLR 24/11 A2997 RMK AO2 SLP147 T02390106 51008,KAPF,2017-05-06T14:53:00Z,26.15,-81.77,23.9,10.6,340,10,16,10.0,29.970472,1014.7,,,TRUE,,,,,,,CLR,,,,,,,,VFR,0.8,,,,,,,,,,,METAR,3.0
KAPA 061453Z 19008KT 10SM FEW130 21/03 A3000 RMK AO2 SLP096 T02110028 50000,KAPA,2017-05-06T14:53:00Z,39.57,-104.85,21.1,2.8,190,8,,10.0,30.0,1009.6,,,TRUE,,,,,,,FEW,13000,,,,,,,VFR,0.0,,,,,,,,,,,METAR,1775.0
KAOO 061453Z AUTO 27014KT 10SM -RA OVC021 08/06 A2940 RMK AO2 RAB1356 SLP955 P0000 60000 T00830061 53020,KAOO,2017-05-06T14:53:00Z,40.3,-78.32,8.3,6.1,270,14,,10.0,29.40059,995.5,,TRUE,TRUE,,,,,,-RA,OVC,2100,,,,,,,MVFR,2.0,,,,,0.005,0.005,,,,,METAR,455.0
KAOH 061453Z AUTO 33012G18KT 10SM FEW023 10/06 A2966 RMK AO2 SLP044 T01000061 53003,KAOH,2017-05-06T14:53:00Z,40.7,-84.02,10.0,6.1,330,12,18,10.0,29.660433,1004.4,,TRUE,TRUE,,,,,,,FEW,2300,,,,,,,VFR,0.3,,,,,,,,,,,METAR,296.0
KANB 061453Z AUTO 23009KT 10SM CLR 15/09 A2991 RMK AO2 SLP129 T01500094 50006,KANB,2017-05-06T14:53:00Z,33.58,-85.85,15.0,9.4,230,9,,10.0,29.911417,1012.9,,TRUE,TRUE,,,,,,,CLR,,,,,,,,VFR,0.6,,,,,,,,,,,METAR,183.0
KAMW 061453Z AUTO 02008KT 10SM CLR 17/09 A2994 RMK AO2 SLP134 T01670089 51024,KAMW,2017-05-06T14:53:00Z,41.98,-93.62,16.7,8.9,20,8,,10.0,29.940945,1013.4,,TRUE,TRUE,,,,,,,CLR,,,,,,,,VFR,2.4,,,,,,,,,,,METAR,279.0
KPKB 061453Z 30009KT 10SM BKN020 BKN034 OVC049 10/06 A2962 RMK AO2 SLP029 60000 T01000061 50012,KPKB,2017-05-06T14:53:00Z,39.35,-81.42,10.0,6.1,300,9,,10.0,29.619095,1002.9,,,TRUE,,,,,,,BKN,2000,BKN,3400,OVC,4900,,,MVFR,1.2,,,,,,0.005,,,,,METAR,262.0
KPIR 061453Z AUTO 14011KT 10SM CLR 19/03 A2993 RMK AO2 SLP128 T01940033 58002,KPIR,2017-05-06T14:53:00Z,44.38,-100.28,19.4,3.3,140,11,,10.0,29.929134,1012.8,,TRUE,TRUE,,,,,,,CLR,,,,,,,,VFR,-0.2,,,,,,,,,,,METAR,526.0
KPKD 061453Z AUTO 00000KT 10SM CLR 16/01 A2999 RMK AO2 SLP156 T01560006 51009,KPKD,2017-05-06T14:53:00Z,46.9,-95.07,15.6,0.6,0,0,,10.0,29.991142,1015.6,,TRUE,TRUE,,,,,,,CLR,,,,,,,,VFR,0.9,,,,,,,,,,,METAR,442.0
KPMD 061453Z AUTO 25016KT 10SM CLR 14/09 A2977 RMK AO2 SLP060 T01390089 50004,KPMD,2017-05-06T14:53:00Z,34.63,-118.08,13.9,8.9,250,16,,10.0,29.769686,1006.0,,TRUE,TRUE,,,,,,,CLR,,,,,,,,VFR,0.4,,,,,,,,,,,METAR,780.0
KLMT 061453Z 34011KT 10SM OVC050 03/M01 A2992 RMK AO2 SLP130 T00331011 51006,KLMT,2017-05-06T14:53:00Z,42.15,-121.72,3.3,-1.1,340,11,,10.0,29.920275,1013.0,,,TRUE,,,,,,,OVC,5000,,,,,,,VFR,0.6,,,,,,,,,,,METAR,1246.0
KLLQ 061453Z AUTO 30005KT 10SM 21/09 A2999 RMK AO2 SLP154 T02060089 51012 $,KLLQ,2017-05-06T14:53:00Z,33.63,-91.75,20.6,8.9,300,5,,10.0,29.991142,1015.4,,TRUE,TRUE,TRUE,,,,,,,,,,,,,,,1.2,,,,,,,,,,,METAR,83.0
KLIT 061453Z 24009KT 10SM CLR 20/11 A2996 RMK AO2 SLP148 T02000106 50003,KLIT,2017-05-06T14:53:00Z,34.73,-92.23,20.0,10.6,240,9,,10.0,29.958662,1014.8,,,TRUE,,,,,,,CLR,,,,,,,,VFR,0.3,,,,,,,,,,,METAR,79.0
KLHX 061453Z AUTO 26005KT 10SM CLR 17/08 A2999 RMK AO2 SLP111 T01670083 50001,KLHX,2017-05-06T14:53:00Z,38.05,-103.52,16.7,8.3,260,5,,10.0,29.991142,1011.1,,TRUE,TRUE,,,,,,,CLR,,,,,,,,VFR,0.1,,,,,,,,,,,METAR,1277.0
KPSC 061453Z 27007KT 10SM BKN110 10/03 A3002 RMK AO2 SLP164 T01000028 53014,KPSC,2017-05-06T14:53:00Z,46.27,-119.12,10.0,2.8,270,7,,10.0,30.02067,1016.4,,,TRUE,,,,,,,BKN,11000,,,,,,,VFR,1.4,,,,,,,,,,,METAR,121.0
KPRC 061453Z 10007KT 10SM CLR 19/M01 A2992 RMK AO2 SLP052 T01941011 50002,KPRC,2017-05-06T14:53:00Z,34.65,-112.42,19.4,-1.1,100,7,,10.0,29.920275,1005.2,,,TRUE,,,,,,,CLR,,,,,,,,VFR,0.2,,,,,,,,,,,METAR,1524.0
KPRB 061453Z AUTO 32010KT 10SM CLR 09/04 A2987 RMK AO2 SLP111 T00890044 53005 TSNO,KPRB,2017-05-06T14:53:00Z,35.67,-120.63,8.9,4.4,320,10,,10.0,29.870079,1011.1,,TRUE,TRUE,,,TRUE,,,,CLR,,,,,,,,VFR,0.5,,,,,,,,,,,METAR,245.0
KPQL 061453Z VRB03KT 10SM CLR 21/07 A3002 RMK AO2 SLP166 T02110067 51010,KPQL,2017-05-06T14:53:00Z,30.47,-88.53,21.1,6.7,0,3,,10.0,30.02067,1016.6,,,TRUE,,,,,,,CLR,,,,,,,,VFR,1.0,,,,,,,,,,,METAR,6.0
KPOU 061453Z 17012G20KT 10SM FEW033 SCT040 BKN070 18/12 A2938 RMK AO2 SLP944 60001 T01780117 50001,KPOU,2017-05-06T14:53:00Z,41.63,-73.88,17.8,11.7,170,12,20,10.0,29.379921,994.4,,,TRUE,,,,,,,FEW,3300,SCT,4000,BKN,7000,,,VFR,0.1,,,,,,0.01,,,,,METAR,46.0
KPOF 061453Z AUTO 27013G21KT 10SM FEW110 21/08 A2980 RMK AO2 SLP089 T02110078 58007 TSNO,KPOF,2017-05-06T14:53:00Z,36.77,-90.32,21.1,7.8,270,13,21,10.0,29.799213,1008.9,,TRUE,TRUE,,,TRUE,,,,FEW,11000,,,,,,,VFR,-0.7,,,,,,,,,,,METAR,99.0
KPNS 061453Z 29007KT 10SM CLR 21/04 A2999 RMK AO2 SLP159 T02110039 51010,KPNS,2017-05-06T14:53:00Z,30.48,-87.18,21.1,3.9,290,7,,10.0,29.991142,1015.9,,,TRUE,,,,,,,CLR,,,,,,,,VFR,1.0,,,,,,,,,,,METAR,38.0
KPNC 061453Z AUTO 24008KT 10SM CLR 20/09 A2999 RMK AO2 SLP148 T02000089 51007,KPNC,2017-05-06T14:53:00Z,36.73,-97.1,20.0,8.9,240,8,,10.0,29.991142,1014.8,,TRUE,TRUE,,,,,,,CLR,,,,,,,,VFR,0.7,,,,,,,,,,,METAR,308.0
KPMP 061453Z A2997 RMK AO2 SLP151 $,KPMP,2017-05-06T14:53:00Z,26.25,-80.12,,,,,,,29.970472,1015.1,,,TRUE,TRUE,,,,,,,,,,,,,,,,,,,,,,,,,,METAR,6.0
KLND 061453Z AUTO 13004KT 10SM CLR 15/04 A2990 RMK AO2 SLP069 T01500039 50004,KLND,2017-05-06T14:53:00Z,42.82,-108.73,15.0,3.9,130,4,,10.0,29.899607,1006.9,,TRUE,TRUE,,,,,,,CLR,,,,,,,,VFR,0.4,,,,,,,,,,,METAR,1694.0
KLOU 061453Z 24004KT 10SM -RA BKN047 OVC080 09/07 A2977 RMK AO2 SLP082 P0000 60007 T00890072 51009,KLOU,2017-05-06T14:53:00Z,38.22,-85.67,8.9,7.2,240,4,,10.0,29.769686,1008.2,,,TRUE,,,,,,-RA,BKN,4700,OVC,8000,,,,,VFR,0.9,,,,,0.005,0.07,,,,,METAR,164.0
KLOL 061453Z AUTO 04011KT 10SM FEW075 BKN090 OVC110 14/02 A2970 RMK AO2 SLP030 T01390022 55000 TSNO,KLOL,2017-05-06T14:53:00Z,40.07,-118.57,13.9,2.2,40,11,,10.0,29.698818,1003.0,,TRUE,TRUE,,,TRUE,,,,FEW,7500,BKN,9000,OVC,11000,,,VFR,0.0,,,,,,,,,,,METAR,1189.0
KLNS 061453Z 19011KT 10SM OVC019 14/11 A2934 RMK AO2 SLP934 T01440111 50004,KLNS,2017-05-06T14:53:00Z,40.12,-76.3,14.4,11.1,190,11,,10.0,29.338583,993.4,,,TRUE,,,,,,,OVC,1900,,,,,,,MVFR,0.4,,,,,,,,,,,METAR,125.0
KMIE 061453Z 33009KT 10SM FEW019 11/06 A2971 RMK AO2 SLP057 T01110061 51006,KMIE,2017-05-06T14:53:00Z,40.23,-85.4,11.1,6.1,330,9,,10.0,29.71063,1005.7,,,TRUE,,,,,,,FEW,1900,,,,,,,VFR,0.6,,,,,,,,,,,METAR,285.0
KMIA 061453Z 31007G18KT 10SM FEW250 23/09 A2998 RMK AO2 SLP152 T02280089 53012,KMIA,2017-05-06T14:53:00Z,25.8,-80.28,22.8,8.9,310,7,18,10.0,29.97933,1015.2,,,TRUE,,,,,,,FEW,25000,,,,,,,VFR,1.2,,,,,,,,,,,METAR,3.0
KMHT 061453Z 08003KT 1/2SM R35/4500VP6000FT FG OVC002 13/12 A2953 RMK AO2 DZE48 SLP012 P0000 60002 T01280117 55006,KMHT,2017-05-06T14:53:00Z,42.93,-71.43,12.8,11.7,80,3,,0.5,29.530512,1001.2,,,TRUE,,,,,,FG,OVC,200,,,,,,,LIFR,-0.6,,,,,0.005,0.02,,,,,METAR,81.0
KMHE 061453Z AUTO VRB06KT 10SM CLR 18/06 A2997 RMK AO2 SLP144 T01830056 50006,KMHE,2017-05-06T14:53:00Z,43.77,-98.02,18.3,5.6,0,6,,10.0,29.970472,1014.4,,TRUE,TRUE,,,,,,,CLR,,,,,,,,VFR,0.6,,,,,,,,,,,METAR,397.0
KMGY 061453Z AUTO 28006KT 10SM FEW024 BKN065 OVC110 11/05 A2968 RMK AO2 SLP052 T01060050 51004,KMGY,2017-05-06T14:53:00Z,39.6,-84.23,10.6,5.0,280,6,,10.0,29.681103,1005.2,,TRUE,TRUE,,,,,,,FEW,2400,BKN,6500,OVC,11000,,,VFR,0.4,,,,,,,,,,,METAR,289.0
KMGW 061453Z VRB05KT 8SM -RA BKN014 BKN018 OVC027 07/05 A2954 RMK AO2 RAE11B25 SLP002 P0002 60010 T00720050 51019,KMGW,2017-05-06T14:53:00Z,39.65,-79.92,7.2,5.0,0,5,,8.0,29.53937,1000.2,,,TRUE,,,,,,-RA,BKN,1400,BKN,1800,OVC,2700,,,MVFR,1.9,,,,,0.02,0.1,,,,,METAR,378.0
KMGM 061453Z 26006KT 10SM CLR 18/07 A2996 RMK AO2 SLP142 T01780072 51010,KMGM,2017-05-06T14:53:00Z,32.3,-86.4,17.8,7.2,260,6,,10.0,29.958662,1014.2,,,TRUE,,,,,,,CLR,,,,,,,,VFR,1.0,,,,,,,,,,,METAR,63.0
KMFR 061453Z 30008KT 10SM BKN042 OVC110 08/01 A3007 RMK AO2 SLP184 T00780011 50006 $,KMFR,2017-05-06T14:53:00Z,42.38,-122.87,7.8,1.1,300,8,,10.0,30.070866,1018.4,,,TRUE,TRUE,,,,,,BKN,4200,OVC,11000,,,,,VFR,0.6,,,,,,,,,,,METAR,396.0
KLVM 061453Z AUTO 32007KT 10SM CLR 14/07 A2980 RMK AO2 SLP056 T01440072 50005 TSNO,KLVM,2017-05-06T14:53:00Z,45.7,-110.43,14.4,7.2,320,7,,10.0,29.799213,1005.6,,TRUE,TRUE,,,TRUE,,,,CLR,,,,,,,,VFR,0.5,,,,,,,,,,,METAR,1418.0
KLVK 061453Z COR 25009KT 10SM SCT035 BKN048 11/04 A2981 RMK AO2 SLP095 T01060044 58002,KLVK,2017-05-06T14:53:00Z,37.7,-121.82,10.6,4.4,250,9,,10.0,29.811024,1009.5,TRUE,,TRUE,,,,,,,SCT,3500,BKN,4800,,,,,VFR,-0.2,,,,,,,,,,,METAR,117.0
KLVJ 061453Z AUTO VRB03KT 10SM CLR 23/09 A3005 RMK AO2 SLP174 T02330094 51013,KLVJ,2017-05-06T14:53:00Z,29.52,-95.25,23.3,9.4,0,3,,10.0,30.050198,1017.4,,TRUE,TRUE,,,,,,,CLR,,,,,,,,VFR,1.3,,,,,,,,,,,METAR,12.0
KLUK 061453Z 30005KT 10SM BKN049 OVC110 10/07 A2972 RMK AO2 SLP066 T01000067 53003,KLUK,2017-05-06T14:53:00Z,39.1,-84.42,10.0,6.7,300,5,,10.0,29.719488,1006.6,,,TRUE,,,,,,,BKN,4900,OVC,11000,,,,,VFR,0.3,,,,,,,,,,,METAR,155.0
KLSE 061453Z 01008KT 10SM CLR 14/02 A2995 RMK AO2 SLP137 T01440017 51019,KLSE,2017-05-06T14:53:00Z,43.88,-91.25,14.4,1.7,10,8,,10.0,29.949802,1013.7,,,TRUE,,,,,,,CLR,,,,,,,,VFR,1.9,,,,,,,,,,,METAR,199.0
KMAF 061453Z 18016KT 10SM CLR 23/03 A3000 RMK AO2 SLP116 T02330028 51009,KMAF,2017-05-06T14:53:00Z,31.95,-102.2,23.3,2.8,180,16,,10.0,30.0,1011.6,,,TRUE,,,,,,,CLR,,,,,,,,VFR,0.9,,,,,,,,,,,METAR,874.0
KMAE 061453Z AUTO 31009KT 10SM FEW110 11/04 A2983 RMK AO2 SLP099 T01110044 53012,KMAE,2017-05-06T14:53:00Z,36.98,-120.12,11.1,4.4,310,9,,10.0,29.828741,1009.9,,TRUE,TRUE,,,,,,,FEW,11000,,,,,,,VFR,1.2,,,,,,,,,,,METAR,77.0
KLXV 061453Z AUTO 00000KT 10SM CLR 08/M02 A3027 RMK AO2 SLP115 T00781017 50002 TSNO,KLXV,2017-05-06T14:53:00Z,39.23,-106.32,7.8,-1.7,0,0,,10.0,30.268702,1011.5,,TRUE,TRUE,,,TRUE,,,,CLR,,,,,,,,VFR,0.2,,,,,,,,,,,METAR,3028.0
KLWV 061453Z AUTO 06007KT 10SM BKN075 BKN090 11/09 A2978 RMK AO2 SLP084 60002 T01110089 55007,KLWV,2017-05-06T14:53:00Z,38.77,-87.6,11.1,8.9,60,7,,10.0,29.778543,1008.4,,TRUE,TRUE,,,,,,,BKN,7500,BKN,9000,,,,,VFR,-0.7,,,,,,0.02,,,,,METAR,131.0
KLWD 061453Z AUTO 02010KT 10SM CLR 19/06 A2992 RMK AO2 SLP127 T01890061 51020,KLWD,2017-05-06T14:53:00Z,40.63,-93.9,18.9,6.1,20,10,,10.0,29.920275,1012.7,,TRUE,TRUE,,,,,,,CLR,,,,,,,,VFR,2.0,,,,,,,,,,,METAR,346.0
KLVS 061453Z AUTO 00000KT 10SM CLR 16/02 A3013 RMK AO2 SLP106 T01610017 50006,KLVS,2017-05-06T14:53:00Z,35.65,-105.13,16.1,1.7,0,0,,10.0,30.129921,1010.6,,TRUE,TRUE,,,,,,,CLR,,,,,,,,VFR,0.6,,,,,,,,,,,METAR,2091.0
KMAI 061453Z AUTO 30008KT 10SM CLR 19/06 A2996 RMK AO2 SLP144 T01890061 51014 $,KMAI,2017-05-06T14:53:00Z,30.83,-85.18,18.9,6.1,300,8,,10.0,29.958662,1014.4,,TRUE,TRUE,TRUE,,,,,,CLR,,,,,,,,VFR,1.4,,,,,,,,,,,METAR,32.0
KMBS 061453Z 33014KT 10SM CLR 12/04 A2966 RMK AO2 SLP044 T01220039 58001,KMBS,2017-05-06T14:53:00Z,43.53,-84.08,12.2,3.9,330,14,,10.0,29.660433,1004.4,,,TRUE,,,,,,,CLR,,,,,,,,VFR,-0.1,,,,,,,,,,,METAR,202.0
KVUO 061453Z AUTO 00000KT 10SM CLR 08/06 A3016 RMK AO2 SLP213 T00830061 51006,KVUO,2017-05-06T14:53:00Z,45.62,-122.65,8.3,6.1,0,0,,10.0,30.159449,1021.3,,TRUE,TRUE,,,,,,,CLR,,,,,,,,VFR,0.6,,,,,,,,,,,METAR,8.0
KVRB 061453Z 29018G23KT 10SM CLR 22/07 A2994 RMK AO2 SLP136 T02170067 51004,KVRB,2017-05-06T14:53:00Z,27.65,-80.42,21.7,6.7,290,18,23,10.0,29.940945,1013.6,,,TRUE,,,,,,,CLR,,,,,,,,VFR,0.4,,,,,,,,,,,METAR,10.0
KVPC 061453Z AUTO VRB04KT 10SM CLR 16/06 A2987 RMK AO2 SLP107 T01560056 51010,KVPC,2017-05-06T14:53:00Z,34.13,-84.85,15.6,5.6,0,4,,10.0,29.870079,1010.7,,TRUE,TRUE,,,,,,,CLR,,,,,,,,VFR,1.0,,,,,,,,,,,METAR,222.0
KVLD 061453Z 31015G20KT 300V340 10SM CLR 18/06 A2992 RMK AO2 SLP140 T01780056 51016,KVLD,2017-05-06T14:53:00Z,30.78,-83.27,17.8,5.6,310,15,20,10.0,29.920275,1014.0,,,TRUE,,,,,,,CLR,,,,,,,,VFR,1.6,,,,,,,,,,,METAR,62.0
KVIH 061453Z AUTO 28013G20KT 10SM CLR 19/09 A2983 RMK AO2 PK WND 28026/1441 SLP098 T01890089 50006,KVIH,2017-05-06T14:53:00Z,38.13,-91.77,18.9,8.9,280,13,20,10.0,29.828741,1009.8,,TRUE,TRUE,,,,,,,CLR,,,,,,,,VFR,0.6,,,,,,,,,,,METAR,333.0
KVGT 061453Z AUTO 15007KT 10SM CLR 25/M01 A2964 RMK AO2 SLP026 T02501011 51008,KVGT,2017-05-06T14:53:00Z,36.22,-115.2,25.0,-1.1,150,7,,10.0,29.639763,1002.6,,TRUE,TRUE,,,,,,,CLR,,,,,,,,VFR,0.8,,,,,,,,,,,METAR,671.0
KVEL 061453Z AUTO 08005KT 10SM CLR 17/01 A2993 RMK AO2 SLP083 T01670006 51010,KVEL,2017-05-06T14:53:00Z,40.45,-109.52,16.7,0.6,80,5,,10.0,29.929134,1008.3,,TRUE,TRUE,,,,,,,CLR,,,,,,,,VFR,1.0,,,,,,,,,,,METAR,1604.0
KVCB 061453Z AUTO 31004KT 10SM OVC032 13/06 A2977 RMK AO2 SLP082 T01330056 53002 TSNO,KVCB,2017-05-06T14:53:00Z,38.38,-121.95,13.3,5.6,310,4,,10.0,29.769686,1008.2,,TRUE,TRUE,,,TRUE,,,,OVC,3200,,,,,,,VFR,0.2,,,,,,,,,,,METAR,33.0
KMCO 061453Z 32016G22KT 10SM FEW040 20/07 A2992 RMK AO2 PK WND 30029/1400 SLP131 T02000067 50000,KMCO,2017-05-06T14:53:00Z,28.42,-81.33,20.0,6.7,320,16,22,10.0,29.920275,1013.1,,,TRUE,,,,,,,FEW,4000,,,,,,,VFR,0.0,,,,,,,,,,,METAR,29.0
KMCN 061453Z 31011G20KT 10SM CLR 17/06 A2987 RMK AO2 SLP112 T01670061 51015,KMCN,2017-05-06T14:53:00Z,32.68,-83.65,16.7,6.1,310,11,20,10.0,29.870079,1011.2,,,TRUE,,,,,,,CLR,,,,,,,,VFR,1.5,,,,,,,,,,,METAR,109.0
KMCK 061453Z AUTO 23004KT 10SM CLR 18/08 A2995 RMK AO2 SLP126 T01830083 50001,KMCK,2017-05-06T14:53:00Z,40.2,-100.58,18.3,8.3,230,4,,10.0,29.949802,1012.6,,TRUE,TRUE,,,,,,,CLR,,,,,,,,VFR,0.1,,,,,,,,,,,METAR,782.0
KMCI 061453Z 32009G15KT 10SM CLR 21/09 A2991 RMK AO2 SLP121 T02110094 50015,KMCI,2017-05-06T14:53:00Z,39.3,-94.73,21.1,9.4,320,9,15,10.0,29.911417,1012.1,,,TRUE,,,,,,,CLR,,,,,,,,VFR,1.5,,,,,,,,,,,METAR,320.0
KMCE 061453Z AUTO 24003KT 10SM CLR 11/03 A2982 RMK AO2 SLP095 T01060033 53008,KMCE,2017-05-06T14:53:00Z,37.28,-120.5,10.6,3.3,240,3,,10.0,29.819881,1009.5,,TRUE,TRUE,,,,,,,CLR,,,,,,,,VFR,0.8,,,,,,,,,,,METAR,47.0
KMCB 061453Z AUTO 22004KT 10SM CLR 22/09 A3002 RMK AO2 SLP162 T02170094 50010 TSNO $,KMCB,2017-05-06T14:53:00Z,31.18,-90.47,21.7,9.4,220,4,,10.0,30.02067,1016.2,,TRUE,TRUE,TRUE,,TRUE,,,,CLR,,,,,,,,VFR,1.0,,,,,,,,,,,METAR,124.0
KWRL 061453Z AUTO 22003KT 10SM CLR 16/10 A2981 RMK AO2 SLP061 T01610100 50002,KWRL,2017-05-06T14:53:00Z,43.97,-107.95,16.1,10.0,220,3,,10.0,29.811024,1006.1,,TRUE,TRUE,,,,,,,CLR,,,,,,,,VFR,0.2,,,,,,,,,,,METAR,1271.0
KWVI 061453Z AUTO 26008KT 10SM OVC036 10/05 A2987 RMK AO2 SLP115 T01000050 56005,KWVI,2017-05-06T14:53:00Z,36.93,-121.78,10.0,5.0,260,8,,10.0,29.870079,1011.5,,TRUE,TRUE,,,,,,,OVC,3600,,,,,,,VFR,-0.5,,,,,,,,,,,METAR,43.0
K6R6 061453Z AUTO VRB06KT 21/04 A3000 RMK AO1 SLP128 T02110044 51013,K6R6,2017-05-06T14:53:00Z,30.05,-102.22,21.1,4.4,0,6,,,30.0,1012.8,,TRUE,TRUE,,,,,,,,,,,,,,,,1.3,,,,,,,,,,,METAR,701.0
KNQX 061453Z 35011KT 10SM FEW050 SCT250 24/16 A2998 RMK AO2 SLP151 T02440156 51017 $,KNQX,2017-05-06T14:53:00Z,24.57,-81.67,24.4,15.6,350,11,,10.0,29.97933,1015.1,,,TRUE,TRUE,,,,,,FEW,5000,SCT,25000,,,,,VFR,1.7,,,,,,,,,,,METAR,2.0
KBCT 061453Z 34017G27KT 10SM CLR 22/06 A2997,KBCT,2017-05-06T14:53:00Z,26.38,-80.1,22.0,6.0,340,17,27,10.0,29.970472,,,,,,,,,,,CLR,,,,,,,,VFR,,,,,,,,,,,,METAR,4.0
PAWI 061453Z AUTO 07010KT 10SM OVC007 M07/M07 A3000 RMK SLP161 I3000 T10671072 58001 TSNO VIA AUTODIAL,PAWI,2017-05-06T14:53:00Z,70.62,-159.85,-6.7,-7.2,70,10,,10.0,30.0,1016.1,,TRUE,,,,TRUE,,,,OVC,700,,,,,,,IFR,-0.1,,,,,,,,,,,METAR,27.0
PANN 061453Z AUTO 09010KT 10SM CLR 06/M02 A2975 RMK SLP080 T00611017 57000 TSNO VIA AUTODIAL,PANN,2017-05-06T14:53:00Z,64.55,-149.08,6.1,-1.7,90,10,,10.0,29.749016,1008.0,,TRUE,,,,TRUE,,,,CLR,,,,,,,,VFR,0.0,,,,,,,,,,,METAR,110.0
KNIP 061453Z 27017G27KT 10SM CLR 19/05 A2987 RMK AO2 PK WND 31030/1431 SLP111 T01890050 50004 $,KNIP,2017-05-06T14:53:00Z,30.22,-81.67,18.9,5.0,270,17,27,10.0,29.870079,1011.1,,,TRUE,TRUE,,,,,,CLR,,,,,,,,VFR,0.4,,,,,,,,,,,METAR,7.0
KCQC 061453Z AUTO 22009KT 10SM CLR 19/M03 A3014 RMK AO2 SLP121 T01891033 50004,KCQC,2017-05-06T14:53:00Z,35.0,-105.67,18.9,-3.3,220,9,,10.0,30.138779,1012.1,,TRUE,TRUE,,,,,,,CLR,,,,,,,,VFR,0.4,,,,,,,,,,,METAR,2160.0
PTTP 061452Z 09004KT 15SM SCT018TCU BKN300 28/24 A2987 RMK TCU ALQDS SLP115 8/201 T02780239 57014,PTTP,2017-05-06T14:52:00Z,6.97,158.22,27.8,23.9,90,4,,15.0,29.870079,1011.5,,,,,,,,,,SCT,1800,BKN,30000,,,,,VFR,-1.4,,,,,,,,,,,SPECI,2.0
KNFW 061452Z 21011KT 10SM CLR 24/07 A3002 RMK AO2 SLP150 T02390072 50005 $,KNFW,2017-05-06T14:52:00Z,32.78,-97.43,23.9,7.2,210,11,,10.0,30.02067,1015.0,,,TRUE,TRUE,,,,,,CLR,,,,,,,,VFR,0.5,,,,,,,,,,,METAR,198.0
MUCM 061452Z 31007KT 9000 BKN020 27/22 Q1015,MUCM,2017-05-06T14:52:00Z,21.42,-77.85,27.0,22.0,310,7,,5.59,29.970472,,,,,,,,,,,BKN,2000,,,,,,,MVFR,,,,,,,,,,,,METAR,122.0
PAEC 061452Z 00000KT 30SM SCT200 02/M06 A2978 RMK NOCPECI FIRST,PAEC,2017-05-06T14:52:00Z,62.88,-149.83,2.0,-6.0,0,0,,30.0,29.778543,,,,,,,,,,,SCT,20000,,,,,,,VFR,,,,,,,,,,,,METAR,381.0
KCQX 061452Z AUTO 12009KT 8SM -RA OVC100 13/13 A2960 RMK AO2 SLP026 P0004 60018 T01330133 56020,KCQX,2017-05-06T14:52:00Z,41.68,-70.0,13.3,13.3,120,9,,8.0,29.601377,1002.6,,TRUE,TRUE,,,,,,-RA,OVC,10000,,,,,,,VFR,-2.0,,,,,0.04,0.18,,,,,METAR,19.0
KEST 061452Z AUTO 02008KT 10SM CLR 16/05 A2998 RMK AO2 SLP149 T01560050 51016,KEST,2017-05-06T14:52:00Z,43.4,-94.75,15.6,5.0,20,8,,10.0,29.97933,1014.9,,TRUE,TRUE,,,,,,,CLR,,,,,,,,VFR,1.6,,,,,,,,,,,METAR,401.0
KMLF 061452Z AUTO 00000KT 10SM CLR 17/04 A2979 RMK AO2 SLP036 T01670044 50003,KMLF,2017-05-06T14:52:00Z,38.42,-113.02,16.7,4.4,0,0,,10.0,29.790354,1003.6,,TRUE,TRUE,,,,,,,CLR,,,,,,,,VFR,0.3,,,,,,,,,,,METAR,1534.0
KVTN 061452Z AUTO 11012KT 10SM CLR 22/03 A2995 RMK AO2 SLP125 T02170028 50001,KVTN,2017-05-06T14:52:00Z,42.87,-100.55,21.7,2.8,110,12,,10.0,29.949802,1012.5,,TRUE,TRUE,,,,,,,CLR,,,,,,,,VFR,0.1,,,,,,,,,,,METAR,788.0
KP69 061452Z AUTO VRB03KT 10/05 A2996 RMK AO1 SLP139 T01000050 51021,KP69,2017-05-06T14:52:00Z,46.15,-115.6,10.0,5.0,0,3,,,29.958662,1013.9,,TRUE,TRUE,,,,,,,,,,,,,,,,2.1,,,,,,,,,,,METAR,480.0
KDVN 061452Z AUTO 36010KT 10SM FEW026 14/06 A2988 RMK AO2 SLP118 T01390061 51022 TSNO $,KDVN,2017-05-06T14:52:00Z,41.62,-90.58,13.9,6.1,360,10,,10.0,29.878937,1011.8,,TRUE,TRUE,TRUE,,TRUE,,,,FEW,2600,,,,,,,VFR,2.2,,,,,,,,,,,METAR,230.0
KDPA 061452Z 36016G22KT 10SM CLR 12/03 A2981 RMK AO2 SLP096 T01170033 51013,KDPA,2017-05-06T14:52:00Z,41.92,-88.25,11.7,3.3,360,16,22,10.0,29.811024,1009.6,,,TRUE,,,,,,,CLR,,,,,,,,VFR,1.3,,,,,,,,,,,METAR,231.0
KDDC 061452Z AUTO 25010KT 10SM CLR 20/08 A2999 RMK AO2 SLP137 T02000083 50000,KDDC,2017-05-06T14:52:00Z,37.77,-99.97,20.0,8.3,250,10,,10.0,29.991142,1013.7,,TRUE,TRUE,,,,,,,CLR,,,,,,,,VFR,0.0,,,,,,,,,,,METAR,789.0
KDCA 061452Z 26011KT 7SM -RA SCT014 BKN031 OVC038 13/12 A2942 RMK AO2 RAB15 SLP960 P0003 60003 T01330122 51014,KDCA,2017-05-06T14:52:00Z,38.85,-77.03,13.3,12.2,260,11,,7.0,29.421259,996.0,,,TRUE,,,,,,-RA,SCT,1400,BKN,3100,OVC,3800,,,VFR,1.4,,,,,0.03,0.03,,,,,METAR,18.0
KCVG 061452Z 28008KT 10SM SCT095 BKN110 09/06 A2971 RMK AO2 SLP059 T00890056 53003,KCVG,2017-05-06T14:52:00Z,39.05,-84.67,8.9,5.6,280,8,,10.0,29.71063,1005.9,,,TRUE,,,,,,,SCT,9500,BKN,11000,,,,,VFR,0.3,,,,,,,,,,,METAR,269.0
KCNU 061452Z AUTO 25013KT 10SM CLR 21/10 A2995 RMK AO2 SLP137 T02060100 51006,KCNU,2017-05-06T14:52:00Z,37.67,-95.48,20.6,10.0,250,13,,10.0,29.949802,1013.7,,TRUE,TRUE,,,,,,,CLR,,,,,,,,VFR,0.6,,,,,,,,,,,METAR,297.0
KCLT 061452Z 31010G22KT 10SM FEW048 FEW110 FEW150 16/03 A2966 RMK AO2 SLP039 60000 T01560033 51015,KCLT,2017-05-06T14:52:00Z,35.22,-80.95,15.6,3.3,310,10,22,10.0,29.660433,1003.9,,,TRUE,,,,,,,FEW,4800,FEW,11000,FEW,15000,,,VFR,1.5,,,,,,0.005,,,,,METAR,220.0
KCKV 061452Z AUTO 22008KT 10SM FEW060 BKN075 OVC090 14/07 A2974 RMK AO2 SLP070 T01390072 58019,KCKV,2017-05-06T14:52:00Z,36.62,-87.42,13.9,7.2,220,8,,10.0,29.740158,1007.0,,TRUE,TRUE,,,,,,,FEW,6000,BKN,7500,OVC,9000,,,VFR,-1.9,,,,,,,,,,,METAR,165.0
KCID 061452Z 36012KT 10SM CLR 15/08 A2989 RMK AO2 SLP122 T01500083 51019,KCID,2017-05-06T14:52:00Z,41.88,-91.72,15.0,8.3,360,12,,10.0,29.890747,1012.2,,,TRUE,,,,,,,CLR,,,,,,,,VFR,1.9,,,,,,,,,,,METAR,264.0
KCFV 061452Z AUTO 24010KT 10SM CLR 21/09 A2997 RMK AO2 SLP144 T02110094 50005,KCFV,2017-05-06T14:52:00Z,37.08,-95.57,21.1,9.4,240,10,,10.0,29.970472,1014.4,,TRUE,TRUE,,,,,,,CLR,,,,,,,,VFR,0.5,,,,,,,,,,,METAR,225.0
KBLU 061452Z AUTO 00000KT 10SM CLR 08/04 A2976 RMK AO2 SLP037 T00780044 56006 TSNO,KBLU,2017-05-06T14:52:00Z,39.28,-120.7,7.8,4.4,0,0,,10.0,29.760826,1003.7,,TRUE,TRUE,,,TRUE,,,,CLR,,,,,,,,VFR,-0.6,,,,,,,,,,,METAR,1609.0
KBLH 061452Z AUTO 17019KT 10SM CLR 25/12 A2964 RMK AO2 SLP032 T02500117 51015,KBLH,2017-05-06T14:52:00Z,33.62,-114.72,25.0,11.7,170,19,,10.0,29.639763,1003.2,,TRUE,TRUE,,,,,,,CLR,,,,,,,,VFR,1.5,,,,,,,,,,,METAR,119.0
KBLF 061452Z AUTO 29013G20KT 10SM BKN013 BKN020 OVC026 04/02 A2963 RMK AO2 PK WND 32026/1416 SLP031 60000 T00440017 51018 TSNO,KBLF,2017-05-06T14:52:00Z,37.3,-81.2,4.4,1.7,290,13,20,10.0,29.630905,1003.1,,TRUE,TRUE,,,TRUE,,,,BKN,1300,BKN,2000,OVC,2600,,,MVFR,1.8,,,,,,0.005,,,,,METAR,873.0
KBIS 061452Z 17013G19KT 10SM CLR 19/01 A2994 RMK AO2 SLP136 T01940011 58008,KBIS,2017-05-06T14:52:00Z,46.77,-100.75,19.4,1.1,170,13,19,10.0,29.940945,1013.6,,,TRUE,,,,,,,CLR,,,,,,,,VFR,-0.8,,,,,,,,,,,METAR,505.0
KBDR 061452Z 17009KT 10SM FEW046 FEW065 16/11 A2947 RMK AO2 SLP978 T01610111 53005,KBDR,2017-05-06T14:52:00Z,41.17,-73.13,16.1,11.1,170,9,,10.0,29.471457,997.8,,,TRUE,,,,,,,FEW,4600,FEW,6500,,,,,VFR,0.5,,,,,,,,,,,METAR,7.0
KATL 061452Z 31015KT 10SM FEW030 FEW250 15/05 A2985 RMK AO2 SLP109 T01500050 51017,KATL,2017-05-06T14:52:00Z,33.63,-84.45,15.0,5.0,310,15,,10.0,29.84941,1010.9,,,TRUE,,,,,,,FEW,3000,FEW,25000,,,,,VFR,1.7,,,,,,,,,,,METAR,296.0
KARR 061452Z 35013KT 10SM CLR 12/06 A2983 RMK AO2 SLP103 T01220061 51015,KARR,2017-05-06T14:52:00Z,41.77,-88.48,12.2,6.1,350,13,,10.0,29.828741,1010.3,,,TRUE,,,,,,,CLR,,,,,,,,VFR,1.5,,,,,,,,,,,METAR,215.0
KALS 061452Z AUTO 00000KT 10SM CLR 11/02 A3017 RMK AO2 SLP140 T01110022 51008,KALS,2017-05-06T14:52:00Z,37.43,-105.87,11.1,2.2,0,0,,10.0,30.171259,1014.0,,TRUE,TRUE,,,,,,,CLR,,,,,,,,VFR,0.8,,,,,,,,,,,METAR,2299.0
KAFN 061452Z AUTO VRB05KT 6SM BR OVC008 15/14 A2951 RMK AO2 RAB33E38 CIG 005V012 SLP998 P0000 60001 T01500144 56006,KAFN,2017-05-06T14:52:00Z,42.8,-72.0,15.0,14.4,0,5,,6.0,29.509842,999.8,,TRUE,TRUE,,,,,,BR,OVC,800,,,,,,,IFR,-0.6,,,,,0.005,0.01,,,,,METAR,313.0
KABQ 061452Z 00000KT 10SM FEW130 BKN240 20/02 A3005 RMK AO2 SLP100 T02000017 51009,KABQ,2017-05-06T14:52:00Z,35.05,-106.62,20.0,1.7,0,0,,10.0,30.050198,1010.0,,,TRUE,,,,,,,FEW,13000,BKN,24000,,,,,VFR,0.9,,,,,,,,,,,METAR,1618.0
KABI 061452Z 19010KT 10SM CLR 22/05 A3003 RMK AO2 SLP149 T02170050 51009,KABI,2017-05-06T14:52:00Z,32.42,-99.68,21.7,5.0,190,10,,10.0,30.029528,1014.9,,,TRUE,,,,,,,CLR,,,,,,,,VFR,0.9,,,,,,,,,,,METAR,548.0
KPWK 061452Z 01013G20KT 10SM SCT085 10/03 A2983 RMK AO2 SLP105 T01000028 53014 $,KPWK,2017-05-06T14:52:00Z,42.12,-87.9,10.0,2.8,10,13,20,10.0,29.828741,1010.5,,,TRUE,TRUE,,,,,,SCT,8500,,,,,,,VFR,1.4,,,,,,,,,,,METAR,203.0
KPPF 061452Z AUTO 26013KT 10SM CLR 21/09 A2997 RMK AO2 SLP144 T02060094 50006,KPPF,2017-05-06T14:52:00Z,37.33,-95.5,20.6,9.4,260,13,,10.0,29.970472,1014.4,,TRUE,TRUE,,,,,,,CLR,,,,,,,,VFR,0.6,,,,,,,,,,,METAR,274.0
KOMA 061452Z 11005KT 10SM FEW250 20/04 A2995 RMK AO2 SLP137 T02000044 51019,KOMA,2017-05-06T14:52:00Z,41.32,-95.9,20.0,4.4,110,5,,10.0,29.949802,1013.7,,,TRUE,,,,,,,FEW,25000,,,,,,,VFR,1.9,,,,,,,,,,,METAR,312.0
KOKC 061452Z 21009KT 10SM CLR 20/08 A3001 RMK AO2 SLP153 T02000083 50005,KOKC,2017-05-06T14:52:00Z,35.38,-97.6,20.0,8.3,210,9,,10.0,30.008858,1015.3,,,TRUE,,,,,,,CLR,,,,,,,,VFR,0.5,,,,,,,,,,,METAR,390.0
KOKB 061452Z AUTO 15005KT 10SM BKN019 BKN027 OVC031 17/12 A2983 RMK AO2 RAB41E51 SLP101 P0000 60000 T01670117 51008,KOKB,2017-05-06T14:52:00Z,33.22,-117.35,16.7,11.7,150,5,,10.0,29.828741,1010.1,,TRUE,TRUE,,,,,,,BKN,1900,BKN,2700,OVC,3100,,,MVFR,0.8,,,,,0.005,0.005,,,,,METAR,8.0
KMWH 061452Z 26007KT 10SM CLR 08/01 A2995 RMK AO2 SLP143 T00830011 52012,KMWH,2017-05-06T14:52:00Z,47.2,-119.32,8.3,1.1,260,7,,10.0,29.949802,1014.3,,,TRUE,,,,,,,CLR,,,,,,,,VFR,1.2,,,,,,,,,,,METAR,362.0
KMLI 061452Z 34009KT 10SM CLR 14/07 A2987 RMK AO2 SLP113 T01440067 51021,KMLI,2017-05-06T14:52:00Z,41.45,-90.52,14.4,6.7,340,9,,10.0,29.870079,1011.3,,,TRUE,,,,,,,CLR,,,,,,,,VFR,2.1,,,,,,,,,,,METAR,184.0
KMKE 061452Z 03013G23KT 10SM FEW025 FEW200 11/03 A2984 RMK AO2 SLP107 T01060033 51011,KMKE,2017-05-06T14:52:00Z,42.95,-87.9,10.6,3.3,30,13,23,10.0,29.840551,1010.7,,,TRUE,,,,,,,FEW,2500,FEW,20000,,,,,VFR,1.1,,,,,,,,,,,METAR,206.0
KMFD 061452Z 29010G19KT 10SM FEW018 BKN027 OVC070 09/05 A2959 RMK AO2 SLP022 T00940050 53006,KMFD,2017-05-06T14:52:00Z,40.82,-82.52,9.4,5.0,290,10,19,10.0,29.589567,1002.2,,,TRUE,,,,,,,FEW,1800,BKN,2700,OVC,7000,,,MVFR,0.6,,,,,,,,,,,METAR,395.0
KMEB 061452Z AUTO 28011G17KT 10SM -RA FEW024 FEW055 OVC070 14/10 A2963 RMK AO2 SLP032 P0000 60000 T01440100 51016 TSNO,KMEB,2017-05-06T14:52:00Z,34.78,-79.37,14.4,10.0,280,11,17,10.0,29.630905,1003.2,,TRUE,TRUE,,,TRUE,,,-RA,FEW,2400,FEW,5500,OVC,7000,,,VFR,1.6,,,,,0.005,0.005,,,,,METAR,67.0
KMDH 061452Z 30015G23KT 10SM FEW100 19/09 A2972 RMK AO2 SLP062 T01940094 58003,KMDH,2017-05-06T14:52:00Z,37.78,-89.25,19.4,9.4,300,15,23,10.0,29.719488,1006.2,,,TRUE,,,,,,,FEW,10000,,,,,,,VFR,-0.3,,,,,,,,,,,METAR,130.0
KMBG 061452Z AUTO 15011KT 10SM CLR 19/01 A2993 RMK AO2 SLP128 T01940011 58003 $,KMBG,2017-05-06T14:52:00Z,45.55,-100.42,19.4,1.1,150,11,,10.0,29.929134,1012.8,,TRUE,TRUE,TRUE,,,,,,CLR,,,,,,,,VFR,-0.3,,,,,,,,,,,METAR,510.0
KLWC 061452Z AUTO 29009KT 10SM CLR 21/12 A2992 RMK AO2 SLP127 T02060122 53008,KLWC,2017-05-06T14:52:00Z,39.02,-95.22,20.6,12.2,290,9,,10.0,29.920275,1012.7,,TRUE,TRUE,,,,,,,CLR,,,,,,,,VFR,0.8,,,,,,,,,,,METAR,253.0
KISN 061452Z AUTO 14014G21KT 10SM CLR 22/03 A2982 RMK AO2 SLP088 T02170033 56010,KISN,2017-05-06T14:52:00Z,48.17,-103.63,21.7,3.3,140,14,21,10.0,29.819881,1008.8,,TRUE,TRUE,,,,,,,CLR,,,,,,,,VFR,-1.0,,,,,,,,,,,METAR,579.0
KIOW 061452Z AUTO 35007KT 10SM CLR 16/07 A2990 RMK AO2 SLP126 T01560072 51021,KIOW,2017-05-06T14:52:00Z,41.63,-91.55,15.6,7.2,350,7,,10.0,29.899607,1012.6,,TRUE,TRUE,,,,,,,CLR,,,,,,,,VFR,2.1,,,,,,,,,,,METAR,198.0
KIJD 061452Z AUTO 17012G20KT 10SM OVC007 17/16 A2950 RMK AO2 RAB16E26 SLP989 P0000 60000 T01720156 57001,KIJD,2017-05-06T14:52:00Z,41.75,-72.18,17.2,15.6,170,12,20,10.0,29.500984,998.9,,TRUE,TRUE,,,,,,,OVC,700,,,,,,,IFR,-0.1,,,,,0.005,0.005,,,,,METAR,75.0
KIEN 061452Z AUTO 18013KT 10SM CLR 23/06 A2989 RMK AO2 SLP097 T02330061 58002,KIEN,2017-05-06T14:52:00Z,43.03,-102.52,23.3,6.1,180,13,,10.0,29.890747,1009.7,,TRUE,TRUE,,,,,,,CLR,,,,,,,,VFR,-0.2,,,,,,,,,,,METAR,998.0
KIAD 061452Z 28008KT 10SM -RA SCT025 SCT045 BKN060 OVC140 13/09 A2942 RMK AO2 RAB02 SLP960 P0000 60000 T01330094 52023,KIAD,2017-05-06T14:52:00Z,38.93,-77.45,13.3,9.4,280,8,,10.0,29.421259,996.0,,,TRUE,,,,,,-RA,SCT,2500,SCT,4500,BKN,6000,OVC,14000,VFR,2.3,,,,,0.005,0.005,,,,,METAR,93.0
KHUT 061452Z VRB05KT 10SM CLR 19/10 A2997 RMK AO2 SLP134 T01940100 50004,KHUT,2017-05-06T14:52:00Z,38.07,-97.87,19.4,10.0,0,5,,10.0,29.970472,1013.4,,,TRUE,,,,,,,CLR,,,,,,,,VFR,0.4,,,,,,,,,,,METAR,467.0
KHRL 061452Z 18011KT 10SM CLR 26/15 A3002 RMK AO2 SLP165 T02610150 51012,KHRL,2017-05-06T14:52:00Z,26.23,-97.65,26.1,15.0,180,11,,10.0,30.02067,1016.5,,,TRUE,,,,,,,CLR,,,,,,,,VFR,1.2,,,,,,,,,,,METAR,10.0
KHIE 061452Z AUTO 14018G28KT 10SM CLR 16/10 A2951 RMK AO2 PK WND 14030/1437 SLP994 60000 T01610100 56007,KHIE,2017-05-06T14:52:00Z,44.37,-71.55,16.1,10.0,140,18,28,10.0,29.509842,999.4,,TRUE,TRUE,,,,,,,CLR,,,,,,,,VFR,-0.7,,,,,,0.005,,,,,METAR,318.0
KGLS 061452Z 15006KT 10SM CLR 26/10 A3004 RMK AO2 SLP170 T02560100 52011,KGLS,2017-05-06T14:52:00Z,29.27,-94.87,25.6,10.0,150,6,,10.0,30.041338,1017.0,,,TRUE,,,,,,,CLR,,,,,,,,VFR,1.1,,,,,,,,,,,METAR,6.0
KTRM 061452Z AUTO 33012G18KT 10SM CLR 23/09 A2962 RMK AO2 SLP032 T02280094 53013,KTRM,2017-05-06T14:52:00Z,33.63,-116.17,22.8,9.4,330,12,18,10.0,29.619095,1003.2,,TRUE,TRUE,,,,,,,CLR,,,,,,,,VFR,1.3,,,,,,,,,,,METAR,-35.0
KTOL 061452Z AUTO 31010KT 10SM CLR 11/05 A2963 RMK AO2 SLP036 T01110050 55001,KTOL,2017-05-06T14:52:00Z,41.58,-83.8,11.1,5.0,310,10,,10.0,29.630905,1003.6,,TRUE,TRUE,,,,,,,CLR,,,,,,,,VFR,-0.1,,,,,,,,,,,METAR,210.0
KTAN 061452Z AUTO 16011G20KT 120V190 10SM -RA OVC008 17/16 A2955 RMK AO2 CIG 006V012 SLP006 P0006 60008 T01670156 55004,KTAN,2017-05-06T14:52:00Z,41.88,-71.02,16.7,15.6,160,11,20,10.0,29.551182,1000.6,,TRUE,TRUE,,,,,,-RA,OVC,800,,,,,,,IFR,-0.4,,,,,0.06,0.08,,,,,METAR,7.0
KSUX 061452Z 00000KT 10SM CLR 17/07 A2998 RMK AO2 SLP149 T01720072 51019,KSUX,2017-05-06T14:52:00Z,42.38,-96.38,17.2,7.2,0,0,,10.0,29.97933,1014.9,,,TRUE,,,,,,,CLR,,,,,,,,VFR,1.9,,,,,,,,,,,METAR,338.0
KSPS 061452Z AUTO 20010KT 10SM CLR 22/06 A3000 RMK AO2 SLP150 T02220061 50000,KSPS,2017-05-06T14:52:00Z,33.98,-98.5,22.2,6.1,200,10,,10.0,30.0,1015.0,,TRUE,TRUE,,,,,,,CLR,,,,,,,,VFR,0.0,,,,,,,,,,,METAR,308.0
KSPI 061452Z 07009KT 10SM CLR 16/08 A2981 RMK AO2 SLP096 T01560083 51031,KSPI,2017-05-06T14:52:00Z,39.85,-89.68,15.6,8.3,70,9,,10.0,29.811024,1009.6,,,TRUE,,,,,,,CLR,,,,,,,,VFR,3.1,,,,,,,,,,,METAR,181.0
KSGF 061452Z 27011G18KT 10SM CLR 20/08 A2993 RMK AO2 SLP130 T02000083 51007,KSGF,2017-05-06T14:52:00Z,37.23,-93.38,20.0,8.3,270,11,18,10.0,29.929134,1013.0,,,TRUE,,,,,,,CLR,,,,,,,,VFR,0.7,,,,,,,,,,,METAR,390.0
KRAP 061452Z 15009KT 10SM CLR 17/07 A2988 RMK AO2 SLP103 T01670072 58000,KRAP,2017-05-06T14:52:00Z,44.05,-103.05,16.7,7.2,150,9,,10.0,29.878937,1010.3,,,TRUE,,,,,,,CLR,,,,,,,,VFR,0.0,,,,,,,,,,,METAR,965.0
KN60 061452Z AUTO 17014KT 18/M01 A2991 RMK AO1 SLP126 T01781006 58005,KN60,2017-05-06T14:52:00Z,47.65,-101.43,17.8,-0.6,170,14,,,29.911417,1012.6,,TRUE,TRUE,,,,,,,,,,,,,,,,-0.5,,,,,,,,,,,METAR,582.0
KCDJ 061452Z AUTO 36007KT 330V030 20/06 A2991 RMK AO1 SLP123 T02000061 51017,KCDJ,2017-05-06T14:52:00Z,39.82,-93.58,20.0,6.1,360,7,,,29.911417,1012.3,,TRUE,TRUE,,,,,,,,,,,,,,,,1.7,,,,,,,,,,,METAR,234.0
KREO 061452Z AUTO 10007KT 09/03 A2982 RMK AO1 SLP077 T00940033 53010,KREO,2017-05-06T14:52:00Z,42.58,-117.87,9.4,3.3,100,7,,,29.819881,1007.7,,TRUE,TRUE,,,,,,,,,,,,,,,,1.0,,,,,,,,,,,METAR,1235.0
KCZZ 061452Z AUTO 23009KT 12/09 A2982 RMK AO1 SLP078 T01170094 53008,KCZZ,2017-05-06T14:52:00Z,32.63,-116.47,11.7,9.4,230,9,,,29.819881,1007.8,,TRUE,TRUE,,,,,,,,,,,,,,,,0.8,,,,,,,,,,,METAR,807.0
KNZY 061452Z 21010KT 9SM SCT017 BKN022 BKN035 BKN220 16/12 A2985 RMK AO2 RAE20DZB20E50 SLP106 P0000 60000 T01560122 52009 $,KNZY,2017-05-06T14:52:00Z,32.7,-117.22,15.6,12.2,210,10,,9.0,29.84941,1010.6,,,TRUE,TRUE,,,,,,SCT,1700,BKN,2200,BKN,3500,BKN,22000,MVFR,0.9,,,,,0.005,0.005,,,,,METAR,8.0
KNHK 061452Z 22013G21KT 10SM BKN030 OVC250 17/12 A2942 RMK AO2 SLP962 T01670117 53005,KNHK,2017-05-06T14:52:00Z,38.27,-76.4,16.7,11.7,220,13,21,10.0,29.421259,996.2,,,TRUE,,,,,,,BKN,3000,OVC,25000,,,,,MVFR,0.5,,,,,,,,,,,METAR,12.0
KBAN 061452Z AUTO 25005KT 10SM BKN065 09/00 A2974 RMK AO2 SLP996 T00890000 56010 $,KBAN,2017-05-06T14:52:00Z,38.35,-119.52,8.9,0.0,250,5,,10.0,29.740158,999.6,,TRUE,TRUE,TRUE,,,,,,BKN,6500,,,,,,,VFR,-1.0,,,,,,,,,,,METAR,2057.0
PABA 061452Z AUTO 07015KT 3SM BR OVC002 M06/M07 A3003 RMK AO2 SLP156 T10611067 51000 FZRANO TSNO,PABA,2017-05-06T14:52:00Z,70.13,-143.58,-6.1,-6.7,70,15,,3.0,30.029528,1015.6,,TRUE,TRUE,,,TRUE,TRUE,,BR,OVC,200,,,,,,,LIFR,0.0,,,,,,,,,,,METAR,2.0
PATA 061452Z 34005KT 10SM FEW070 02/00 A2979 RMK AO2 SLP091 T00220000 58002,PATA,2017-05-06T14:52:00Z,65.17,-152.1,2.2,0.0,340,5,,10.0,29.790354,1009.1,,,TRUE,,,,,,,FEW,7000,,,,,,,VFR,-0.2,,,,,,,,,,,METAR,67.0
KAQW 061452Z AUTO 10008KT 10SM OVC028 18/13 A2940 RMK AO2 SLP957 60005 T01780128 56009,KAQW,2017-05-06T14:52:00Z,42.7,-73.17,17.8,12.8,100,8,,10.0,29.40059,995.7,,TRUE,TRUE,,,,,,,OVC,2800,,,,,,,MVFR,-0.9,,,,,,0.05,,,,,METAR,199.0
KMHK 061452Z 27007KT 10SM CLR 22/10 A2993 RMK AO2 SLP131 T02170100 51002,KMHK,2017-05-06T14:52:00Z,39.13,-96.68,21.7,10.0,270,7,,10.0,29.929134,1013.1,,,TRUE,,,,,,,CLR,,,,,,,,VFR,0.2,,,,,,,,,,,METAR,317.0
MMPQ 061452Z 00000KT 5SM FEW040 SCT120 25/18 A2995 RMK 8/110 HZY MSGTX MMMD,MMPQ,2017-05-06T14:52:00Z,17.53,-91.98,25.0,18.0,0,0,,5.0,29.949802,,,,,,,,,,,FEW,4000,SCT,12000,,,,,MVFR,,,,,,,,,,,,METAR,61.0
KATT 061451Z AUTO VRB04KT 10SM CLR 24/11 A3004 RMK AO2 SLP163 T02390106 51007 $,KATT,2017-05-06T14:51:00Z,30.32,-97.77,23.9,10.6,0,4,,10.0,30.041338,1016.3,,TRUE,TRUE,TRUE,,,,,,CLR,,,,,,,,VFR,0.7,,,,,,,,,,,METAR,201.0
MUCF 061451Z 03010KT 360V070 8000 FEW020 SCT050 28/19 Q1015,MUCF,2017-05-06T14:51:00Z,22.13,-80.4,28.0,19.0,30,10,,4.97,29.970472,,,,,,,,,,,FEW,2000,SCT,5000,,,,,MVFR,,,,,,,,,,,,METAR,39.0
MUSC 061451Z 02007KT 320V060 8000 SCT020 BKN050 26/18 Q1016,MUSC,2017-05-06T14:51:00Z,22.5,-79.95,26.0,18.0,20,7,,4.97,30.0,,,,,,,,,,,SCT,2000,BKN,5000,,,,,MVFR,,,,,,,,,,,,METAR,103.0
MUVR 061451Z 33009KT 280V360 9000 SCT020 26/16 Q1016,MUVR,2017-05-06T14:51:00Z,23.03,-81.43,26.0,16.0,330,9,,5.59,30.0,,,,,,,,,,,SCT,2000,,,,,,,VFR,,,,,,,,,,,,METAR,65.0
PTPN 061451Z 11005KT 15SM SCT017 BKN300 27/25 A2984 ,PTPN,2017-05-06T14:51:00Z,6.97,158.22,27.0,25.0,110,5,,15.0,29.840551,,,,,,,,,,,SCT,1700,BKN,30000,,,,,VFR,,,,,,,,,,,,METAR,2.0
KJAC 061451Z 00000KT 10SM CLR 10/02 A2996,KJAC,2017-05-06T14:51:00Z,43.62,-110.73,10.0,2.0,0,0,,10.0,29.958662,,,,,,,,,,,CLR,,,,,,,,VFR,,,,,,,,,,,,METAR,1961.0
KSNT 061451Z AUTO 15005KT 07/05 A2987 RMK AO1 SLP059 60002 T00670050 57003,KSNT,2017-05-06T14:51:00Z,44.17,-114.93,6.7,5.0,150,5,,,29.870079,1005.9,,TRUE,TRUE,,,,,,,,,,,,,,,,-0.3,,,,,,0.02,,,,,METAR,1980.0
KNYC 061451Z AUTO 17009G14KT 8SM FEW024 17/12 A2944 RMK AO2 SLP959 T01720122 55000 $,KNYC,2017-05-06T14:51:00Z,40.78,-73.97,17.2,12.2,170,9,14,8.0,29.438976,995.9,,TRUE,TRUE,TRUE,,,,,,FEW,2400,,,,,,,VFR,0.0,,,,,,,,,,,METAR,11.0
KTPL 061451Z AUTO 17006KT 10SM CLR 22/08 A3004 RMK AO2 SLP182 T02220083 51005,KTPL,2017-05-06T14:51:00Z,31.13,-97.4,22.2,8.3,170,6,,10.0,30.041338,1018.2,,TRUE,TRUE,,,,,,,CLR,,,,,,,,VFR,0.5,,,,,,,,,,,METAR,208.0
KLAL 061451Z 29009G16KT 10SM SCT050 21/09 A2996,KLAL,2017-05-06T14:51:00Z,27.97,-82.02,21.0,9.0,290,9,16,10.0,29.958662,,,,,,,,,,,SCT,5000,,,,,,,VFR,,,,,,,,,,,,METAR,43.0
KSAD 061451Z AUTO 19005KT 10SM CLR 25/M02 A2985 RMK AO2 SLP049 T02501017 50005 $,KSAD,2017-05-06T14:51:00Z,32.85,-109.63,25.0,-1.7,190,5,,10.0,29.84941,1004.9,,TRUE,TRUE,TRUE,,,,,,CLR,,,,,,,,VFR,0.5,,,,,,,,,,,METAR,962.0
KCON 061451Z AUTO 11003KT 7SM OVC003 14/13 A2953 RMK AO2 SLP001 60001 T01390133 58005,KCON,2017-05-06T14:51:00Z,43.2,-71.5,13.9,13.3,110,3,,7.0,29.530512,1000.1,,TRUE,TRUE,,,,,,,OVC,300,,,,,,,LIFR,-0.5,,,,,,0.01,,,,,METAR,103.0
KCMH 061451Z 33012KT 10SM SCT034 BKN044 12/05 A2962 RMK AO2 SLP031 T01170050 51006,KCMH,2017-05-06T14:51:00Z,40.0,-82.88,11.7,5.0,330,12,,10.0,29.619095,1003.1,,,TRUE,,,,,,,SCT,3400,BKN,4400,,,,,VFR,0.6,,,,,,,,,,,METAR,247.0
KCLE 061451Z 30015KT 10SM OVC016 08/04 A2958 RMK AO2 RAE07 SLP019 P0000 60006 T00780039 53009 $,KCLE,2017-05-06T14:51:00Z,41.42,-81.85,7.8,3.9,300,15,,10.0,29.58071,1001.9,,,TRUE,TRUE,,,,,,OVC,1600,,,,,,,MVFR,0.9,,,,,0.005,0.06,,,,,METAR,233.0
KCAK 061451Z 32013KT 9SM BKN008 OVC017 07/04 A2954 RMK AO2 RAE40 SLP007 P0003 60009 T00670039 53008,KCAK,2017-05-06T14:51:00Z,40.92,-81.45,6.7,3.9,320,13,,9.0,29.53937,1000.7,,,TRUE,,,,,,,BKN,800,OVC,1700,,,,,IFR,0.8,,,,,0.03,0.09,,,,,METAR,377.0
KBKW 061451Z AUTO 31011KT 10SM OVC016 05/02 A2962 RMK AO2 SLP033 60002 T00500022 51010 TSNO,KBKW,2017-05-06T14:51:00Z,37.8,-81.12,5.0,2.2,310,11,,10.0,29.619095,1003.3,,TRUE,TRUE,,,TRUE,,,,OVC,1600,,,,,,,MVFR,1.0,,,,,,0.02,,,,,METAR,764.0
KBGD 061451Z AUTO 19007KT 10SM CLR 22/04 A3002 RMK AO2 SLP131 T02170044 50001,KBGD,2017-05-06T14:51:00Z,35.7,-101.4,21.7,4.4,190,7,,10.0,30.02067,1013.1,,TRUE,TRUE,,,,,,,CLR,,,,,,,,VFR,0.1,,,,,,,,,,,METAR,927.0
KBAZ 061451Z 23009KT 10SM CLR 24/12 A3003 RMK AO2 SLP163 T02390122 51009,KBAZ,2017-05-06T14:51:00Z,29.72,-98.05,23.9,12.2,230,9,,10.0,30.029528,1016.3,,,TRUE,,,,,,,CLR,,,,,,,,VFR,0.9,,,,,,,,,,,METAR,195.0
KALB 061451Z 17009G17KT 10SM SCT028 BKN034 OVC038 19/14 A2936 RMK AO2 SLP943 SCT V BKN T01890139 57003,KALB,2017-05-06T14:51:00Z,42.75,-73.8,18.9,13.9,170,9,17,10.0,29.359253,994.3,,,TRUE,,,,,,,SCT,2800,BKN,3400,OVC,3800,,,VFR,-0.3,,,,,,,,,,,METAR,92.0
KAHN 061451Z 28007G20KT 240V310 10SM CLR 15/07 A2980 RMK AO2 SLP089 T01500067 51018 $,KAHN,2017-05-06T14:51:00Z,33.95,-83.33,15.0,6.7,280,7,20,10.0,29.799213,1008.9,,,TRUE,TRUE,,,,,,CLR,,,,,,,,VFR,1.8,,,,,,,,,,,METAR,244.0
KACT 061451Z 21006KT 10SM CLR 22/10 A3004 RMK AO2 SLP166 T02220100 51007,KACT,2017-05-06T14:51:00Z,31.62,-97.23,22.2,10.0,210,6,,10.0,30.041338,1016.6,,,TRUE,,,,,,,CLR,,,,,,,,VFR,0.7,,,,,,,,,,,METAR,151.0
KABE 061451Z 19013G19KT 10SM FEW031 FEW038 OVC070 17/09 A2934 RMK AO2 SLP934 60000 T01720094 50003,KABE,2017-05-06T14:51:00Z,40.65,-75.45,17.2,9.4,190,13,19,10.0,29.338583,993.4,,,TRUE,,,,,,,FEW,3100,FEW,3800,OVC,7000,,,VFR,0.3,,,,,,0.005,,,,,METAR,114.0
KEKN 061451Z AUTO VRB06KT 10SM -RA BKN017 BKN021 OVC027 06/03 A2955 RMK AO2 SLP012 P0001 60003 T00610033 53020 TSNO,KEKN,2017-05-06T14:51:00Z,38.88,-79.85,6.1,3.3,0,6,,10.0,29.551182,1001.2,,TRUE,TRUE,,,TRUE,,,-RA,BKN,1700,BKN,2100,OVC,2700,,,MVFR,2.0,,,,,0.01,0.03,,,,,METAR,603.0
KCSG 061451Z 34011G19KT 10SM CLR 18/04 A2990 RMK AO2 SLP124 T01780044 50010,KCSG,2017-05-06T14:51:00Z,32.52,-84.95,17.8,4.4,340,11,19,10.0,29.899607,1012.4,,,TRUE,,,,,,,CLR,,,,,,,,VFR,1.0,,,,,,,,,,,METAR,135.0
KCRP 061451Z 20013KT 10SM CLR 24/14 A3003 RMK AO2 SLP167 T02440139 52010,KCRP,2017-05-06T14:51:00Z,27.77,-97.5,24.4,13.9,200,13,,10.0,30.029528,1016.7,,,TRUE,,,,,,,CLR,,,,,,,,VFR,1.0,,,,,,,,,,,METAR,14.0
KERI 061451Z 31009KT 1 1/2SM R06/4000VP6000FT -RA BR OVC005 06/06 A2945 RMK AO2 RAB05 SLP977 P0005 60007 T00610056 51006,KERI,2017-05-06T14:51:00Z,42.08,-80.18,6.1,5.6,310,9,,1.5,29.450787,997.7,,,TRUE,,,,,,-RA BR,OVC,500,,,,,,,IFR,0.6,,,,,0.05,0.07,,,,,METAR,222.0
KELP 061451Z 16009KT 10SM SCT190 BKN300 23/M04 A2997 RMK AO2 SLP080 T02281044 51013,KELP,2017-05-06T14:51:00Z,31.82,-106.38,22.8,-4.4,160,9,,10.0,29.970472,1008.0,,,TRUE,,,,,,,SCT,19000,BKN,30000,,,,,VFR,1.3,,,,,,,,,,,METAR,1197.0
KHDO 061451Z AUTO 18009KT 10SM CLR 23/13 A3006 RMK AO2 SLP166 T02280133 51014 $,KHDO,2017-05-06T14:51:00Z,29.37,-99.17,22.8,13.3,180,9,,10.0,30.059055,1016.6,,TRUE,TRUE,TRUE,,,,,,CLR,,,,,,,,VFR,1.4,,,,,,,,,,,METAR,282.0
KEWR 061451Z 17014G20KT 10SM FEW035 SCT044 BKN065 BKN250 17/10 A2940 RMK AO2 SLP954 T01720100 55001 $,KEWR,2017-05-06T14:51:00Z,40.68,-74.17,17.2,10.0,170,14,20,10.0,29.40059,995.4,,,TRUE,TRUE,,,,,,FEW,3500,SCT,4400,BKN,6500,BKN,25000,VFR,-0.1,,,,,,,,,,,METAR,7.0
KSMX 061451Z 34008KT 3SM BR SCT006 SCT011 OVC026 10/10 A2989 RMK AO2 SLP123 T01000100 53009,KSMX,2017-05-06T14:51:00Z,34.9,-120.45,10.0,10.0,340,8,,3.0,29.890747,1012.3,,,TRUE,,,,,,BR,SCT,600,SCT,1100,OVC,2600,,,MVFR,0.9,,,,,,,,,,,METAR,74.0
KYNG 061451Z 31009G21KT 10SM -RA BKN007 OVC014 06/04 A2949 RMK AO2 SLP991 P0001 60005 T00610044 53011,KYNG,2017-05-06T14:51:00Z,41.25,-80.67,6.1,4.4,310,9,21,10.0,29.489174,999.1,,,TRUE,,,,,,-RA,BKN,700,OVC,1400,,,,,IFR,1.1,,,,,0.01,0.05,,,,,METAR,360.0
KVNY 061451Z AUTO 17007KT 10SM OVC022 15/11 A2981 RMK AO2 SLP091 T01500111 51005,KVNY,2017-05-06T14:51:00Z,34.22,-118.48,15.0,11.1,170,7,,10.0,29.811024,1009.1,,TRUE,TRUE,,,,,,,OVC,2200,,,,,,,MVFR,0.5,,,,,,,,,,,METAR,245.0
KVCT 061451Z 23005KT 10SM CLR 23/14 A3004 RMK AO2 SLP169 T02330139 51008,KVCT,2017-05-06T14:51:00Z,28.87,-96.93,23.3,13.9,230,5,,10.0,30.041338,1016.9,,,TRUE,,,,,,,CLR,,,,,,,,VFR,0.8,,,,,,,,,,,METAR,31.0
KTEB 061451Z 17014G22KT 10SM FEW060 18/11 A2939 RMK AO2 SLP952 T01780111 55001 $,KTEB,2017-05-06T14:51:00Z,40.87,-74.05,17.8,11.1,170,14,22,10.0,29.388779,995.2,,,TRUE,TRUE,,,,,,FEW,6000,,,,,,,VFR,-0.1,,,,,,,,,,,METAR,7.0
KSTL 061451Z 33015KT 10SM CLR 20/08 A2976 RMK AO2 SLP072 T02000083 51014,KSTL,2017-05-06T14:51:00Z,38.75,-90.37,20.0,8.3,330,15,,10.0,29.760826,1007.2,,,TRUE,,,,,,,CLR,,,,,,,,VFR,1.4,,,,,,,,,,,METAR,171.0
KIGM 061451Z AUTO 17016G25KT 10SM CLR 26/M01 A2976 RMK AO2 SLP006 T02561011 53004,KIGM,2017-05-06T14:51:00Z,35.25,-113.93,25.6,-1.1,170,16,25,10.0,29.760826,1000.6,,TRUE,TRUE,,,,,,,CLR,,,,,,,,VFR,0.4,,,,,,,,,,,METAR,1032.0
KILG 061451Z 22015G21KT 10SM OVC024 16/11 A2939 RMK AO2 SLP952 T01560106 51006 $,KILG,2017-05-06T14:51:00Z,39.67,-75.6,15.6,10.6,220,15,21,10.0,29.388779,995.2,,,TRUE,TRUE,,,,,,OVC,2400,,,,,,,MVFR,0.6,,,,,,,,,,,METAR,28.0
KJCT 061451Z AUTO 19012KT 9SM CLR 23/07 A3003 RMK AO2 SLP135 T02330067 51005 TSNO $,KJCT,2017-05-06T14:51:00Z,30.5,-99.77,23.3,6.7,190,12,,9.0,30.029528,1013.5,,TRUE,TRUE,TRUE,,TRUE,,,,CLR,,,,,,,,VFR,0.5,,,,,,,,,,,METAR,522.0
KJFK 061451Z 17018G24KT 10SM SCT050 BKN250 16/12 A2944 RMK AO2 PK WND 15026/1424 SLP970 T01560122 53004,KJFK,2017-05-06T14:51:00Z,40.63,-73.77,15.6,12.2,170,18,24,10.0,29.438976,997.0,,,TRUE,,,,,,,SCT,5000,BKN,25000,,,,,VFR,0.4,,,,,,,,,,,METAR,9.0
KORF 061451Z 24013G23KT 10SM BKN033 17/10 A2948 RMK AO2 SLP983 T01720100 56007,KORF,2017-05-06T14:51:00Z,36.9,-76.2,17.2,10.0,240,13,23,10.0,29.480314,998.3,,,TRUE,,,,,,,BKN,3300,,,,,,,VFR,-0.7,,,,,,,,,,,METAR,14.0
KORD 061451Z 36019G28KT 10SM FEW060 FEW085 12/01 A2982 RMK AO2 PK WND 36028/1448 SLP097 T01170011 53013,KORD,2017-05-06T14:51:00Z,41.98,-87.93,11.7,1.1,360,19,28,10.0,29.819881,1009.7,,,TRUE,,,,,,,FEW,6000,FEW,8500,,,,,VFR,1.3,,,,,,,,,,,METAR,200.0
KMYL 061451Z AUTO 30005KT 10SM -RA FEW007 BKN070 OVC090 07/05 A2981 RMK AO2 RAB1354E10B51 SLP081 P0000 60000 T00670050 50003,KMYL,2017-05-06T14:51:00Z,44.9,-116.1,6.7,5.0,300,5,,10.0,29.811024,1008.1,,TRUE,TRUE,,,,,,-RA,FEW,700,BKN,7000,OVC,9000,,,VFR,0.3,,,,,0.005,0.005,,,,,METAR,1533.0
KLGU 061451Z AUTO 36008KT 10SM CLR 16/08 A2978 RMK AO2 SLP039 T01610083 50004 TSNO,KLGU,2017-05-06T14:51:00Z,41.78,-111.85,16.1,8.3,360,8,,10.0,29.778543,1003.9,,TRUE,TRUE,,,TRUE,,,,CLR,,,,,,,,VFR,0.4,,,,,,,,,,,METAR,1355.0
KLGA 061451Z 17018G28KT 10SM FEW050 SCT250 18/11 A2942 RMK AO2 PK WND 16030/1433 SLP961 T01780111 53001 $,KLGA,2017-05-06T14:51:00Z,40.78,-73.88,17.8,11.1,170,18,28,10.0,29.421259,996.1,,,TRUE,TRUE,,,,,,FEW,5000,SCT,25000,,,,,VFR,0.1,,,,,,,,,,,METAR,11.0
KPHX 061451Z 13007KT 10SM FEW150 FEW200 28/M01 A2973 RMK AO2 SLP044 T02831006 51009,KPHX,2017-05-06T14:51:00Z,33.43,-112.02,28.3,-0.6,130,7,,10.0,29.731298,1004.4,,,TRUE,,,,,,,FEW,15000,FEW,20000,,,,,VFR,0.9,,,,,,,,,,,METAR,336.0
KPWM 061451Z 1/4SM FG VV002 12/11 A2960 RMK AO2 RAB01E17 SLP023 P0000 60003 T01170111 58015,KPWM,2017-05-06T14:51:00Z,43.65,-70.3,11.7,11.1,,,,0.25,29.601377,1002.3,,,TRUE,,,,,,FG,OVX,0,,,,,,,LIFR,-1.5,,,,,0.005,0.03,,,,200,METAR,15.0
KROW 061451Z 19005KT 10SM CLR 19/01 A3001 RMK AO2 SLP102 T01940011 $,KROW,2017-05-06T14:51:00Z,33.3,-104.5,19.4,1.1,190,5,,10.0,30.008858,1010.2,,,TRUE,TRUE,,,,,,CLR,,,,,,,,VFR,,,,,,,,,,,,METAR,1112.0
KRDU 061451Z 27011G19KT 10SM SCT027 BKN060 BKN120 15/07 A2957 RMK AO2 SLP010 60000 T01500072 53011,KRDU,2017-05-06T14:51:00Z,35.9,-78.78,15.0,7.2,270,11,19,10.0,29.568897,1001.0,,,TRUE,,,,,,,SCT,2700,BKN,6000,BKN,12000,,,VFR,1.1,,,,,,0.005,,,,,METAR,130.0
KSAN 061451Z 21009KT 10SM BKN019 BKN030 16/13 A2987 RMK AO2 SLP113 T01610128 53009,KSAN,2017-05-06T14:51:00Z,32.73,-117.18,16.1,12.8,210,9,,10.0,29.870079,1011.3,,,TRUE,,,,,,,BKN,1900,BKN,3000,,,,,MVFR,0.9,,,,,,,,,,,METAR,12.0
KSAT 061451Z 21010KT 10SM CLR 23/12 A3005 RMK AO2 SLP161 T02280122 52010,KSAT,2017-05-06T14:51:00Z,29.53,-98.47,22.8,12.2,210,10,,10.0,30.050198,1016.1,,,TRUE,,,,,,,CLR,,,,,,,,VFR,1.0,,,,,,,,,,,METAR,243.0
KSJT 061451Z 19007KT 10SM CLR 24/04 A3002 RMK AO2 SLP146 T02390044 53008,KSJT,2017-05-06T14:51:00Z,31.37,-100.5,23.9,4.4,190,7,,10.0,30.02067,1014.6,,,TRUE,,,,,,,CLR,,,,,,,,VFR,0.8,,,,,,,,,,,METAR,576.0
KSLK 061451Z AUTO 19018G26KT 10SM FEW036 17/11 A2934 RMK AO2 PK WND 16028/1415 SLP931 60001 T01720111 58010 TSNO,KSLK,2017-05-06T14:51:00Z,44.4,-74.2,17.2,11.1,190,18,26,10.0,29.338583,993.1,,TRUE,TRUE,,,TRUE,,,,FEW,3600,,,,,,,VFR,-1.0,,,,,,0.01,,,,,METAR,498.0
KSMO 061451Z 23004KT 10SM OVC032 16/13 A2983 RMK AO2 SLP099 T01560128 53004,KSMO,2017-05-06T14:51:00Z,34.02,-118.45,15.6,12.8,230,4,,10.0,29.828741,1009.9,,,TRUE,,,,,,,OVC,3200,,,,,,,VFR,0.4,,,,,,,,,,,METAR,57.0
KP59 061451Z AUTO 04009KT 04/00 A3001 RMK AO1 SLP168 T00440000 51021,KP59,2017-05-06T14:51:00Z,47.47,-87.88,4.4,0.0,40,9,,,30.008858,1016.8,,TRUE,TRUE,,,,,,,,,,,,,,,,2.1,,,,,,,,,,,METAR,190.0
PTYA 061451Z VRB04KT 12SM FEW016 SCT300 27/25 A2986 RMK SLP113 60002 8/101 T02670249 403110258 57008,PTYA,2017-05-06T14:51:00Z,9.48,138.08,26.7,24.9,0,4,,12.0,29.861221,1011.3,,,,,,,,,,FEW,1600,SCT,30000,,,,,VFR,-0.8,,,31.1,25.8,,,,,,,SPECI,17.0
KBVE 061451Z AUTO VRB03KT 10SM CLR 23/07 A3004 RMK AO2 SLP173 T02280067 53014,KBVE,2017-05-06T14:51:00Z,29.32,-89.4,22.8,6.7,0,3,,10.0,30.041338,1017.3,,TRUE,TRUE,,,,,,,CLR,,,,,,,,VFR,1.4,,,,,,,,,,,METAR,1.0
PAEL 061451Z VRB05KT 12SM OVC030 07/05 A2995 RMK NOSPECI,PAEL,2017-05-06T14:51:00Z,58.2,-136.35,7.0,5.0,0,5,,12.0,29.949802,,,,,,,,,,,OVC,3000,,,,,,,MVFR,,,,,,,,,,,,METAR,3.0
KGDP 061451Z AUTO 23009KT 10SM CLR 21/M03 A3009 RMK AO2 SLP112 T02061033 53010,KGDP,2017-05-06T14:51:00Z,31.83,-104.82,20.6,-3.3,230,9,,10.0,30.088583,1011.2,,TRUE,TRUE,,,,,,,CLR,,,,,,,,VFR,1.0,,,,,,,,,,,METAR,1692.0
MMCE 061451Z 12011KT 7SM FEW020 BKN300 26/17 A3004 RMK SLP169 52020 923 8/508,MMCE,2017-05-06T14:51:00Z,18.65,-91.8,26.0,17.0,120,11,,7.0,30.041338,1016.9,,,,,,,,,,FEW,2000,BKN,30000,,,,,VFR,2.0,,,,,,,,,,,METAR,2.0
MMRX 061451Z 17009KT 8SM FEW020 24/15 A3001 RMK SLP168 52019 978 8/100 HZY,MMRX,2017-05-06T14:51:00Z,26.02,-98.22,24.0,15.0,170,9,,8.0,30.008858,1016.8,,,,,,,,,,FEW,2000,,,,,,,VFR,1.9,,,,,,,,,,,METAR,39.0
MMPR 061451Z 00000KT 10SM BKN020 25/21 A2992 RMK SLP128 52016 912 8/500 HZY LWR CLDS/2QUAD,MMPR,2017-05-06T14:51:00Z,20.67,-105.25,25.0,21.0,0,0,,10.0,29.920275,1012.8,,,,,,,,,,BKN,2000,,,,,,,MVFR,1.6,,,,,,,,,,,METAR,6.0
MMPN 061451Z 00000KT 3SM FU SKC 21/14 A3020 RMK SLP/// 5//// 9// 6////,MMPN,2017-05-06T14:51:00Z,19.38,-102.02,21.0,14.0,0,0,,3.0,30.200787,,,,,,,,,,FU,SKC,,,,,,,,MVFR,,,,,,,,,,,,METAR,1593.0
KP58 061451Z AUTO 34015G28KT 07/03 A2958 RMK AO1 PK WND 33028/1402 SLP022 T00720028 55004 $,KP58,2017-05-06T14:51:00Z,44.02,-82.8,7.2,2.8,340,15,28,,29.58071,1002.2,,TRUE,TRUE,TRUE,,,,,,,,,,,,,,,-0.4,,,,,,,,,,,METAR,179.0
LGPZ 061450Z 24014KT 9999 FEW020 20/14 Q1014,LGPZ,2017-05-06T14:50:00Z,38.92,20.77,20.0,14.0,240,14,,6.21,29.940945,,,,,,,,,,,FEW,2000,,,,,,,VFR,,,,,,,,,,,,METAR,4.0
KANE 061450Z 02004KT 10SM SKC 14/04 A3000,KANE,2017-05-06T14:50:00Z,45.15,-93.22,14.0,4.0,20,4,,10.0,30.0,,,,,,,,,,,SKC,,,,,,,,VFR,,,,,,,,,,,,METAR,278.0
EGYM 061450Z AUTO 06009KT 9000 HZ OVC015/// 11/07 Q1014,EGYM,2017-05-06T14:50:00Z,52.63,0.57,11.0,7.0,60,9,,5.59,29.940945,,,TRUE,,,,,,,HZ,OVC,1500,,,,,,,MVFR,,,,,,,,,,,,METAR,23.0
EGXZ 061450Z AUTO 03011KT 9999 FEW029/// BKN042/// 12/06 Q1017,EGXZ,2017-05-06T14:50:00Z,54.2,-1.38,12.0,6.0,30,11,,6.21,30.029528,,,TRUE,,,,,,,,FEW,2900,BKN,4200,,,,,VFR,,,,,,,,,,,,METAR,28.0
EGXU 061450Z AUTO 06013KT 9999 // BKN042/// 12/06 Q1016,EGXU,2017-05-06T14:50:00Z,54.05,-1.25,12.0,6.0,60,13,,6.21,30.0,,,TRUE,,,,,,,,BKN,4200,,,,,,,VFR,,,,,,,,,,,,METAR,16.0
EGXS 061450Z AUTO 04014KT 9999 // FEW007/// BKN018/// 10/08 Q1015,EGXS,2017-05-06T14:50:00Z,53.48,0.15,10.0,8.0,40,14,,6.21,29.970472,,,TRUE,,,,,,,,FEW,700,BKN,1800,,,,,MVFR,,,,,,,,,,,,METAR,3.0
EGXP 061450Z AUTO 06010KT 9999 // OVC015/// 11/07 Q1015,EGXP,2017-05-06T14:50:00Z,53.3,-0.55,11.0,7.0,60,10,,6.21,29.970472,,,TRUE,,,,,,,,OVC,1500,,,,,,,MVFR,,,,,,,,,,,,METAR,61.0
EGXE 061450Z AUTO 01013KT 9999 BKN036/// 11/06 Q1017,EGXE,2017-05-06T14:50:00Z,54.28,-1.52,11.0,6.0,10,13,,6.21,30.029528,,,TRUE,,,,,,,,BKN,3600,,,,,,,VFR,,,,,,,,,,,,METAR,40.0
EGVP 061450Z AUTO 02009KT 9999 // SCT030/// 15/07 Q1012,EGVP,2017-05-06T14:50:00Z,51.13,-1.57,15.0,7.0,20,9,,6.21,29.88189,,,TRUE,,,,,,,,SCT,3000,,,,,,,VFR,,,,,,,,,,,,METAR,91.0
EGVO 061450Z AUTO 03010KT 9999 BKN027/// 14/06 Q1012,EGVO,2017-05-06T14:50:00Z,51.23,-0.95,14.0,6.0,30,10,,6.21,29.88189,,,TRUE,,,,,,,,BKN,2700,,,,,,,MVFR,,,,,,,,,,,,METAR,123.0
EGUW 061450Z AUTO 04012KT 6000 HZ BKN020/// 13/06 Q1012,EGUW,2017-05-06T14:50:00Z,52.12,0.97,13.0,6.0,40,12,,3.73,29.88189,,,TRUE,,,,,,,HZ,BKN,2000,,,,,,,MVFR,,,,,,,,,,,,METAR,87.0
EGQK 061450Z AUTO 05010KT 9999 BKN012/// 11/08 Q1022,EGQK,2017-05-06T14:50:00Z,57.65,-3.57,11.0,8.0,50,10,,6.21,30.177166,,,TRUE,,,,,,,,BKN,1200,,,,,,,MVFR,,,,,,,,,,,,METAR,7.0
EGOV 061450Z AUTO 04013KT 9999 SCT034/// BKN040/// 13/06 Q1016,EGOV,2017-05-06T14:50:00Z,53.25,-4.53,13.0,6.0,40,13,,6.21,30.0,,,TRUE,,,,,,,,SCT,3400,BKN,4000,,,,,VFR,,,,,,,,,,,,METAR,11.0
EGOM 061450Z AUTO 06017KT 9999 NCD 12/04 Q1017,EGOM,2017-05-06T14:50:00Z,55.05,-2.55,12.0,4.0,60,17,,6.21,30.029528,,,TRUE,,,,,,,,CLR,,,,,,,,VFR,,,,,,,,,,,,METAR,325.0
EGDR 061450Z AUTO 09014KT 3400 // BKN005/// BKN015/// 11/10 Q1012,EGDR,2017-05-06T14:50:00Z,50.08,-5.25,11.0,10.0,90,14,,2.11,29.88189,,,TRUE,,,,,,,,BKN,500,BKN,1500,,,,,IFR,,,,,,,,,,,,METAR,82.0
KHME 061450Z AUTO 31004KT //// // ////// 23/11 Q1014,KHME,2017-05-06T14:50:00Z,,,23.0,11.0,310,4,,,29.940945,,,TRUE,,,,,,,,,,,,,,,,,,,,,,,,,,,,METAR,
OIHH 061450Z 28012KT 9999 FEW040 SCT090 16/05 Q1019,OIHH,2017-05-06T14:50:00Z,34.87,48.55,16.0,5.0,280,12,,6.21,30.088583,,,,,,,,,,,FEW,4000,SCT,9000,,,,,VFR,,,,,,,,,,,,METAR,1757.0
OICK 061450Z 12006KT CAVOK 21/10 Q1016,OICK,2017-05-06T14:50:00Z,33.43,48.28,21.0,10.0,120,6,,6.21,30.0,,,,,,,,,,,CAVOK,,,,,,,,VFR,,,,,,,,,,,,METAR,1155.0
OOSA 061450Z 17007KT 9999 FEW025 29/20 Q1012 NOSIG,OOSA,2017-05-06T14:50:00Z,17.02,54.07,29.0,20.0,170,7,,6.21,29.88189,,,,,,TRUE,,,,,FEW,2500,,,,,,,VFR,,,,,,,,,,,,METAR,20.0
OOMS 061450Z 08006KT CAVOK 36/12 Q1008 NOSIG,OOMS,2017-05-06T14:50:00Z,23.57,58.27,36.0,12.0,80,6,,6.21,29.763779,,,,,,TRUE,,,,,CAVOK,,,,,,,,VFR,,,,,,,,,,,,METAR,8.0
EGQS 061450Z 34003KT 9000 4000SE HZ OVC006 09/07 Q1022 YLO1,EGQS,2017-05-06T14:50:00Z,57.72,-3.32,9.0,7.0,340,3,,5.59,30.177166,,,,,,,,,,HZ,OVC,600,,,,,,,IFR,,,,,,,,,,,,METAR,13.0
LICR 061450Z 21011KT CAVOK 19/14 Q1016,LICR,2017-05-06T14:50:00Z,38.07,15.65,19.0,14.0,210,11,,6.21,30.0,,,,,,,,,,,CAVOK,,,,,,,,VFR,,,,,,,,,,,,METAR,21.0
LICD 061450Z 01011KT CAVOK 22/18 Q1016,LICD,2017-05-06T14:50:00Z,35.5,12.62,22.0,18.0,10,11,,6.21,30.0,,,,,,,,,,,CAVOK,,,,,,,,VFR,,,,,,,,,,,,METAR,20.0
LICB 061450Z 29009KT 250V310 CAVOK 31/08 Q1015,LICB,2017-05-06T14:50:00Z,37.0,14.62,31.0,8.0,290,9,,6.21,29.970472,,,,,,,,,,,CAVOK,,,,,,,,VFR,,,,,,,,,,,,METAR,220.0
LICA 061450Z 07018KT CAVOK 23/09 Q1014,LICA,2017-05-06T14:50:00Z,38.88,16.25,23.0,9.0,70,18,,6.21,29.940945,,,,,,,,,,,CAVOK,,,,,,,,VFR,,,,,,,,,,,,METAR,15.0
LIRZ 061450Z VRB03KT 9999 BKN060 18/12 Q1011,LIRZ,2017-05-06T14:50:00Z,43.1,12.5,18.0,12.0,0,3,,6.21,29.852362,,,,,,,,,,,BKN,6000,,,,,,,VFR,,,,,,,,,,,,METAR,205.0
LIRI 061450Z 05009KT 9999 SCT050 22/12 Q1013,LIRI,2017-05-06T14:50:00Z,40.62,14.92,22.0,12.0,50,9,,6.21,29.911417,,,,,,,,,,,SCT,5000,,,,,,,VFR,,,,,,,,,,,,METAR,40.0
LIBP 061450Z 08008KT 050V120 CAVOK 19/15 Q1014,LIBP,2017-05-06T14:50:00Z,42.42,14.18,19.0,15.0,80,8,,6.21,29.940945,,,,,,,,,,,CAVOK,,,,,,,,VFR,,,,,,,,,,,,METAR,11.0
LIBG 061450Z 22005KT CAVOK 20/07 Q1015,LIBG,2017-05-06T14:50:00Z,40.52,17.38,20.0,7.0,220,5,,6.21,29.970472,,,,,,,,,,,CAVOK,,,,,,,,VFR,,,,,,,,,,,,METAR,69.0
LIBF 061450Z 09007KT 9999 FEW040 16/15 Q1015 RERA,LIBF,2017-05-06T14:50:00Z,41.42,15.52,16.0,15.0,90,7,,6.21,29.970472,,,,,,,,,,,FEW,4000,,,,,,,VFR,,,,,,,,,,,,METAR,80.0
LIRU 061450Z 20009KT CAVOK 25/12 Q1011,LIRU,2017-05-06T14:50:00Z,41.95,12.5,25.0,12.0,200,9,,6.21,29.852362,,,,,,,,,,,CAVOK,,,,,,,,VFR,,,,,,,,,,,,METAR,24.0
LIQN 061450Z 11007KT CAVOK 23/10 Q1011,LIQN,2017-05-06T14:50:00Z,42.42,12.83,23.0,10.0,110,7,,6.21,29.852362,,,,,,,,,,,CAVOK,,,,,,,,VFR,,,,,,,,,,,,METAR,389.0
LIMZ 061450Z 27005KT 220V320 9999 SCT030 BKN050 11/09 Q1013 RERA,LIMZ,2017-05-06T14:50:00Z,44.53,7.62,11.0,9.0,270,5,,6.21,29.911417,,,,,,,,,,,SCT,3000,BKN,5000,,,,,VFR,,,,,,,,,,,,METAR,380.0
LIMP 061450Z VRB03KT 1500 RA BR BKN010 BKN035 15/14 Q1012,LIMP,2017-05-06T14:50:00Z,44.82,10.3,15.0,14.0,0,3,,0.93,29.88189,,,,,,,,,,RA BR,BKN,1000,BKN,3500,,,,,LIFR,,,,,,,,,,,,METAR,50.0
LIMG 061450Z 00000KT 9999 -RA BKN045CB 13/11 Q1010,LIMG,2017-05-06T14:50:00Z,44.03,8.12,13.0,11.0,0,0,,6.21,29.822834,,,,,,,,,,-RA,BKN,4500,,,,,,,VFR,,,,,,,,,,,,METAR,49.0
LIMA 061450Z 00000KT 9999 RA FEW003 SCT015 BKN045 12/11 Q1013,LIMA,2017-05-06T14:50:00Z,45.08,7.6,12.0,11.0,0,0,,6.21,29.911417,,,,,,,,,,RA,FEW,300,SCT,1500,BKN,4500,,,VFR,,,,,,,,,,,,METAR,287.0
LIPY 061450Z 14009KT 100V200 9999 SCT070 16/13 Q1011,LIPY,2017-05-06T14:50:00Z,43.62,13.37,16.0,13.0,140,9,,6.21,29.852362,,,,,,,,,,,SCT,7000,,,,,,,VFR,,,,,,,,,,,,METAR,10.0
LIPO 061450Z 09004KT 7000 BKN050 16/11 Q1011,LIPO,2017-05-06T14:50:00Z,45.42,10.33,16.0,11.0,90,4,,4.35,29.852362,,,,,,,,,,,BKN,5000,,,,,,,MVFR,,,,,,,,,,,,METAR,109.0
EGPI 061450Z AUTO 07006KT 360V100 9999 NCD 18/M01 Q1019,EGPI,2017-05-06T14:50:00Z,55.68,-6.25,18.0,-1.0,70,6,,6.21,30.088583,,,TRUE,,,,,,,,CLR,,,,,,,,VFR,,,,,,,,,,,,METAR,18.0
KOLV 061450Z 27008KT 10SM SKC A2989,KOLV,2017-05-06T14:50:00Z,34.98,-89.78,,,270,8,,10.0,29.890747,,,,,,,,,,,SKC,,,,,,,,VFR,,,,,,,,,,,,METAR,122.0
KEGE 061450Z 00000KT 10SM SKC 10/M02 A3013,KEGE,2017-05-06T14:50:00Z,39.63,-106.92,10.0,-2.0,0,0,,10.0,30.129921,,,,,,,,,,,SKC,,,,,,,,VFR,,,,,,,,,,,,METAR,1993.0
EGWU 061450Z 02011KT 9999 BKN027 15/07 Q1012 NOSIG,EGWU,2017-05-06T14:50:00Z,51.55,-0.42,15.0,7.0,20,11,,6.21,29.88189,,,,,,TRUE,,,,,BKN,2700,,,,,,,MVFR,,,,,,,,,,,,METAR,40.0
LCRA 061450Z 25016KT 9999 FEW014 BKN300 21/17 Q1013 NOSIG,LCRA,2017-05-06T14:50:00Z,34.57,32.97,21.0,17.0,250,16,,6.21,29.911417,,,,,,TRUE,,,,,FEW,1400,BKN,30000,,,,,VFR,,,,,,,,,,,,METAR,23.0
KGTR 061450Z 26006KT 10SM SKC 20/08 A2991,KGTR,2017-05-06T14:50:00Z,33.45,-88.57,20.0,8.0,260,6,,10.0,29.911417,,,,,,,,,,,SKC,,,,,,,,VFR,,,,,,,,,,,,METAR,80.0
ENTC 061450Z VRB02KT 3000 -SN SCT010 BKN028 00/M02 Q1024 TEMPO 2000 SHSN VV009 RMK WIND 2600FT 32028KT,ENTC,2017-05-06T14:50:00Z,69.68,18.92,0.0,-2.0,0,2,,1.86,30.236221,,,,,,,,,,-SN,SCT,1000,BKN,2800,,,,,IFR,,,,,,,,,,,,METAR,10.0
ENSB 061450Z 02013KT 9999 FEW020 SCT030 M09/M14 Q1028 RMK WIND 1400FT 02013KT,ENSB,2017-05-06T14:50:00Z,78.25,15.47,-9.0,-14.0,20,13,,6.21,30.35433,,,,,,,,,,,FEW,2000,SCT,3000,,,,,VFR,,,,,,,,,,,,METAR,29.0
ENRA 061450Z 36010KT 9999 SCT045 07/M03 Q1022,ENRA,2017-05-06T14:50:00Z,66.37,14.3,7.0,-3.0,360,10,,6.21,30.177166,,,,,,,,,,,SCT,4500,,,,,,,VFR,,,,,,,,,,,,METAR,70.0
ENMS 061450Z 34010KT 9999 BKN038 08/M01 Q1021 RMK WIND 412FT 33006KT 220V060,ENMS,2017-05-06T14:50:00Z,65.78,13.22,8.0,-1.0,340,10,,6.21,30.147638,,,,,,,,,,,BKN,3800,,,,,,,VFR,,,,,,,,,,,,METAR,70.0
EDVE 061450Z 08006KT 040V110 9999 SCT008 SCT011 OVC045 14/14 Q1013,EDVE,2017-05-06T14:50:00Z,52.32,10.55,14.0,14.0,80,6,,6.21,29.911417,,,,,,,,,,,SCT,800,SCT,1100,OVC,4500,,,VFR,,,,,,,,,,,,METAR,88.0
EDTL 061450Z 19005KT 4000 RA BKN025 12/12 Q1011,EDTL,2017-05-06T14:50:00Z,48.37,7.83,12.0,12.0,190,5,,2.49,29.852362,,,,,,,,,,RA,BKN,2500,,,,,,,IFR,,,,,,,,,,,,METAR,156.0
EDOP 061450Z 06005KT 020V100 9999 BKN026 15/10 Q1014,EDOP,2017-05-06T14:50:00Z,53.43,11.78,15.0,10.0,60,5,,6.21,29.940945,,,,,,,,,,,BKN,2600,,,,,,,MVFR,,,,,,,,,,,,METAR,51.0
LGPA 061450Z 36007KT CAVOK 23/12 Q1011,LGPA,2017-05-06T14:50:00Z,37.0,25.13,23.0,12.0,360,7,,6.21,29.852362,,,,,,,,,,,CAVOK,,,,,,,,VFR,,,,,,,,,,,,METAR,36.0
LGNX 061450Z 35006KT CAVOK 24/14 Q1012,LGNX,2017-05-06T14:50:00Z,37.08,25.37,24.0,14.0,350,6,,6.21,29.88189,,,,,,,,,,,CAVOK,,,,,,,,VFR,,,,,,,,,,,,METAR,4.0
LGKZ 061450Z 26010KT 9999 FEW025 24/01 Q1013,LGKZ,2017-05-06T14:50:00Z,40.28,21.83,24.0,1.0,260,10,,6.21,29.911417,,,,,,,,,,,FEW,2500,,,,,,,VFR,,,,,,,,,,,,METAR,628.0
LGKF 061450Z 32011KT 9999 FEW015 23/16 Q1015,LGKF,2017-05-06T14:50:00Z,38.12,20.5,23.0,16.0,320,11,,6.21,29.970472,,,,,,,,,,,FEW,1500,,,,,,,VFR,,,,,,,,,,,,METAR,18.0
LGHI 061450Z 03007KT 9999 FEW025 23/07 Q1010,LGHI,2017-05-06T14:50:00Z,38.32,26.12,23.0,7.0,30,7,,6.21,29.822834,,,,,,,,,,,FEW,2500,,,,,,,VFR,,,,,,,,,,,,METAR,4.0
LGZA 061450Z 00000KT 9999 FEW020 23/16 Q1014,LGZA,2017-05-06T14:50:00Z,37.75,20.87,23.0,16.0,0,0,,6.21,29.940945,,,,,,,,,,,FEW,2000,,,,,,,VFR,,,,,,,,,,,,METAR,3.0
LGSK 061450Z 00000KT 9999 FEW025 22/07 Q1012,LGSK,2017-05-06T14:50:00Z,39.18,23.5,22.0,7.0,0,0,,6.21,29.88189,,,,,,,,,,,FEW,2500,,,,,,,VFR,,,,,,,,,,,,METAR,15.0
LGRX 061450Z 28007KT CAVOK 23/16 Q1014,LGRX,2017-05-06T14:50:00Z,38.17,21.42,23.0,16.0,280,7,,6.21,29.940945,,,,,,,,,,,CAVOK,,,,,,,,VFR,,,,,,,,,,,,METAR,15.0
ENEV 061450Z AUTO 07007KT 9999 OVC053/// 04/M06 Q1024 RMK WIND 1400FT 04006KT,ENEV,2017-05-06T14:50:00Z,68.52,16.67,4.0,-6.0,70,7,,6.21,30.236221,,,TRUE,,,,,,,,OVC,5300,,,,,,,VFR,,,,,,,,,,,,METAR,26.0
ENBL 061450Z 32008KT CAVOK 18/04 Q1016,ENBL,2017-05-06T14:50:00Z,61.4,5.77,18.0,4.0,320,8,,6.21,30.0,,,,,,,,,,,CAVOK,,,,,,,,VFR,,,,,,,,,,,,METAR,150.0
ENAT 061450Z AUTO 31008KT 9999 SG ///024/// 00/M04 Q1021 RESHUP RERA RMK WIND 700FT 33010KT,ENAT,2017-05-06T14:50:00Z,69.97,23.37,0.0,-4.0,310,8,,6.21,30.147638,,,TRUE,,,,,,,SG RA,,,,,,,,,,,,,,,,,,,,,METAR,3.0
ENGC 061450Z 03025KT 9999 BKN007 09/06 Q1021 W07/S4,ENGC,2017-05-06T14:50:00Z,61.02,2.02,9.0,6.0,30,25,,6.21,30.147638,,,,,,,,,,,BKN,700,,,,,,,IFR,,,,,,,,,,,,METAR,10.0
EETU 061450Z 04010KT 010V070 9999 OVC040 14/04 Q1011,EETU,2017-05-06T14:50:00Z,58.32,26.68,14.0,4.0,40,10,,6.21,29.852362,,,,,,,,,,,OVC,4000,,,,,,,VFR,,,,,,,,,,,,METAR,67.0
EEKE 061450Z 02010KT 340V050 CAVOK 16/05 Q1012,EEKE,2017-05-06T14:50:00Z,58.23,22.52,16.0,5.0,20,10,,6.21,29.88189,,,,,,,,,,,CAVOK,,,,,,,,VFR,,,,,,,,,,,,METAR,4.0
ENNE 061450Z 04015KT 9999 FEW025 BKN030 05/00 Q1027 W///S4,ENNE,2017-05-06T14:50:00Z,66.03,8.08,5.0,0.0,40,15,,6.21,30.324802,,,,,,,,,,,FEW,2500,BKN,3000,,,,,MVFR,,,,,,,,,,,,METAR,10.0
LIPB 061450Z 15006KT 100V190 9999 -RA BKN070 OVC100 14/09 Q1013 RERA,LIPB,2017-05-06T14:50:00Z,46.47,11.32,14.0,9.0,150,6,,6.21,29.911417,,,,,,,,,,-RA,BKN,7000,OVC,10000,,,,,VFR,,,,,,,,,,,,METAR,241.0
LTCJ 061450Z 09004KT 9999 FEW030CB SCT040 BKN100 21/14 Q1012 RMK RWY20 10006KT,LTCJ,2017-05-06T14:50:00Z,37.93,41.12,21.0,14.0,90,4,,6.21,29.88189,,,,,,,,,,,FEW,3000,SCT,4000,BKN,10000,,,VFR,,0.6,,,,,,,,,,METAR,540.0
LTCE 061450Z 20009KT 180V250 9999 FEW025CB BKN030 13/03 Q1016 NOSIG RMK RWY08R 19010KT RWY26R 20015KT RWY08L 20008KT,LTCE,2017-05-06T14:50:00Z,39.95,41.17,13.0,3.0,200,9,,6.21,30.0,,,,,,TRUE,,,,,FEW,2500,BKN,3000,,,,,MVFR,,,1.5,,,,,,,,,METAR,1758.0
LTCC 061450Z 29008KT 250V310 9999 -TSRA FEW025CB BKN035 17/10 Q1012 RETS BECMG TL1520 NSW RMK RWY16 28004KT 250V330,LTCC,2017-05-06T14:50:00Z,37.87,40.2,17.0,10.0,290,8,,6.21,29.88189,,,,,,,,,,-TSRA,FEW,2500,BKN,3500,,,,,VFR,,,,,,,,,,,,METAR,677.0
LTBU 061450Z 04003KT 330V090 6000 -SHRA FEW015CB BKN030 14/12 Q1011 RETSRA RMK RWY23 VRB02KT,LTBU,2017-05-06T14:50:00Z,41.12,27.92,14.0,12.0,40,3,,3.73,29.852362,,,,,,,,,,-SHRA,FEW,1500,BKN,3000,,,,,MVFR,,,,,,,,,,,,METAR,173.0
LTBQ 061450Z VRB02KT 9999 SCT030 BKN100 16/14 Q1011 NOSIG,LTBQ,2017-05-06T14:50:00Z,40.72,30.07,16.0,14.0,0,2,,6.21,29.852362,,,,,,TRUE,,,,,SCT,3000,BKN,10000,,,,,VFR,,,,,,,,,,,,METAR,50.0
LTAU 061450Z 00000KT 9999 BKN035 20/06 Q1010 NOSIG RMK RWY07 30005KT 270V330,LTAU,2017-05-06T14:50:00Z,38.77,35.47,20.0,6.0,0,0,,6.21,29.822834,,,,,,TRUE,,,,,BKN,3500,,,,,,,VFR,,,,,,,,,,,,METAR,1054.0
LTAT 061450Z 17010KT 9999 SCT035 BKN100 21/09 Q1011 TEMPO TL1600 -TSRA RMK RWY03 20008KT,LTAT,2017-05-06T14:50:00Z,38.42,38.07,21.0,9.0,170,10,,6.21,29.852362,,,,,,,,,,,SCT,3500,BKN,10000,,,,,VFR,,,0.8,,,,,,,,,METAR,849.0
LTAP 061450Z 02008KT 9999 TS FEW030CB SCT040 BKN100 22/08 Q1006 BECMG TL1540 NSW RMK RWY23 02011KT,LTAP,2017-05-06T14:50:00Z,40.83,35.52,22.0,8.0,20,8,,6.21,29.704725,,,,,,,,,,TS,FEW,3000,SCT,4000,BKN,10000,,,VFR,,,,,,,,,,,,METAR,535.0
LTAG 061450Z 19011KT 9999 FEW020CB BKN030 23/15 Q1012 TEMPO -TSRA,LTAG,2017-05-06T14:50:00Z,37.0,35.42,23.0,15.0,190,11,,6.21,29.88189,,,,,,,,,,,FEW,2000,BKN,3000,,,,,MVFR,,,,,,,,,,,,METAR,66.0
LTFJ 061450Z 05006KT 9999 VCTS FEW022CB SCT030 BKN100 17/13 Q1011 TEMPO FM1520 -TSRA RMK RWY24 02006KT 340V050,LTFJ,2017-05-06T14:50:00Z,40.9,29.3,17.0,13.0,50,6,,6.21,29.852362,,,,,,,,,,VCTS,FEW,2200,SCT,3000,BKN,10000,,,VFR,,,,,,,,,,,,METAR,98.0
LTFE 061450Z 28012KT 9999 FEW035 SCT100 24/13 Q1011 NOSIG RMK RWY10 27010KT,LTFE,2017-05-06T14:50:00Z,37.25,27.67,24.0,13.0,280,12,,6.21,29.852362,,,,,,TRUE,,,,,FEW,3500,SCT,10000,,,,,VFR,,,,,,,,,,,,METAR,6.0
LTFC 061450Z 30011KT 250V320 9999 TS FEW028CB BKN035 19/08 Q1010 RMK RWY23 30012KT,LTFC,2017-05-06T14:50:00Z,37.87,30.38,19.0,8.0,300,11,,6.21,29.822834,,,,,,,,,,TS,FEW,2800,BKN,3500,,,,,VFR,,,,,,,,,,,,METAR,864.0
LTCS 061450Z 03004KT 9999 TS FEW025CB SCT040 20/12 Q1013 RMK RWY22 04005KT 360V070,LTCS,2017-05-06T14:50:00Z,37.45,38.9,20.0,12.0,30,4,,6.21,29.911417,,,,,,,,,,TS,FEW,2500,SCT,4000,,,,,VFR,,,,,,,,,,,,METAR,825.0
LTCG 061450Z 09010KT 9000 SCT008 SCT180 15/13 Q1009 NOSIG RMK RWY29 09008KT,LTCG,2017-05-06T14:50:00Z,41.0,39.8,15.0,13.0,90,10,,5.59,29.793306,,,,,,TRUE,,,,,SCT,800,SCT,18000,,,,,VFR,,,,,,,,,,,,METAR,30.0
LTBS 061450Z 21005KT 150V260 9999 FEW030 SCT100 22/15 Q1012 NOSIG RMK RWY19 20008KT 170V230,LTBS,2017-05-06T14:50:00Z,36.7,28.77,22.0,15.0,210,5,,6.21,29.88189,,,,,,TRUE,,,,,FEW,3000,SCT,10000,,,,,VFR,,,0.8,,,,,,,,,METAR,2.0
LTBR 061450Z 04003KT 9999 SCT035 BKN090 16/11 Q1011 NOSIG RMK RWY07 03005KT 360V070,LTBR,2017-05-06T14:50:00Z,40.25,29.57,16.0,11.0,40,3,,6.21,29.852362,,,,,,TRUE,,,,,SCT,3500,BKN,9000,,,,,VFR,,,,,,,,,,,,METAR,232.0
LTBJ 061450Z 33015KT 9999 SCT030 24/05 Q1011 NOSIG RMK RWY16 33013KT,LTBJ,2017-05-06T14:50:00Z,38.28,27.15,24.0,5.0,330,15,,6.21,29.852362,,,,,,TRUE,,,,,SCT,3000,,,,,,,VFR,,,,,,,,,,,,METAR,120.0
LTBA 061450Z 36009KT 9999 FEW025CB BKN030 16/09 Q1011 NOSIG RMK RWY17L 36011KT RWY05 35009KT RWY23 02009KT,LTBA,2017-05-06T14:50:00Z,40.97,28.82,16.0,9.0,360,9,,6.21,29.852362,,,,,,TRUE,,,,,FEW,2500,BKN,3000,,,,,MVFR,,,,,,,,,,,,METAR,37.0
LTAZ 061450Z 29009KT 260V320 9999 FEW030CB BKN035 21/06 Q1009 RMK RWY29 05011KT,LTAZ,2017-05-06T14:50:00Z,38.77,34.55,21.0,6.0,290,9,,6.21,29.793306,,,,,,,,,,,FEW,3000,BKN,3500,,,,,VFR,,,,,,,,,,,,METAR,945.0
LTAJ 061450Z 24010KT 9999 SCT040 21/13 Q1012 NOSIG RMK RWY10 24008KT 220V280,LTAJ,2017-05-06T14:50:00Z,36.95,37.48,21.0,13.0,240,10,,6.21,29.88189,,,,,,TRUE,,,,,SCT,4000,,,,,,,VFR,,,,,,,,,,,,METAR,855.0
LTAI 061450Z 14007KT 120V180 9999 FEW015CB BKN025 20/17 Q1011 NOSIG RMK RWY18C 14009KT RWY36R 12008KT 100V160 RWY18L 14009KT 100V160,LTAI,2017-05-06T14:50:00Z,36.9,30.8,20.0,17.0,140,7,,6.21,29.852362,,,,,,TRUE,,,,,FEW,1500,BKN,2500,,,,,MVFR,,,,,,,,,,,,METAR,54.0
LTAF 061450Z 21011KT 9999 SCT035 22/16 Q1012 NOSIG RMK RWY23 23010KT,LTAF,2017-05-06T14:50:00Z,36.97,35.28,22.0,16.0,210,11,,6.21,29.88189,,,,,,TRUE,,,,,SCT,3500,,,,,,,VFR,,,,,,,,,,,,METAR,20.0
LTAC 061450Z 29008KT 250V320 9999 FEW030CB BKN035 14/08 Q1011 NOSIG RMK RWY21L 27008KT 220V320 RWY03L 30008KT 250V010 RWY21R 29008KT 240V340,LTAC,2017-05-06T14:50:00Z,40.12,32.97,14.0,8.0,290,8,,6.21,29.852362,,,,,,TRUE,,,,,FEW,3000,BKN,3500,,,,,VFR,,,,,,,,,,,,METAR,949.0
LTFH 061450Z 30003KT 260V340 9999 FEW027CB BKN030 BKN090 15/12 Q1010 RESHRA TEMPO FM1500 -TSRA,LTFH,2017-05-06T14:50:00Z,41.27,36.55,15.0,12.0,300,3,,6.21,29.822834,,,,,,,,,,,FEW,2700,BKN,3000,BKN,9000,,,MVFR,,,,,,,,,,,,METAR,5.0
LTDA 061450Z 23018KT 9999 SCT030 23/14 Q1012,LTDA,2017-05-06T14:50:00Z,36.37,36.28,23.0,14.0,230,18,,6.21,29.88189,,,,,,,,,,,SCT,3000,,,,,,,VFR,,,,,,,,,,,,METAR,82.0
LTCI 061450Z 28004KT 9999 FEW025CB SCT030 BKN070 14/06 Q1017 RESHRA NOSIG,LTCI,2017-05-06T14:50:00Z,38.45,43.32,14.0,6.0,280,4,,6.21,30.029528,,,,,,TRUE,,,,,FEW,2500,SCT,3000,BKN,7000,,,VFR,,,,,,,,,,,,METAR,1661.0
LTCF 061450Z 23004KT 190V280 9999 FEW020CB BKN030 12/06 Q1016,LTCF,2017-05-06T14:50:00Z,40.57,43.12,12.0,6.0,230,4,,6.21,30.0,,,,,,,,,,,FEW,2000,BKN,3000,,,,,MVFR,,,,,,,,,,,,METAR,1795.0
LTCD 061450Z 28006KT 9999 FEW036TCU SCT040 22/00 Q1011 NOSIG,LTCD,2017-05-06T14:50:00Z,39.72,39.5,22.0,0.0,280,6,,6.21,29.852362,,,,,,TRUE,,,,,FEW,3600,SCT,4000,,,,,VFR,,,,,,,,,,,,METAR,1215.0
LTCA 061450Z 11007KT 090V150 9999 SCT035 19/10 Q1012 TEMPO 22018KT -TSRA,LTCA,2017-05-06T14:50:00Z,38.6,39.27,19.0,10.0,110,7,,6.21,29.88189,,,,,,,,,,,SCT,3500,,,,,,,VFR,,,,,,,,,,,,METAR,882.0
LTBY 061450Z 28011KT 220V300 6000 -SHRA FEW025CB BKN035 10/08 Q1013 RETSRA,LTBY,2017-05-06T14:50:00Z,39.82,30.52,10.0,8.0,280,11,,3.73,29.911417,,,,,,,,,,-SHRA,FEW,2500,BKN,3500,,,,,MVFR,,,,,,,,,,,,METAR,789.0
LTAY 061450Z 30013G23KT 250V340 9999 -TSRA SCT020CB BKN030 17/10 Q1011 RETS,LTAY,2017-05-06T14:50:00Z,37.77,29.68,17.0,10.0,300,13,23,6.21,29.852362,,,,,,,,,,-TSRA,SCT,2000,BKN,3000,,,,,MVFR,,,,,,,,,,,,METAR,849.0
LTAR 061450Z 32009KT 9999 -SHRA FEW025CB BKN035 14/04 Q1013,LTAR,2017-05-06T14:50:00Z,39.8,36.9,14.0,4.0,320,9,,6.21,29.911417,,,,,,,,,,-SHRA,FEW,2500,BKN,3500,,,,,VFR,,,,,,,,,,,,METAR,1271.0
MUHG 061450Z VRB03KT 9000 BKN018 BKN080 28/21 Q1014,MUHG,2017-05-06T14:50:00Z,20.77,-76.32,28.0,21.0,0,3,,5.59,29.940945,,,,,,,,,,,BKN,1800,BKN,8000,,,,,MVFR,,,,,,,,,,,,METAR,106.0
MUCC 061450Z 36008KT 9000 BKN020 27/22 Q1014,MUCC,2017-05-06T14:50:00Z,22.47,-78.33,27.0,22.0,360,8,,5.59,29.940945,,,,,,,,,,,BKN,2000,,,,,,,MVFR,,,,,,,,,,,,METAR,4.0
KHQZ 061450Z 19005KT 10SM CLR 22/09 A3004,KHQZ,2017-05-06T14:50:00Z,32.75,-96.53,22.0,9.0,190,5,,10.0,30.041338,,,,,,,,,,,CLR,,,,,,,,VFR,,,,,,,,,,,,METAR,136.0
MSLU 061450Z 05004KT 9999 SCT040 30/24 Q1011 A2986,MSLU,2017-05-06T14:50:00Z,13.33,-87.88,30.0,24.0,50,4,,6.21,29.852362,,,,,,,,,,,SCT,4000,,,,,,,VFR,,,,,,,,,,,,METAR,5.0
MSSM 061450Z 36002KT CAVOK 26/26 Q1011 A2987,MSSM,2017-05-06T14:50:00Z,13.43,-88.12,26.0,26.0,360,2,,6.21,29.852362,,,,,,,,,,,CAVOK,,,,,,,,VFR,,,,,,,,,,,,METAR,80.0
MSSA 061450Z 11004KT CAVOK 28/19 Q1019 A3011,MSSA,2017-05-06T14:50:00Z,13.97,-89.57,28.0,19.0,110,4,,6.21,30.088583,,,,,,,,,,,CAVOK,,,,,,,,VFR,,,,,,,,,,,,METAR,725.0
MSAC 061450Z 10002KT 9999 FEW033 30/23 Q1009 A2981,MSAC,2017-05-06T14:50:00Z,13.57,-89.83,30.0,23.0,100,2,,6.21,29.793306,,,,,,,,,,,FEW,3300,,,,,,,VFR,,,,,,,,,,,,METAR,15.0
EGYP 061450Z 34008KT 9999 FEW005 BKN008 OVC020 09/08 Q0997 GRN,EGYP,2017-05-06T14:50:00Z,-51.82,-58.45,9.0,8.0,340,8,,6.21,29.438976,,,,,,,,,,,FEW,500,BKN,800,OVC,2000,,,IFR,,,,,,,,,,,,METAR,74.0
NSTU 061450Z 31010KT 8SM -SHRA FEW007 BKN017TCU OVC040 26/26 A2987 RMK TCU ALQDS SLP115 60105 8/4// T02620258 57008,NSTU,2017-05-06T14:50:00Z,-14.33,-170.72,26.2,25.8,310,10,,8.0,29.870079,1011.5,,,,,,,,,-SHRA,FEW,700,BKN,1700,OVC,4000,,,MVFR,-0.8,,,,,,,,,,,SPECI,3.0
PTKR 061450Z 00000KT 14SM BKN016CB BKN110 OVC290 27/26 A2987 RMK CB ALQDS SLP114 60005 8/978 T02670258 58005,PTKR,2017-05-06T14:50:00Z,7.33,134.48,26.7,25.8,0,0,,14.0,29.870079,1011.4,,,,,,,,,,BKN,1600,BKN,11000,OVC,29000,,,MVFR,-0.5,,,,,,,,,,,SPECI,30.0
EGEO 061450Z 35015KT CAVOK 18/03 Q1018,EGEO,2017-05-06T14:50:00Z,56.47,-5.4,18.0,3.0,350,15,,6.21,30.059055,,,,,,,,,,,CAVOK,,,,,,,,VFR,,,,,,,,,,,,METAR,6.0
OAMS 061450Z 11005KT 8000 SCT130 BKN200 28/12 Q1012 BLU+BLU+ TEMPO WHT,OAMS,2017-05-06T14:50:00Z,36.7,67.2,28.0,12.0,110,5,,4.97,29.88189,,,,,,,,,,,SCT,13000,BKN,20000,,,,,MVFR,,,,,,,,,,,,METAR,378.0
EEEI 061450Z 04007KT 010V100 SCT048 15/03 Q1012 NOSIG,EEEI,2017-05-06T14:50:00Z,59.27,24.2,15.0,3.0,40,7,,,29.88189,,,,,,TRUE,,,,,SCT,4800,,,,,,,,,,,,,,,,,,,METAR,20.0
TJIG 061450Z 10012KT 10SM SCT030 28/22 A3001,TJIG,2017-05-06T14:50:00Z,18.45,-66.1,28.0,22.0,100,12,,10.0,30.008858,,,,,,,,,,,SCT,3000,,,,,,,VFR,,,,,,,,,,,,METAR,3.0
KHXD 061450Z 29011G20KT 10SM FEW030 17/07 A2977,KHXD,2017-05-06T14:50:00Z,32.22,-80.7,17.0,7.0,290,11,20,10.0,29.769686,,,,,,,,,,,FEW,3000,,,,,,,VFR,,,,,,,,,,,,METAR,6.0
PAPT 061450Z 00000KT 25SM SKC M01/M01 A2975 RMK NOSPECI FIRST,PAPT,2017-05-06T14:50:00Z,62.1,-152.72,-1.0,-1.0,0,0,,25.0,29.749016,,,,,,,,,,,SKC,,,,,,,,VFR,,,,,,,,,,,,SPECI,558.0
KVQQ 061450Z 28015G25KT 10SM CLR 19/05 A2988,KVQQ,2017-05-06T14:50:00Z,30.22,-81.88,19.0,5.0,280,15,25,10.0,29.878937,,,,,,,,,,,CLR,,,,,,,,VFR,,,,,,,,,,,,METAR,25.0
KOMN 061450Z 30020G25KT 10SM SKC 19/07 A2990,KOMN,2017-05-06T14:50:00Z,29.3,-81.12,19.0,7.0,300,20,25,10.0,29.899607,,,,,,,,,,,SKC,,,,,,,,VFR,,,,,,,,,,,,METAR,9.0
KNQA 061450Z 25010KT 10SM SKC 19/10 A2989,KNQA,2017-05-06T14:50:00Z,35.35,-89.87,19.0,10.0,250,10,,10.0,29.890747,,,,,,,,,,,SKC,,,,,,,,VFR,,,,,,,,,,,,METAR,86.0
LCEN 061450Z 08003KT 9999 FEW020CB SCT025 24/15 Q1012 NOSIG RMK RWY11 03004KT,LCEN,2017-05-06T14:50:00Z,35.13,33.5,24.0,15.0,80,3,,6.21,29.88189,,,,,,TRUE,,,,,FEW,2000,SCT,2500,,,,,VFR,,,,,,,,,,,,METAR,91.0
LLET 061450Z 02012KT CAVOK 34/01 Q1010,LLET,2017-05-06T14:50:00Z,29.55,34.95,34.0,1.0,20,12,,6.21,29.822834,,,,,,,,,,,CAVOK,,,,,,,,VFR,,,,,,,,,,,,METAR,13.0
LLSD 061450Z 29008KT CAVOK 22/16 Q1015,LLSD,2017-05-06T14:50:00Z,32.12,34.78,22.0,16.0,290,8,,6.21,29.970472,,,,,,,,,,,CAVOK,,,,,,,,VFR,,,,,,,,,,,,METAR,14.0
LLIB 061450Z 32008KT CAVOK 26/08 Q1013,LLIB,2017-05-06T14:50:00Z,32.98,35.57,26.0,8.0,320,8,,6.21,29.911417,,,,,,,,,,,CAVOK,,,,,,,,VFR,,,,,,,,,,,,METAR,282.0
LLHA 061450Z 30008KT 9999 FEW030 22/16 Q1014,LLHA,2017-05-06T14:50:00Z,32.78,35.02,22.0,16.0,300,8,,6.21,29.940945,,,,,,,,,,,FEW,3000,,,,,,,VFR,,,,,,,,,,,,METAR,8.0
MSSS 061450Z 33006KT CAVOK 26/21 Q1016 A3000,MSSS,2017-05-06T14:50:00Z,13.7,-89.12,26.0,21.0,330,6,,6.21,30.0,,,,,,,,,,,CAVOK,,,,,,,,VFR,,,,,,,,,,,,METAR,616.0
MSLP 061450Z 11004KT 050V200 9999 FEW015 30/24 Q1012 A2989 NOSIG,MSLP,2017-05-06T14:50:00Z,13.43,-89.05,30.0,24.0,110,4,,6.21,29.88189,,,,,,TRUE,,,,,FEW,1500,,,,,,,VFR,,,,,,,,,,,,METAR,25.0
KOCF 061450Z 30012G18KT 10SM CLR 21/05 A2993,KOCF,2017-05-06T14:50:00Z,29.17,-82.22,21.0,5.0,300,12,18,10.0,29.929134,,,,,,,,,,,CLR,,,,,,,,VFR,,,,,,,,,,,,METAR,27.0
KDAG 061450Z AUTO 29017KT 10SM CLR 18/07 A2970 RMK AO2 SLP035 T01830072 51010,KDAG,2017-05-06T14:50:00Z,34.85,-116.78,18.3,7.2,290,17,,10.0,29.698818,1003.5,,TRUE,TRUE,,,,,,,CLR,,,,,,,,VFR,1.0,,,,,,,,,,,METAR,587.0
TJBQ 061450Z 02004KT 10SM SCT024 BKN033 28/23 A3000,TJBQ,2017-05-06T14:50:00Z,18.5,-67.13,28.0,23.0,20,4,,10.0,30.0,,,,,,,,,,,SCT,2400,BKN,3300,,,,,VFR,,,,,,,,,,,,METAR,72.0
KHOB 061450Z 15011KT 10SM SKC 19/02 A3003,KHOB,2017-05-06T14:50:00Z,32.67,-103.22,19.0,2.0,150,11,,10.0,30.029528,,,,,,,,,,,SKC,,,,,,,,VFR,,,,,,,,,,,,METAR,1115.0
KGPM 061450Z 19007KT 10SM SKC 225/07 A3004,KGPM,2017-05-06T14:50:00Z,32.7,-97.05,25.0,7.0,190,7,,10.0,30.041338,,,,,,,,,,,SKC,,,,,,,,VFR,,,,,,,,,,,,METAR,180.0
EGPN 061450Z 10011KT CAVOK 12/08 Q1020,EGPN,2017-05-06T14:50:00Z,56.45,-3.02,12.0,8.0,100,11,,6.21,30.11811,,,,,,,,,,,CAVOK,,,,,,,,VFR,,,,,,,,,,,,METAR,4.0
EGPU 061450Z 36015KT CAVOK 13/08 Q1020,EGPU,2017-05-06T14:50:00Z,56.5,-6.87,13.0,8.0,360,15,,6.21,30.11811,,,,,,,,,,,CAVOK,,,,,,,,VFR,,,,,,,,,,,,METAR,12.0
BGKK 061450Z 24010KT 2000 VCFG BKN004 04/03 Q1038,BGKK,2017-05-06T14:50:00Z,65.57,-37.13,4.0,3.0,240,10,,1.24,30.649607,,,,,,,,,,VCFG,BKN,400,,,,,,,LIFR,,,,,,,,,,,,METAR,34.0
BGJN 061450Z 00000KT 9999 BKN200 08/M01 Q1034,BGJN,2017-05-06T14:50:00Z,69.25,-51.07,8.0,-1.0,0,0,,6.21,30.531496,,,,,,,,,,,BKN,20000,,,,,,,VFR,,,,,,,,,,,,METAR,25.0
BGGH 061450Z 35003KT 9999 BKN025 BKN140 05/02 Q1038,BGGH,2017-05-06T14:50:00Z,64.2,-51.68,5.0,2.0,350,3,,6.21,30.649607,,,,,,,,,,,BKN,2500,BKN,14000,,,,,MVFR,,,,,,,,,,,,METAR,70.0
BGBW 061450Z 22009KT 9999 FEW140 14/M02 Q1035,BGBW,2017-05-06T14:50:00Z,61.17,-45.42,14.0,-2.0,220,9,,6.21,30.561024,,,,,,,,,,,FEW,14000,,,,,,,VFR,,,,,,,,,,,,METAR,26.0
BGSF 061450Z AUTO 26016KT 9999NDV NCD 08/03 Q1035,BGSF,2017-05-06T14:50:00Z,67.0,-50.72,8.0,3.0,260,16,,,30.561024,,,TRUE,,,,,,,,CLR,,,,,,,,,,,,,,,,,,,,SPECI,53.0
EKOD 061450Z 09005KT 040V140 9999 FEW045 SCT220 15/05 Q1015,EKOD,2017-05-06T14:50:00Z,55.47,10.32,15.0,5.0,90,5,,6.21,29.970472,,,,,,,,,,,FEW,4500,SCT,22000,,,,,VFR,,,,,,,,,,,,METAR,17.0
KTZR 061450Z 31011G16KT 10SM BKN028 BKN036 OVC048 11/06 A2965,KTZR,2017-05-06T14:50:00Z,39.9,-83.13,11.0,6.0,310,11,16,10.0,29.648623,,,,,,,,,,,BKN,2800,BKN,3600,OVC,4800,,,MVFR,,,,,,,,,,,,METAR,276.0
FHAW 061450Z 12015KT 9999 FEW026 29/21 Q1012 BLU,FHAW,2017-05-06T14:50:00Z,-7.97,-14.4,29.0,21.0,120,15,,6.21,29.88189,,,,,,,,,,,FEW,2600,,,,,,,VFR,,,,,,,,,,,,METAR,79.0
LSMS 061450Z 28007KT 7000 RA FEW020 SCT030 OVC070 12/11 Q1012 RMK WHT,LSMS,2017-05-06T14:50:00Z,46.22,7.32,12.0,11.0,280,7,,4.35,29.88189,,,,,,,,,,RA,FEW,2000,SCT,3000,OVC,7000,,,MVFR,,,,,,,,,,,,METAR,481.0
LSMP 061450Z 21008KT 9999 -RA FEW045 OVC053 12/10 Q1012 RMK BLU,LSMP,2017-05-06T14:50:00Z,46.82,6.92,12.0,10.0,210,8,,6.21,29.88189,,,,,,,,,,-RA,FEW,4500,OVC,5300,,,,,VFR,,,,,,,,,,,,METAR,491.0
LSMM 061450Z AUTO 30011KT 250V340 8000NDV RA FEW012 BKN037 OVC055 12/10 Q1010 RMK,LSMM,2017-05-06T14:50:00Z,46.75,8.12,12.0,10.0,300,11,,,29.822834,,,TRUE,,,,,,,RA,FEW,1200,BKN,3700,OVC,5500,,,,,,,,,,,,,,,METAR,577.0
LXGB 061450Z 20009KT 9999 FEW030 SCT250 24/06 Q1018 NOSIG,LXGB,2017-05-06T14:50:00Z,36.13,-5.33,24.0,6.0,200,9,,6.21,30.059055,,,,,,TRUE,,,,,FEW,3000,SCT,25000,,,,,VFR,,,,,,,,,,,,METAR,5.0
EGJA 061450Z 09007KT 4000 -RA BR FEW006 10/10 Q1012,EGJA,2017-05-06T14:50:00Z,49.72,-2.2,10.0,10.0,90,7,,2.49,29.88189,,,,,,,,,,-RA BR,FEW,600,,,,,,,IFR,,,,,,,,,,,,METAR,71.0
LOXZ 061450Z 19008KT 50KM FEW055CU SCT070SC BKN250CI 18/04 Q1009,LOXZ,2017-05-06T14:50:00Z,47.2,14.75,18.0,4.0,190,8,,31.07,29.793306,,,,,,,,,,,FEW,5500,,,,,,,VFR,,,,,,,,,,,,METAR,682.0
LSZL 061450Z AUTO 23003KT 200V260 9999NDV -SHRA FEW026 SCT033 BKN054 12/10 Q1013 RMK,LSZL,2017-05-06T14:50:00Z,46.17,8.88,12.0,10.0,230,3,,,29.911417,,,TRUE,,,,,,,-SHRA,FEW,2600,SCT,3300,BKN,5400,,,,,,,,,,,,,,,METAR,600.0
KJQF 061450Z 30012G20KT 10SM SCT044 16/03 A2966,KJQF,2017-05-06T14:50:00Z,35.38,-80.72,16.0,3.0,300,12,20,10.0,29.660433,,,,,,,,,,,SCT,4400,,,,,,,VFR,,,,,,,,,,,,METAR,210.0
MMTG 061450Z 30003KT 6SM BKN300 22/12 A3007 RMK SLP156 52015 916 8/008 FU HZ ARND,MMTG,2017-05-06T14:50:00Z,16.57,-93.03,22.0,12.0,300,3,,6.0,30.070866,1015.6,,,,,,,,,,BKN,30000,,,,,,,VFR,1.5,,,,,,,,,,,METAR,528.0
MMCT 061450Z 00000KT 8SM FEW030 SCT200 26/15 A3005 RMK 8/108 MSGTX MMMD,MMCT,2017-05-06T14:50:00Z,20.63,-88.45,26.0,15.0,0,0,,8.0,30.050198,,,,,,,,,,,FEW,3000,SCT,20000,,,,,VFR,,,,,,,,,,,,METAR,28.0
KEFD 061450Z 19003KT 10SM CLR 23/09 A3005,KEFD,2017-05-06T14:50:00Z,29.6,-95.17,23.0,9.0,190,3,,10.0,30.050198,,,,,,,,,,,CLR,,,,,,,,VFR,,,,,,,,,,,,METAR,10.0
EGYD 061450Z 04012KT 9999 SCT014 OVC018 10/07 Q1015 GRN NOSIG,EGYD,2017-05-06T14:50:00Z,53.03,-0.5,10.0,7.0,40,12,,6.21,29.970472,,,,,,TRUE,,,,,SCT,1400,OVC,1800,,,,,MVFR,,,,,,,,,,,,METAR,67.0
EGXW 061450Z 05013KT 9999 FEW012 OVC018 10/07 Q1015 WHT,EGXW,2017-05-06T14:50:00Z,53.18,-0.52,10.0,7.0,50,13,,6.21,29.970472,,,,,,,,,,,FEW,1200,OVC,1800,,,,,MVFR,,,,,,,,,,,,METAR,70.0
EGXV 061450Z AUTO 06009KT 9999 OVC014/// 11/08 Q1016,EGXV,2017-05-06T14:50:00Z,53.87,-0.45,11.0,8.0,60,9,,6.21,30.0,,,TRUE,,,,,,,,OVC,1400,,,,,,,MVFR,,,,,,,,,,,,METAR,6.0
EGXT 061450Z 04013KT 9999 BKN011 BKN018 10/08 Q1014 GRN,EGXT,2017-05-06T14:50:00Z,52.62,-0.47,10.0,8.0,40,13,,6.21,29.940945,,,,,,,,,,,BKN,1100,BKN,1800,,,,,MVFR,,,,,,,,,,,,METAR,84.0
EGXC 061450Z 06011KT 9999 SCT014 OVC020 10/06 Q1015 GRN,EGXC,2017-05-06T14:50:00Z,53.1,-0.17,10.0,6.0,60,11,,6.21,29.970472,,,,,,,,,,,SCT,1400,OVC,2000,,,,,MVFR,,,,,,,,,,,,METAR,7.0
EGVN 061450Z 04013KT 9999 FEW025 BKN030 13/06 Q1013 BLU NOSIG,EGVN,2017-05-06T14:50:00Z,51.77,-1.58,13.0,6.0,40,13,,6.21,29.911417,,,,,,TRUE,,,,,FEW,2500,BKN,3000,,,,,MVFR,,,,,,,,,,,,METAR,88.0
EGUB 061450Z 02012KT 9999 FEW023 BKN029 14/07 Q1013 BLU NOSIG,EGUB,2017-05-06T14:50:00Z,51.62,-1.07,14.0,7.0,20,12,,6.21,29.911417,,,,,,TRUE,,,,,FEW,2300,BKN,2900,,,,,MVFR,,,,,,,,,,,,METAR,63.0
EGQM 061450Z AUTO 36011KT 9999 BKN007/// OVC050/// 10/08 Q1019,EGQM,2017-05-06T14:50:00Z,55.42,-1.6,10.0,8.0,360,11,,6.21,30.088583,,,TRUE,,,,,,,,BKN,700,OVC,5000,,,,,IFR,,,,,,,,,,,,METAR,23.0
EGQL 061450Z 10014KT 9999 SCT010 SCT070 10/07 Q1020 GRN,EGQL,2017-05-06T14:50:00Z,56.38,-2.87,10.0,7.0,100,14,,6.21,30.11811,,,,,,,,,,,SCT,1000,SCT,7000,,,,,VFR,,,,,,,,,,,,METAR,12.0
EGOS 061450Z 07006KT 9999 FEW022 BKN025 OVC035 11/06 Q1015 BLU NOSIG,EGOS,2017-05-06T14:50:00Z,52.8,-2.67,11.0,6.0,70,6,,6.21,29.970472,,,,,,TRUE,,,,,FEW,2200,BKN,2500,OVC,3500,,,MVFR,,,,,,,,,,,,METAR,76.0
EGDY 061450Z 03014KT 9999 BKN040 16/09 Q1012 BLU NOSIG,EGDY,2017-05-06T14:50:00Z,51.0,-2.62,16.0,9.0,30,14,,6.21,29.88189,,,,,,TRUE,,,,,BKN,4000,,,,,,,VFR,,,,,,,,,,,,METAR,23.0
EGDM 061450Z 04010KT 9999 BKN028 15/08 Q1012 BLU,EGDM,2017-05-06T14:50:00Z,51.17,-1.75,15.0,8.0,40,10,,6.21,29.88189,,,,,,,,,,,BKN,2800,,,,,,,MVFR,,,,,,,,,,,,METAR,124.0
LSMD 061450Z AUTO 30012KT 9999NDV -RA FEW015 SCT049 OVC066 12/10 Q1010 RMK,LSMD,2017-05-06T14:50:00Z,47.4,8.65,12.0,10.0,300,12,,,29.822834,,,TRUE,,,,,,,-RA,FEW,1500,SCT,4900,OVC,6600,,,,,,,,,,,,,,,METAR,448.0
LSMA 061450Z AUTO VRB02KT 9999NDV SHRA OVC042 13/10 Q1010 RMK,LSMA,2017-05-06T14:50:00Z,46.95,8.28,13.0,10.0,0,2,,,29.822834,,,TRUE,,,,,,,SHRA,OVC,4200,,,,,,,,,,,,,,,,,,,METAR,444.0
MMTM 061450Z 19012KT 10SM SCT020 26/18 A3004 RMK SLP170 52009 971 8/100,MMTM,2017-05-06T14:50:00Z,22.27,-97.87,26.0,18.0,190,12,,10.0,30.041338,1017.0,,,,,,,,,,SCT,2000,,,,,,,VFR,0.9,,,,,,,,,,,METAR,24.0
MMLM 061450Z 11010KT 10SM FEW250 24/18 A2986 RMK SLP112 8/004 HZY,MMLM,2017-05-06T14:50:00Z,25.67,-109.07,24.0,18.0,110,10,,10.0,29.861221,1011.2,,,,,,,,,,FEW,25000,,,,,,,VFR,,,,,,,,,,,,METAR,4.0
MMHO 061450Z 20008KT 10SM SKC 26/15 A2984 RMK SLP099 52015 960 ISOL AC HZY,MMHO,2017-05-06T14:50:00Z,29.08,-111.05,26.0,15.0,200,8,,10.0,29.840551,1009.9,,,,,,,,,,SKC,,,,,,,,VFR,1.5,,,,,,,,,,,METAR,184.0
MMEP 061450Z 00000KT 12SM SKC 19/16 A3003 RMK SLP171 52011 910,MMEP,2017-05-06T14:50:00Z,21.42,-104.85,19.0,16.0,0,0,,12.0,30.029528,1017.1,,,,,,,,,,SKC,,,,,,,,VFR,1.1,,,,,,,,,,,METAR,922.0
KFIN 061450Z 29017G25KT 10SM CLR 19/06 A2989,KFIN,2017-05-06T14:50:00Z,29.47,-81.2,19.0,6.0,290,17,25,10.0,29.890747,,,,,,,,,,,CLR,,,,,,,,VFR,,,,,,,,,,,,METAR,10.0
LTFG 061450Z 18005KT 110V220 9999 BKN030 22/17 Q1012,LTFG,2017-05-06T14:50:00Z,36.3,32.3,22.0,17.0,180,5,,6.21,29.88189,,,,,,,,,,,BKN,3000,,,,,,,MVFR,,,,,,,,,,,,METAR,95.0
LTFD 061450Z 25012KT 9999 SCT035 SCT100 21/11 Q1010,LTFD,2017-05-06T14:50:00Z,39.55,27.02,21.0,11.0,250,12,,6.21,29.822834,,,,,,,,,,,SCT,3500,SCT,10000,,,,,VFR,,,,,,,,,,,,METAR,16.0
LTCN 061450Z 29018KT 9999 FEW025CB BKN030 21/12 Q1011 TEMPO -TSRA,LTCN,2017-05-06T14:50:00Z,37.53,36.95,21.0,12.0,290,18,,6.21,29.852362,,,,,,,,,,,FEW,2500,BKN,3000,,,,,MVFR,,,,,,,,,,,,METAR,526.0
LTCB 061450Z 07007KT 7000 SCT006 SCT035 BKN090 14/13 Q1009,LTCB,2017-05-06T14:50:00Z,39.72,43.03,14.0,13.0,70,7,,4.35,29.793306,,,,,,,,,,,SCT,600,SCT,3500,BKN,9000,,,MVFR,,,,,,,,,,,,METAR,1632.0
LTBH 061450Z 35007KT 300V050 9999 SCT035 BKN100 20/08 Q1012,LTBH,2017-05-06T14:50:00Z,40.13,26.42,20.0,8.0,350,7,,6.21,29.88189,,,,,,,,,,,SCT,3500,BKN,10000,,,,,VFR,,,,,,,,,,,,METAR,3.0
KGTU 061449Z 21008KT 10SM SKC 18/07 A3004,KGTU,2017-05-06T14:49:00Z,30.68,-97.68,18.0,7.0,210,8,,10.0,30.041338,,,,,,,,,,,SKC,,,,,,,,VFR,,,,,,,,,,,,METAR,240.0
LSME 061449Z AUTO 26005KT 230V290 7000NDV SHRA SCT026 BKN030 BKN034 13/11 Q1011 RMK,LSME,2017-05-06T14:49:00Z,47.1,8.3,13.0,11.0,260,5,,,29.852362,,,TRUE,,,,,,,SHRA,SCT,2600,BKN,3000,BKN,3400,,,,,,,,,,,,,,,METAR,427.0
MMTO 061449Z 00000KT 2SM HZ FEW100 14/09 A3042 RMK SLP140 52015 910 8/030 CI,MMTO,2017-05-06T14:49:00Z,19.35,-99.57,14.0,9.0,0,0,,2.0,30.41929,1014.0,,,,,,,,,HZ,FEW,10000,,,,,,,IFR,1.5,,,,,,,,,,,METAR,2576.0
MMIA 061449Z 00000KT 8SM SKC 27/11 A3004 RMK SLP/// 5//// 9// 6////,MMIA,2017-05-06T14:49:00Z,19.27,-103.57,27.0,11.0,0,0,,8.0,30.041338,,,,,,,,,,,SKC,,,,,,,,VFR,,,,,,,,,,,,METAR,723.0
KAEG 061448Z VRB03KT 10SM SCT130 BKN200 19/M01 A3008,KAEG,2017-05-06T14:48:00Z,35.13,-106.8,19.0,-1.0,0,3,,10.0,30.079725,,,,,,,,,,,SCT,13000,BKN,20000,,,,,VFR,,,,,,,,,,,,METAR,1779.0
KJDN 061448Z AUTO 18005KT 20/09 A2970 RMK AO1 SLP044 T02000089 58002,KJDN,2017-05-06T14:48:00Z,47.33,-106.95,20.0,8.9,180,5,,,29.698818,1004.4,,TRUE,TRUE,,,,,,,,,,,,,,,,-0.2,,,,,,,,,,,METAR,801.0
KWDG 061448Z 22006KT 10SM SKC 20/11 A2998,KWDG,2017-05-06T14:48:00Z,36.37,-97.77,20.0,11.0,220,6,,10.0,29.97933,,,,,,,,,,,SKC,,,,,,,,VFR,,,,,,,,,,,,METAR,356.0
KASG 061448Z 26012KT 10SM SKC 18/07 A3001,KASG,2017-05-06T14:48:00Z,36.17,-94.12,18.0,7.0,260,12,,10.0,30.008858,,,,,,,,,,,SKC,,,,,,,,VFR,,,,,,,,,,,,METAR,412.0
KALN 061448Z 34015G23KT 10SM SKC 17/08 A2976,KALN,2017-05-06T14:48:00Z,38.88,-90.03,17.0,8.0,340,15,23,10.0,29.760826,,,,,,,,,,,SKC,,,,,,,,VFR,,,,,,,,,,,,METAR,166.0
ETNL 061448Z 03008KT 9999 FEW022 BKN025 13/09 Q1015 BLU,ETNL,2017-05-06T14:48:00Z,53.92,12.27,13.0,9.0,30,8,,6.21,29.970472,,,,,,,,,,,FEW,2200,BKN,2500,,,,,MVFR,,,,,,,,,,,,SPECI,40.0
MMMD 061448Z 00000KT 7SM BKN018 27/14 A3004 RMK SLP173 52009 930 8/500 HZY CI,MMMD,2017-05-06T14:48:00Z,20.95,-89.65,27.0,14.0,0,0,,7.0,30.041338,1017.3,,,,,,,,,,BKN,1800,,,,,,,MVFR,0.9,,,,,,,,,,,METAR,10.0
MMCB 061448Z 00000KT 10SM FEW200 25/11 A3015 RMK 8/001,MMCB,2017-05-06T14:48:00Z,18.83,-99.27,25.0,11.0,0,0,,10.0,30.15059,,,,,,,,,,,FEW,20000,,,,,,,VFR,,,,,,,,,,,,METAR,1560.0
KSEE 061447Z 17006KT 7SM FEW019 OVC035 15/11 A2985,KSEE,2017-05-06T14:47:00Z,32.82,-116.97,15.0,11.0,170,6,,7.0,29.84941,,,,,,,,,,,FEW,1900,OVC,3500,,,,,VFR,,,,,,,,,,,,METAR,117.0
KPOC 061447Z 00000KT 10SM OVC019 14/10 A2985,KPOC,2017-05-06T14:47:00Z,34.1,-117.77,14.0,10.0,0,0,,10.0,29.84941,,,,,,,,,,,OVC,1900,,,,,,,MVFR,,,,,,,,,,,,METAR,308.0
KLBE 061447Z 27014KT 3SM -RA BR BKN009 OVC019 06/06 A2948,KLBE,2017-05-06T14:47:00Z,40.27,-79.4,6.0,6.0,270,14,,3.0,29.480314,,,,,,,,,,-RA BR,BKN,900,OVC,1900,,,,,IFR,,,,,,,,,,,,METAR,361.0
KSQL 061447Z 30014G22KT 10SM FEW021 FEW040 SCT200 11/05 A2984,KSQL,2017-05-06T14:47:00Z,37.52,-122.25,11.0,5.0,300,14,22,10.0,29.840551,,,,,,,,,,,FEW,2100,FEW,4000,SCT,20000,,,VFR,,,,,,,,,,,,METAR,1.0
KRYY 061447Z 29015G20KT 10SM SKC 13/04 A2987,KRYY,2017-05-06T14:47:00Z,34.02,-84.6,13.0,4.0,290,15,20,10.0,29.870079,,,,,,,,,,,SKC,,,,,,,,VFR,,,,,,,,,,,,METAR,317.0
KCQT 061447Z AUTO VRB03KT 9SM OVC026 17/12 A2982 RMK AO2 SLP096 T01670117 53006,KCQT,2017-05-06T14:47:00Z,34.02,-118.28,16.7,11.7,0,3,,9.0,29.819881,1009.6,,TRUE,TRUE,,,,,,,OVC,2600,,,,,,,MVFR,0.6,,,,,,,,,,,SPECI,56.0
KGYR 061447Z 00000KT 10SM FEW150 FEW200 26/04 A2973,KGYR,2017-05-06T14:47:00Z,33.42,-112.37,26.0,4.0,0,0,,10.0,29.731298,,,,,,,,,,,FEW,15000,FEW,20000,,,,,VFR,,,,,,,,,,,,METAR,295.0
KFWS 061447Z 22010G15KT 10SM SKC 23/08 A3004,KFWS,2017-05-06T14:47:00Z,32.57,-97.3,23.0,8.0,220,10,15,10.0,30.041338,,,,,,,,,,,SKC,,,,,,,,VFR,,,,,,,,,,,,METAR,208.0
KIWA 061447Z 12006KT 45SM FEW150 26/01 A2976,KIWA,2017-05-06T14:47:00Z,33.3,-111.65,26.0,1.0,120,6,,45.0,29.760826,,,,,,,,,,,FEW,15000,,,,,,,VFR,,,,,,,,,,,,METAR,412.0
KGEU 061447Z 00000KT 10SM FEW180 FEW250 28/02 A2975,KGEU,2017-05-06T14:47:00Z,33.53,-112.3,28.0,2.0,0,0,,10.0,29.749016,,,,,,,,,,,FEW,18000,FEW,25000,,,,,VFR,,,,,,,,,,,,METAR,325.0
KEVB 061447Z 29012G20KT 10SM SKC 20/06 A2990,KEVB,2017-05-06T14:47:00Z,29.05,-80.95,20.0,6.0,290,12,20,10.0,29.899607,,,,,,,,,,,SKC,,,,,,,,VFR,,,,,,,,,,,,METAR,3.0
KSUA 061447Z 31015G25KT 7SM SKC 25/06 A2996,KSUA,2017-05-06T14:47:00Z,27.18,-80.22,25.0,6.0,310,15,25,7.0,29.958662,,,,,,,,,,,SKC,,,,,,,,VFR,,,,,,,,,,,,METAR,6.0
KGYH 061447Z 27006KT 10SM CLR 16/03 A2972,KGYH,2017-05-06T14:47:00Z,34.75,-82.38,16.0,3.0,270,6,,10.0,29.719488,,,,,,,,,,,CLR,,,,,,,,VFR,,,,,,,,,,,,METAR,292.0
KFDK 061447Z 23012G18KT 10SM -RA BKN016 BKN034 OVC042 13/12 A2942,KFDK,2017-05-06T14:47:00Z,39.42,-77.37,13.0,12.0,230,12,18,10.0,29.421259,,,,,,,,,,-RA,BKN,1600,BKN,3400,OVC,4200,,,MVFR,,,,,,,,,,,,METAR,92.0
KBJC 061447Z 00000KT 70SM SKC 18/01 A3000,KBJC,2017-05-06T14:47:00Z,39.9,-105.1,18.0,1.0,0,0,,70.0,30.0,,,,,,,,,,,SKC,,,,,,,,VFR,,,,,,,,,,,,METAR,1724.0
KBVI 061447Z 30006KT 10SM -RA OVC012 06/05 A2949,KBVI,2017-05-06T14:47:00Z,40.77,-80.4,6.0,5.0,300,6,,10.0,29.489174,,,,,,,,,,-RA,OVC,1200,,,,,,,MVFR,,,,,,,,,,,,METAR,382.0
KSBD 061447Z 25004KT 4SM HZ BKN028 OVC044 15/13 A2983,KSBD,2017-05-06T14:47:00Z,34.08,-117.25,15.0,13.0,250,4,,4.0,29.828741,,,,,,,,,,HZ,BKN,2800,OVC,4400,,,,,MVFR,,,,,,,,,,,,METAR,353.0
KCHD 061447Z 16007KT 10SM CLR 27/01 A2975,KCHD,2017-05-06T14:47:00Z,33.27,-111.82,27.0,1.0,160,7,,10.0,29.749016,,,,,,,,,,,CLR,,,,,,,,VFR,,,,,,,,,,,,METAR,379.0
MMUN 061447Z 31008KT 7SM FEW012 SCT300 26/15 A3002 RMK SLP168 52014 938 8/108,MMUN,2017-05-06T14:47:00Z,21.02,-86.85,26.0,15.0,310,8,,7.0,30.02067,1016.8,,,,,,,,,,FEW,1200,SCT,30000,,,,,VFR,1.4,,,,,,,,,,,METAR,10.0
MMTP 061447Z 00000KT 10SM SCT100 27/24 A2990 RMK SLP150 52016 911 8/030 HZY,MMTP,2017-05-06T14:47:00Z,14.77,-92.37,27.0,24.0,0,0,,10.0,29.899607,1015.0,,,,,,,,,,SCT,10000,,,,,,,VFR,1.6,,,,,,,,,,,METAR,29.0
MMCM 061447Z 35005KT 7SM BKN100 23/19 A3003 RMK SLP171 5//// 941 8/020,MMCM,2017-05-06T14:47:00Z,18.5,-88.33,23.0,19.0,350,5,,7.0,30.029528,1017.1,,,,,,,,,,BKN,10000,,,,,,,VFR,,,,,,,,,,,,METAR,12.0
MMSD 061447Z 30006KT 12SM SCT280 25/10 A2987 RMK SLP104 52020 900 8/008,MMSD,2017-05-06T14:47:00Z,23.13,-109.7,25.0,10.0,300,6,,12.0,29.870079,1010.4,,,,,,,,,,SCT,28000,,,,,,,VFR,2.0,,,,,,,,,,,METAR,109.0
KSCH 061446Z AUTO 01004KT 10SM OVC027 14/14 A2937,KSCH,2017-05-06T14:46:00Z,42.85,-73.92,14.0,14.0,10,4,,10.0,29.371063,,,TRUE,,,,,,,,OVC,2700,,,,,,,MVFR,,,,,,,,,,,,METAR,115.0
KBBG 061446Z 27007KT 10SM SKC 19/08 A2996,KBBG,2017-05-06T14:46:00Z,36.53,-93.2,19.0,8.0,270,7,,10.0,29.958662,,,,,,,,,,,SKC,,,,,,,,VFR,,,,,,,,,,,,METAR,397.0
BIIS 061446Z 04005KT 9999 FEW003 BKN008 BKN010 BKN015 05/04 Q1037,BIIS,2017-05-06T14:46:00Z,66.05,-23.13,5.0,4.0,40,5,,6.21,30.620079,,,,,,,,,,,FEW,300,BKN,800,BKN,1000,BKN,1500,IFR,,,,,,,,,,,,METAR,3.0
MMVR 061446Z 15005KT 7SM SCT015 26/18 A3004 RMK SLP157 52012 957 8/100 HZY,MMVR,2017-05-06T14:46:00Z,19.15,-96.18,26.0,18.0,150,5,,7.0,30.041338,1015.7,,,,,,,,,,SCT,1500,,,,,,,VFR,1.2,,,,,,,,,,,METAR,16.0
MMMX 061446Z 10004KT 5SM FEW100 16/08 A3035 NOSIG RMK SLP128 52017 975 8/030 HZY,MMMX,2017-05-06T14:46:00Z,19.42,-99.08,16.0,8.0,100,4,,5.0,30.351377,1012.8,,,,,TRUE,,,,,FEW,10000,,,,,,,MVFR,1.7,,,,,,,,,,,METAR,2238.0
MMAA 061446Z 36004KT 6SM OVC300 28/22 A2991 RMK SLP126 52015 910 8/007 HZY,MMAA,2017-05-06T14:46:00Z,16.75,-99.75,28.0,22.0,360,4,,6.0,29.911417,1012.6,,,,,,,,,,OVC,30000,,,,,,,VFR,1.5,,,,,,,,,,,METAR,5.0
MMLT 061446Z 00000KT 8SM SCT200 24/15 A2980 RMK SLP091 8/005,MMLT,2017-05-06T14:46:00Z,26.02,-111.33,24.0,15.0,0,0,,8.0,29.799213,1009.1,,,,,,,,,,SCT,20000,,,,,,,VFR,,,,,,,,,,,,METAR,15.0
MMSP 061446Z 12003KT 8SM SKC 16/06 A3024 RMK SLP110 53001 967 HZY FU,MMSP,2017-05-06T14:46:00Z,22.25,-100.93,16.0,6.0,120,3,,8.0,30.239174,1011.0,,,,,,,,,,SKC,,,,,,,,VFR,0.1,,,,,,,,,,,METAR,1903.0
KLZU 061445Z 28012G17KT 10SM FEW040 13/06 A2983 RMK ATIS E RWY 25 LL,KLZU,2017-05-06T14:45:00Z,33.98,-83.97,13.0,6.0,280,12,17,10.0,29.828741,,,,,,,,,,,FEW,4000,,,,,,,VFR,,,,,,,,,,,,SPECI,323.0
KCWA 061445Z 35010G16KT 10SM SCT040 10/02 A2993,KCWA,2017-05-06T14:45:00Z,44.78,-89.67,10.0,2.0,350,10,16,10.0,29.929134,,,,,,,,,,,SCT,4000,,,,,,,VFR,,,,,,,,,,,,METAR,389.0
KMER 061445Z 00000KT 10SM FEW060 BKN100 11/MM A2982,KMER,2017-05-06T14:45:00Z,37.38,-120.57,11.0,,0,0,,10.0,29.819881,,,,,,,,,,,FEW,6000,BKN,10000,,,,,VFR,,,,,,,,,,,,METAR,57.0
KMMU 061445Z 23011G18KT 10SM BKN031 BKN044 OVC060 17/11 A2939,KMMU,2017-05-06T14:45:00Z,40.78,-74.42,17.0,11.0,230,11,18,10.0,29.388779,,,,,,,,,,,BKN,3100,BKN,4400,OVC,6000,,,VFR,,,,,,,,,,,,METAR,57.0
KUES 061445Z 36014G19KT 10SM SKC 11/01 A2985,KUES,2017-05-06T14:45:00Z,43.05,-88.25,11.0,1.0,360,14,19,10.0,29.84941,,,,,,,,,,,SKC,,,,,,,,VFR,,,,,,,,,,,,METAR,278.0
KSAW 061445Z 02015G23KT 10SM SKC 06/M04 A2991,KSAW,2017-05-06T14:45:00Z,46.35,-87.4,6.0,-4.0,20,15,23,10.0,29.911417,,,,,,,,,,,SKC,,,,,,,,VFR,,,,,,,,,,,,METAR,372.0
KMHR 061445Z 14008KT 10SM ` BKN150 10/07 A2978,KMHR,2017-05-06T14:45:00Z,38.53,-121.28,10.0,7.0,140,8,,10.0,29.778543,,,,,,,,,,,BKN,15000,,,,,,,VFR,,,,,,,,,,,,SPECI,29.0
KESN 061445Z 23010G15KT 10SM BKN025 OVC035 16/10 A2944,KESN,2017-05-06T14:45:00Z,38.8,-76.07,16.0,10.0,230,10,15,10.0,29.438976,,,,,,,,,,,BKN,2500,OVC,3500,,,,,MVFR,,,,,,,,,,,,METAR,22.0
KGYY 061445Z 34015G28KT ` 15SM FEW025 09/02 A2982,KGYY,2017-05-06T14:45:00Z,41.62,-87.42,9.0,2.0,340,15,28,15.0,29.819881,,,,,,,,,,,FEW,2500,,,,,,,VFR,,,,,,,,,,,,METAR,180.0
KMWA 061445Z 26010KT 20SM BKN100 17/09 A2973,KMWA,2017-05-06T14:45:00Z,37.77,-89.02,17.0,9.0,260,10,,20.0,29.731298,,,,,,,,,,,BKN,10000,,,,,,,VFR,,,,,,,,,,,,METAR,144.0
KCGF 061445Z 34010G18KT 7SM -RA BKN007 OVC012 07/06 A2954,KCGF,2017-05-06T14:45:00Z,41.57,-81.47,7.0,6.0,340,10,18,7.0,29.53937,,,,,,,,,,-RA,BKN,700,OVC,1200,,,,,IFR,,,,,,,,,,,,METAR,268.0
KMWC 061445Z 35010G18KT 10SM FEW040 11/00 A2985,KMWC,2017-05-06T14:45:00Z,43.12,-88.03,11.0,0.0,350,10,18,10.0,29.84941,,,,,,,,,,,FEW,4000,,,,,,,VFR,,,,,,,,,,,,METAR,227.0
KHYI 061445Z 21009KT 10SM SKC 22/12 A3005,KHYI,2017-05-06T14:45:00Z,29.88,-97.87,22.0,12.0,210,9,,10.0,30.050198,,,,,,,,,,,SKC,,,,,,,,VFR,,,,,,,,,,,,METAR,182.0
PAKU 061445Z 08009KT 3SM R06/P6000FT BR OVC004 M07/M09 A3003,PAKU,2017-05-06T14:45:00Z,70.32,-149.58,-7.0,-9.0,80,9,,3.0,30.029528,,,,,,,,,,BR,OVC,400,,,,,,,LIFR,,,,,,,,,,,,METAR,2.0
KRYN 061445Z 14015G21KT 10SM CLR 28/02 A2984,KRYN,2017-05-06T14:45:00Z,32.15,-111.17,28.0,2.0,140,15,21,10.0,29.840551,,,,,,,,,,,CLR,,,,,,,,VFR,,,,,,,,,,,,METAR,737.0
KSWF 061445Z 18018G27KT 7SM FEW010 BKN030 167/13 A2940,KSWF,2017-05-06T14:45:00Z,41.5,-74.08,0.0,13.0,180,18,27,7.0,29.40059,,,,,,,,,,,FEW,1000,BKN,3000,,,,,MVFR,,,,,,,,,,,,METAR,150.0
KJVL 061445Z 02012G17KT 10SM SCT020 12/03 A2986,KJVL,2017-05-06T14:45:00Z,42.62,-89.05,12.0,3.0,20,12,17,10.0,29.861221,,,,,,,,,,,SCT,2000,,,,,,,VFR,,,,,,,,,,,,METAR,246.0
MMMT 061445Z 00000KT 8SM SCT020 26/20 A3003 RMK SLP245 52007 907 8/100,MMMT,2017-05-06T14:45:00Z,18.1,-94.57,26.0,20.0,0,0,,8.0,30.029528,1024.5,,,,,,,,,,SCT,2000,,,,,,,VFR,0.7,,,,,,,,,,,METAR,40.0
MMZH 061445Z 21002KT 5SM SKC 26/22 A2992 RMK SLP122 52019 915 HZY,MMZH,2017-05-06T14:45:00Z,17.6,-101.47,26.0,22.0,210,2,,5.0,29.920275,1012.2,,,,,,,,,,SKC,,,,,,,,MVFR,1.9,,,,,,,,,,,METAR,6.0
MMQT 061445Z 00000KT 6SM SCT020 SCT120 19/08 A3032 RMK 8/530 HZY,MMQT,2017-05-06T14:45:00Z,20.62,-100.18,19.0,8.0,0,0,,6.0,30.318897,,,,,,,,,,,SCT,2000,SCT,12000,,,,,VFR,,,,,,,,,,,,METAR,1919.0
MMOX 061445Z 00000KT 10SM BKN200 18/10 A3025 RMK SLP124 52002 956 8/002 HZY ISOL AC,MMOX,2017-05-06T14:45:00Z,17.0,-96.72,18.0,10.0,0,0,,10.0,30.250984,1012.4,,,,,,,,,,BKN,20000,,,,,,,VFR,0.2,,,,,,,,,,,METAR,1528.0
MMSL 061445Z 29010KT 9SM SCT220 19/12 A2993 RMK 8/008,MMSL,2017-05-06T14:45:00Z,22.95,-109.93,19.0,12.0,290,10,,9.0,29.929134,,,,,,,,,,,SCT,22000,,,,,,,VFR,,,,,,,,,,,,METAR,140.0
MMZC 061445Z 20010KT 10SM SKC 20/04 A3028,MMZC,2017-05-06T14:45:00Z,22.9,-102.68,20.0,4.0,200,10,,10.0,30.280512,,,,,,,,,,,SKC,,,,,,,,VFR,,,,,,,,,,,,METAR,2177.0
LHUD 061445Z 16005KT 9999 FEW026 BKN083 19/12 Q1013,LHUD,2017-05-06T14:45:00Z,46.25,20.1,19.0,12.0,160,5,,6.21,29.911417,,,,,,,,,,,FEW,2600,BKN,8300,,,,,VFR,,,,,,,,,,,,METAR,84.0
LHSM 061445Z 18012KT 9999 FEW043 SCT200 21/10 Q1012 NOSIG,LHSM,2017-05-06T14:45:00Z,46.68,17.17,21.0,10.0,180,12,,6.21,29.88189,,,,,,TRUE,,,,,FEW,4300,SCT,20000,,,,,VFR,,,,,,,,,,,,METAR,125.0
LHPR 061445Z 17004KT 110V240 9999 BKN036 SCT040TCU 21/12 Q1011 RMK BLU,LHPR,2017-05-06T14:45:00Z,47.63,17.82,21.0,12.0,170,4,,6.21,29.852362,,,,,,,,,,,BKN,3600,SCT,4000,,,,,VFR,,,,,,,,,,,,METAR,129.0
LHPP 061445Z 23007KT 9999 FEW040 SCT200 20/11 Q1013,LHPP,2017-05-06T14:45:00Z,45.98,18.23,20.0,11.0,230,7,,6.21,29.911417,,,,,,,,,,,FEW,4000,SCT,20000,,,,,VFR,,,,,,,,,,,,METAR,305.0
LHPA 061445Z 22008KT 190V250 9999 SCT033TCU 22/11 Q1011 NOSIG RMK BLU,LHPA,2017-05-06T14:45:00Z,47.35,17.5,22.0,11.0,220,8,,6.21,29.852362,,,,,,TRUE,,,,,SCT,3300,,,,,,,VFR,,,,,,,,,,,,METAR,148.0
LHDC 061445Z 20008KT 9999 FEW026 BKN030 19/13 Q1013 NOSIG,LHDC,2017-05-06T14:45:00Z,47.47,21.62,19.0,13.0,200,8,,6.21,29.911417,,,,,,TRUE,,,,,FEW,2600,BKN,3000,,,,,MVFR,,,,,,,,,,,,METAR,112.0
LHBC 061445Z 15008KT 9999 SCT026 20/13 Q1013,LHBC,2017-05-06T14:45:00Z,46.68,21.17,20.0,13.0,150,8,,6.21,29.911417,,,,,,,,,,,SCT,2600,,,,,,,VFR,,,,,,,,,,,,METAR,86.0
MMPB 061444Z 00000KT 8SM SKC 15/08 A3034 RMK HZY,MMPB,2017-05-06T14:44:00Z,19.17,-98.37,15.0,8.0,0,0,,8.0,30.339567,,,,,,,,,,,SKC,,,,,,,,VFR,,,,,,,,,,,,METAR,2244.0
MMGM 061444Z 00000KT 10SM FEW030 26/22 A2977 RMK 8/400 HZY,MMGM,2017-05-06T14:44:00Z,27.95,-110.92,26.0,22.0,0,0,,10.0,29.769686,,,,,,,,,,,FEW,3000,,,,,,,VFR,,,,,,,,,,,,METAR,20.0
MMMY 061444Z 06004KT 12SM SKC 22/14 A3002 RMK SLP159 51008 992 ISOL SC,MMMY,2017-05-06T14:44:00Z,25.77,-100.08,22.0,14.0,60,4,,12.0,30.02067,1015.9,,,,,,,,,,SKC,,,,,,,,VFR,0.8,,,,,,,,,,,METAR,387.0
MMMA 061444Z 13008KT 8SM SKC 27/14 A3002 RMK SLP167 52009 976,MMMA,2017-05-06T14:44:00Z,25.77,-97.52,27.0,14.0,130,8,,8.0,30.02067,1016.7,,,,,,,,,,SKC,,,,,,,,VFR,0.9,,,,,,,,,,,SPECI,8.0
MMLO 061444Z 20004KT 10SM BKN120 OVC220 19/08 A3030 RMK SLP138 52025 902 8/037,MMLO,2017-05-06T14:44:00Z,21.0,-101.47,19.0,8.0,200,4,,10.0,30.301182,1013.8,,,,,,,,,,BKN,12000,OVC,22000,,,,,VFR,2.5,,,,,,,,,,,METAR,1819.0
MMGL 061444Z 00000KT 6SM SKC 22/10 A3018 RMK SLP081 52017 901 AC HZY,MMGL,2017-05-06T14:44:00Z,20.52,-103.32,22.0,10.0,0,0,,6.0,30.180119,1008.1,,,,,,,,,,SKC,,,,,,,,VFR,1.7,,,,,,,,,,,METAR,1528.0
MMCZ 061443Z 36011KT 8SM BKN250 25/16 A3001 RMK SLP167 52013 940 8/008 SC,MMCZ,2017-05-06T14:43:00Z,20.52,-86.92,25.0,16.0,360,11,,8.0,30.008858,1016.7,,,,,,,,,,BKN,25000,,,,,,,VFR,1.3,,,,,,,,,,,METAR,5.0
RJNG 061443Z 28003KT 9999 R28/1200VP1800U PRFG FEW002 16/15 Q1011 RMK 2ST002 A2986 R1600 FG BANK 1400M E-SE,RJNG,2017-05-06T14:43:00Z,35.37,136.87,16.0,15.0,280,3,,6.21,29.852362,,,,,,,,,,PRFG,FEW,200,,,,,,,VFR,,,,,,,,,,,,METAR,42.0
MMPA 061443Z 18004KT 6SM FEW020 24/19 A3008 RMK SLP171 52015 972 8/100 HZY,MMPA,2017-05-06T14:43:00Z,20.5,-97.47,24.0,19.0,180,4,,6.0,30.079725,1017.1,,,,,,,,,,FEW,2000,,,,,,,VFR,1.5,,,,,,,,,,,METAR,142.0
MMMZ 061443Z 19004KT 14SM FEW240 25/21 A2991 RMK SLP115 52017 915 8/002 ISOL SC,MMMZ,2017-05-06T14:43:00Z,23.17,-106.27,25.0,21.0,190,4,,14.0,29.911417,1011.5,,,,,,,,,,FEW,24000,,,,,,,VFR,1.7,,,,,,,,,,,METAR,10.0
MMCL 061443Z 14008KT 10SM SCT250 26/21 A2989 RMK SLP118 52020 916 8/004 HZY,MMCL,2017-05-06T14:43:00Z,24.77,-107.47,26.0,21.0,140,8,,10.0,29.890747,1011.8,,,,,,,,,,SCT,25000,,,,,,,VFR,2.0,,,,,,,,,,,METAR,39.0
MMTC 061443Z 09009KT 10SM FEW100 23/06 A3006 RMK SLP085 52014 987 8/070,MMTC,2017-05-06T14:43:00Z,25.57,-103.4,23.0,6.0,90,9,,10.0,30.059055,1008.5,,,,,,,,,,FEW,10000,,,,,,,VFR,1.4,,,,,,,,,,,METAR,1124.0
MMCP 061442Z 08006KT 7SM SCT040 26/15 A3001 RMK SLP164 52016 931 8/400,MMCP,2017-05-06T14:42:00Z,19.82,-90.5,26.0,15.0,80,6,,7.0,30.008858,1016.4,,,,,,,,,,SCT,4000,,,,,,,VFR,1.6,,,,,,,,,,,METAR,5.0
MMPS 061442Z 00000KT 4SM HZ FU BKN250 28/21 A3001 RMK SLP/// 5//// 9// 8/002,MMPS,2017-05-06T14:42:00Z,15.87,-97.07,28.0,21.0,0,0,,4.0,30.008858,,,,,,,,,,HZ FU,BKN,25000,,,,,,,MVFR,,,,,,,,,,,,METAR,88.0
MMNL 061442Z 17010KT 10SM SKC 23/15 A3001 RMK SLP145 52012 990,MMNL,2017-05-06T14:42:00Z,27.42,-99.57,23.0,15.0,170,10,,10.0,30.008858,1014.5,,,,,,,,,,SKC,,,,,,,,VFR,1.2,,,,,,,,,,,METAR,148.0
MMCV 061442Z 18007KT 8SM SCT015 22/15 A3003 RMK SLP173 5//// 981 8/500 HZY,MMCV,2017-05-06T14:42:00Z,23.72,-98.97,22.0,15.0,180,7,,8.0,30.029528,1017.3,,,,,,,,,,SCT,1500,,,,,,,VFR,,,,,,,,,,,,METAR,238.0
MMCS 061442Z 09005KT 10SM SCT100 BKN200 22/02 A2991 RMK SLP028 52008 991 8/038,MMCS,2017-05-06T14:42:00Z,31.62,-106.42,22.0,2.0,90,5,,10.0,29.911417,1002.8,,,,,,,,,,SCT,10000,BKN,20000,,,,,VFR,0.8,,,,,,,,,,,METAR,1171.0
MMZO 061442Z 15007KT 10SM SKC 24/21 A2990 RMK SLP/// 5//// 9// HZY,MMZO,2017-05-06T14:42:00Z,19.13,-104.57,24.0,21.0,150,7,,10.0,29.899607,,,,,,,,,,,SKC,,,,,,,,VFR,,,,,,,,,,,,METAR,8.0
MMMM 061442Z 00000KT 4SM SKC 20/11 A3025 RMK SLP105 52012 900 HZY AC,MMMM,2017-05-06T14:42:00Z,19.85,-101.02,20.0,11.0,0,0,,4.0,30.250984,1010.5,,,,,,,,,,SKC,,,,,,,,MVFR,1.2,,,,,,,,,,,METAR,1833.0
MMBT 061441Z 00000KT 7SM SCT180 28/19 A2998 RMK 8/001 HZY,MMBT,2017-05-06T14:41:00Z,15.77,-96.27,28.0,19.0,0,0,,7.0,29.97933,,,,,,,,,,,SCT,18000,,,,,,,VFR,,,,,,,,,,,,METAR,143.0
MMCN 061441Z 12012KT 10SM SCT200 25/16 A2981 RMK SLP095 8/001 HZY,MMCN,2017-05-06T14:41:00Z,27.4,-109.83,25.0,16.0,120,12,,10.0,29.811024,1009.5,,,,,,,,,,SCT,20000,,,,,,,VFR,,,,,,,,,,,,METAR,43.0
KRYT 061441Z AUTO VRB06G16KT 4SM -RA BR SCT012 BKN026 OVC055 11/09 A2934 RMK AO2 RAB1358 P0000 TSNO $,KRYT,2017-05-06T14:41:00Z,39.73,-77.43,11.0,9.0,0,6,16,4.0,29.338583,,,TRUE,TRUE,TRUE,,TRUE,,,-RA BR,SCT,1200,BKN,2600,OVC,5500,,,MVFR,,,,,,0.005,,,,,,METAR,274.0
MMIO 061440Z 03006KT 10SM SKC 22/13 A3018,MMIO,2017-05-06T14:40:00Z,25.55,-100.93,22.0,13.0,30,6,,10.0,30.180119,,,,,,,,,,,SKC,,,,,,,,VFR,,,,,,,,,,,,METAR,1790.0
MMAN 061440Z 12006KT 15SM SKC 21/13 A3006 RMK SLP/// 5//// 9//,MMAN,2017-05-06T14:40:00Z,25.87,-100.23,21.0,13.0,120,6,,15.0,30.059055,,,,,,,,,,,SKC,,,,,,,,VFR,,,,,,,,,,,,METAR,448.0
MMVA 061440Z 00000KT 7SM FEW020 SCT210 25/18 A3007 RMK SLP177 52017 914 8/106,MMVA,2017-05-06T14:40:00Z,18.0,-92.82,25.0,18.0,0,0,,7.0,30.070866,1017.7,,,,,,,,,,FEW,2000,SCT,21000,,,,,VFR,1.7,,,,,,,,,,,METAR,13.0
MMML 061440Z 03010KT 10SM SKC 23/06 A2966 RMK SLP044 5//// 980,MMML,2017-05-06T14:40:00Z,32.62,-115.23,23.0,6.0,30,10,,10.0,29.660433,1004.4,,,,,,,,,,SKC,,,,,,,,VFR,,,,,,,,,,,,METAR,22.0
MMLP 061440Z 21010KT 10SM SCT250 18/11 A2993 RMK SLP133 52016 912 8/008 HZY,MMLP,2017-05-06T14:40:00Z,24.07,-110.37,18.0,11.0,210,10,,10.0,29.929134,1013.3,,,,,,,,,,SCT,25000,,,,,,,VFR,1.6,,,,,,,,,,,METAR,21.0
MMDO 061440Z 17004KT 12SM FEW025 FEW200 18/04 A3021 RMK SLP088 52012 966 8/501 HZY,MMDO,2017-05-06T14:40:00Z,24.12,-104.52,18.0,4.0,170,4,,12.0,30.209646,1008.8,,,,,,,,,,FEW,2500,FEW,20000,,,,,VFR,1.2,,,,,,,,,,,METAR,1857.0
MMPG 061440Z 12006KT 10SM SKC 22/14 A3002,MMPG,2017-05-06T14:40:00Z,28.65,-100.52,22.0,14.0,120,6,,10.0,30.02067,,,,,,,,,,,SKC,,,,,,,,VFR,,,,,,,,,,,,METAR,250.0
MMMV 061440Z 00000KT 10SM FEW100 26/04 A3002 RMK 8/010 HZY,MMMV,2017-05-06T14:40:00Z,26.95,-101.47,26.0,4.0,0,0,,10.0,30.02067,,,,,,,,,,,FEW,10000,,,,,,,VFR,,,,,,,,,,,,METAR,615.0
MMCU 061440Z 00000KT 10SM BKN030 BKN200 21/M02 A3006 RMK SLP088 52027 984 8/108,MMCU,2017-05-06T14:40:00Z,28.7,-105.97,21.0,-2.0,0,0,,10.0,30.059055,1008.8,,,,,,,,,,BKN,3000,BKN,20000,,,,,MVFR,2.7,,,,,,,,,,,METAR,1372.0
MMAS 061440Z 15002KT 8SM SKC 20/06 A3027 RMK HZY,MMAS,2017-05-06T14:40:00Z,21.7,-102.32,20.0,6.0,150,2,,8.0,30.268702,,,,,,,,,,,SKC,,,,,,,,VFR,,,,,,,,,,,,SPECI,1863.0
K1R7 061435Z AUTO 22005KT 10SM CLR 23/11 A3004 RMK AO2,K1R7,2017-05-06T14:35:00Z,31.6,-90.42,23.0,11.0,220,5,,10.0,30.041338,,,TRUE,TRUE,,,,,,,CLR,,,,,,,,VFR,,,,,,,,,,,,SPECI,149.0
WAHS 061430Z 17001KT 7000 SCT014 27/25 Q1013 NOSIG,WAHS,2017-05-06T14:30:00Z,-6.98,110.38,27.0,25.0,170,1,,4.35,29.911417,,,,,,TRUE,,,,,SCT,1400,,,,,,,MVFR,,,,,,,,,,,,METAR,5.0
EISG 061430Z 07011KT 9999 FEW040 16/05 Q1017,EISG,2017-05-06T14:30:00Z,54.28,-8.6,16.0,5.0,70,11,,6.21,30.029528,,,,,,,,,,,FEW,4000,,,,,,,VFR,,,,,,,,,,,,METAR,3.0
VOGO 061430Z VRB03KT 6000 SCT016 SCT090 30/23 Q1009 NOSIG,VOGO,2017-05-06T14:30:00Z,15.38,73.83,30.0,23.0,0,3,,3.73,29.793306,,,,,,TRUE,,,,,SCT,1600,SCT,9000,,,,,MVFR,,,,,,,,,,,,METAR,52.0
VOGO 061430Z VRB03KT 6000 SCT016 SCT090 30/23 Q1009 NOSIG,VOGO,2017-05-06T14:30:00Z,15.38,73.83,30.0,23.0,0,3,,3.73,29.793306,,,,,,TRUE,,,,,SCT,1600,SCT,9000,,,,,MVFR,,,,,,,,,,,,METAR,52.0
VISR 061430Z VRB02KT 6000 FEW025 SCT200 22/11 Q1020 NOSIG,VISR,2017-05-06T14:30:00Z,33.97,74.77,22.0,11.0,0,2,,3.73,30.11811,,,,,,TRUE,,,,,FEW,2500,SCT,20000,,,,,MVFR,,,,,,,,,,,,METAR,1666.0
ETGG 061420Z 03009KT 8000 FEW015 BKN025 13/08 Q1016 BLU,ETGG,2017-05-06T14:20:00Z,54.83,9.5,13.0,8.0,30,9,,4.97,30.0,,,,,,,,,,,FEW,1500,BKN,2500,,,,,MVFR,,,,,,,,,,,,METAR,33.0
ETWM 061420Z AUTO 08005KT 9999 // ////// 15/07 Q1012 ///,ETWM,2017-05-06T14:20:00Z,52.72,7.33,15.0,7.0,80,5,,6.21,29.88189,,,TRUE,,,,,,,,,,,,,,,,,,,,,,,,,,,,SPECI,21.0
ETSH 061420Z 06009KT 9999 FEW028 BKN080 17/10 Q1012 BLU,ETSH,2017-05-06T14:20:00Z,51.77,13.17,17.0,10.0,60,9,,6.21,29.88189,,,,,,,,,,,FEW,2800,BKN,8000,,,,,VFR,,,,,,,,,,,,METAR,79.0
ETNW 061420Z 07014KT 9999 FEW017 BKN045 14/10 Q1013 BLU,ETNW,2017-05-06T14:20:00Z,52.45,9.42,14.0,10.0,70,14,,6.21,29.911417,,,,,,,,,,,FEW,1700,BKN,4500,,,,,VFR,,,,,,,,,,,,METAR,70.0
ETNT 061420Z AUTO 06012KT 9000 // ////// 13/08 Q1014 ///,ETNT,2017-05-06T14:20:00Z,53.53,7.67,13.0,8.0,60,12,,5.59,29.940945,,,TRUE,,,,,,,,,,,,,,,,,,,,,,,,,,,,SPECI,12.0
ETNS 061420Z AUTO 07005KT //// // ////// 12/07 Q1015 ///,ETNS,2017-05-06T14:20:00Z,54.47,9.52,12.0,7.0,70,5,,,29.970472,,,TRUE,,,,,,,,,,,,,,,,,,,,,,,,,,,,SPECI,25.0
ETNH 061420Z 03006KT 9999 BKN022 14/07 Q1015 WHT,ETNH,2017-05-06T14:20:00Z,54.32,9.55,14.0,7.0,30,6,,6.21,29.970472,,,,,,,,,,,BKN,2200,,,,,,,MVFR,,,,,,,,,,,,METAR,17.0
ETMN 061420Z 06013KT 9999 FEW018 BKN028 14/08 Q1015 BLU,ETMN,2017-05-06T14:20:00Z,53.77,8.67,14.0,8.0,60,13,,6.21,29.970472,,,,,,,,,,,FEW,1800,BKN,2800,,,,,MVFR,,,,,,,,,,,,METAR,31.0
ETML 061420Z AUTO 08003KT //// // ////// 09/07 Q1015 ///,ETML,2017-05-06T14:20:00Z,,,9.0,7.0,80,3,,,29.970472,,,TRUE,,,,,,,,,,,,,,,,,,,,,,,,,,,,METAR,
ETHS 061420Z 10007KT 9999 BKN015 13/10 Q1014 WHT,ETHS,2017-05-06T14:20:00Z,52.92,10.18,13.0,10.0,100,7,,6.21,29.940945,,,,,,,,,,,BKN,1500,,,,,,,MVFR,,,,,,,,,,,,METAR,88.0
ETHF 061420Z 08005KT 9999 SCT050 SCT270 18/06 Q1010 BLU+,ETHF,2017-05-06T14:20:00Z,51.12,9.27,18.0,6.0,80,5,,6.21,29.822834,,,,,,,,,,,SCT,5000,SCT,27000,,,,,VFR,,,,,,,,,,,,METAR,181.0
ETHE 061420Z AUTO 07012KT //// // ////// 17/07 Q1011 ///,ETHE,2017-05-06T14:20:00Z,52.28,7.37,17.0,7.0,70,12,,,29.852362,,,TRUE,,,,,,,,,,,,,,,,,,,,,,,,,,,,SPECI,49.0
ETHC 061420Z 06010KT 8000 BKN015 13/09 Q1013 WHT,ETHC,2017-05-06T14:20:00Z,52.6,10.02,13.0,9.0,60,10,,4.97,29.911417,,,,,,,,,,,BKN,1500,,,,,,,MVFR,,,,,,,,,,,,METAR,52.0
ETHB 061420Z AUTO 09017KT 8000 // ////// 16/10 Q1012 ///,ETHB,2017-05-06T14:20:00Z,52.27,9.07,16.0,10.0,90,17,,4.97,29.88189,,,TRUE,,,,,,,,,,,,,,,,,,,,,,,,,,,,SPECI,78.0
ETSN 061420Z 06006KT 9999 FEW060 BKN220 20/07 Q1007 BLU+,ETSN,2017-05-06T14:20:00Z,48.72,11.22,20.0,7.0,60,6,,6.21,29.734253,,,,,,,,,,,FEW,6000,BKN,22000,,,,,VFR,,,,,,,,,,,,METAR,387.0
ETSL 061420Z AUTO 02005KT 9999 // ////// 19/06 Q1007 ///,ETSL,2017-05-06T14:20:00Z,48.17,10.87,19.0,6.0,20,5,,6.21,29.734253,,,TRUE,,,,,,,,,,,,,,,,,,,,,,,,,,,,SPECI,562.0
ETSI 061420Z AUTO 06008KT 5000 // ////// 20/07 Q1007 ///,ETSI,2017-05-06T14:20:00Z,48.72,11.52,20.0,7.0,60,8,,3.11,29.734253,,,TRUE,,,,,,,,,,,,,,,,,,,,,,,,,,,,METAR,370.0
ETSB 061420Z AUTO 12005KT 9999 // ////// 16/06 Q1009 ///,ETSB,2017-05-06T14:20:00Z,50.17,7.07,16.0,6.0,120,5,,6.21,29.793306,,,TRUE,,,,,,,,,,,,,,,,,,,,,,,,,,,,SPECI,486.0
ETSA 061420Z 02011KT 9999 SCT090 BKN140 19/07 Q1007 BLU FCST CANCEL,ETSA,2017-05-06T14:20:00Z,48.07,10.9,19.0,7.0,20,11,,6.21,29.734253,,,,,,,,,,,SCT,9000,BKN,14000,,,,,VFR,,,,,,,,,,,,SPECI,628.0
ETNN 061420Z AUTO 11005KT 9999 // ////// 20/07 Q1008 ///,ETNN,2017-05-06T14:20:00Z,50.82,6.67,20.0,7.0,110,5,,6.21,29.763779,,,TRUE,,,,,,,,,,,,,,,,,,,,,,,,,,,,SPECI,135.0
ETHN 061420Z 09006KT 9999 FEW040 SCT160 BKN190 19/07 Q1008 BLU,ETHN,2017-05-06T14:20:00Z,49.38,9.97,19.0,7.0,90,6,,6.21,29.763779,,,,,,,,,,,FEW,4000,SCT,16000,BKN,19000,,,VFR,,,,,,,,,,,,METAR,473.0
ETHL 061420Z 36004KT 9999 FEW050 BKN090 17/07 Q1008 BLU,ETHL,2017-05-06T14:20:00Z,48.22,9.92,17.0,7.0,360,4,,6.21,29.763779,,,,,,,,,,,FEW,5000,BKN,9000,,,,,VFR,,,,,,,,,,,,METAR,549.0
ETHA 061420Z AUTO 07008KT //// // ////// 18/02 Q1007 ///,ETHA,2017-05-06T14:20:00Z,47.82,10.87,18.0,2.0,70,8,,,29.734253,,,TRUE,,,,,,,,,,,,,,,,,,,,,,,,,,,,SPECI,760.0
K2I0 061415Z AUTO 04008KT 10SM -RA SCT070 SCT080 OVC100 11/10 A2977 RMK AO2 T01110097,K2I0,2017-05-06T14:15:00Z,37.35,-87.4,11.1,9.7,40,8,,10.0,29.769686,,,TRUE,TRUE,,,,,,-RA,SCT,7000,SCT,8000,OVC,10000,,,VFR,,,,,,,,,,,,METAR,134.0
K4M9 061415Z AUTO 27016G21KT 10SM CLR 19/10 A2985 RMK AO2,K4M9,2017-05-06T14:15:00Z,36.4,-90.65,19.0,10.0,270,16,21,10.0,29.84941,,,TRUE,TRUE,,,,,,,CLR,,,,,,,,VFR,,,,,,,,,,,,METAR,90.0
